################################################################################
# Query made at 04/14/2022 06:22:54 UTC
# Country like Zamb*
# Time interval: from 03/01/2014 05:30  to 03/31/2014 05:30  UTC
################################################################################

################################################################################
#  SYNOPS from 67403, Kawambwa (Zambia) | 09-48S | 029-05E | 1323 m
################################################################################
201403310300 AAXX 31034 67403 NIL=
201403310000 AAXX 31004 67403 NIL=
201403302100 AAXX 30214 67403 NIL=
201403301800 AAXX 30184 67403 NIL=
201403301500 AAXX 30154 67403 NIL=
201403301200 AAXX 30124 67403 NIL=
201403300900 AAXX 30094 67403 NIL=
201403300600 AAXX 30064 67403 NIL=
201403300000 AAXX 30004 67403 NIL=
201403292100 AAXX 29214 67403 NIL=
201403291800 AAXX 29184 67403 NIL=
201403291500 AAXX 29154 67403 NIL=
201403291200 AAXX 29124 67403 NIL=
201403290900 AAXX 29094 67403 NIL=
201403290600 AAXX 29064 67403 NIL=
201403290000 AAXX 29004 67403 NIL=
201403282100 AAXX 28214 67403 NIL=
201403281800 AAXX 28184 67403 NIL=
201403281500 AAXX 28150 67403 NIL=
201403281200 AAXX 28124 67403 NIL=
201403280900 AAXX 28094 67403 NIL=
201403280600 AAXX 28064 67403 11575 80000 10174 20172 48509 60164 76266 8257/
                   333 10268 20/// 58010 87462=
201403280300 AAXX 28034 67403 NIL=
201403280000 AAXX 28004 67403 NIL=
201403272100 AAXX 27214 67403 NIL=
201403271500 AAXX 27154 67403 NIL=
201403271200 AAXX 27124 67403 NIL=
201403270900 AAXX 27094 67403 NIL=
201403270600 AAXX 27064 67403 12580 70000 10204 20189 48501 60044 82531
                   333 10280 20/// 59001 82620 85362 82080=
201403270300 AAXX 27034 67403 NIL=
201403270000 AAXX 27004 67403 NIL=
201403262100 AAXX 26214 67403 NIL=
201403261500 AAXX 26154 67403 NIL=
201403261200 AAXX 26124 67403 NIL=
201403260900 AAXX 26094 67403 NIL=
201403260600 AAXX 26064 67403 NIL=
201403260300 AAXX 26034 67403 NIL=
201403260000 AAXX 26004 67403 NIL=
201403252100 AAXX 25214 67403 NIL=
201403251800 AAXX 25184 67403 NIL=
201403251500 AAXX 25154 67403 NIL=
201403251200 AAXX 25124 67403 NIL=
201403250900 AAXX 25094 67403 NIL=
201403250600 AAXX 25064 67403 12980 60000 10208 20184 48511 60014 82031
                   333 10290 20/// 58004 82362 83080=
201403241800 AAXX 24184 67403 NIL=
201403241500 AAXX 24154 67403 NIL=
201403241200 AAXX 24124 67403 NIL=
201403240900 AAXX 24094 67403 NIL=
201403240600 AAXX 24064 67403 NIL=
201403240300 AAXX 24034 67403 NIL=
201403240000 AAXX 24004 67403 NIL=
201403232100 AAXX 23214 67403 NIL=
201403231800 AAXX 23184 67403 NIL=
201403231500 AAXX 23154 67403 NIL=
201403231200 AAXX 23124 67403 NIL=
201403230600 AAXX 23064 67403 NIL=
201403230300 AAXX 23034 67403 NIL=
201403230000 AAXX 23004 67403 NIL=
201403222100 AAXX 22214 67403 NIL=
201403221800 AAXX 22184 67403 NIL=
201403221500 AAXX 22154 67403 NIL=
201403221200 AAXX 22124 67403 NIL=
201403220900 AAXX 22094 67403 NIL=
201403220600 AAXX 22064 67403 NIL=
201403220300 AAXX 22034 67403 NIL=
201403220000 AAXX 22004 67403 NIL=
201403212100 AAXX 21214 67403 NIL=
201403211800 AAXX 21184 67403 NIL=
201403211200 AAXX 21124 67403 NIL=
201403210900 AAXX 21094 67403 NIL=
201403210600 AAXX 21064 67403 12480 80902 10186 20179 48520 60104 8257/
                   333 10285 20/// 58005 82618 87462=
201403210300 AAXX 21034 67403 NIL=
201403210000 AAXX 21004 67403 NIL=
201403202100 AAXX 20214 67403 NIL=
201403201800 AAXX 20184 67403 NIL=
201403201500 AAXX 20154 67403 NIL=
201403201200 AAXX 20124 67403 NIL=
201403200900 AAXX 20094 67403 NIL=
201403200600 AAXX 20064 67403 12480 70000 10196 20185 48510 60104 8357/
                   333 10287 20/// 58006 83620 86462=
201403200300 AAXX 20034 67403 NIL=
201403200000 AAXX 20004 67403 NIL=
201403192100 AAXX 19214 67403 NIL=
201403191800 AAXX 19184 67403 NIL=
201403191200 AAXX 19124 67403 NIL=
201403190900 AAXX 19094 67403 NIL=
201403190600 AAXX 19064 67403 12980 50000 10210 20180 48511 60334 83032
                   333 10306 20/// 59010 83362 83080=
201403181800 AAXX 18184 67403 NIL=
201403181500 AAXX 18154 67403 NIL=
201403181200 AAXX 18124 67403 NIL=
201403180900 AAXX 18094 67403 NIL=
201403180600 AAXX 18064 67403 NIL=
201403180000 AAXX 18004 67403 NIL=
201403172100 AAXX 17214 67403 NIL=
201403171800 AAXX 17184 67403 NIL=
201403171500 AAXX 17154 67403 NIL=
201403171200 AAXX 17124 67403 NIL=
201403170900 AAXX 17094 67403 NIL=
201403170600 AAXX 17064 67403 12980 31202 10205 20180 48511 60064 80001
                   333 10267 20/// 59011 83080=
201403161200 AAXX 16124 67403 NIL=
201403160900 AAXX 16094 67403 NIL=
201403160600 AAXX 16064 67403 NIL=
201403160300 AAXX 16034 67403 NIL=
201403160000 AAXX 16004 67403 NIL=
201403152100 AAXX 15214 67403 NIL=
201403151800 AAXX 15184 67403 NIL=
201403151500 AAXX 15154 67403 NIL=
201403151200 AAXX 15124 67403 NIL=
201403150900 AAXX 15094 67403 NIL=
201403150600 AAXX 15064 67403 NIL=
201403150300 AAXX 15034 67403 NIL=
201403141800 AAXX 14184 67403 NIL=
201403141500 AAXX 14154 67403 NIL=
201403141200 AAXX 14124 67403 NIL=
201403140900 AAXX 14094 67403 NIL=
201403140600 AAXX 14064 67403 12580 70000 10190 20183 48520 60134 82532
                   333 10275 20/// 59010 82620 83362 84080=
201403140300 AAXX 14034 67403 NIL=
201403140000 AAXX 14004 67403 NIL=
201403132100 AAXX 13214 67403 NIL=
201403131800 AAXX 13184 67403 NIL=
201403131200 AAXX 13124 67403 NIL=
201403130900 AAXX 13094 67403 NIL=
201403130600 AAXX 13064 67403 12580 70000 10183 20178 48529 8257/
                   333 10225 20/// 58003 82620 86462=
201403121800 AAXX 12184 67403 NIL=
201403121200 AAXX 12124 67403 NIL=
201403120900 AAXX 12094 67403 NIL=
201403120600 AAXX 12064 67403 NIL=
201403120300 AAXX 12034 67403 NIL=
201403120000 AAXX 12004 67403 NIL=
201403112100 AAXX 11214 67403 NIL=
201403111800 AAXX 11184 67403 NIL=
201403111500 AAXX 11154 67403 NIL=
201403111200 AAXX 11124 67403 NIL=
201403110600 AAXX 11064 67403 12580 80000 10190 20182 48520 60364 8357/
                   333 10290 20/// 58029 83620 87462=
201403102100 AAXX 10214 67403 NIL=
201403101800 AAXX 10184 67403 NIL=
201403101500 AAXX 10154 67403 NIL=
201403101200 AAXX 10124 67403 NIL=
201403100900 AAXX 10094 67403 NIL=
201403100600 AAXX 10064 67403 12980 60000 10212 20187 48492 60384 83032
                   333 10307 20/// 83362 84080=
201403100300 AAXX 10034 67403 NIL=
201403092100 AAXX 09214 67403 NIL=
201403091800 AAXX 09184 67403 NIL=
201403091500 AAXX 09154 67403 NIL=
201403091200 AAXX 09124 67403 NIL=
201403090900 AAXX 09094 67403 NIL=
201403090600 AAXX 09064 67403 NIL=
201403090300 AAXX 09034 67403 NIL=
201403090000 AAXX 09004 67403 NIL=
201403081800 AAXX 08184 67403 NIL=
201403081500 AAXX 08154 67403 NIL=
201403081200 AAXX 08124 67403 NIL=
201403080900 AAXX 08094 67403 NIL=
201403080600 AAXX 08064 67403 NIL=
201403080300 AAXX 08034 67403 NIL=
201403080000 AAXX 08004 67403 NIL=
201403072100 AAXX 07214 67403 NIL=
201403071500 AAXX 07154 67403 NIL=
201403071200 AAXX 07124 67403 NIL=
201403070900 AAXX 07094 67403 NIL=
201403070600 AAXX 07064 67403 12980 70000 10190 20175 48510 60054 8707/
                   333 10280 20/// 58010 87362=
201403061800 AAXX 06184 67403 NIL=
201403061500 AAXX 06154 67403 NIL=
201403061200 AAXX 06124 67403 NIL=
201403060900 AAXX 06094 67403 NIL=
201403060600 AAXX 06064 67403 NIL=
201403052100 AAXX 05214 67403 NIL=
201403051800 AAXX 05184 67403 NIL=
201403051500 AAXX 05154 67403 NIL=
201403051200 AAXX 05124 67403 NIL=
201403050900 AAXX 05094 67403 NIL=
201403050600 AAXX 05064 67403 NIL=
201403050300 AAXX 05034 67403 NIL=
201403050000 AAXX 05004 67403 NIL=
201403042100 AAXX 04214 67403 NIL=
201403041800 AAXX 04184 67403 NIL=
201403041500 AAXX 04154 67403 NIL=
201403041200 AAXX 04124 67403 NIL=
201403040900 AAXX 04094 67403 NIL=
201403040600 AAXX 04064 67403 NIL=
201403040300 AAXX 04034 67403 NIL=
201403040000 AAXX 04004 67403 NIL=
201403031800 AAXX 03184 67403 NIL=
201403031500 AAXX 03154 67403 NIL=
201403031200 AAXX 03124 67403 NIL=
201403030900 AAXX 03094 67403 NIL=
201403030600 AAXX 03064 67403 NIL=
201403030300 AAXX 03034 67403 NIL=
201403030000 AAXX 03004 67403 NIL=
201403022100 AAXX 02214 67403 NIL=
201403021800 AAXX 02184 67403 NIL=
201403021500 AAXX 02154 67403 NIL=
201403021200 AAXX 02124 67403 NIL=
201403020900 AAXX 02094 67403 NIL=
201403020600 AAXX 02064 67403 NIL=
201403020300 AAXX 02034 67403 NIL=
201403020000 AAXX 02004 67403 NIL=
201403012100 AAXX 01214 67403 NIL=
201403011800 AAXX 01184 67403 NIL=
201403011500 AAXX 01154 67403 NIL=
201403011200 AAXX 01121 67403 NIL=
201403010900 AAXX 01094 67403 NIL=
201403010600 AAXX 01064 67403 NIL=

################################################################################
#  SYNOPS from 67413, Mbala (Zambia) | 08-51S | 031-20E | 1673 m
################################################################################
201403310300 AAXX 31034 67413 NIL=
201403310000 AAXX 31004 67413 NIL=
201403302100 AAXX 30214 67413 NIL=
201403301800 AAXX 30184 67413 NIL=
201403301500 AAXX 30154 67413 NIL=
201403301200 AAXX 30124 67413 NIL=
201403300900 AAXX 30094 67413 NIL=
201403300600 AAXX 30064 67413 NIL=
201403300000 AAXX 30004 67413 NIL=
201403292100 AAXX 29214 67413 NIL=
201403291800 AAXX 29184 67413 NIL=
201403291500 AAXX 29154 67413 NIL=
201403291200 AAXX 29124 67413 NIL=
201403290900 AAXX 29094 67413 NIL=
201403290600 AAXX 29064 67413 NIL=
201403290000 AAXX 29004 67413 NIL=
201403282100 AAXX 28214 67413 NIL=
201403281800 AAXX 28184 67413 NIL=
201403281500 AAXX 28150 67413 NIL=
201403281200 AAXX 28124 67413 NIL=
201403280900 AAXX 28094 67413 NIL=
201403280600 AAXX 28064 67413 NIL=
201403280300 AAXX 28034 67413 NIL=
201403280000 AAXX 28004 67413 NIL=
201403272100 AAXX 27214 67413 NIL=
201403271500 AAXX 27154 67413 NIL=
201403271200 AAXX 27124 67413 NIL=
201403270900 AAXX 27094 67413 NIL=
201403270600 AAXX 27064 67413 12980 70000 10185 20169 48530 60214 85078
                   333 10250 20/// 58003 85359 87279 91023=
201403270300 AAXX 27034 67413 NIL=
201403270000 AAXX 27004 67413 NIL=
201403262100 AAXX 26214 67413 NIL=
201403261500 AAXX 26154 67413 NIL=
201403261200 AAXX 26124 67413 NIL=
201403260900 AAXX 26094 67413 NIL=
201403260600 AAXX 26064 67413 32480 60000 10190 20166 48527 86800
                   333 10270 20/// 5//// 85612 83815 91022=
201403260300 AAXX 26034 67413 NIL=
201403260000 AAXX 26004 67413 NIL=
201403252100 AAXX 25214 67413 NIL=
201403251800 AAXX 25184 67413 NIL=
201403251500 AAXX 25154 67413 NIL=
201403251200 AAXX 25124 67413 NIL=
201403250900 AAXX 25094 67413 NIL=
201403250600 AAXX 25064 67413 12480 61004 10190 20166 48/// 60104 83531
                   333 10270 20/// 5//// 83510 82360 82080=
201403241800 AAXX 24184 67413 NIL=
201403241500 AAXX 24154 67413 NIL=
201403241200 AAXX 24124 67413 NIL=
201403240900 AAXX 24094 67413 NIL=
201403240600 AAXX 24064 67413 32480 51012 10190 20159 48/// 85500
                   333 10275 20/// 5//// 85612=
201403240300 AAXX 24034 67413 NIL=
201403240000 AAXX 24004 67413 NIL=
201403232100 AAXX 23214 67413 NIL=
201403231800 AAXX 23184 67413 NIL=
201403231500 AAXX 23154 67413 NIL=
201403231200 AAXX 23124 67413 NIL=
201403230600 AAXX 23064 67413 NIL=
201403230300 AAXX 23034 67413 NIL=
201403230000 AAXX 23004 67413 NIL=
201403222100 AAXX 22214 67413 NIL=
201403221800 AAXX 22184 67413 NIL=
201403221500 AAXX 22154 67413 NIL=
201403221200 AAXX 22124 67413 NIL=
201403220900 AAXX 22094 67413 NIL=
201403220600 AAXX 22064 67413 NIL=
201403220300 AAXX 22034 67413 NIL=
201403220000 AAXX 22004 67413 NIL=
201403212100 AAXX 21214 67413 NIL=
201403211800 AAXX 21184 67413 NIL=
201403211200 AAXX 21124 67413 NIL=
201403210900 AAXX 21094 67413 NIL=
201403210600 AAXX 21064 67413 12980 80000 10175 20159 48/// 60024 8807/
                   333 10215 20/// 5//// 88459=
201403210300 AAXX 21034 67413 NIL=
201403210000 AAXX 21004 67413 NIL=
201403202100 AAXX 20214 67413 NIL=
201403201800 AAXX 20184 67413 NIL=
201403201500 AAXX 20154 67413 NIL=
201403201200 AAXX 20124 67413 NIL=
201403200900 AAXX 20094 67413 NIL=
201403200600 AAXX 20064 67413 12480 70000 10185 20178 48/// 60054 72582 878//
                   333 10250 20/// 5//// 85610 84812=
201403200300 AAXX 20034 67413 NIL=
201403200000 AAXX 20004 67413 NIL=
201403192100 AAXX 19214 67413 NIL=
201403191800 AAXX 19184 67413 NIL=
201403191200 AAXX 19124 67413 NIL=
201403190900 AAXX 19094 67413 NIL=
201403190600 AAXX 19064 67413 12980 30000 10205 20166 48533 60134 81031
                   333 10250 20/// 58001 81360 83080 91023=
201403181800 AAXX 18184 67413 NIL=
201403181500 AAXX 18154 67413 NIL=
201403181200 AAXX 18124 67413 NIL=
201403180900 AAXX 18094 67413 NIL=
201403180600 AAXX 18064 67413 32980 40906 10210 20171 48532 81031
                   333 10275 20/// 59007 81360 84080 91023=
201403180000 AAXX 18004 67413 NIL=
201403172100 AAXX 17214 67413 NIL=
201403171800 AAXX 17184 67413 NIL=
201403171500 AAXX 17154 67413 NIL=
201403171200 AAXX 17124 67413 NIL=
201403170900 AAXX 17094 67413 NIL=
201403170600 AAXX 17064 67413 12480 41008 10195 20164 48540 69904 83501
                   333 10235 20/// 59013 83612 84080 91024=
201403161200 AAXX 16124 67413 NIL=
201403160900 AAXX 16094 67413 NIL=
201403160600 AAXX 16064 67413 NIL=
201403160300 AAXX 16034 67413 NIL=
201403160000 AAXX 16004 67413 NIL=
201403152100 AAXX 15214 67413 NIL=
201403151800 AAXX 15184 67413 NIL=
201403151500 AAXX 15154 67413 NIL=
201403151200 AAXX 15124 67413 NIL=
201403150900 AAXX 15094 67413 NIL=
201403150600 AAXX 15064 67413 NIL=
201403150300 AAXX 15034 67413 NIL=
201403141800 AAXX 14184 67413 NIL=
201403141500 AAXX 14154 67413 NIL=
201403141200 AAXX 14124 67413 NIL=
201403140900 AAXX 14094 67413 NIL=
201403140600 AAXX 14064 67413 12480 70000 10180 20164 48546 60014 83508
                   333 10245 20/// 59010 83610 87280
                   555 00/// 20004 91024=
201403140300 AAXX 14034 67413 NIL=
201403140000 AAXX 14004 67413 NIL=
201403132100 AAXX 13214 67413 NIL=
201403131800 AAXX 13184 67413 NIL=
201403131200 AAXX 13124 67413 NIL=
201403130900 AAXX 13094 67413 NIL=
201403130600 AAXX 13064 67413 NIL=
201403121800 AAXX 12184 67413 NIL=
201403121200 AAXX 12124 67413 NIL=
201403120900 AAXX 12094 67413 NIL=
201403120600 AAXX 12064 67413 NIL=
201403120300 AAXX 12034 67413 NIL=
201403120000 AAXX 12004 67413 NIL=
201403112100 AAXX 11214 67413 NIL=
201403111800 AAXX 11184 67413 NIL=
201403111500 AAXX 11154 67413 NIL=
201403111200 AAXX 11124 67413 NIL=
201403110600 AAXX 11064 67413 11310 80000 10160 20160 48545 60564 76166 887//
                   333 10255 20/// 58029 88703 91024=
201403102100 AAXX 10214 67413 NIL=
201403101800 AAXX 10184 67413 NIL=
201403101500 AAXX 10154 67413 NIL=
201403101200 AAXX 10124 67413 NIL=
201403100900 AAXX 10094 67413 42580 60912 10245 20160 48510 84230
                   333 59005 84825 85369 91021=
201403100600 AAXX 10064 67413 12980 50910 10200 20161 48513 60044 85031
                   333 10270 20/// 59010 85359 83080 91021=
201403100300 AAXX 10034 67413 NIL=
201403092100 AAXX 09214 67413 NIL=
201403091800 AAXX 09184 67413 NIL=
201403091500 AAXX 09154 67413 NIL=
201403091200 AAXX 09124 67413 NIL=
201403090900 AAXX 09094 67413 NIL=
201403090600 AAXX 09064 67413 NIL=
201403090300 AAXX 09034 67413 NIL=
201403090000 AAXX 09004 67413 NIL=
201403081800 AAXX 08184 67413 NIL=
201403081500 AAXX 08154 67413 NIL=
201403081200 AAXX 08124 67413 NIL=
201403080900 AAXX 08094 67413 NIL=
201403080600 AAXX 08064 67413 NIL=
201403080300 AAXX 08034 67413 NIL=
201403080000 AAXX 08004 67413 NIL=
201403072100 AAXX 07214 67413 NIL=
201403071500 AAXX 07154 67413 NIL=
201403071200 AAXX 07124 67413 NIL=
201403070900 AAXX 07094 67413 NIL=
201403070600 AAXX 07064 67413 12580 70000 10190 20167 48538 69944 8707/
                   333 10/// 20/// 58013 87359 91024=
201403061800 AAXX 06184 67413 NIL=
201403061500 AAXX 06154 67413 NIL=
201403061200 AAXX 06124 67413 NIL=
201403060900 AAXX 06094 67413 NIL=
201403060600 AAXX 06064 67413 12980 70000 10190 20150 48525 85032
                   333 10275 20/// 58004 85359 84080 91022=
201403052100 AAXX 05214 67413 NIL=
201403051800 AAXX 05184 67413 NIL=
201403051500 AAXX 05154 67413 NIL=
201403051200 AAXX 05124 67413 NIL=
201403050900 AAXX 05094 67413 NIL=
201403050600 AAXX 05064 67413 12980 20910 10200 20160 48528 69904 82031
                   333 10275 20/// 59003 82360 81080 91023=
201403050300 AAXX 05034 67413 NIL=
201403050000 AAXX 05004 67413 NIL=
201403042100 AAXX 04214 67413 NIL=
201403041800 AAXX 04184 67413 NIL=
201403041500 AAXX 04154 67413 NIL=
201403041200 AAXX 04124 67413 NIL=
201403040900 AAXX 04094 67413 NIL=
201403040600 AAXX 04064 67413 32980 30906 10205 20166 48531 82031
                   333 10280 20/// 58000 82360 82080 91023=
201403040300 AAXX 04034 67413 NIL=
201403040000 AAXX 04004 67413 NIL=
201403031800 AAXX 03184 67413 NIL=
201403031500 AAXX 03154 67413 NIL=
201403031200 AAXX 03124 67413 NIL=
201403030900 AAXX 03094 67413 NIL=
201403030600 AAXX 03064 67413 32980 20910 10210 20155 48531 80001
                   333 10270 20/// 59001 82080 91023=
201403030300 AAXX 03034 67413 NIL=
201403030000 AAXX 03004 67413 NIL=
201403022100 AAXX 02214 67413 NIL=
201403021800 AAXX 02184 67413 NIL=
201403021500 AAXX 02154 67413 NIL=
201403021200 AAXX 02124 67413 NIL=
201403020900 AAXX 02094 67413 NIL=
201403020600 AAXX 02064 67413 NIL=
201403020300 AAXX 02034 67413 NIL=
201403020000 AAXX 02004 67413 NIL=
201403012100 AAXX 01214 67413 NIL=
201403011800 AAXX 01184 67413 NIL=
201403011500 AAXX 01154 67413 NIL=
201403011200 AAXX 01121 67413 NIL=
201403010900 AAXX 01094 67413 NIL=
201403010600 AAXX 01064 67413 NIL=

################################################################################
#  SYNOPS from 67441, Mwinilunga (Zambia) | 11-45S | 024-26E | 1361 m
################################################################################
201403310300 AAXX 31034 67441 NIL=
201403310000 AAXX 31004 67441 NIL=
201403302100 AAXX 30214 67441 NIL=
201403301800 AAXX 30184 67441 NIL=
201403301500 AAXX 30154 67441 NIL=
201403301200 AAXX 30124 67441 NIL=
201403300900 AAXX 30094 67441 NIL=
201403300600 AAXX 30064 67441 NIL=
201403300000 AAXX 30004 67441 NIL=
201403292100 AAXX 29214 67441 NIL=
201403291800 AAXX 29184 67441 NIL=
201403291500 AAXX 29154 67441 NIL=
201403291200 AAXX 29124 67441 NIL=
201403290900 AAXX 29094 67441 NIL=
201403290600 AAXX 29064 67441 NIL=
201403290000 AAXX 29004 67441 NIL=
201403282100 AAXX 28214 67441 NIL=
201403281800 AAXX 28184 67441 NIL=
201403281500 AAXX 28150 67441 NIL=
201403281200 AAXX 28124 67441 NIL=
201403280900 AAXX 28094 67441 NIL=
201403280600 AAXX 28064 67441 NIL=
201403280300 AAXX 28034 67441 NIL=
201403280000 AAXX 28004 67441 NIL=
201403272100 AAXX 27214 67441 NIL=
201403271500 AAXX 27154 67441 NIL=
201403271200 AAXX 27124 67441 NIL=
201403270900 AAXX 27094 67441 NIL=
201403270600 AAXX 27064 67441 11980 333// 10183 20175 48543 69904 72844 83030
                   333 10282 20/// 58000 83360=
201403270300 AAXX 27034 67441 NIL=
201403270000 AAXX 27004 67441 NIL=
201403262100 AAXX 26214 67441 NIL=
201403261500 AAXX 26154 67441 NIL=
201403261200 AAXX 26124 67441 NIL=
201403260900 AAXX 26094 67441 NIL=
201403260600 AAXX 26064 67441 32980 20000 10175 20167 48544 82030
                   333 10290 20/// 59005 82360=
201403260300 AAXX 26034 67441 NIL=
201403260000 AAXX 26004 67441 NIL=
201403252100 AAXX 25214 67441 NIL=
201403251800 AAXX 25184 67441 NIL=
201403251500 AAXX 25154 67441 NIL=
201403251200 AAXX 25124 67441 NIL=
201403250900 AAXX 25094 67441 NIL=
201403250600 AAXX 25064 67441 11980 40000 10190 20183 48548 60334 72844 84034
                   333 10300 20/// 59009 84360 81080=
201403241800 AAXX 24184 67441 NIL=
201403241500 AAXX 24154 67441 NIL=
201403241200 AAXX 24124 67441 NIL=
201403240900 AAXX 24094 67441 NIL=
201403240600 AAXX 24064 67441 32980 527// 10180 20177 48557 85030
                   333 10295 20/// 58006 85360=
201403240300 AAXX 24034 67441 NIL=
201403240000 AAXX 24004 67441 NIL=
201403232100 AAXX 23214 67441 NIL=
201403231800 AAXX 23184 67441 NIL=
201403231500 AAXX 23154 67441 NIL=
201403231200 AAXX 23124 67441 NIL=
201403230600 AAXX 23064 67441 NIL=
201403230300 AAXX 23034 67441 NIL=
201403230000 AAXX 23004 67441 NIL=
201403222100 AAXX 22214 67441 NIL=
201403221800 AAXX 22184 67441 NIL=
201403221500 AAXX 22154 67441 NIL=
201403221200 AAXX 22124 67441 NIL=
201403220900 AAXX 22094 67441 NIL=
201403220600 AAXX 22064 67441 NIL=
201403220300 AAXX 22034 67441 NIL=
201403220000 AAXX 22004 67441 NIL=
201403212100 AAXX 21214 67441 NIL=
201403211800 AAXX 21184 67441 NIL=
201403211200 AAXX 21124 67441 NIL=
201403210900 AAXX 21094 67441 NIL=
201403210600 AAXX 21064 67441 32480 70000 10196 20187 48552 8313/
                   333 10265 20/// 59010 83815 87360=
201403210300 AAXX 21034 67441 NIL=
201403210000 AAXX 21004 67441 NIL=
201403202100 AAXX 20214 67441 NIL=
201403201800 AAXX 20184 67441 NIL=
201403201500 AAXX 20154 67441 NIL=
201403201200 AAXX 20124 67441 NIL=
201403200900 AAXX 20094 67441 NIL=
201403200600 AAXX 20064 67441 11970 80000 10180 20175 48557 60124 72166 8707/
                   333 10265 20/// 58007 88360=
201403200300 AAXX 20034 67441 NIL=
201403200000 AAXX 20004 67441 NIL=
201403192100 AAXX 19214 67441 NIL=
201403191800 AAXX 19184 67441 NIL=
201403191200 AAXX 19124 67441 NIL=
201403190900 AAXX 19094 67441 NIL=
201403190600 AAXX 19064 67441 11982 730// 10185 20180 48549 60274 72162 8703/
                   333 10265 20/// 58000 87360=
201403181800 AAXX 18184 67441 NIL=
201403181500 AAXX 18154 67441 NIL=
201403181200 AAXX 18124 67441 NIL=
201403180900 AAXX 18094 67441 NIL=
201403180600 AAXX 18064 67441 11905 10000 10175 20175 48550 69904 74644 81030
                   333 10285 20/// 59002 81360=
201403180000 AAXX 18004 67441 NIL=
201403172100 AAXX 17214 67441 NIL=
201403171800 AAXX 17184 67441 NIL=
201403171500 AAXX 17154 67441 NIL=
201403171200 AAXX 17124 67441 NIL=
201403170900 AAXX 17094 67441 NIL=
201403170600 AAXX 17064 67441 11980 50000 10188 20184 48552 60164 72844 85031
                   333 10270 20/// 59003 85360 81080=
201403161200 AAXX 16124 67441 NIL=
201403160900 AAXX 16094 67441 NIL=
201403160600 AAXX 16064 67441 NIL=
201403160300 AAXX 16034 67441 NIL=
201403160000 AAXX 16004 67441 NIL=
201403152100 AAXX 15214 67441 NIL=
201403151800 AAXX 15184 67441 NIL=
201403151500 AAXX 15154 67441 NIL=
201403151200 AAXX 15124 67441 NIL=
201403150900 AAXX 15094 67441 NIL=
201403150600 AAXX 15064 67441 NIL=
201403150300 AAXX 15034 67441 NIL=
201403141800 AAXX 14184 67441 NIL=
201403141500 AAXX 14154 67441 NIL=
201403141200 AAXX 14124 67441 NIL=
201403140900 AAXX 14094 67441 NIL=
201403140600 AAXX 14064 67441 11970 806// 10170 20170 48569 60254 76166 8802/
                   333 10300 20/// 58001 88460=
201403140300 AAXX 14034 67441 NIL=
201403140000 AAXX 14004 67441 NIL=
201403132100 AAXX 13214 67441 NIL=
201403131800 AAXX 13184 67441 NIL=
201403131200 AAXX 13124 67441 NIL=
201403130900 AAXX 13094 67441 NIL=
201403130600 AAXX 13064 67441 12980 60000 10175 20167 48568 69904 86034
                   333 10220 20/// 58000 86360
                   555 00///=
201403121800 AAXX 12184 67441 NIL=
201403121200 AAXX 12124 67441 NIL=
201403120900 AAXX 12094 67441 NIL=
201403120600 AAXX 12064 67441 NIL=
201403120300 AAXX 12034 67441 NIL=
201403120000 AAXX 12004 67441 NIL=
201403112100 AAXX 11214 67441 NIL=
201403111800 AAXX 11184 67441 NIL=
201403111500 AAXX 11154 67441 NIL=
201403111200 AAXX 11124 67441 NIL=
201403110600 AAXX 11064 67441 NIL=
201403102100 AAXX 10214 67441 NIL=
201403101800 AAXX 10184 67441 NIL=
201403101500 AAXX 10154 67441 NIL=
201403101200 AAXX 10124 67441 NIL=
201403100900 AAXX 10094 67441 NIL=
201403100600 AAXX 10064 67441 NIL=
201403100300 AAXX 10034 67441 NIL=
201403092100 AAXX 09214 67441 NIL=
201403091800 AAXX 09184 67441 NIL=
201403091500 AAXX 09154 67441 NIL=
201403091200 AAXX 09124 67441 NIL=
201403090900 AAXX 09094 67441 NIL=
201403090600 AAXX 09064 67441 NIL=
201403090300 AAXX 09034 67441 NIL=
201403090000 AAXX 09004 67441 NIL=
201403081800 AAXX 08184 67441 NIL=
201403081500 AAXX 08154 67441 NIL=
201403081200 AAXX 08124 67441 NIL=
201403080900 AAXX 08094 67441 NIL=
201403080600 AAXX 08064 67441 NIL=
201403080300 AAXX 08034 67441 NIL=
201403080000 AAXX 08004 67441 NIL=
201403072100 AAXX 07214 67441 NIL=
201403071500 AAXX 07154 67441 NIL=
201403071200 AAXX 07124 67441 NIL=
201403070900 AAXX 07094 67441 NIL=
201403070600 AAXX 07064 67441 NIL=
201403061800 AAXX 06184 67441 NIL=
201403061500 AAXX 06154 67441 NIL=
201403061200 AAXX 06124 67441 NIL=
201403060900 AAXX 06094 67441 NIL=
201403060600 AAXX 06064 67441 NIL=
201403052100 AAXX 05214 67441 NIL=
201403051800 AAXX 05184 67441 NIL=
201403051500 AAXX 05154 67441 NIL=
201403051200 AAXX 05124 67441 NIL=
201403050900 AAXX 05094 67441 NIL=
201403050600 AAXX 05064 67441 11980 20000 10177 20174 48538 60114 72844 80002
                   333 10285 20/// 59007 82080=
201403050300 AAXX 05034 67441 NIL=
201403050000 AAXX 05004 67441 NIL=
201403042100 AAXX 04214 67441 NIL=
201403041800 AAXX 04184 67441 NIL=
201403041500 AAXX 04154 67441 NIL=
201403041200 AAXX 04124 67441 NIL=
201403040900 AAXX 04094 67441 NIL=
201403040600 AAXX 04064 67441 11980 70000 10175 20175 48546 60084 72844 82036
                   333 10300 20/// 58004 82360 86280=
201403040300 AAXX 04034 67441 NIL=
201403040000 AAXX 04004 67441 NIL=
201403031800 AAXX 03184 67441 NIL=
201403031500 AAXX 03154 67441 NIL=
201403031200 AAXX 03124 67441 NIL=
201403030900 AAXX 03094 67441 NIL=
201403030600 AAXX 03064 67441 32982 70000 10190 20183 48541 8703/
                   333 10300 20/// 58000 87360=
201403030300 AAXX 03034 67441 NIL=
201403030000 AAXX 03004 67441 NIL=
201403022100 AAXX 02214 67441 NIL=
201403021800 AAXX 02184 67441 NIL=
201403021500 AAXX 02154 67441 NIL=
201403021200 AAXX 02124 67441 NIL=
201403020900 AAXX 02094 67441 NIL=
201403020600 AAXX 02064 67441 NIL=
201403020300 AAXX 02034 67441 NIL=
201403020000 AAXX 02004 67441 NIL=
201403012100 AAXX 01214 67441 NIL=
201403011800 AAXX 01184 67441 NIL=
201403011500 AAXX 01154 67441 NIL=
201403011200 AAXX 01121 67441 NIL=
201403010900 AAXX 01094 67441 NIL=
201403010600 AAXX 01064 67441 NIL=

################################################################################
#  SYNOPS from 67461, Mansa (Zambia) | 11-06S | 028-51E | 1382 m
################################################################################
201403310300 AAXX 31034 67461 NIL=
201403310000 AAXX 31004 67461 NIL=
201403302100 AAXX 30214 67461 NIL=
201403301800 AAXX 30184 67461 NIL=
201403301500 AAXX 30154 67461 NIL=
201403301200 AAXX 30124 67461 NIL=
201403300900 AAXX 30094 67461 NIL=
201403300600 AAXX 30064 67461 NIL=
201403300000 AAXX 30004 67461 NIL=
201403292100 AAXX 29214 67461 NIL=
201403291800 AAXX 29184 67461 NIL=
201403291500 AAXX 29154 67461 NIL=
201403291200 AAXX 29124 67461 NIL=
201403290900 AAXX 29094 67461 NIL=
201403290600 AAXX 29064 67461 NIL=
201403290000 AAXX 29004 67461 NIL=
201403282100 AAXX 28214 67461 NIL=
201403281800 AAXX 28184 67461 NIL=
201403281500 AAXX 28150 67461 NIL=
201403281200 AAXX 28124 67461 NIL=
201403280900 AAXX 28094 67461 NIL=
201403280600 AAXX 28064 67461 11280 80000 10196 20192 48527 60604 72162 8377/
                   333 10283 20173 58003 83705 87458 91019=
201403280300 AAXX 28034 67461 NIL=
201403280000 AAXX 28004 67461 NIL=
201403272100 AAXX 27214 67461 NIL=
201403271500 AAXX 27154 67461 NIL=
201403271200 AAXX 27124 67461 NIL=
201403270900 AAXX 27094 67461 NIL=
201403270600 AAXX 27064 67461 31480 51102 10205 20190 48515 72844 81531
                   333 10284 20165 59001 81618 83360 83080 91018=
201403270300 AAXX 27034 67461 NIL=
201403270000 AAXX 27004 67461 NIL=
201403262100 AAXX 26214 67461 NIL=
201403261500 AAXX 26154 67461 NIL=
201403261200 AAXX 26124 67461 NIL=
201403260900 AAXX 26094 67461 NIL=
201403260600 AAXX 26064 67461 32580 61303 10210 20187 48517 70322 81530
                   333 10289 20175 59003 81628 86462 91018=
201403260300 AAXX 26034 67461 NIL=
201403260000 AAXX 26004 67461 NIL=
201403252100 AAXX 25214 67461 NIL=
201403251800 AAXX 25184 67461 NIL=
201403251500 AAXX 25154 67461 NIL=
201403251200 AAXX 25124 67461 NIL=
201403250900 AAXX 25094 67461 NIL=
201403250600 AAXX 25064 67461 32480 40902 10205 20190 48519 70300 84530
                   333 10282 20170 59001 84618 82360 91019=
201403241800 AAXX 24184 67461 NIL=
201403241500 AAXX 24154 67461 NIL=
201403241200 AAXX 24124 67461 NIL=
201403240900 AAXX 24094 67461 NIL=
201403240600 AAXX 24064 67461 31580 40804 10210 20190 48521 72844 84501
                   333 10283 58006 84625 82080 91019=
201403240300 AAXX 24034 67461 NIL=
201403240000 AAXX 24004 67461 NIL=
201403232100 AAXX 23214 67461 NIL=
201403231800 AAXX 23184 67461 NIL=
201403231500 AAXX 23154 67461 NIL=
201403231200 AAXX 23124 67461 NIL=
201403230600 AAXX 23064 67461 NIL=
201403230300 AAXX 23034 67461 NIL=
201403230000 AAXX 23004 67461 NIL=
201403222100 AAXX 22214 67461 NIL=
201403221800 AAXX 22184 67461 NIL=
201403221500 AAXX 22154 67461 NIL=
201403221200 AAXX 22124 67461 NIL=
201403220900 AAXX 22094 67461 NIL=
201403220600 AAXX 22064 67461 NIL=
201403220300 AAXX 22034 67461 NIL=
201403220000 AAXX 22004 67461 NIL=
201403212100 AAXX 21214 67461 NIL=
201403211800 AAXX 21184 67461 NIL=
201403211200 AAXX 21124 67461 NIL=
201403210900 AAXX 21094 67461 NIL=
201403210600 AAXX 21064 67461 12480 80000 10194 20183 48529 60064 70222 8457/
                   333 10257 20180 58004 84610 88458 91020=
201403210300 AAXX 21034 67461 NIL=
201403210000 AAXX 21004 67461 NIL=
201403202100 AAXX 20214 67461 NIL=
201403201800 AAXX 20184 67461 NIL=
201403201500 AAXX 20154 67461 NIL=
201403201200 AAXX 20124 67461 NIL=
201403200900 AAXX 20094 67461 NIL=
201403200600 AAXX 20064 67461 31470 70000 10194 20185 48525 71522 8557/
                   333 10271 20176 58009 85611 86458 91019=
201403200300 AAXX 20034 67461 NIL=
201403200000 AAXX 20004 67461 NIL=
201403192100 AAXX 19214 67461 NIL=
201403191800 AAXX 19184 67461 NIL=
201403191200 AAXX 19124 67461 NIL=
201403190900 AAXX 19094 67461 NIL=
201403190600 AAXX 19064 67461 12480 60000 10195 20187 48516 60134 70322 81531
                   333 10266 20181 59004 81610 85360 82080 91018=
201403181800 AAXX 18184 67461 NIL=
201403181500 AAXX 18154 67461 NIL=
201403181200 AAXX 18124 67461 NIL=
201403180900 AAXX 18094 67461 NIL=
201403180600 AAXX 18064 67461 32480 70000 10210 20199 48522 70322 83531
                   333 10291 20182 59005 83613 85361 83080 91019=
201403180000 AAXX 18004 67461 NIL=
201403172100 AAXX 17214 67461 NIL=
201403171800 AAXX 17184 67461 NIL=
201403171500 AAXX 17154 67461 NIL=
201403171200 AAXX 17124 67461 NIL=
201403170900 AAXX 17094 67461 NIL=
201403170600 AAXX 17064 67461 11480 51502 10210 20195 48527 60044 72844 83530
                   333 10281 20170 59004 83618 83358 91019=
201403161200 AAXX 16124 67461 NIL=
201403160900 AAXX 16094 67461 NIL=
201403160600 AAXX 16064 67461 NIL=
201403160300 AAXX 16034 67461 NIL=
201403160000 AAXX 16004 67461 NIL=
201403152100 AAXX 15214 67461 NIL=
201403151800 AAXX 15184 67461 NIL=
201403151500 AAXX 15154 67461 NIL=
201403151200 AAXX 15124 67461 NIL=
201403150900 AAXX 15094 67461 NIL=
201403150600 AAXX 15064 67461 NIL=
201403150300 AAXX 15034 67461 NIL=
201403141800 AAXX 14184 67461 NIL=
201403141500 AAXX 14154 67461 NIL=
201403141200 AAXX 14124 67461 NIL=
201403140900 AAXX 14094 67461 NIL=
201403140600 AAXX 14064 67461 NIL=
201403140300 AAXX 14034 67461 NIL=
201403140000 AAXX 14004 67461 NIL=
201403132100 AAXX 13214 67461 NIL=
201403131800 AAXX 13184 67461 NIL=
201403131200 AAXX 13124 67461 NIL=
201403130900 AAXX 13094 67461 NIL=
201403130600 AAXX 13064 67461 NIL=
201403121800 AAXX 12184 67461 NIL=
201403121200 AAXX 12124 67461 NIL=
201403120900 AAXX 12094 67461 NIL=
201403120600 AAXX 12064 67461 NIL=
201403120300 AAXX 12034 67461 NIL=
201403120000 AAXX 12004 67461 NIL=
201403112100 AAXX 11214 67461 NIL=
201403111800 AAXX 11184 67461 NIL=
201403111500 AAXX 11154 67461 NIL=
201403111200 AAXX 11124 67461 NIL=
201403110600 AAXX 11064 67461 NIL=
201403102100 AAXX 10214 67461 NIL=
201403101800 AAXX 10184 67461 NIL=
201403101500 AAXX 10154 67461 NIL=
201403101200 AAXX 10124 67461 NIL=
201403100900 AAXX 10094 67461 NIL=
201403100600 AAXX 10064 67461 NIL=
201403100300 AAXX 10034 67461 NIL=
201403092100 AAXX 09214 67461 NIL=
201403091800 AAXX 09184 67461 NIL=
201403091500 AAXX 09154 67461 NIL=
201403091200 AAXX 09124 67461 NIL=
201403090900 AAXX 09094 67461 NIL=
201403090600 AAXX 09064 67461 NIL=
201403090300 AAXX 09034 67461 NIL=
201403090000 AAXX 09004 67461 NIL=
201403081800 AAXX 08184 67461 NIL=
201403081500 AAXX 08154 67461 NIL=
201403081200 AAXX 08124 67461 NIL=
201403080900 AAXX 08094 67461 NIL=
201403080600 AAXX 08064 67461 NIL=
201403080300 AAXX 08034 67461 NIL=
201403080000 AAXX 08004 67461 NIL=
201403072100 AAXX 07214 67461 NIL=
201403071500 AAXX 07154 67461 NIL=
201403071200 AAXX 07124 67461 NIL=
201403070900 AAXX 07094 67461 NIL=
201403070600 AAXX 07064 67461 NIL=
201403061800 AAXX 06184 67461 NIL=
201403061500 AAXX 06154 67461 NIL=
201403061200 AAXX 06124 67461 NIL=
201403060900 AAXX 06094 67461 NIL=
201403060600 AAXX 06064 67461 NIL=
201403052100 AAXX 05214 67461 NIL=
201403051800 AAXX 05184 67461 NIL=
201403051500 AAXX 05154 67461 NIL=
201403051200 AAXX 05124 67461 NIL=
201403050900 AAXX 05094 67461 NIL=
201403050600 AAXX 05064 67461 NIL=
201403050300 AAXX 05034 67461 NIL=
201403050000 AAXX 05004 67461 NIL=
201403042100 AAXX 04214 67461 NIL=
201403041800 AAXX 04184 67461 NIL=
201403041500 AAXX 04154 67461 NIL=
201403041200 AAXX 04124 67461 NIL=
201403040900 AAXX 04094 67461 NIL=
201403040600 AAXX 04064 67461 32680 50000 10216 20172 48523 70222 83131
                   333 10302 20169 59009 83845 85358 82080 91019=
201403040300 AAXX 04034 67461 NIL=
201403040000 AAXX 04004 67461 NIL=
201403031800 AAXX 03184 67461 NIL=
201403031500 AAXX 03154 67461 NIL=
201403031200 AAXX 03124 67461 NIL=
201403030900 AAXX 03094 67461 NIL=
201403030600 AAXX 03064 67461 12580 50000 10200 20184 48513 60084 70222 83532
                   333 10301 20167 59045 83620 82358 84080 91013=
201403030300 AAXX 03034 67461 NIL=
201403030000 AAXX 03004 67461 NIL=
201403022100 AAXX 02214 67461 NIL=
201403021800 AAXX 02184 67461 NIL=
201403021500 AAXX 02154 67461 NIL=
201403021200 AAXX 02124 67461 NIL=
201403020900 AAXX 02094 67461 NIL=
201403020600 AAXX 02064 67461 NIL=
201403020300 AAXX 02034 67461 NIL=
201403020000 AAXX 02004 67461 NIL=
201403012100 AAXX 01214 67461 NIL=
201403011800 AAXX 01184 67461 NIL=
201403011500 AAXX 01154 67461 NIL=
201403011200 AAXX 01121 67461 NIL=
201403010900 AAXX 01094 67461 NIL=
201403010600 AAXX 01064 67461 NIL=

################################################################################
#  SYNOPS from 67475, Kasama (Zambia) | 10-13S | 031-08E | 1382 m
################################################################################
201403310300 AAXX 31034 67475 NIL=
201403310000 AAXX 31004 67475 NIL=
201403302100 AAXX 30214 67475 NIL=
201403301800 AAXX 30184 67475 NIL=
201403301500 AAXX 30154 67475 NIL=
201403301200 AAXX 30124 67475 NIL=
201403300900 AAXX 30094 67475 NIL=
201403300600 AAXX 30064 67475 NIL=
201403300000 AAXX 30004 67475 NIL=
201403292100 AAXX 29214 67475 NIL=
201403291800 AAXX 29184 67475 NIL=
201403291500 AAXX 29154 67475 NIL=
201403291200 AAXX 29124 67475 NIL=
201403290900 AAXX 29094 67475 NIL=
201403290600 AAXX 29064 67475 NIL=
201403290000 AAXX 29004 67475 NIL=
201403282100 AAXX 28214 67475 NIL=
201403281800 AAXX 28184 67475 NIL=
201403281500 AAXX 28150 67475 NIL=
201403281200 AAXX 28124 67475 42680 61605 10259 20166 48494 85233
                   333 58004 81940 84845 83362 81080 91017=
201403280900 AAXX 28094 67475 42680 63403 10238 20169 48526 8423/
                   333 58010 84830 85361 91020=
201403280600 AAXX 28064 67475 32480 73503 10187 20180 48523 60044 8367/
                   333 10255 20169 58005 83712 86359 91020=
201403280300 AAXX 28034 67475 NIL=
201403280000 AAXX 28004 67475 NIL=
201403272100 AAXX 27214 67475 NIL=
201403271500 AAXX 27154 67475 42780 60702 10230 20193 48483 70222 85273
                   333 58005 81950 84850 83360 86080 91015=
201403271200 AAXX 27124 67475 41680 60801 10191 20184 48487 76192 85273
                   333 58009 81940 84840 86460 82080 91016=
201403270900 AAXX 27094 67475 NIL=
201403270600 AAXX 27064 67475 12480 70302 10192 20187 48518 69904 70322 875//
                   333 10275 20167 58005 87618 91020=
201403270300 AAXX 27034 67475 NIL=
201403270000 AAXX 27004 67475 NIL=
201403262100 AAXX 26214 67475 NIL=
201403261500 AAXX 26154 67475 NIL=
201403261200 AAXX 26124 67475 42680 71515 10260 20184 48481 85201
                   333 59003 85840 86080 91015=
201403260900 AAXX 26094 67475 42580 71009 10240 20174 48515 86201
                   333 59003 86830 87080
                   555 91019=
201403260600 AAXX 26064 67475 32480 51008 10205 20175 48514 84671
                   333 10280 20165 59013 84618 82820 82360 85080
                   91019=
201403260300 AAXX 26034 67475 NIL=
201403260000 AAXX 26004 67475 NIL=
201403252100 AAXX 25214 67475 NIL=
201403251800 AAXX 25184 67475 NIL=
201403251500 AAXX 25154 67475 NIL=
201403251200 AAXX 25124 67475 42680 71208 10275 20178 48484 85202
                   333 59025 85840 86080 91015=
201403250900 AAXX 25094 67475 42580 70913 10250 20174 48519 86201
                   333 59012 86830 85080 91019=
201403250600 AAXX 25064 67475 32480 70910 10215 20183 48528 82601
                   333 10276 20166 58000 82718 83820 86080 91021=
201403241800 AAXX 24184 67475 NIL=
201403241500 AAXX 24154 67475 NIL=
201403241200 AAXX 24124 67475 42680 40915 10270 20162 48510 84201
                   333 58007 84840 81080
                   555 91018=
201403240900 AAXX 24094 67475 42580 60912 10257 20174 48532 84600
                   333 58007 84625 83830 91021=
201403240600 AAXX 24064 67475 32480 11208 10200 20173 48527 81670
                   333 10271 20160 59005 81720 81360 91021=
201403240300 AAXX 24034 67475 NIL=
201403240000 AAXX 24004 67475 NIL=
201403232100 AAXX 23214 67475 NIL=
201403231800 AAXX 23184 67475 NIL=
201403231500 AAXX 23154 67475 NIL=
201403231200 AAXX 23124 67475 NIL=
201403230600 AAXX 23064 67475 NIL=
201403230300 AAXX 23034 67475 NIL=
201403230000 AAXX 23004 67475 NIL=
201403222100 AAXX 22214 67475 NIL=
201403221800 AAXX 22184 67475 NIL=
201403221500 AAXX 22154 67475 NIL=
201403221200 AAXX 22124 67475 NIL=
201403220900 AAXX 22094 67475 NIL=
201403220600 AAXX 22064 67475 NIL=
201403220300 AAXX 22034 67475 NIL=
201403220000 AAXX 22004 67475 NIL=
201403212100 AAXX 21214 67475 NIL=
201403211800 AAXX 21184 67475 NIL=
201403211200 AAXX 21124 67475 42680 63602 10235 20172 48509 70262 84273
                   333 58007 81945 83845 85362 83080 91018=
201403210900 AAXX 21094 67475 42680 71302 10224 20179 48539 70322 8427/
                   333 5//// 84830 87361 91022=
201403210600 AAXX 21064 67475 12480 80802 10177 20177 48537 60334 70222 8367/
                   333 10269 20164 58009 83715 88460 91022=
201403210300 AAXX 21034 67475 NIL=
201403210000 AAXX 21004 67475 NIL=
201403202100 AAXX 20214 67475 NIL=
201403201800 AAXX 20184 67475 NIL=
201403201500 AAXX 20154 67475 NIL=
201403201200 AAXX 20124 67475 41670 73403 10262 20174 48503 71522 8527/
                   333 5//// 81940 84845 86463 91018=
201403200900 AAXX 20094 67475 42680 72004 10220 20184 48/// 8657/
                   333 5//// 86630 87362=
201403200600 AAXX 20064 67475 12480 82705 10188 20180 48528 60044 70362 8367/
                   333 10295 20169 58003 83712 88460 91021=
201403200300 AAXX 20034 67475 NIL=
201403200000 AAXX 20004 67475 NIL=
201403192100 AAXX 19214 67475 NIL=
201403191800 AAXX 19184 67475 NIL=
201403191200 AAXX 19124 67475 41680 40605 10282 20165 48/// 72992 81933
                   333 5//// 81945 84850 81362 81080=
201403190900 AAXX 19094 67475 42680 50506 10256 20171 48520 83231
                   333 59007 83835 83361 81080 91020=
201403190600 AAXX 19064 67475 12480 40202 10201 20181 48526 60154 82631
                   333 10282 20160 59000 82712 83359 81080 91020=
201403181800 AAXX 18184 67475 NIL=
201403181500 AAXX 18154 67475 NIL=
201403181200 AAXX 18124 67475 42680 50305 10262 20173 48492 70292 81933
                   333 5//// 81945 83850 81363 84080 91016=
201403180900 AAXX 18094 67475 41680 61406 10255 20188 48527 71782 819//
                   333 59002 81930 86835 91020=
201403180600 AAXX 18064 67475 12580 60905 10220 20197 48523 69924 83131
                   333 10292 20172 59009 83820 81360 86080 91020=
201403180000 AAXX 18004 67475 NIL=
201403172100 AAXX 17214 67475 NIL=
201403171800 AAXX 17184 67475 NIL=
201403171500 AAXX 17154 67475 NIL=
201403171200 AAXX 17124 67475 42680 60903 10280 20174 48/// 86200
                   333 5//// 86845=
201403170900 AAXX 17094 67475 NIL=
201403170600 AAXX 17064 67475 12480 80804 10194 20186 48534 69964 886//
                   333 10270 20161 58000 88715 91021=
201403161200 AAXX 16124 67475 NIL=
201403160900 AAXX 16094 67475 NIL=
201403160600 AAXX 16064 67475 NIL=
201403160300 AAXX 16034 67475 NIL=
201403160000 AAXX 16004 67475 NIL=
201403152100 AAXX 15214 67475 NIL=
201403151800 AAXX 15184 67475 NIL=
201403151500 AAXX 15154 67475 NIL=
201403151200 AAXX 15124 67475 NIL=
201403150900 AAXX 15094 67475 NIL=
201403150600 AAXX 15064 67475 NIL=
201403150300 AAXX 15034 67475 NIL=
201403141800 AAXX 14184 67475 NIL=
201403141500 AAXX 14154 67475 NIL=
201403141200 AAXX 14124 67475 41680 61802 10210 20197 48502 71799 81951
                   333 5//// 81945 84845 85362 82080 91018=
201403140900 AAXX 14094 67475 NIL=
201403140600 AAXX 14064 67475 12480 60901 10195 20185 48532 60054 82671
                   333 10280 20150 59005 82720 84823 85360 82080
                   91021=
201403140300 AAXX 14034 67475 NIL=
201403140000 AAXX 14004 67475 NIL=
201403132100 AAXX 13214 67475 NIL=
201403131800 AAXX 13184 67475 NIL=
201403131200 AAXX 13124 67475 NIL=
201403130900 AAXX 13094 67475 42580 71807 10220 20183 48548 8325/
                   333 5//// 83835 86635 85360 91023=
201403130600 AAXX 13064 67475 12480 82206 10183 20183 48547 60194 8667/
                   333 10270 20163 58011 86720 88460
                   555 00///=
201403121800 AAXX 12184 67475 NIL=
201403121200 AAXX 12124 67475 NIL=
201403120900 AAXX 12094 67475 NIL=
201403120600 AAXX 12064 67475 NIL=
201403120300 AAXX 12034 67475 NIL=
201403120000 AAXX 12004 67475 NIL=
201403112100 AAXX 11214 67475 NIL=
201403111800 AAXX 11184 67475 NIL=
201403111500 AAXX 11154 67475 42780 73001 10215 20170 48500 81933
                   333 58020 81950 81850 82364 87080=
201403111200 AAXX 11124 67475 41480 72911 10212 20175 48/// 72065 81677
                   333 5//// 81710 83840 85363 87280=
201403110900 AAXX 11094 67475 41480 82605 10193 20186 48/// 72162 88461=
201403110600 AAXX 11064 67475 11309 82805 10179 20179 48/// 60444 78064 8677/
                   333 10281 20170 5//// 86709 81956 83856 88460=
201403102100 AAXX 10214 67475 NIL=
201403101800 AAXX 10184 67475 NIL=
201403101500 AAXX 10154 67475 NIL=
201403101200 AAXX 10124 67475 41659 61614 10241 20197 48470 76022 81973
                   333 59003 81945 84850 85463 83080 91014=
201403100900 AAXX 10094 67475 42680 70308 10259 20183 48505 8513/
                   333 59002 85835 87361 91018=
201403100600 AAXX 10064 67475 12480 60413 10205 20184 48503 69904 85632
                   333 10305 20166 85712 82360 85080 91018=
201403100300 AAXX 10034 67475 NIL=
201403092100 AAXX 09214 67475 NIL=
201403091800 AAXX 09184 67475 NIL=
201403091500 AAXX 09154 67475 NIL=
201403091200 AAXX 09124 67475 42680 60803 10289 20181 48474 70322 86201
                   333 59022 86845 82080 91014=
201403090900 AAXX 09094 67475 NIL=
201403090600 AAXX 09064 67475 NIL=
201403090300 AAXX 09034 67475 NIL=
201403090000 AAXX 09004 67475 NIL=
201403081800 AAXX 08184 67475 NIL=
201403081500 AAXX 08154 67475 NIL=
201403081200 AAXX 08124 67475 NIL=
201403080900 AAXX 08094 67475 NIL=
201403080600 AAXX 08064 67475 12480 60907 10201 20186 48528 60014 70322 81732
                   333 10278 20150 58000 81712 83618 85360 83080
                   91021=
201403080300 AAXX 08034 67475 NIL=
201403080000 AAXX 08004 67475 NIL=
201403072100 AAXX 07214 67475 NIL=
201403071500 AAXX 07154 67475 41780 72304 10195 20185 48495 71799 85203
                   333 58018 81956 85856 87080=
201403071200 AAXX 07124 67475 41680 72005 10274 20181 48496 71722 872//
                   333 58012 81945 87845 91017=
201403070900 AAXX 07094 67475 42680 51604 10231 20174 48528 70322 85231
                   333 58009 85830 82360 83080 91021=
201403070600 AAXX 07064 67475 12980 81705 10182 20176 48526 60064 70322 8807/
                   333 10219 20162 58011 88360 91021=
201403061800 AAXX 06184 67475 NIL=
201403061500 AAXX 06154 67475 NIL=
201403061200 AAXX 06124 67475 42680 60910 10274 20174 48484 70322 81301
                   333 59005 81945 86845 83080 91015=
201403060900 AAXX 06094 67475 42680 63607 10256 20185 48520 70322 84234
                   333 84830 84361 86080 91020=
201403060600 AAXX 06064 67475 12480 50908 10211 20184 48516 69904 70322 82631
                   333 10295 20167 59006 82715 85360 82080 91019=
201403052100 AAXX 05214 67475 NIL=
201403051800 AAXX 05184 67475 NIL=
201403051500 AAXX 05154 67475 NIL=
201403051200 AAXX 05124 67475 42680 61304 10286 20176 48490 72582 86801
                   333 5//// 81945 86845 81080 91016=
201403050900 AAXX 05094 67475 42680 60906 10157 20176 48516 70322 86800
                   333 5//// 86830 82635 91019=
201403050600 AAXX 05064 67475 42480 63607 10195 20188 48521 70322 86530
                   333 10290 20162 59002 86615 82360
                   555 91020=
201403050300 AAXX 05034 67475 NIL=
201403050000 AAXX 05004 67475 NIL=
201403042100 AAXX 04214 67475 NIL=
201403041800 AAXX 04184 67475 NIL=
201403041500 AAXX 04154 67475 NIL=
201403041200 AAXX 04124 67475 42680 51009 10280 20173 48/// 81302
                   333 5//// 81945 84850 82080=
201403040900 AAXX 04094 67475 42680 51111 10261 20179 48/// 85101
                   333 5//// 85835 81080=
201403040600 AAXX 04064 67475 42580 21704 10209 20186 48522 70322 82831
                   333 10283 20175 58001 82820 81360 81080 91020=
201403040300 AAXX 04034 67475 NIL=
201403040000 AAXX 04004 67475 NIL=
201403031800 AAXX 03184 67475 NIL=
201403031500 AAXX 03154 67475 42780 71304 10256 20187 48490 70222 84203
                   333 58012 81956 84856 87080 91016=
201403031200 AAXX 03124 67475 42780 61105 10279 20169 48499 70322 84204
                   333 58004 84850 86080 91017=
201403030900 AAXX 03094 67475 42680 60905 10260 20172 48522 70322 83104
                   333 58003 83835 86080 91020=
201403030600 AAXX 03064 67475 12580 63202 10196 20184 48523 69904 70222 81104
                   333 10298 20188 58001 81820 86080 91020=
201403030300 AAXX 03034 67475 NIL=
201403030000 AAXX 03004 67475 NIL=
201403022100 AAXX 02214 67475 NIL=
201403021800 AAXX 02184 67475 NIL=
201403021500 AAXX 02154 67475 NIL=
201403021200 AAXX 02124 67475 NIL=
201403020900 AAXX 02094 67475 NIL=
201403020600 AAXX 02064 67475 NIL=
201403020300 AAXX 02034 67475 NIL=
201403020000 AAXX 02004 67475 NIL=
201403012100 AAXX 01214 67475 NIL=
201403011800 AAXX 01184 67475 NIL=
201403011500 AAXX 01154 67475 NIL=
201403011200 AAXX 01121 67475 NIL=
201403010900 AAXX 01094 67475 NIL=
201403010600 AAXX 01064 67475 NIL=

################################################################################
#  SYNOPS from 67476, Misamfu (Zambia) | 10-06S | 031-15E | 1536 m
################################################################################
201403310300 AAXX 31034 67476 NIL=
201403310000 AAXX 31004 67476 NIL=
201403302100 AAXX 30214 67476 NIL=
201403301800 AAXX 30184 67476 NIL=
201403301500 AAXX 30154 67476 NIL=
201403301200 AAXX 30124 67476 NIL=
201403300900 AAXX 30094 67476 NIL=
201403300600 AAXX 30064 67476 NIL=
201403300000 AAXX 30004 67476 NIL=
201403292100 AAXX 29214 67476 NIL=
201403291800 AAXX 29184 67476 NIL=
201403291500 AAXX 29154 67476 NIL=
201403291200 AAXX 29124 67476 NIL=
201403290900 AAXX 29094 67476 NIL=
201403290600 AAXX 29064 67476 NIL=
201403290000 AAXX 29004 67476 NIL=
201403282100 AAXX 28214 67476 NIL=
201403281800 AAXX 28184 67476 NIL=
201403281500 AAXX 28150 67476 NIL=
201403281200 AAXX 28124 67476 NIL=
201403280900 AAXX 28094 67476 NIL=
201403280600 AAXX 28064 67476 12480 80901 10187 20173 48/// 60054 8167/
                   333 10275 20175 5//// 81715 88460=
201403280300 AAXX 28034 67476 NIL=
201403280000 AAXX 28004 67476 NIL=
201403272100 AAXX 27214 67476 NIL=
201403271500 AAXX 27154 67476 NIL=
201403271200 AAXX 27124 67476 NIL=
201403270900 AAXX 27094 67476 NIL=
201403270600 AAXX 27064 67476 12480 80901 10196 20186 48/// 60054 8457/
                   333 10275 20182 5//// 84619 88460=
201403270300 AAXX 27034 67476 NIL=
201403270000 AAXX 27004 67476 NIL=
201403262100 AAXX 26214 67476 NIL=
201403261500 AAXX 26154 67476 NIL=
201403261200 AAXX 26124 67476 NIL=
201403260900 AAXX 26094 67476 NIL=
201403260600 AAXX 26064 67476 NIL=
201403260300 AAXX 26034 67476 NIL=
201403260000 AAXX 26004 67476 NIL=
201403252100 AAXX 25214 67476 NIL=
201403251800 AAXX 25184 67476 NIL=
201403251500 AAXX 25154 67476 NIL=
201403251200 AAXX 25124 67476 NIL=
201403250900 AAXX 25094 67476 NIL=
201403250600 AAXX 25064 67476 NIL=
201403241800 AAXX 24184 67476 NIL=
201403241500 AAXX 24154 67476 NIL=
201403241200 AAXX 24124 67476 NIL=
201403240900 AAXX 24094 67476 NIL=
201403240600 AAXX 24064 67476 NIL=
201403240300 AAXX 24034 67476 NIL=
201403240000 AAXX 24004 67476 NIL=
201403232100 AAXX 23214 67476 NIL=
201403231800 AAXX 23184 67476 NIL=
201403231500 AAXX 23154 67476 NIL=
201403231200 AAXX 23124 67476 NIL=
201403230600 AAXX 23064 67476 NIL=
201403230300 AAXX 23034 67476 NIL=
201403230000 AAXX 23004 67476 NIL=
201403222100 AAXX 22214 67476 NIL=
201403221800 AAXX 22184 67476 NIL=
201403221500 AAXX 22154 67476 NIL=
201403221200 AAXX 22124 67476 NIL=
201403220900 AAXX 22094 67476 NIL=
201403220600 AAXX 22064 67476 NIL=
201403220300 AAXX 22034 67476 NIL=
201403220000 AAXX 22004 67476 NIL=
201403212100 AAXX 21214 67476 NIL=
201403211800 AAXX 21184 67476 NIL=
201403211200 AAXX 21124 67476 NIL=
201403210900 AAXX 21094 67476 NIL=
201403210600 AAXX 21064 67476 NIL=
201403210300 AAXX 21034 67476 NIL=
201403210000 AAXX 21004 67476 NIL=
201403202100 AAXX 20214 67476 NIL=
201403201800 AAXX 20184 67476 NIL=
201403201500 AAXX 20154 67476 NIL=
201403201200 AAXX 20124 67476 NIL=
201403200900 AAXX 20094 67476 NIL=
201403200600 AAXX 20064 67476 12480 80000 10190 20181 48/// 60024 8457/
                   333 10280 20184 5//// 84618 88460=
201403200300 AAXX 20034 67476 NIL=
201403200000 AAXX 20004 67476 NIL=
201403192100 AAXX 19214 67476 NIL=
201403191800 AAXX 19184 67476 NIL=
201403191200 AAXX 19124 67476 NIL=
201403190900 AAXX 19094 67476 NIL=
201403190600 AAXX 19064 67476 12580 51003 10200 20194 48/// 60094 85500
                   333 10295 20185 5//// 85620=
201403181800 AAXX 18184 67476 NIL=
201403181500 AAXX 18154 67476 NIL=
201403181200 AAXX 18124 67476 NIL=
201403180900 AAXX 18094 67476 NIL=
201403180600 AAXX 18064 67476 NIL=
201403180000 AAXX 18004 67476 NIL=
201403172100 AAXX 17214 67476 NIL=
201403171800 AAXX 17184 67476 NIL=
201403171500 AAXX 17154 67476 NIL=
201403171200 AAXX 17124 67476 NIL=
201403170900 AAXX 17094 67476 NIL=
201403170600 AAXX 17064 67476 12480 80902 10190 20183 48/// 60014 885//
                   333 10276 20186 5//// 88619=
201403161200 AAXX 16124 67476 NIL=
201403160900 AAXX 16094 67476 NIL=
201403160600 AAXX 16064 67476 NIL=
201403160300 AAXX 16034 67476 NIL=
201403160000 AAXX 16004 67476 NIL=
201403152100 AAXX 15214 67476 NIL=
201403151800 AAXX 15184 67476 NIL=
201403151500 AAXX 15154 67476 NIL=
201403151200 AAXX 15124 67476 NIL=
201403150900 AAXX 15094 67476 NIL=
201403150600 AAXX 15064 67476 NIL=
201403150300 AAXX 15034 67476 NIL=
201403141800 AAXX 14184 67476 NIL=
201403141500 AAXX 14154 67476 NIL=
201403141200 AAXX 14124 67476 NIL=
201403140900 AAXX 14094 67476 NIL=
201403140600 AAXX 14064 67476 12480 60801 10188 20182 48/// 60074 86560
                   333 10278 20182 5//// 86610 82360=
201403140300 AAXX 14034 67476 NIL=
201403140000 AAXX 14004 67476 NIL=
201403132100 AAXX 13214 67476 NIL=
201403131800 AAXX 13184 67476 NIL=
201403131200 AAXX 13124 67476 NIL=
201403130900 AAXX 13094 67476 NIL=
201403130600 AAXX 13064 67476 12480 70804 10185 20185 48/// 60414 8753/
                   333 10277 20181 5//// 87618 83360
                   555 00/// 20997=
201403121800 AAXX 12184 67476 NIL=
201403121200 AAXX 12124 67476 NIL=
201403120900 AAXX 12094 67476 NIL=
201403120600 AAXX 12064 67476 NIL=
201403120300 AAXX 12034 67476 NIL=
201403120000 AAXX 12004 67476 NIL=
201403112100 AAXX 11214 67476 NIL=
201403111800 AAXX 11184 67476 NIL=
201403111500 AAXX 11154 67476 NIL=
201403111200 AAXX 11124 67476 NIL=
201403110600 AAXX 11064 67476 12480 80902 10185 20183 48/// 60434 8467/
                   333 10283 20178 5//// 84715 88460=
201403102100 AAXX 10214 67476 NIL=
201403101800 AAXX 10184 67476 NIL=
201403101500 AAXX 10154 67476 NIL=
201403101200 AAXX 10124 67476 NIL=
201403100900 AAXX 10094 67476 NIL=
201403100600 AAXX 10064 67476 NIL=
201403100300 AAXX 10034 67476 NIL=
201403092100 AAXX 09214 67476 NIL=
201403091800 AAXX 09184 67476 NIL=
201403091500 AAXX 09154 67476 NIL=
201403091200 AAXX 09124 67476 NIL=
201403090900 AAXX 09094 67476 NIL=
201403090600 AAXX 09064 67476 NIL=
201403090300 AAXX 09034 67476 NIL=
201403090000 AAXX 09004 67476 NIL=
201403081800 AAXX 08184 67476 NIL=
201403081500 AAXX 08154 67476 NIL=
201403081200 AAXX 08124 67476 NIL=
201403080900 AAXX 08094 67476 NIL=
201403080600 AAXX 08064 67476 NIL=
201403080300 AAXX 08034 67476 NIL=
201403080000 AAXX 08004 67476 NIL=
201403072100 AAXX 07214 67476 NIL=
201403071500 AAXX 07154 67476 NIL=
201403071200 AAXX 07124 67476 NIL=
201403070900 AAXX 07094 67476 NIL=
201403070600 AAXX 07064 67476 12580 7//// 10194 20175 48/// 69904 81130
                   333 10299 20179 5//// 81820 86360=
201403061800 AAXX 06184 67476 NIL=
201403061500 AAXX 06154 67476 NIL=
201403061200 AAXX 06124 67476 NIL=
201403060900 AAXX 06094 67476 NIL=
201403060600 AAXX 06064 67476 NIL=
201403052100 AAXX 05214 67476 NIL=
201403051800 AAXX 05184 67476 NIL=
201403051500 AAXX 05154 67476 NIL=
201403051200 AAXX 05124 67476 NIL=
201403050900 AAXX 05094 67476 NIL=
201403050600 AAXX 05064 67476 NIL=
201403050300 AAXX 05034 67476 NIL=
201403050000 AAXX 05004 67476 NIL=
201403042100 AAXX 04214 67476 NIL=
201403041800 AAXX 04184 67476 NIL=
201403041500 AAXX 04154 67476 NIL=
201403041200 AAXX 04124 67476 NIL=
201403040900 AAXX 04094 67476 NIL=
201403040600 AAXX 04064 67476 NIL=
201403040300 AAXX 04034 67476 NIL=
201403040000 AAXX 04004 67476 NIL=
201403031800 AAXX 03184 67476 NIL=
201403031500 AAXX 03154 67476 NIL=
201403031200 AAXX 03124 67476 NIL=
201403030900 AAXX 03094 67476 NIL=
201403030600 AAXX 03064 67476 NIL=
201403030300 AAXX 03034 67476 NIL=
201403030000 AAXX 03004 67476 NIL=
201403022100 AAXX 02214 67476 NIL=
201403021800 AAXX 02184 67476 NIL=
201403021500 AAXX 02154 67476 NIL=
201403021200 AAXX 02124 67476 NIL=
201403020900 AAXX 02094 67476 NIL=
201403020600 AAXX 02064 67476 NIL=
201403020300 AAXX 02034 67476 NIL=
201403020000 AAXX 02004 67476 NIL=
201403012100 AAXX 01214 67476 NIL=
201403011800 AAXX 01184 67476 NIL=
201403011500 AAXX 01154 67476 NIL=
201403011200 AAXX 01121 67476 NIL=
201403010900 AAXX 01094 67476 NIL=
201403010600 AAXX 01064 67476 NIL=

################################################################################
#  SYNOPS from 67477, Mpika (Zambia) | 11-54S | 031-26E | 1400 m
################################################################################
201403310300 AAXX 31034 67477 NIL=
201403310000 AAXX 31004 67477 NIL=
201403302100 AAXX 30214 67477 NIL=
201403301800 AAXX 30184 67477 NIL=
201403301500 AAXX 30154 67477 NIL=
201403301200 AAXX 30124 67477 NIL=
201403300900 AAXX 30094 67477 NIL=
201403300600 AAXX 30064 67477 NIL=
201403300000 AAXX 30004 67477 NIL=
201403292100 AAXX 29214 67477 NIL=
201403291800 AAXX 29184 67477 NIL=
201403291500 AAXX 29154 67477 NIL=
201403291200 AAXX 29124 67477 NIL=
201403290900 AAXX 29094 67477 NIL=
201403290600 AAXX 29064 67477 NIL=
201403290000 AAXX 29004 67477 NIL=
201403282100 AAXX 28214 67477 NIL=
201403281800 AAXX 28184 67477 NIL=
201403281500 AAXX 28150 67477 NIL=
201403281200 AAXX 28124 67477 NIL=
201403280900 AAXX 28094 67477 NIL=
201403280600 AAXX 28064 67477 32480 51205 10206 20175 48522 83131
                   333 10275 20/// 58003 83812 82360 82080 91020=
201403280300 AAXX 28034 67477 NIL=
201403280000 AAXX 28004 67477 NIL=
201403272100 AAXX 27214 67477 NIL=
201403271500 AAXX 27154 67477 NIL=
201403271200 AAXX 27124 67477 NIL=
201403270900 AAXX 27094 67477 NIL=
201403270600 AAXX 27064 67477 32980 51202 10194 20177 48518 85031
                   333 10256 20/// 58003 85360 81080 91020=
201403270300 AAXX 27034 67477 NIL=
201403270000 AAXX 27004 67477 NIL=
201403262100 AAXX 26214 67477 NIL=
201403261500 AAXX 26154 67477 NIL=
201403261200 AAXX 26124 67477 NIL=
201403260900 AAXX 26094 67477 NIL=
201403260600 AAXX 26064 67477 12480 61202 10194 20175 48515 69904 86501
                   333 10258 20/// 59018 86610 82080 91020=
201403260300 AAXX 26034 67477 NIL=
201403260000 AAXX 26004 67477 NIL=
201403252100 AAXX 25214 67477 NIL=
201403251800 AAXX 25184 67477 NIL=
201403251500 AAXX 25154 67477 NIL=
201403251200 AAXX 25124 67477 NIL=
201403250900 AAXX 25094 67477 NIL=
201403250600 AAXX 25064 67477 11480 70906 10206 20177 48534 69904 72162 86501
                   333 10260 20/// 58000 85612 83080
                   555 00///=
201403241800 AAXX 24184 67477 NIL=
201403241500 AAXX 24154 67477 NIL=
201403241200 AAXX 24124 67477 NIL=
201403240900 AAXX 24094 67477 NIL=
201403240600 AAXX 24064 67477 32380 70909 10198 20167 48534 87500
                   333 10265 20/// 5//// 87609 91022=
201403240300 AAXX 24034 67477 NIL=
201403240000 AAXX 24004 67477 NIL=
201403232100 AAXX 23214 67477 NIL=
201403231800 AAXX 23184 67477 NIL=
201403231500 AAXX 23154 67477 NIL=
201403231200 AAXX 23124 67477 NIL=
201403230600 AAXX 23064 67477 NIL=
201403230300 AAXX 23034 67477 NIL=
201403230000 AAXX 23004 67477 NIL=
201403222100 AAXX 22214 67477 NIL=
201403221800 AAXX 22184 67477 NIL=
201403221500 AAXX 22154 67477 NIL=
201403221200 AAXX 22124 67477 NIL=
201403220900 AAXX 22094 67477 NIL=
201403220600 AAXX 22064 67477 NIL=
201403220300 AAXX 22034 67477 NIL=
201403220000 AAXX 22004 67477 NIL=
201403212100 AAXX 21214 67477 NIL=
201403211800 AAXX 21184 67477 NIL=
201403211200 AAXX 21124 67477 NIL=
201403210900 AAXX 21094 67477 NIL=
201403210600 AAXX 21064 67477 12980 50000 10219 20168 48543 60094 85080
                   333 10/// 20/// 58007 85360 91023=
201403210300 AAXX 21034 67477 NIL=
201403210000 AAXX 21004 67477 NIL=
201403202100 AAXX 20214 67477 NIL=
201403201800 AAXX 20184 67477 NIL=
201403201500 AAXX 20154 67477 NIL=
201403201200 AAXX 20124 67477 NIL=
201403200900 AAXX 20094 67477 NIL=
201403200600 AAXX 20064 67477 11365 80000 10172 20171 48533 60464 79196 8657/
                   333 10270 20/// 58008 86609 81932 88459 91023=
201403200300 AAXX 20034 67477 NIL=
201403200000 AAXX 20004 67477 NIL=
201403192100 AAXX 19214 67477 NIL=
201403191800 AAXX 19184 67477 NIL=
201403191200 AAXX 19124 67477 NIL=
201403190900 AAXX 19094 67477 NIL=
201403190600 AAXX 19064 67477 12480 70000 10199 20185 48521 60005 87500
                   333 10270 20/// 59006 87612=
201403181800 AAXX 18184 67477 NIL=
201403181500 AAXX 18154 67477 NIL=
201403181200 AAXX 18124 67477 NIL=
201403180900 AAXX 18094 67477 NIL=
201403180600 AAXX 18064 67477 32480 40902 10220 20182 48534 81101
                   333 10270 20/// 59005 81814 84080=
201403180000 AAXX 18004 67477 NIL=
201403172100 AAXX 17214 67477 NIL=
201403171800 AAXX 17184 67477 NIL=
201403171500 AAXX 17154 67477 NIL=
201403171200 AAXX 17124 67477 NIL=
201403170900 AAXX 17094 67477 NIL=
201403170600 AAXX 17064 67477 32480 31202 10215 20176 48538 69904 83181
                   333 10260 20/// 59004 83812 81359 81080=
201403161200 AAXX 16124 67477 NIL=
201403160900 AAXX 16094 67477 NIL=
201403160600 AAXX 16064 67477 NIL=
201403160300 AAXX 16034 67477 NIL=
201403160000 AAXX 16004 67477 NIL=
201403152100 AAXX 15214 67477 NIL=
201403151800 AAXX 15184 67477 NIL=
201403151500 AAXX 15154 67477 NIL=
201403151200 AAXX 15124 67477 NIL=
201403150900 AAXX 15094 67477 NIL=
201403150600 AAXX 15064 67477 NIL=
201403150300 AAXX 15034 67477 NIL=
201403141800 AAXX 14184 67477 NIL=
201403141500 AAXX 14154 67477 NIL=
201403141200 AAXX 14124 67477 NIL=
201403140900 AAXX 14094 67477 NIL=
201403140600 AAXX 14064 67477 11480 81202 10180 20168 48531 60114 72996 8657/
                   333 10250 20/// 59020 81911 86611 88460 91022=
201403140300 AAXX 14034 67477 NIL=
201403140000 AAXX 14004 67477 NIL=
201403132100 AAXX 13214 67477 NIL=
201403131800 AAXX 13184 67477 NIL=
201403131200 AAXX 13124 67477 NIL=
201403130900 AAXX 13094 67477 NIL=
201403130600 AAXX 13064 67477 NIL=
201403121800 AAXX 12184 67477 NIL=
201403121200 AAXX 12124 67477 NIL=
201403120900 AAXX 12094 67477 NIL=
201403120600 AAXX 12064 67477 NIL=
201403120300 AAXX 12034 67477 NIL=
201403120000 AAXX 12004 67477 NIL=
201403112100 AAXX 11214 67477 NIL=
201403111800 AAXX 11184 67477 NIL=
201403111500 AAXX 11154 67477 NIL=
201403111200 AAXX 11124 67477 NIL=
201403110600 AAXX 11064 67477 11975 80000 10202 20183 48535 60194 72842 8807/
                   333 10280 20/// 58021 88459
                   555 00/// 20990=
201403102100 AAXX 10214 67477 NIL=
201403101800 AAXX 10184 67477 NIL=
201403101500 AAXX 10154 67477 NIL=
201403101200 AAXX 10124 67477 NIL=
201403100900 AAXX 10094 67477 NIL=
201403100600 AAXX 10064 67477 11480 81204 10198 20178 48513 69904 72842 8557/
                   333 10280 20/// 59002 85610 88459 91019=
201403100300 AAXX 10034 67477 NIL=
201403092100 AAXX 09214 67477 NIL=
201403091800 AAXX 09184 67477 NIL=
201403091500 AAXX 09154 67477 NIL=
201403091200 AAXX 09124 67477 NIL=
201403090900 AAXX 09094 67477 NIL=
201403090600 AAXX 09064 67477 NIL=
201403090300 AAXX 09034 67477 NIL=
201403090000 AAXX 09004 67477 NIL=
201403081800 AAXX 08184 67477 NIL=
201403081500 AAXX 08154 67477 NIL=
201403081200 AAXX 08124 67477 NIL=
201403080900 AAXX 08094 67477 NIL=
201403080600 AAXX 08064 67477 NIL=
201403080300 AAXX 08034 67477 NIL=
201403080000 AAXX 08004 67477 NIL=
201403072100 AAXX 07214 67477 NIL=
201403071500 AAXX 07154 67477 NIL=
201403071200 AAXX 07124 67477 NIL=
201403070900 AAXX 07094 67477 NIL=
201403070600 AAXX 07064 67477 32480 40602 10223 20169 48529 83101
                   333 10275 20/// 58007 83812 81080=
201403061800 AAXX 06184 67477 NIL=
201403061500 AAXX 06154 67477 NIL=
201403061200 AAXX 06124 67477 NIL=
201403060900 AAXX 06094 67477 NIL=
201403060600 AAXX 06064 67477 32480 30602 10211 20171 48521 82101
                   333 10270 20165 59005 82810 82080 91020=
201403052100 AAXX 05214 67477 NIL=
201403051800 AAXX 05184 67477 NIL=
201403051500 AAXX 05154 67477 NIL=
201403051200 AAXX 05124 67477 NIL=
201403050900 AAXX 05094 67477 NIL=
201403050600 AAXX 05064 67477 32480 50602 10212 20172 48526 85101
                   333 10270 20166 59004 85810 82080 91021=
201403050300 AAXX 05034 67477 NIL=
201403050000 AAXX 05004 67477 NIL=
201403042100 AAXX 04214 67477 NIL=
201403041800 AAXX 04184 67477 NIL=
201403041500 AAXX 04154 67477 NIL=
201403041200 AAXX 04124 67477 NIL=
201403040900 AAXX 04094 67477 NIL=
201403040600 AAXX 04064 67477 32480 50000 10210 20179 48530
                   333 10266 20168 58004 85815 91021=
201403040300 AAXX 04034 67477 NIL=
201403040000 AAXX 04004 67477 NIL=
201403031800 AAXX 03184 67477 NIL=
201403031500 AAXX 03154 67477 NIL=
201403031200 AAXX 03124 67477 NIL=
201403030900 AAXX 03094 67477 NIL=
201403030600 AAXX 03064 67477 32480 50606 10213 20181 48526 83101
                   333 10278 20176 58006 83815 84080 91021=
201403030300 AAXX 03034 67477 NIL=
201403030000 AAXX 03004 67477 NIL=
201403022100 AAXX 02214 67477 NIL=
201403021800 AAXX 02184 67477 NIL=
201403021500 AAXX 02154 67477 NIL=
201403021200 AAXX 02124 67477 NIL=
201403020900 AAXX 02094 67477 NIL=
201403020600 AAXX 02064 67477 NIL=
201403020300 AAXX 02034 67477 NIL=
201403020000 AAXX 02004 67477 NIL=
201403012100 AAXX 01214 67477 NIL=
201403011800 AAXX 01184 67477 NIL=
201403011500 AAXX 01154 67477 NIL=
201403011200 AAXX 01121 67477 NIL=
201403010900 AAXX 01094 67477 NIL=
201403010600 AAXX 01064 67477 NIL=

################################################################################
#  SYNOPS from 67481, Isoka (Zambia) | 10-07S | 032-38E | 1360 m
################################################################################
201403310300 AAXX 31034 67481 NIL=
201403310000 AAXX 31004 67481 NIL=
201403302100 AAXX 30214 67481 NIL=
201403301800 AAXX 30184 67481 NIL=
201403301500 AAXX 30154 67481 NIL=
201403301200 AAXX 30124 67481 NIL=
201403300900 AAXX 30094 67481 NIL=
201403300600 AAXX 30064 67481 NIL=
201403300000 AAXX 30004 67481 NIL=
201403292100 AAXX 29214 67481 NIL=
201403291800 AAXX 29184 67481 NIL=
201403291500 AAXX 29154 67481 NIL=
201403291200 AAXX 29124 67481 NIL=
201403290900 AAXX 29094 67481 NIL=
201403290600 AAXX 29064 67481 NIL=
201403290000 AAXX 29004 67481 NIL=
201403282100 AAXX 28214 67481 NIL=
201403281800 AAXX 28184 67481 NIL=
201403281500 AAXX 28150 67481 NIL=
201403281200 AAXX 28124 67481 42680 50303 10255 20186 48/// 83232
                   333 58011 83832 81361 85080=
201403280900 AAXX 28094 67481 42580 62101 10246 20184 48/// 86831
                   333 58008 84825 83626 82361 82080=
201403280600 AAXX 28064 67481 12380 73601 10194 20177 60044 8462/
                   333 10275 20178 59002 84608 87360=
201403280300 AAXX 28034 67481 NIL=
201403280000 AAXX 28004 67481 NIL=
201403272100 AAXX 27214 67481 NIL=
201403271500 AAXX 27154 67481 NIL=
201403271200 AAXX 27124 67481 41680 60603 10267 20181 71722 84202
                   333 58001 81933 84833 84080=
201403270900 AAXX 27094 67481 42580 60601 10245 20181 85830
                   333 59001 83828 84629 86361=
201403270600 AAXX 27064 67481 12380 70000 10196 20187 60194 8367/
                   333 10255 20184 58007 83708 87460=
201403270300 AAXX 27034 67481 NIL=
201403270000 AAXX 27004 67481 NIL=
201403262100 AAXX 26214 67481 NIL=
201403261500 AAXX 26154 67481 NIL=
201403261200 AAXX 26124 67481 NIL=
201403260900 AAXX 26094 67481 42580 63601 10233 20186 48/// 86861
                   333 59005 84820 82622 83361 82080=
201403260600 AAXX 26064 67481 12380 70000 10196 20186 69964 86630
                   333 10264 20185 59011 82708 85610 81360=
201403260300 AAXX 26034 67481 NIL=
201403260000 AAXX 26004 67481 NIL=
201403252100 AAXX 25214 67481 NIL=
201403251800 AAXX 25184 67481 NIL=
201403251500 AAXX 25154 67481 NIL=
201403251200 AAXX 25124 67481 42680 61803 10259 20177 85202
                   333 85833 84080=
201403250900 AAXX 25094 67481 42480 63603 10228 20186 86831
                   333 59009 82819 85620 81361 83080=
201403250600 AAXX 25064 67481 31380 80902 10193 20176 72844 886//
                   333 10280 20184 59004 88709=
201403241800 AAXX 24184 67481 NIL=
201403241500 AAXX 24154 67481 NIL=
201403241200 AAXX 24124 67481 NIL=
201403240900 AAXX 24094 67481 NIL=
201403240600 AAXX 24064 67481 12480 52106 10200 20181 69984 84502
                   333 10272 20170 59006 84610 83080=
201403240300 AAXX 24034 67481 NIL=
201403240000 AAXX 24004 67481 NIL=
201403232100 AAXX 23214 67481 NIL=
201403231800 AAXX 23184 67481 NIL=
201403231500 AAXX 23154 67481 NIL=
201403231200 AAXX 23124 67481 NIL=
201403230600 AAXX 23064 67481 NIL=
201403230300 AAXX 23034 67481 NIL=
201403230000 AAXX 23004 67481 NIL=
201403222100 AAXX 22214 67481 NIL=
201403221800 AAXX 22184 67481 NIL=
201403221500 AAXX 22154 67481 NIL=
201403221200 AAXX 22124 67481 NIL=
201403220900 AAXX 22094 67481 NIL=
201403220600 AAXX 22064 67481 NIL=
201403220300 AAXX 22034 67481 NIL=
201403220000 AAXX 22004 67481 NIL=
201403212100 AAXX 21214 67481 NIL=
201403211800 AAXX 21184 67481 NIL=
201403211200 AAXX 21124 67481 42680 63602 10255 20171 48/// 84852
                   333 59002 83833 82634 84361 82080=
201403210900 AAXX 21094 67481 42480 70000 10221 20176 48/// 83557
                   333 58008 83618 84361 87280=
201403210600 AAXX 21064 67481 NIL=
201403210300 AAXX 21034 67481 NIL=
201403210000 AAXX 21004 67481 NIL=
201403202100 AAXX 20214 67481 NIL=
201403201800 AAXX 20184 67481 NIL=
201403201500 AAXX 20154 67481 NIL=
201403201200 AAXX 20124 67481 42480 70000 10199 20184 48/// 8397/
                   333 58014 82915 82715 87460=
201403200900 AAXX 20094 67481 41475 80508 10217 20181 48/// 76152 8477/
                   333 58013 84715 88460=
201403200600 AAXX 20064 67481 32380 70601 10213 20186 82657
                   333 10270 20186 58006 82708 85311 87080=
201403200300 AAXX 20034 67481 NIL=
201403200000 AAXX 20004 67481 NIL=
201403192100 AAXX 19214 67481 NIL=
201403191800 AAXX 19184 67481 NIL=
201403191200 AAXX 19124 67481 41580 70601 10217 20199 48/// 78099 879//
                   333 59002 82921 84821 87322=
201403190900 AAXX 19094 67481 NIL=
201403190600 AAXX 19064 67481 12480 60501 10215 20186 60124 84501
                   333 10274 20175 59002 84612 83080=
201403181800 AAXX 18184 67481 NIL=
201403181500 AAXX 18154 67481 NIL=
201403181200 AAXX 18124 67481 41480 71401 10235 20190 71799 83978
                   333 59004 82919 81819 85460 86280=
201403180900 AAXX 18094 67481 42680 60303 10267 20197 84202
                   333 59004 84830 84080=
201403180600 AAXX 18064 67481 32480 50902 10215 20195 85501
                   333 10277 20176 59006 85610 81080=
201403180000 AAXX 18004 67481 NIL=
201403172100 AAXX 17214 67481 NIL=
201403171800 AAXX 17184 67481 NIL=
201403171500 AAXX 17154 67481 NIL=
201403171200 AAXX 17124 67481 42680 61103 10263 20190 86802
                   333 59010 81930 83830 83632 82080=
201403170900 AAXX 17094 67481 NIL=
201403170600 AAXX 17064 67481 NIL=
201403161200 AAXX 16124 67481 NIL=
201403160900 AAXX 16094 67481 NIL=
201403160600 AAXX 16064 67481 NIL=
201403160300 AAXX 16034 67481 NIL=
201403160000 AAXX 16004 67481 NIL=
201403152100 AAXX 15214 67481 NIL=
201403151800 AAXX 15184 67481 NIL=
201403151500 AAXX 15154 67481 NIL=
201403151200 AAXX 15124 67481 NIL=
201403150900 AAXX 15094 67481 NIL=
201403150600 AAXX 15064 67481 NIL=
201403150300 AAXX 15034 67481 NIL=
201403141800 AAXX 14184 67481 NIL=
201403141500 AAXX 14154 67481 NIL=
201403141200 AAXX 14124 67481 42580 50504 10250 20197 83202
                   333 59008 83828 84080=
201403140900 AAXX 14094 67481 42580 61201 10239 20184 86331
                   333 59017 85822 82623 81361 85080=
201403140600 AAXX 14064 67481 12380 70000 10192 20181 60154 8367/
                   333 10257 20163 58076 83708 87460=
201403140300 AAXX 14034 67481 NIL=
201403140000 AAXX 14004 67481 NIL=
201403132100 AAXX 13214 67481 NIL=
201403131800 AAXX 13184 67481 NIL=
201403131200 AAXX 13124 67481 42680 60204 10250 20174 48/// 82231
                   333 58008 82830 83361 85080=
201403130900 AAXX 13094 67481 41375 83601 10196 20188 48/// 79596 8191/
                   333 58045 81909 88460=
201403130600 AAXX 13064 67481 11380 80000 10195 20181 60034 72166 8377/
                   333 10259 20185 58009 83708 88460
                   555 00/// 20063=
201403121800 AAXX 12184 67481 NIL=
201403121200 AAXX 12124 67481 NIL=
201403120900 AAXX 12094 67481 NIL=
201403120600 AAXX 12064 67481 12380 70000 10200 20179 48/// 60634 8357/
                   333 10279 20165 58009 83610 87360
                   555 00/// 20023=
201403120300 AAXX 12034 67481 NIL=
201403120000 AAXX 12004 67481 NIL=
201403112100 AAXX 11214 67481 NIL=
201403111800 AAXX 11184 67481 NIL=
201403111500 AAXX 11154 67481 NIL=
201403111200 AAXX 11124 67481 42680 73601 10270 20190 48/// 85080=
201403110900 AAXX 11094 67481 42680 73601 10/// 20180 86801
                   333 58011 81830 86631 86080=
201403110600 AAXX 11064 67481 12380 80201 10200 20193 60234 82537
                   333 10274 20170 58003 82610 84360 87280=
201403102100 AAXX 10214 67481 NIL=
201403101800 AAXX 10184 67481 NIL=
201403101500 AAXX 10154 67481 NIL=
201403101200 AAXX 10124 67481 42680 60303 10264 20197 84232
                   333 59005 81930 84830 84361 82080=
201403100900 AAXX 10094 67481 42580 73601 10259 20188 83830
                   333 58009 81829 83630 86361=
201403100600 AAXX 10064 67481 12480 43602 10205 20186 60484 81531
                   333 10288 20175 58011 81610 82361 83080=
201403100300 AAXX 10034 67481 NIL=
201403092100 AAXX 09214 67481 NIL=
201403091800 AAXX 09184 67481 NIL=
201403091500 AAXX 09154 67481 NIL=
201403091200 AAXX 09124 67481 42680 72702 10282 20197 87801
                   333 5//// 81935 85835 86636 81080=
201403090900 AAXX 09094 67481 NIL=
201403090600 AAXX 09064 67481 NIL=
201403090300 AAXX 09034 67481 NIL=
201403090000 AAXX 09004 67481 NIL=
201403081800 AAXX 08184 67481 NIL=
201403081500 AAXX 08154 67481 NIL=
201403081200 AAXX 08124 67481 NIL=
201403080900 AAXX 08094 67481 42580 60201 10252 20186 84501
                   333 58001 84629 82080=
201403080600 AAXX 08064 67481 12480 50501 10217 20181 60014 82581
                   333 10274 20159 58006 82613 83361 83080=
201403080300 AAXX 08034 67481 NIL=
201403080000 AAXX 08004 67481 NIL=
201403072100 AAXX 07214 67481 NIL=
201403071500 AAXX 07154 67481 NIL=
201403071200 AAXX 07124 67481 41680 61401 10/// 20168 48/// 71792 86232
                   333 58013 81935 86835 83361 85080=
201403070900 AAXX 07094 67481 42580 60401 10251 20188 48/// 85802
                   333 58004 82826 83628 85080=
201403070600 AAXX 07064 67481 12380 63601 10211 20178 60104 82632
                   333 10291 20162 58008 82708 83360 85080=
201403061800 AAXX 06184 67481 NIL=
201403061500 AAXX 06154 67481 NIL=
201403061200 AAXX 06124 67481 NIL=
201403060900 AAXX 06094 67481 42580 60201 10258 20186 83532
                   333 83628 83361 84080=
201403060600 AAXX 06064 67481 32980 63602 10219 20177 84032
                   333 10290 20171 59004 84361 85080=
201403052100 AAXX 05214 67481 NIL=
201403051800 AAXX 05184 67481 NIL=
201403051500 AAXX 05154 67481 NIL=
201403051200 AAXX 05124 67481 42680 60000 10281 20185 86800
                   333 59006 83840 85641=
201403050900 AAXX 05094 67481 42580 50601 10254 20189 85801
                   333 59006 82823 84625 81080=
201403050600 AAXX 05064 67481 32480 43602 10209 20180 83502
                   333 10283 20165 59004 83611 83080=
201403050300 AAXX 05034 67481 NIL=
201403050000 AAXX 05004 67481 NIL=
201403042100 AAXX 04214 67481 NIL=
201403041800 AAXX 04184 67481 NIL=
201403041500 AAXX 04154 67481 NIL=
201403041200 AAXX 04124 67481 42680 61201 10275 20180 86802
                   333 58006 81936 85836 81638 83080=
201403040900 AAXX 04094 67481 42680 40503 10255 20185 84801
                   333 58005 82830 83632 82080=
201403040600 AAXX 04064 67481 32480 30202 10218 20184 83530
                   333 10294 20161 58005 83614 81361=
201403040300 AAXX 04034 67481 NIL=
201403040000 AAXX 04004 67481 NIL=
201403031800 AAXX 03184 67481 NIL=
201403031500 AAXX 03154 67481 NIL=
201403031200 AAXX 03124 67481 42680 50000 10285 20181 85203
                   333 5//// 81939 85839 82080=
201403030900 AAXX 03094 67481 42680 43303 10256 20177 48/// 84801
                   333 5//// 83831 82632 82080=
201403030600 AAXX 03064 67481 32980 30000 10225 20179 83001
                   333 10291 20167 5//// 83080=
201403030300 AAXX 03034 67481 NIL=
201403030000 AAXX 03004 67481 NIL=
201403022100 AAXX 02214 67481 NIL=
201403021800 AAXX 02184 67481 NIL=
201403021500 AAXX 02154 67481 NIL=
201403021200 AAXX 02124 67481 NIL=
201403020900 AAXX 02094 67481 NIL=
201403020600 AAXX 02064 67481 NIL=
201403020300 AAXX 02034 67481 NIL=
201403020000 AAXX 02004 67481 NIL=
201403012100 AAXX 01214 67481 NIL=
201403011800 AAXX 01184 67481 NIL=
201403011500 AAXX 01154 67481 NIL=
201403011200 AAXX 01121 67481 NIL=
201403010900 AAXX 01094 67481 NIL=
201403010600 AAXX 01064 67481 NIL=

################################################################################
#  SYNOPS from 67531, Zambezi (Zambia) | 13-32S | 023-07E | 1077 m
################################################################################
201403310300 AAXX 31034 67531 NIL=
201403310000 AAXX 31004 67531 NIL=
201403302100 AAXX 30214 67531 NIL=
201403301800 AAXX 30184 67531 NIL=
201403301500 AAXX 30154 67531 NIL=
201403301200 AAXX 30124 67531 NIL=
201403300900 AAXX 30094 67531 NIL=
201403300600 AAXX 30064 67531 NIL=
201403300000 AAXX 30004 67531 NIL=
201403292100 AAXX 29214 67531 NIL=
201403291800 AAXX 29184 67531 NIL=
201403291500 AAXX 29154 67531 NIL=
201403291200 AAXX 29124 67531 NIL=
201403290900 AAXX 29094 67531 NIL=
201403290600 AAXX 29064 67531 NIL=
201403290000 AAXX 29004 67531 NIL=
201403282100 AAXX 28214 67531 NIL=
201403281800 AAXX 28184 67531 NIL=
201403281500 AAXX 28150 67531 NIL=
201403281200 AAXX 28124 67531 41680 71505 10270 20187 48538 82300
                   333 5//// 82362=
201403280900 AAXX 28094 67531 42580 51401 10261 20202 48/// 83130
                   333 58012 83825 83362=
201403280600 AAXX 28064 67531 12380 73601 10217 20200 48/// 86024
                   333 10309 20192 58008 82707 81609 87360=
201403280300 AAXX 28034 67531 NIL=
201403280000 AAXX 28004 67531 NIL=
201403272100 AAXX 27214 67531 NIL=
201403271500 AAXX 27154 67531 NIL=
201403271200 AAXX 27124 67531 NIL=
201403270900 AAXX 27094 67531 NIL=
201403270600 AAXX 27064 67531 32980 71902 10225 20189 48/// 83088
                   333 10317 20175 58005 83361 85281=
201403270300 AAXX 27034 67531 NIL=
201403270000 AAXX 27004 67531 NIL=
201403262100 AAXX 26214 67531 NIL=
201403261500 AAXX 26154 67531 NIL=
201403261200 AAXX 26124 67531 NIL=
201403260900 AAXX 26094 67531 NIL=
201403260600 AAXX 26064 67531 32980 20902 10215 20186 48/// 70222 81031
                   333 10319 20190 59015 81362 81080=
201403260300 AAXX 26034 67531 NIL=
201403260000 AAXX 26004 67531 NIL=
201403252100 AAXX 25214 67531 NIL=
201403251800 AAXX 25184 67531 NIL=
201403251500 AAXX 25154 67531 NIL=
201403251200 AAXX 25124 67531 NIL=
201403250900 AAXX 25094 67531 NIL=
201403250600 AAXX 25064 67531 12960 21001 10210 20198 48/// 60024 70222 82031
                   333 10319 20175 59001 82362 81081=
201403241800 AAXX 24184 67531 NIL=
201403241500 AAXX 24154 67531 NIL=
201403241200 AAXX 24124 67531 NIL=
201403240900 AAXX 24094 67531 NIL=
201403240600 AAXX 24064 67531 32980 20802 10210 20177 48/// 70222 82036
                   333 10312 20188 58007 82362=
201403240300 AAXX 24034 67531 NIL=
201403240000 AAXX 24004 67531 NIL=
201403232100 AAXX 23214 67531 NIL=
201403231800 AAXX 23184 67531 NIL=
201403231500 AAXX 23154 67531 NIL=
201403231200 AAXX 23124 67531 NIL=
201403230600 AAXX 23064 67531 NIL=
201403230300 AAXX 23034 67531 NIL=
201403230000 AAXX 23004 67531 NIL=
201403222100 AAXX 22214 67531 NIL=
201403221800 AAXX 22184 67531 NIL=
201403221500 AAXX 22154 67531 NIL=
201403221200 AAXX 22124 67531 NIL=
201403220900 AAXX 22094 67531 NIL=
201403220600 AAXX 22064 67531 NIL=
201403220300 AAXX 22034 67531 NIL=
201403220000 AAXX 22004 67531 NIL=
201403212100 AAXX 21214 67531 NIL=
201403211800 AAXX 21184 67531 NIL=
201403211200 AAXX 21124 67531 41680 61205 10288 20198 48/// 71792 85202
                   333 59019 81938 85838 81080=
201403210900 AAXX 21094 67531 NIL=
201403210600 AAXX 21064 67531 NIL=
201403210300 AAXX 21034 67531 NIL=
201403210000 AAXX 21004 67531 NIL=
201403202100 AAXX 20214 67531 NIL=
201403201800 AAXX 20184 67531 NIL=
201403201500 AAXX 20154 67531 NIL=
201403201200 AAXX 20124 67531 NIL=
201403200900 AAXX 20094 67531 NIL=
201403200600 AAXX 20064 67531 11380 70701 10204 20200 48/// 69904 76062 8377/
                   333 10265 20205 58004 83707 87460=
201403200300 AAXX 20034 67531 NIL=
201403200000 AAXX 20004 67531 NIL=
201403192100 AAXX 19214 67531 NIL=
201403191800 AAXX 19184 67531 NIL=
201403191200 AAXX 19124 67531 NIL=
201403190900 AAXX 19094 67531 42580 70603 10250 20208 48/// 83873
                   333 5//// 82820 81620 87361=
201403190600 AAXX 19064 67531 12980 70000 10206 20202 48/// 60044 8703/
                   333 10290 20189 58000 87361=
201403181800 AAXX 18184 67531 NIL=
201403181500 AAXX 18154 67531 NIL=
201403181200 AAXX 18124 67531 NIL=
201403180900 AAXX 18094 67531 NIL=
201403180600 AAXX 18064 67531 32980 71701 10207 20200 48/// 70222 87030
                   333 10294 20190 59002 87362=
201403180000 AAXX 18004 67531 NIL=
201403172100 AAXX 17214 67531 NIL=
201403171800 AAXX 17184 67531 NIL=
201403171500 AAXX 17154 67531 NIL=
201403171200 AAXX 17124 67531 NIL=
201403170900 AAXX 17094 67531 NIL=
201403170600 AAXX 17064 67531 12980 21201 10200 20191 48/// 70222 82030
                   333 10275 20175 59006 82362=
201403161200 AAXX 16124 67531 NIL=
201403160900 AAXX 16094 67531 NIL=
201403160600 AAXX 16064 67531 NIL=
201403160300 AAXX 16034 67531 NIL=
201403160000 AAXX 16004 67531 NIL=
201403152100 AAXX 15214 67531 NIL=
201403151800 AAXX 15184 67531 NIL=
201403151500 AAXX 15154 67531 NIL=
201403151200 AAXX 15124 67531 NIL=
201403150900 AAXX 15094 67531 NIL=
201403150600 AAXX 15064 67531 NIL=
201403150300 AAXX 15034 67531 NIL=
201403141800 AAXX 14184 67531 NIL=
201403141500 AAXX 14154 67531 NIL=
201403141200 AAXX 14124 67531 NIL=
201403140900 AAXX 14094 67531 NIL=
201403140600 AAXX 14064 67531 11380 80902 10196 20183 48/// 60134 76166 8177/
                   333 10266 20186 58012 81706 88459=
201403140300 AAXX 14034 67531 NIL=
201403140000 AAXX 14004 67531 NIL=
201403132100 AAXX 13214 67531 NIL=
201403131800 AAXX 13184 67531 NIL=
201403131200 AAXX 13124 67531 NIL=
201403130900 AAXX 13094 67531 NIL=
201403130600 AAXX 13064 67531 12980 70301 10198 20182 48/// 60234 70222 87030
                   333 10206 20183 58000 87362
                   555 00/// 20027=
201403121800 AAXX 12184 67531 NIL=
201403121200 AAXX 12124 67531 NIL=
201403120900 AAXX 12094 67531 NIL=
201403120600 AAXX 12064 67531 NIL=
201403120300 AAXX 12034 67531 NIL=
201403120000 AAXX 12004 67531 NIL=
201403112100 AAXX 11214 67531 NIL=
201403111800 AAXX 11184 67531 NIL=
201403111500 AAXX 11154 67531 NIL=
201403111200 AAXX 11124 67531 NIL=
201403110600 AAXX 11064 67531 12380 70501 10216 20206 48/// 69904 8167/
                   333 10294 20199 59002 81707 87360=
201403102100 AAXX 10214 67531 NIL=
201403101800 AAXX 10184 67531 NIL=
201403101500 AAXX 10154 67531 NIL=
201403101200 AAXX 10124 67531 NIL=
201403100900 AAXX 10094 67531 NIL=
201403100600 AAXX 10064 67531 11980 80000 10201 20198 48/// 60014 79196 8277/
                   333 10298 20186 58012 82706 81931 88460=
201403100300 AAXX 10034 67531 NIL=
201403092100 AAXX 09214 67531 NIL=
201403091800 AAXX 09184 67531 NIL=
201403091500 AAXX 09154 67531 NIL=
201403091200 AAXX 09124 67531 NIL=
201403090900 AAXX 09094 67531 NIL=
201403090600 AAXX 09064 67531 NIL=
201403090300 AAXX 09034 67531 NIL=
201403090000 AAXX 09004 67531 NIL=
201403081800 AAXX 08184 67531 NIL=
201403081500 AAXX 08154 67531 NIL=
201403081200 AAXX 08124 67531 NIL=
201403080900 AAXX 08094 67531 NIL=
201403080600 AAXX 08064 67531 NIL=
201403080300 AAXX 08034 67531 NIL=
201403080000 AAXX 08004 67531 NIL=
201403072100 AAXX 07214 67531 NIL=
201403071500 AAXX 07154 67531 NIL=
201403071200 AAXX 07124 67531 NIL=
201403070900 AAXX 07094 67531 NIL=
201403070600 AAXX 07064 67531 12380 71301 10187 20184 48/// 60034 70222 8163/
                   333 10266 20188 59013 81707 87362=
201403061800 AAXX 06184 67531 NIL=
201403061500 AAXX 06154 67531 NIL=
201403061200 AAXX 06124 67531 NIL=
201403060900 AAXX 06094 67531 NIL=
201403060600 AAXX 06064 67531 11380 73201 10195 20198 48/// 60074 76066 8277/
                   333 10316 20181 58010 82706 87460=
201403052100 AAXX 05214 67531 NIL=
201403051800 AAXX 05184 67531 NIL=
201403051500 AAXX 05154 67531 NIL=
201403051200 AAXX 05124 67531 42680 51506 10297 20219 48/// 85132
                   333 5//// 85835 81361 81081=
201403050900 AAXX 05094 67531 42680 30601 10280 20209 48/// 83132
                   333 58002 83830 83830 81361 81081=
201403050600 AAXX 05064 67531 32980 20000 10226 20203 48/// 82230
                   333 10317 20190 58004 82837 81361=
201403050300 AAXX 05034 67531 NIL=
201403050000 AAXX 05004 67531 NIL=
201403042100 AAXX 04214 67531 NIL=
201403041800 AAXX 04184 67531 NIL=
201403041500 AAXX 04154 67531 NIL=
201403041200 AAXX 04124 67531 NIL=
201403040900 AAXX 04094 67531 NIL=
201403040600 AAXX 04064 67531 12380 70906 10211 20195 48/// 60084 8167/
                   333 10259 20199 58003 81607 87360=
201403040300 AAXX 04034 67531 NIL=
201403040000 AAXX 04004 67531 NIL=
201403031800 AAXX 03184 67531 NIL=
201403031500 AAXX 03154 67531 NIL=
201403031200 AAXX 03124 67531 41580 72106 10232 20199 48/// 71792 8487/
                   333 5//// 81920 81820 83620 87362=
201403030900 AAXX 03094 67531 NIL=
201403030600 AAXX 03064 67531 12980 70301 10206 20193 48/// 60024 70222 8707/
                   333 10293 20200 59005 87360=
201403030300 AAXX 03034 67531 NIL=
201403030000 AAXX 03004 67531 NIL=
201403022100 AAXX 02214 67531 NIL=
201403021800 AAXX 02184 67531 NIL=
201403021500 AAXX 02154 67531 NIL=
201403021200 AAXX 02124 67531 NIL=
201403020900 AAXX 02094 67531 NIL=
201403020600 AAXX 02064 67531 NIL=
201403020300 AAXX 02034 67531 NIL=
201403020000 AAXX 02004 67531 NIL=
201403012100 AAXX 01214 67531 NIL=
201403011800 AAXX 01184 67531 NIL=
201403011500 AAXX 01154 67531 NIL=
201403011200 AAXX 01121 67531 NIL=
201403010900 AAXX 01094 67531 NIL=
201403010600 AAXX 01064 67531 NIL=

################################################################################
#  SYNOPS from 67541, Kasempa (Zambia) | 13-32S | 025-51E | 1234 m
################################################################################
201403310300 AAXX 31034 67541 NIL=
201403310000 AAXX 31004 67541 NIL=
201403302100 AAXX 30214 67541 NIL=
201403301800 AAXX 30184 67541 NIL=
201403301500 AAXX 30154 67541 NIL=
201403301200 AAXX 30124 67541 NIL=
201403300900 AAXX 30094 67541 NIL=
201403300600 AAXX 30064 67541 NIL=
201403300000 AAXX 30004 67541 NIL=
201403292100 AAXX 29214 67541 NIL=
201403291800 AAXX 29184 67541 NIL=
201403291500 AAXX 29154 67541 NIL=
201403291200 AAXX 29124 67541 NIL=
201403290900 AAXX 29094 67541 NIL=
201403290600 AAXX 29064 67541 NIL=
201403290000 AAXX 29004 67541 NIL=
201403282100 AAXX 28214 67541 NIL=
201403281800 AAXX 28184 67541 NIL=
201403281500 AAXX 28150 67541 NIL=
201403281200 AAXX 28121 67541 NIL=
201403280900 AAXX 28094 67541 NIL=
201403280600 AAXX 28064 67541 32980 70604 10202 20183 48512 8703/
                   333 10/// 20/// 58006 87360=
201403280300 AAXX 28034 67541 NIL=
201403280000 AAXX 28004 67541 NIL=
201403272100 AAXX 27214 67541 NIL=
201403271500 AAXX 27154 67541 NIL=
201403271200 AAXX 27124 67541 NIL=
201403270900 AAXX 27094 67541 NIL=
201403270600 AAXX 27064 67541 NIL=
201403270300 AAXX 27034 67541 NIL=
201403270000 AAXX 27004 67541 NIL=
201403262100 AAXX 26214 67541 NIL=
201403261500 AAXX 26154 67541 NIL=
201403261200 AAXX 26124 67541 NIL=
201403260900 AAXX 26094 67541 NIL=
201403260600 AAXX 26064 67541 32980 10703 10206 20180 48507 70222 80001
                   333 10/// 20/// 59010 81080=
201403260300 AAXX 26034 67541 NIL=
201403260000 AAXX 26004 67541 NIL=
201403252100 AAXX 25214 67541 NIL=
201403251800 AAXX 25184 67541 NIL=
201403251500 AAXX 25154 67541 NIL=
201403251200 AAXX 25124 67541 NIL=
201403250900 AAXX 25094 67541 NIL=
201403250600 AAXX 25064 67541 NIL=
201403241800 AAXX 24184 67541 NIL=
201403241500 AAXX 24154 67541 NIL=
201403241200 AAXX 24124 67541 NIL=
201403240900 AAXX 24094 67541 NIL=
201403240600 AAXX 24064 67541 12380 10603 10211 20187 48522 69904 81500
                   333 10/// 20/// 59003 81606=
201403240300 AAXX 24034 67541 NIL=
201403240000 AAXX 24004 67541 NIL=
201403232100 AAXX 23214 67541 NIL=
201403231800 AAXX 23184 67541 NIL=
201403231500 AAXX 23154 67541 NIL=
201403231200 AAXX 23124 67541 NIL=
201403230600 AAXX 23064 67541 NIL=
201403230300 AAXX 23034 67541 NIL=
201403230000 AAXX 23004 67541 NIL=
201403222100 AAXX 22214 67541 NIL=
201403221800 AAXX 22184 67541 NIL=
201403221500 AAXX 22154 67541 NIL=
201403221200 AAXX 22124 67541 NIL=
201403220900 AAXX 22094 67541 NIL=
201403220600 AAXX 22064 67541 NIL=
201403220300 AAXX 22034 67541 NIL=
201403220000 AAXX 22004 67541 NIL=
201403212100 AAXX 21214 67541 NIL=
201403211800 AAXX 21184 67541 NIL=
201403211200 AAXX 21124 67541 NIL=
201403210900 AAXX 21094 67541 NIL=
201403210600 AAXX 21064 67541 32980 70603 10193 20193 48520 8703/
                   333 10/// 20/// 59002 87360=
201403210300 AAXX 21034 67541 NIL=
201403210000 AAXX 21004 67541 NIL=
201403202100 AAXX 20214 67541 NIL=
201403201800 AAXX 20184 67541 NIL=
201403201500 AAXX 20154 67541 NIL=
201403201200 AAXX 20124 67541 NIL=
201403200900 AAXX 20094 67541 NIL=
201403200600 AAXX 20064 67541 NIL=
201403200300 AAXX 20034 67541 NIL=
201403200000 AAXX 20004 67541 NIL=
201403192100 AAXX 19214 67541 NIL=
201403191800 AAXX 19184 67541 NIL=
201403191200 AAXX 19124 67541 NIL=
201403190900 AAXX 19094 67541 NIL=
201403190600 AAXX 19064 67541 32980 70603 10213 20197 48512 83034
                   333 10/// 20/// 59003 83360 84080=
201403181800 AAXX 18184 67541 NIL=
201403181500 AAXX 18154 67541 NIL=
201403181200 AAXX 18124 67541 NIL=
201403180900 AAXX 18094 67541 NIL=
201403180600 AAXX 18064 67541 12980 70403 10201 20193 48515 60014 70222 8703/
                   333 10/// 20/// 59007 87360=
201403180000 AAXX 18004 67541 NIL=
201403172100 AAXX 17214 67541 NIL=
201403171800 AAXX 17184 67541 NIL=
201403171500 AAXX 17154 67541 NIL=
201403171200 AAXX 17124 67541 NIL=
201403170900 AAXX 17094 67541 NIL=
201403170600 AAXX 17064 67541 NIL=
201403161200 AAXX 16124 67541 NIL=
201403160900 AAXX 16094 67541 NIL=
201403160600 AAXX 16064 67541 NIL=
201403160300 AAXX 16034 67541 NIL=
201403160000 AAXX 16004 67541 NIL=
201403152100 AAXX 15214 67541 NIL=
201403151800 AAXX 15184 67541 NIL=
201403151500 AAXX 15154 67541 NIL=
201403151200 AAXX 15124 67541 NIL=
201403150900 AAXX 15094 67541 NIL=
201403150600 AAXX 15064 67541 NIL=
201403150300 AAXX 15034 67541 NIL=
201403141800 AAXX 14184 67541 NIL=
201403141500 AAXX 14154 67541 NIL=
201403141200 AAXX 14124 67541 NIL=
201403140900 AAXX 14094 67541 NIL=
201403140600 AAXX 14064 67541 12380 70603 10189 20175 48537 60084 70222 8253/
                   333 10/// 20/// 58007 82606 87360=
201403140300 AAXX 14034 67541 NIL=
201403140000 AAXX 14004 67541 NIL=
201403132100 AAXX 13214 67541 NIL=
201403131800 AAXX 13184 67541 NIL=
201403131200 AAXX 13124 67541 NIL=
201403130900 AAXX 13094 67541 NIL=
201403130600 AAXX 13064 67541 12980 40603 10184 20178 48530 60014 70222 83031
                   333 10/// 20/// 58002 83360 81080
                   555 00/// 20006=
201403121800 AAXX 12184 67541 NIL=
201403121200 AAXX 12124 67541 NIL=
201403120900 AAXX 12094 67541 NIL=
201403120600 AAXX 12064 67541 11370 70305 10187 20181 48528 60064 76062 8363/
                   333 10/// 20/// 58015 83706 87360
                   555 00/// 20004=
201403120300 AAXX 12034 67541 NIL=
201403120000 AAXX 12004 67541 NIL=
201403112100 AAXX 11214 67541 NIL=
201403111800 AAXX 11184 67541 NIL=
201403111500 AAXX 11154 67541 NIL=
201403111200 AAXX 11124 67541 NIL=
201403110600 AAXX 11064 67541 12360 70603 10201 20195 48513 60044 70222 8253/
                   333 00/// 20/// 58004 82607 87360
                   555 00/// 20035=
201403102100 AAXX 10214 67541 NIL=
201403101800 AAXX 10184 67541 NIL=
201403101500 AAXX 10154 67541 NIL=
201403101200 AAXX 10124 67541 NIL=
201403100900 AAXX 10094 67541 NIL=
201403100600 AAXX 10064 67541 11365 70000 10179 20179 48508 60354 76062 8363/
                   333 10/// 20/// 59007 83706 87360=
201403100300 AAXX 10034 67541 NIL=
201403092100 AAXX 09214 67541 NIL=
201403091800 AAXX 09184 67541 NIL=
201403091500 AAXX 09154 67541 NIL=
201403091200 AAXX 09124 67541 NIL=
201403090900 AAXX 09094 67541 NIL=
201403090600 AAXX 09064 67541 NIL=
201403090300 AAXX 09034 67541 NIL=
201403090000 AAXX 09004 67541 NIL=
201403081800 AAXX 08184 67541 NIL=
201403081500 AAXX 08154 67541 NIL=
201403081200 AAXX 08124 67541 NIL=
201403080900 AAXX 08094 67541 NIL=
201403080600 AAXX 08064 67541 NIL=
201403080300 AAXX 08034 67541 NIL=
201403080000 AAXX 08004 67541 NIL=
201403072100 AAXX 07214 67541 NIL=
201403071500 AAXX 07154 67541 NIL=
201403071200 AAXX 07124 67541 NIL=
201403070900 AAXX 07094 67541 NIL=
201403070600 AAXX 07064 67541 12980 70603 10183 20183 48508 60104 70222 8703/
                   333 10/// 20/// 59004 87360=
201403061800 AAXX 06184 67541 NIL=
201403061500 AAXX 06154 67541 NIL=
201403061200 AAXX 06124 67541 NIL=
201403060900 AAXX 06094 67541 NIL=
201403060600 AAXX 06064 67541 32980 50000 10211 20193 48512 70222 84031
                   333 10/// 20/// 58003 84360 81080=
201403052100 AAXX 05214 67541 NIL=
201403051800 AAXX 05184 67541 NIL=
201403051500 AAXX 05154 67541 NIL=
201403051200 AAXX 05124 67541 NIL=
201403050900 AAXX 05094 67541 NIL=
201403050600 AAXX 05064 67541 12980 20303 10212 20193 48509 60074 82030
                   333 10/// 20/// 59005 82360=
201403050300 AAXX 05034 67541 NIL=
201403050000 AAXX 05004 67541 NIL=
201403042100 AAXX 04214 67541 NIL=
201403041800 AAXX 04184 67541 NIL=
201403041500 AAXX 04154 67541 NIL=
201403041200 AAXX 04124 67541 NIL=
201403040900 AAXX 04094 67541 NIL=
201403040600 AAXX 04064 67541 NIL=
201403040300 AAXX 04034 67541 NIL=
201403040000 AAXX 04004 67541 NIL=
201403031800 AAXX 03184 67541 NIL=
201403031500 AAXX 03154 67541 NIL=
201403031200 AAXX 03124 67541 NIL=
201403030900 AAXX 03094 67541 NIL=
201403030600 AAXX 03064 67541 12980 70403 10188 20185 48513 60034 70222 8703/
                   333 10/// 20/// 58000 87360=
201403030300 AAXX 03034 67541 NIL=
201403030000 AAXX 03004 67541 NIL=
201403022100 AAXX 02214 67541 NIL=
201403021800 AAXX 02184 67541 NIL=
201403021500 AAXX 02154 67541 NIL=
201403021200 AAXX 02124 67541 NIL=
201403020900 AAXX 02094 67541 NIL=
201403020600 AAXX 02064 67541 NIL=
201403020300 AAXX 02034 67541 NIL=
201403020000 AAXX 02004 67541 NIL=
201403012100 AAXX 01214 67541 NIL=
201403011800 AAXX 01184 67541 NIL=
201403011500 AAXX 01154 67541 NIL=
201403011200 AAXX 01121 67541 NIL=
201403010900 AAXX 01094 67541 NIL=
201403010600 AAXX 01064 67541 NIL=

################################################################################
#  SYNOPS from 67543, Kabompo (Zambia) | 13-36S | 024-12E | 1075 m
################################################################################
201403310300 AAXX 31034 67543 NIL=
201403310000 AAXX 31004 67543 NIL=
201403302100 AAXX 30214 67543 NIL=
201403301800 AAXX 30184 67543 NIL=
201403301500 AAXX 30154 67543 NIL=
201403301200 AAXX 30124 67543 NIL=
201403300900 AAXX 30094 67543 NIL=
201403300600 AAXX 30064 67543 NIL=
201403300000 AAXX 30004 67543 NIL=
201403292100 AAXX 29214 67543 NIL=
201403291800 AAXX 29184 67543 NIL=
201403291500 AAXX 29154 67543 NIL=
201403291200 AAXX 29124 67543 NIL=
201403290900 AAXX 29094 67543 NIL=
201403290600 AAXX 29064 67543 NIL=
201403290000 AAXX 29004 67543 NIL=
201403282100 AAXX 28214 67543 NIL=
201403281800 AAXX 28184 67543 NIL=
201403281500 AAXX 28150 67543 NIL=
201403281200 AAXX 28121 67543 NIL=
201403280900 AAXX 28094 67543 NIL=
201403280600 AAXX 28064 67543 NIL=
201403280300 AAXX 28034 67543 NIL=
201403280000 AAXX 28004 67543 NIL=
201403272100 AAXX 27214 67543 NIL=
201403271500 AAXX 27154 67543 NIL=
201403271200 AAXX 27124 67543 NIL=
201403270900 AAXX 27094 67543 NIL=
201403270600 AAXX 27064 67543 NIL=
201403270300 AAXX 27034 67543 NIL=
201403270000 AAXX 27004 67543 NIL=
201403262100 AAXX 26214 67543 NIL=
201403261500 AAXX 26154 67543 NIL=
201403261200 AAXX 26124 67543 NIL=
201403260900 AAXX 26094 67543 NIL=
201403260600 AAXX 26064 67543 NIL=
201403260300 AAXX 26034 67543 NIL=
201403260000 AAXX 26004 67543 NIL=
201403252100 AAXX 25214 67543 NIL=
201403251800 AAXX 25184 67543 NIL=
201403251500 AAXX 25154 67543 NIL=
201403251200 AAXX 25124 67543 NIL=
201403250900 AAXX 25094 67543 NIL=
201403250600 AAXX 25064 67543 NIL=
201403241800 AAXX 24184 67543 NIL=
201403241500 AAXX 24154 67543 NIL=
201403241200 AAXX 24124 67543 NIL=
201403240900 AAXX 24094 67543 NIL=
201403240600 AAXX 24064 67543 NIL=
201403240300 AAXX 24034 67543 NIL=
201403240000 AAXX 24004 67543 NIL=
201403232100 AAXX 23214 67543 NIL=
201403231800 AAXX 23184 67543 NIL=
201403231500 AAXX 23154 67543 NIL=
201403231200 AAXX 23124 67543 NIL=
201403230600 AAXX 23064 67543 NIL=
201403230300 AAXX 23034 67543 NIL=
201403230000 AAXX 23004 67543 NIL=
201403222100 AAXX 22214 67543 NIL=
201403221800 AAXX 22184 67543 NIL=
201403221500 AAXX 22154 67543 NIL=
201403221200 AAXX 22124 67543 NIL=
201403220900 AAXX 22094 67543 NIL=
201403220600 AAXX 22064 67543 NIL=
201403220300 AAXX 22034 67543 NIL=
201403220000 AAXX 22004 67543 NIL=
201403212100 AAXX 21214 67543 NIL=
201403211800 AAXX 21184 67543 NIL=
201403211200 AAXX 21124 67543 NIL=
201403210900 AAXX 21094 67543 NIL=
201403210600 AAXX 21064 67543 NIL=
201403210300 AAXX 21034 67543 NIL=
201403210000 AAXX 21004 67543 NIL=
201403202100 AAXX 20214 67543 NIL=
201403201800 AAXX 20184 67543 NIL=
201403201500 AAXX 20154 67543 NIL=
201403201200 AAXX 20124 67543 NIL=
201403200900 AAXX 20094 67543 NIL=
201403200600 AAXX 20064 67543 NIL=
201403200300 AAXX 20034 67543 NIL=
201403200000 AAXX 20004 67543 NIL=
201403192100 AAXX 19214 67543 NIL=
201403191800 AAXX 19184 67543 NIL=
201403191200 AAXX 19124 67543 NIL=
201403190900 AAXX 19094 67543 NIL=
201403190600 AAXX 19064 67543 NIL=
201403181800 AAXX 18184 67543 NIL=
201403181500 AAXX 18154 67543 NIL=
201403181200 AAXX 18124 67543 NIL=
201403180900 AAXX 18094 67543 NIL=
201403180600 AAXX 18064 67543 NIL=
201403180000 AAXX 18004 67543 NIL=
201403172100 AAXX 17214 67543 NIL=
201403171800 AAXX 17184 67543 NIL=
201403171500 AAXX 17154 67543 NIL=
201403171200 AAXX 17124 67543 NIL=
201403170900 AAXX 17094 67543 NIL=
201403170600 AAXX 17064 67543 NIL=
201403161200 AAXX 16124 67543 NIL=
201403160900 AAXX 16094 67543 NIL=
201403160600 AAXX 16064 67543 NIL=
201403160300 AAXX 16034 67543 NIL=
201403160000 AAXX 16004 67543 NIL=
201403152100 AAXX 15214 67543 NIL=
201403151800 AAXX 15184 67543 NIL=
201403151500 AAXX 15154 67543 NIL=
201403151200 AAXX 15124 67543 NIL=
201403150900 AAXX 15094 67543 NIL=
201403150600 AAXX 15064 67543 NIL=
201403150300 AAXX 15034 67543 NIL=
201403141800 AAXX 14184 67543 NIL=
201403141500 AAXX 14154 67543 NIL=
201403141200 AAXX 14124 67543 NIL=
201403140900 AAXX 14094 67543 NIL=
201403140600 AAXX 14064 67543 NIL=
201403140300 AAXX 14034 67543 NIL=
201403140000 AAXX 14004 67543 NIL=
201403132100 AAXX 13214 67543 NIL=
201403131800 AAXX 13184 67543 NIL=
201403131200 AAXX 13124 67543 NIL=
201403130900 AAXX 13094 67543 NIL=
201403130600 AAXX 13064 67543 NIL=
201403121800 AAXX 12184 67543 NIL=
201403121200 AAXX 12124 67543 NIL=
201403120900 AAXX 12094 67543 NIL=
201403120600 AAXX 12064 67543 NIL=
201403120300 AAXX 12034 67543 NIL=
201403120000 AAXX 12004 67543 NIL=
201403112100 AAXX 11214 67543 NIL=
201403111800 AAXX 11184 67543 NIL=
201403111500 AAXX 11154 67543 NIL=
201403111200 AAXX 11124 67543 NIL=
201403110600 AAXX 11064 67543 NIL=
201403102100 AAXX 10214 67543 NIL=
201403101800 AAXX 10184 67543 NIL=
201403101500 AAXX 10154 67543 NIL=
201403101200 AAXX 10124 67543 NIL=
201403100900 AAXX 10094 67543 NIL=
201403100600 AAXX 10064 67543 NIL=
201403100300 AAXX 10034 67543 NIL=
201403092100 AAXX 09214 67543 NIL=
201403091800 AAXX 09184 67543 NIL=
201403091500 AAXX 09154 67543 NIL=
201403091200 AAXX 09124 67543 NIL=
201403090900 AAXX 09094 67543 NIL=
201403090600 AAXX 09064 67543 NIL=
201403090300 AAXX 09034 67543 NIL=
201403090000 AAXX 09004 67543 NIL=
201403081800 AAXX 08184 67543 NIL=
201403081500 AAXX 08154 67543 NIL=
201403081200 AAXX 08124 67543 NIL=
201403080900 AAXX 08094 67543 NIL=
201403080600 AAXX 08064 67543 NIL=
201403080300 AAXX 08034 67543 NIL=
201403080000 AAXX 08004 67543 NIL=
201403072100 AAXX 07214 67543 NIL=
201403071500 AAXX 07154 67543 NIL=
201403071200 AAXX 07124 67543 NIL=
201403070900 AAXX 07094 67543 NIL=
201403070600 AAXX 07064 67543 NIL=
201403061800 AAXX 06184 67543 NIL=
201403061500 AAXX 06154 67543 NIL=
201403061200 AAXX 06124 67543 NIL=
201403060900 AAXX 06094 67543 NIL=
201403060600 AAXX 06064 67543 NIL=
201403052100 AAXX 05214 67543 NIL=
201403051800 AAXX 05184 67543 NIL=
201403051500 AAXX 05154 67543 NIL=
201403051200 AAXX 05124 67543 NIL=
201403050900 AAXX 05094 67543 NIL=
201403050600 AAXX 05064 67543 NIL=
201403050300 AAXX 05034 67543 NIL=
201403050000 AAXX 05004 67543 NIL=
201403042100 AAXX 04214 67543 NIL=
201403041800 AAXX 04184 67543 NIL=
201403041500 AAXX 04154 67543 NIL=
201403041200 AAXX 04124 67543 NIL=
201403040900 AAXX 04094 67543 NIL=
201403040600 AAXX 04064 67543 NIL=
201403040300 AAXX 04034 67543 NIL=
201403040000 AAXX 04004 67543 NIL=
201403031800 AAXX 03184 67543 NIL=
201403031500 AAXX 03154 67543 NIL=
201403031200 AAXX 03124 67543 NIL=
201403030900 AAXX 03094 67543 NIL=
201403030600 AAXX 03064 67543 NIL=
201403030300 AAXX 03034 67543 NIL=
201403030000 AAXX 03004 67543 NIL=
201403022100 AAXX 02214 67543 NIL=
201403021800 AAXX 02184 67543 NIL=
201403021500 AAXX 02154 67543 NIL=
201403021200 AAXX 02124 67543 NIL=
201403020900 AAXX 02094 67543 NIL=
201403020600 AAXX 02064 67543 NIL=
201403020300 AAXX 02034 67543 NIL=
201403020000 AAXX 02004 67543 NIL=
201403012100 AAXX 01214 67543 NIL=
201403011800 AAXX 01184 67543 NIL=
201403011500 AAXX 01154 67543 NIL=
201403011200 AAXX 01121 67543 NIL=
201403010900 AAXX 01094 67543 NIL=
201403010600 AAXX 01064 67543 NIL=

################################################################################
#  SYNOPS from 67551, Solwezi (Zambia) | 12-11S | 026-23E | 1386 m
################################################################################
201403310300 AAXX 31034 67551 NIL=
201403310000 AAXX 31004 67551 NIL=
201403302100 AAXX 30214 67551 NIL=
201403301800 AAXX 30184 67551 NIL=
201403301500 AAXX 30154 67551 NIL=
201403301200 AAXX 30124 67551 NIL=
201403300900 AAXX 30094 67551 NIL=
201403300600 AAXX 30064 67551 NIL=
201403300000 AAXX 30004 67551 NIL=
201403292100 AAXX 29214 67551 NIL=
201403291800 AAXX 29184 67551 NIL=
201403291500 AAXX 29154 67551 NIL=
201403291200 AAXX 29124 67551 NIL=
201403290900 AAXX 29094 67551 NIL=
201403290600 AAXX 29064 67551 NIL=
201403290000 AAXX 29004 67551 NIL=
201403282100 AAXX 28214 67551 NIL=
201403281800 AAXX 28184 67551 NIL=
201403281500 AAXX 28150 67551 NIL=
201403281200 AAXX 28121 67551 NIL=
201403280900 AAXX 28094 67551 NIL=
201403280600 AAXX 28064 67551 11358 73203 10176 20176 48522 76066 8277/
                   333 10271 20171 58005 82707 87362 91019=
201403280300 AAXX 28034 67551 NIL=
201403280000 AAXX 28004 67551 NIL=
201403272100 AAXX 27214 67551 NIL=
201403271500 AAXX 27154 67551 NIL=
201403271200 AAXX 27124 67551 NIL=
201403270900 AAXX 27094 67551 NIL=
201403270600 AAXX 27064 67551 32980 70804 10190 20181 48519 8117/
                   333 10286 20177 59001 81810 87362 91019=
201403270300 AAXX 27034 67551 NIL=
201403270000 AAXX 27004 67551 NIL=
201403262100 AAXX 26214 67551 NIL=
201403261500 AAXX 26154 67551 NIL=
201403261200 AAXX 26124 67551 NIL=
201403260900 AAXX 26094 67551 NIL=
201403260600 AAXX 26064 67551 12980 30000 1//// 20178 48508 83030
                   333 10292 20169 59008 83363 91019=
201403260300 AAXX 26034 67551 NIL=
201403260000 AAXX 26004 67551 NIL=
201403252100 AAXX 25214 67551 NIL=
201403251800 AAXX 25184 67551 NIL=
201403251500 AAXX 25154 67551 NIL=
201403251200 AAXX 25124 67551 NIL=
201403250900 AAXX 25094 67551 NIL=
201403250600 AAXX 25064 67551 NIL=
201403241800 AAXX 24184 67551 NIL=
201403241500 AAXX 24154 67551 NIL=
201403241200 AAXX 24124 67551 NIL=
201403240900 AAXX 24094 67551 NIL=
201403240600 AAXX 24064 67551 12980 60000 10203 20182 48528 60084 86030
                   333 10279 20169 58003 86362 91019=
201403240300 AAXX 24034 67551 NIL=
201403240000 AAXX 24004 67551 NIL=
201403232100 AAXX 23214 67551 NIL=
201403231800 AAXX 23184 67551 NIL=
201403231500 AAXX 23154 67551 NIL=
201403231200 AAXX 23124 67551 NIL=
201403230600 AAXX 23064 67551 NIL=
201403230300 AAXX 23034 67551 NIL=
201403230000 AAXX 23004 67551 NIL=
201403222100 AAXX 22214 67551 NIL=
201403221800 AAXX 22184 67551 NIL=
201403221500 AAXX 22154 67551 NIL=
201403221200 AAXX 22124 67551 NIL=
201403220900 AAXX 22094 67551 NIL=
201403220600 AAXX 22064 67551 NIL=
201403220300 AAXX 22034 67551 NIL=
201403220000 AAXX 22004 67551 NIL=
201403212100 AAXX 21214 67551 NIL=
201403211800 AAXX 21184 67551 NIL=
201403211200 AAXX 21124 67551 NIL=
201403210900 AAXX 21094 67551 NIL=
201403210600 AAXX 21064 67551 NIL=
201403210300 AAXX 21034 67551 NIL=
201403210000 AAXX 21004 67551 NIL=
201403202100 AAXX 20214 67551 NIL=
201403201800 AAXX 20184 67551 NIL=
201403201500 AAXX 20154 67551 NIL=
201403201200 AAXX 20124 67551 NIL=
201403200900 AAXX 20094 67551 NIL=
201403200600 AAXX 20064 67551 NIL=
201403200300 AAXX 20034 67551 NIL=
201403200000 AAXX 20004 67551 NIL=
201403192100 AAXX 19214 67551 NIL=
201403191800 AAXX 19184 67551 NIL=
201403191200 AAXX 19124 67551 NIL=
201403190900 AAXX 19094 67551 NIL=
201403190600 AAXX 19064 67551 NIL=
201403181800 AAXX 18184 67551 NIL=
201403181500 AAXX 18154 67551 NIL=
201403181200 AAXX 18124 67551 NIL=
201403180900 AAXX 18094 67551 NIL=
201403180600 AAXX 18064 67551 NIL=
201403180000 AAXX 18004 67551 NIL=
201403172100 AAXX 17214 67551 NIL=
201403171800 AAXX 17184 67551 NIL=
201403171500 AAXX 17154 67551 NIL=
201403171200 AAXX 17124 67551 NIL=
201403170900 AAXX 17094 67551 NIL=
201403170600 AAXX 17064 67551 NIL=
201403161200 AAXX 16124 67551 NIL=
201403160900 AAXX 16094 67551 NIL=
201403160600 AAXX 16064 67551 NIL=
201403160300 AAXX 16034 67551 NIL=
201403160000 AAXX 16004 67551 NIL=
201403152100 AAXX 15214 67551 NIL=
201403151800 AAXX 15184 67551 NIL=
201403151500 AAXX 15154 67551 NIL=
201403151200 AAXX 15124 67551 NIL=
201403150900 AAXX 15094 67551 NIL=
201403150600 AAXX 15064 67551 NIL=
201403150300 AAXX 15034 67551 NIL=
201403141800 AAXX 14184 67551 NIL=
201403141500 AAXX 14154 67551 NIL=
201403141200 AAXX 14124 67551 NIL=
201403140900 AAXX 14094 67551 NIL=
201403140600 AAXX 14064 67551 12370 72805 10177 20177 60054 72844 876//
                   333 10294 20170 59002 87708 91022=
201403140300 AAXX 14034 67551 NIL=
201403140000 AAXX 14004 67551 NIL=
201403132100 AAXX 13214 67551 NIL=
201403131800 AAXX 13184 67551 NIL=
201403131200 AAXX 13124 67551 NIL=
201403130900 AAXX 13094 67551 NIL=
201403130600 AAXX 13064 67551 NIL=
201403121800 AAXX 12184 67551 NIL=
201403121200 AAXX 12124 67551 NIL=
201403120900 AAXX 12094 67551 NIL=
201403120600 AAXX 12064 67551 11370 83406 10176 20176 48540 60474 76166 8277/
                   333 10272 20166 58018 82707 88362
                   555 00/// 20024 QNH 1021.0=
201403120300 AAXX 12034 67551 NIL=
201403120000 AAXX 12004 67551 NIL=
201403112100 AAXX 11214 67551 NIL=
201403111800 AAXX 11184 67551 NIL=
201403111500 AAXX 11154 67551 NIL=
201403111200 AAXX 11124 67551 NIL=
201403110600 AAXX 11064 67551 12382 70000 10183 20173 48524 60244 8177/
                   333 10265 20175 58013 81707 87362
                   555 00/// 20035 91020=
201403102100 AAXX 10214 67551 NIL=
201403101800 AAXX 10184 67551 NIL=
201403101500 AAXX 10154 67551 NIL=
201403101200 AAXX 10124 67551 NIL=
201403100900 AAXX 10094 67551 NIL=
201403100600 AAXX 10064 67551 NIL=
201403100300 AAXX 10034 67551 NIL=
201403092100 AAXX 09214 67551 NIL=
201403091800 AAXX 09184 67551 NIL=
201403091500 AAXX 09154 67551 NIL=
201403091200 AAXX 09124 67551 NIL=
201403090900 AAXX 09094 67551 NIL=
201403090600 AAXX 09064 67551 NIL=
201403090300 AAXX 09034 67551 NIL=
201403090000 AAXX 09004 67551 NIL=
201403081800 AAXX 08184 67551 NIL=
201403081500 AAXX 08154 67551 NIL=
201403081200 AAXX 08124 67551 NIL=
201403080900 AAXX 08094 67551 NIL=
201403080600 AAXX 08064 67551 NIL=
201403080300 AAXX 08034 67551 NIL=
201403080000 AAXX 08004 67551 NIL=
201403072100 AAXX 07214 67551 NIL=
201403071500 AAXX 07154 67551 NIL=
201403071200 AAXX 07124 67551 NIL=
201403070900 AAXX 07094 67551 NIL=
201403070600 AAXX 07064 67551 12380 70000 10190 20175 60194 8277/
                   333 10238 20158 59011 82707 87326 91019=
201403061800 AAXX 06184 67551 NIL=
201403061500 AAXX 06154 67551 NIL=
201403061200 AAXX 06124 67551 NIL=
201403060900 AAXX 06094 67551 NIL=
201403060600 AAXX 06064 67551 12482 72702 10202 20187 48524 60054 83530
                   333 10296 20166 58008 83610 86362
                   555 00/// 20000 91020=
201403052100 AAXX 05214 67551 NIL=
201403051800 AAXX 05184 67551 NIL=
201403051500 AAXX 05154 67551 NIL=
201403051200 AAXX 05124 67551 NIL=
201403050900 AAXX 05094 67551 NIL=
201403050600 AAXX 05064 67551 32975 23604 10212 20182 48516 70222 8707/
                   333 10288 20222 59012 82362 91019=
201403050300 AAXX 05034 67551 NIL=
201403050000 AAXX 05004 67551 NIL=
201403042100 AAXX 04214 67551 NIL=
201403041800 AAXX 04184 67551 NIL=
201403041500 AAXX 04154 67551 NIL=
201403041200 AAXX 04124 67551 NIL=
201403040900 AAXX 04094 67551 NIL=
201403040600 AAXX 04064 67551 32375 70807 10190 20174 48531 8257/
                   333 10291 20161 58011 82610 87362
                   555 00/// 20008=
201403040300 AAXX 04034 67551 NIL=
201403040000 AAXX 04004 67551 NIL=
201403031800 AAXX 03184 67551 NIL=
201403031500 AAXX 03154 67551 NIL=
201403031200 AAXX 03124 67551 NIL=
201403030900 AAXX 03094 67551 NIL=
201403030600 AAXX 03064 67551 12975 70000 10197 20176 48516 60084 8707/
                   333 10299 20175 58016 87362=
201403030300 AAXX 03034 67551 NIL=
201403030000 AAXX 03004 67551 NIL=
201403022100 AAXX 02214 67551 NIL=
201403021800 AAXX 02184 67551 NIL=
201403021500 AAXX 02154 67551 NIL=
201403021200 AAXX 02124 67551 NIL=
201403020900 AAXX 02094 67551 NIL=
201403020600 AAXX 02064 67551 NIL=
201403020300 AAXX 02034 67551 NIL=
201403020000 AAXX 02004 67551 NIL=
201403012100 AAXX 01214 67551 NIL=
201403011800 AAXX 01184 67551 NIL=
201403011500 AAXX 01154 67551 NIL=
201403011200 AAXX 01121 67551 NIL=
201403010900 AAXX 01094 67551 NIL=
201403010600 AAXX 01064 67551 NIL=

################################################################################
#  SYNOPS from 67561, Ndola (Zambia) | 13-00S | 028-39E | 1269 m
################################################################################
201403310300 AAXX 31034 67561 NIL=
201403310000 AAXX 31004 67561 NIL=
201403302100 AAXX 30214 67561 NIL=
201403301800 AAXX 30184 67561 NIL=
201403301500 AAXX 30154 67561 NIL=
201403301200 AAXX 30124 67561 NIL=
201403300900 AAXX 30094 67561 NIL=
201403300600 AAXX 30064 67561 NIL=
201403300000 AAXX 30004 67561 NIL=
201403292100 AAXX 29214 67561 NIL=
201403291800 AAXX 29184 67561 NIL=
201403291500 AAXX 29154 67561 NIL=
201403291200 AAXX 29124 67561 NIL=
201403290900 AAXX 29094 67561 NIL=
201403290600 AAXX 29064 67561 NIL=
201403290000 AAXX 29004 67561 NIL=
201403282100 AAXX 28214 67561 NIL=
201403281800 AAXX 28184 67561 NIL=
201403281500 AAXX 28150 67561 NIL=
201403281200 AAXX 28121 67561 NIL=
201403280900 AAXX 28094 67561 42580 70704 10254 20178 48532 85138
                   333 58012 85820 81360 87280 91020=
201403280600 AAXX 28064 67561 11302 80000 10181 20178 48519 60054 74642 8367/
                   333 10284 20166 58001 83703 88459
                   555 00/// 91019=
201403280300 AAXX 28034 67561 NIL=
201403280000 AAXX 28004 67561 NIL=
201403272100 AAXX 27214 67561 NIL=
201403271500 AAXX 27154 67561 NIL=
201403271200 AAXX 27124 67561 NIL=
201403270900 AAXX 27094 67561 NIL=
201403270600 AAXX 27064 67561 NIL=
201403270300 AAXX 27034 67561 NIL=
201403270000 AAXX 27004 67561 NIL=
201403262100 AAXX 26214 67561 NIL=
201403261500 AAXX 26154 67561 NIL=
201403261200 AAXX 26124 67561 NIL=
201403260900 AAXX 26094 67561 NIL=
201403260600 AAXX 26064 67561 NIL=
201403260300 AAXX 26034 67561 NIL=
201403260000 AAXX 26004 67561 NIL=
201403252100 AAXX 25214 67561 NIL=
201403251800 AAXX 25184 67561 NIL=
201403251500 AAXX 25154 67561 NIL=
201403251200 AAXX 25124 67561 NIL=
201403250900 AAXX 25094 67561 NIL=
201403250600 AAXX 25064 67561 NIL=
201403241800 AAXX 24184 67561 NIL=
201403241500 AAXX 24154 67561 NIL=
201403241200 AAXX 24124 67561 NIL=
201403240900 AAXX 24094 67561 NIL=
201403240600 AAXX 24064 67561 NIL=
201403240300 AAXX 24034 67561 NIL=
201403240000 AAXX 24004 67561 NIL=
201403232100 AAXX 23214 67561 NIL=
201403231800 AAXX 23184 67561 NIL=
201403231500 AAXX 23154 67561 NIL=
201403231200 AAXX 23124 67561 NIL=
201403230600 AAXX 23064 67561 NIL=
201403230300 AAXX 23034 67561 NIL=
201403230000 AAXX 23004 67561 NIL=
201403222100 AAXX 22214 67561 NIL=
201403221800 AAXX 22184 67561 NIL=
201403221500 AAXX 22154 67561 NIL=
201403221200 AAXX 22124 67561 NIL=
201403220900 AAXX 22094 67561 NIL=
201403220600 AAXX 22064 67561 NIL=
201403220300 AAXX 22034 67561 NIL=
201403220000 AAXX 22004 67561 NIL=
201403212100 AAXX 21214 67561 NIL=
201403211800 AAXX 21184 67561 NIL=
201403211200 AAXX 21124 67561 NIL=
201403210900 AAXX 21094 67561 42480 70705 10250 20192 48538 86232
                   333 58009 81910 86815 85360 82080 91021=
201403210600 AAXX 21064 67561 NIL=
201403210300 AAXX 21034 67561 NIL=
201403210000 AAXX 21004 67561 NIL=
201403202100 AAXX 20214 67561 NIL=
201403201800 AAXX 20184 67561 NIL=
201403201500 AAXX 20154 67561 NIL=
201403201200 AAXX 20124 67561 NIL=
201403200900 AAXX 20094 67561 NIL=
201403200600 AAXX 20064 67561 NIL=
201403200300 AAXX 20034 67561 NIL=
201403200000 AAXX 20004 67561 NIL=
201403192100 AAXX 19214 67561 NIL=
201403191800 AAXX 19184 67561 NIL=
201403191200 AAXX 19124 67561 NIL=
201403190900 AAXX 19094 67561 NIL=
201403190600 AAXX 19064 67561 NIL=
201403181800 AAXX 18184 67561 NIL=
201403181500 AAXX 18154 67561 NIL=
201403181200 AAXX 18124 67561 NIL=
201403180900 AAXX 18094 67561 NIL=
201403180600 AAXX 18064 67561 NIL=
201403180000 AAXX 18004 67561 NIL=
201403172100 AAXX 17214 67561 NIL=
201403171800 AAXX 17184 67561 NIL=
201403171500 AAXX 17154 67561 NIL=
201403171200 AAXX 17124 67561 NIL=
201403170900 AAXX 17094 67561 NIL=
201403170600 AAXX 17064 67561 NIL=
201403161200 AAXX 16124 67561 NIL=
201403160900 AAXX 16094 67561 NIL=
201403160600 AAXX 16064 67561 NIL=
201403160300 AAXX 16034 67561 NIL=
201403160000 AAXX 16004 67561 NIL=
201403152100 AAXX 15214 67561 NIL=
201403151800 AAXX 15184 67561 NIL=
201403151500 AAXX 15154 67561 NIL=
201403151200 AAXX 15124 67561 NIL=
201403150900 AAXX 15094 67561 NIL=
201403150600 AAXX 15064 67561 NIL=
201403150300 AAXX 15034 67561 NIL=
201403141800 AAXX 14184 67561 NIL=
201403141500 AAXX 14154 67561 NIL=
201403141200 AAXX 14124 67561 NIL=
201403140900 AAXX 14094 67561 NIL=
201403140600 AAXX 14064 67561 11975 70000 10209 20183 48536 69904 70522 84038
                   333 10284 20174 59001 84360 87280
                   555 00/// 20050 91021=
201403140300 AAXX 14034 67561 NIL=
201403140000 AAXX 14004 67561 NIL=
201403132100 AAXX 13214 67561 NIL=
201403131800 AAXX 13184 67561 NIL=
201403131200 AAXX 13124 67561 NIL=
201403130900 AAXX 13094 67561 NIL=
201403130600 AAXX 13064 67561 NIL=
201403121800 AAXX 12184 67561 NIL=
201403121200 AAXX 12124 67561 NIL=
201403120900 AAXX 12094 67561 NIL=
201403120600 AAXX 12064 67561 NIL=
201403120300 AAXX 12034 67561 NIL=
201403120000 AAXX 12004 67561 NIL=
201403112100 AAXX 11214 67561 NIL=
201403111800 AAXX 11184 67561 NIL=
201403111500 AAXX 11154 67561 NIL=
201403111200 AAXX 11124 67561 NIL=
201403110600 AAXX 11064 67561 NIL=
201403102100 AAXX 10214 67561 NIL=
201403101800 AAXX 10184 67561 NIL=
201403101500 AAXX 10154 67561 NIL=
201403101200 AAXX 10124 67561 NIL=
201403100900 AAXX 10094 67561 NIL=
201403100600 AAXX 10064 67561 NIL=
201403100300 AAXX 10034 67561 NIL=
201403092100 AAXX 09214 67561 NIL=
201403091800 AAXX 09184 67561 NIL=
201403091500 AAXX 09154 67561 NIL=
201403091200 AAXX 09124 67561 NIL=
201403090900 AAXX 09094 67561 NIL=
201403090600 AAXX 09064 67561 NIL=
201403090300 AAXX 09034 67561 NIL=
201403090000 AAXX 09004 67561 NIL=
201403081800 AAXX 08184 67561 NIL=
201403081500 AAXX 08154 67561 NIL=
201403081200 AAXX 08124 67561 NIL=
201403080900 AAXX 08094 67561 NIL=
201403080600 AAXX 08064 67561 NIL=
201403080300 AAXX 08034 67561 NIL=
201403080000 AAXX 08004 67561 NIL=
201403072100 AAXX 07214 67561 NIL=
201403071500 AAXX 07154 67561 NIL=
201403071200 AAXX 07124 67561 NIL=
201403070900 AAXX 07094 67561 42580 70804 10256 20182 48525 85138
                   333 58004 85820 86361 87280 91019=
201403070600 AAXX 07064 67561 11980 50000 10206 20173 48518 60024 83032
                   333 10294 20162 59002 83360 84080 91019=
201403061800 AAXX 06184 67561 NIL=
201403061500 AAXX 06154 67561 NIL=
201403061200 AAXX 06124 67561 NIL=
201403060900 AAXX 06094 67561 NIL=
201403060600 AAXX 06064 67561 NIL=
201403052100 AAXX 05214 67561 NIL=
201403051800 AAXX 05184 67561 NIL=
201403051500 AAXX 05154 67561 NIL=
201403051200 AAXX 05124 67561 NIL=
201403050900 AAXX 05094 67561 NIL=
201403050600 AAXX 05064 67561 NIL=
201403050300 AAXX 05034 67561 NIL=
201403050000 AAXX 05004 67561 NIL=
201403042100 AAXX 04214 67561 NIL=
201403041800 AAXX 04184 67561 NIL=
201403041500 AAXX 04154 67561 NIL=
201403041200 AAXX 04124 67561 NIL=
201403040900 AAXX 04094 67561 NIL=
201403040600 AAXX 04064 67561 NIL=
201403040300 AAXX 04034 67561 NIL=
201403040000 AAXX 04004 67561 NIL=
201403031800 AAXX 03184 67561 NIL=
201403031500 AAXX 03154 67561 NIL=
201403031200 AAXX 03124 67561 NIL=
201403030900 AAXX 03094 67561 NIL=
201403030600 AAXX 03064 67561 NIL=
201403030300 AAXX 03034 67561 NIL=
201403030000 AAXX 03004 67561 NIL=
201403022100 AAXX 02214 67561 NIL=
201403021800 AAXX 02184 67561 NIL=
201403021500 AAXX 02154 67561 NIL=
201403021200 AAXX 02124 67561 NIL=
201403020900 AAXX 02094 67561 NIL=
201403020600 AAXX 02064 67561 NIL=
201403020300 AAXX 02034 67561 NIL=
201403020000 AAXX 02004 67561 NIL=
201403012100 AAXX 01214 67561 NIL=
201403011800 AAXX 01184 67561 NIL=
201403011500 AAXX 01154 67561 NIL=
201403011200 AAXX 01121 67561 NIL=
201403010900 AAXX 01094 67561 NIL=
201403010600 AAXX 01064 67561 NIL=

################################################################################
#  SYNOPS from 67563, Kafironda (Zambia) | 12-36S | 028-07E | 1243 m
################################################################################
201403310300 AAXX 31034 67563 NIL=
201403310000 AAXX 31004 67563 NIL=
201403302100 AAXX 30214 67563 NIL=
201403301800 AAXX 30184 67563 NIL=
201403301500 AAXX 30154 67563 NIL=
201403301200 AAXX 30124 67563 NIL=
201403300900 AAXX 30094 67563 NIL=
201403300600 AAXX 30064 67563 NIL=
201403300000 AAXX 30004 67563 NIL=
201403292100 AAXX 29214 67563 NIL=
201403291800 AAXX 29184 67563 NIL=
201403291500 AAXX 29154 67563 NIL=
201403291200 AAXX 29124 67563 NIL=
201403290900 AAXX 29094 67563 NIL=
201403290600 AAXX 29064 67563 NIL=
201403290000 AAXX 29004 67563 NIL=
201403282100 AAXX 28214 67563 NIL=
201403281800 AAXX 28184 67563 NIL=
201403281500 AAXX 28150 67563 NIL=
201403281200 AAXX 28121 67563 NIL=
201403280900 AAXX 28094 67563 NIL=
201403280600 AAXX 28064 67563 NIL=
201403280300 AAXX 28034 67563 NIL=
201403280000 AAXX 28004 67563 NIL=
201403272100 AAXX 27214 67563 NIL=
201403271500 AAXX 27154 67563 NIL=
201403271200 AAXX 27124 67563 NIL=
201403270900 AAXX 27094 67563 NIL=
201403270600 AAXX 27064 67563 NIL=
201403270300 AAXX 27034 67563 NIL=
201403270000 AAXX 27004 67563 NIL=
201403262100 AAXX 26214 67563 NIL=
201403261500 AAXX 26154 67563 NIL=
201403261200 AAXX 26124 67563 NIL=
201403260900 AAXX 26094 67563 NIL=
201403260600 AAXX 26064 67563 NIL=
201403260300 AAXX 26034 67563 NIL=
201403260000 AAXX 26004 67563 NIL=
201403252100 AAXX 25214 67563 NIL=
201403251800 AAXX 25184 67563 NIL=
201403251500 AAXX 25154 67563 NIL=
201403251200 AAXX 25124 67563 NIL=
201403250900 AAXX 25094 67563 NIL=
201403250600 AAXX 25064 67563 NIL=
201403241800 AAXX 24184 67563 NIL=
201403241500 AAXX 24154 67563 NIL=
201403241200 AAXX 24124 67563 NIL=
201403240900 AAXX 24094 67563 NIL=
201403240600 AAXX 24064 67563 NIL=
201403240300 AAXX 24034 67563 NIL=
201403240000 AAXX 24004 67563 NIL=
201403232100 AAXX 23214 67563 NIL=
201403231800 AAXX 23184 67563 NIL=
201403231500 AAXX 23154 67563 NIL=
201403231200 AAXX 23124 67563 NIL=
201403230600 AAXX 23064 67563 NIL=
201403230300 AAXX 23034 67563 NIL=
201403230000 AAXX 23004 67563 NIL=
201403222100 AAXX 22214 67563 NIL=
201403221800 AAXX 22184 67563 NIL=
201403221500 AAXX 22154 67563 NIL=
201403221200 AAXX 22124 67563 NIL=
201403220900 AAXX 22094 67563 NIL=
201403220600 AAXX 22064 67563 NIL=
201403220300 AAXX 22034 67563 NIL=
201403220000 AAXX 22004 67563 NIL=
201403212100 AAXX 21214 67563 NIL=
201403211800 AAXX 21184 67563 NIL=
201403211200 AAXX 21124 67563 NIL=
201403210900 AAXX 21094 67563 NIL=
201403210600 AAXX 21064 67563 NIL=
201403210300 AAXX 21034 67563 NIL=
201403210000 AAXX 21004 67563 NIL=
201403202100 AAXX 20214 67563 NIL=
201403201800 AAXX 20184 67563 NIL=
201403201500 AAXX 20154 67563 NIL=
201403201200 AAXX 20124 67563 NIL=
201403200900 AAXX 20094 67563 NIL=
201403200600 AAXX 20064 67563 NIL=
201403200300 AAXX 20034 67563 NIL=
201403200000 AAXX 20004 67563 NIL=
201403192100 AAXX 19214 67563 NIL=
201403191800 AAXX 19184 67563 NIL=
201403191200 AAXX 19124 67563 NIL=
201403190900 AAXX 19094 67563 NIL=
201403190600 AAXX 19064 67563 NIL=
201403181800 AAXX 18184 67563 NIL=
201403181500 AAXX 18154 67563 NIL=
201403181200 AAXX 18124 67563 NIL=
201403180900 AAXX 18094 67563 NIL=
201403180600 AAXX 18064 67563 NIL=
201403180000 AAXX 18004 67563 NIL=
201403172100 AAXX 17214 67563 NIL=
201403171800 AAXX 17184 67563 NIL=
201403171500 AAXX 17154 67563 NIL=
201403171200 AAXX 17124 67563 NIL=
201403170900 AAXX 17094 67563 NIL=
201403170600 AAXX 17064 67563 NIL=
201403161200 AAXX 16124 67563 NIL=
201403160900 AAXX 16094 67563 NIL=
201403160600 AAXX 16064 67563 NIL=
201403160300 AAXX 16034 67563 NIL=
201403160000 AAXX 16004 67563 NIL=
201403152100 AAXX 15214 67563 NIL=
201403151800 AAXX 15184 67563 NIL=
201403151500 AAXX 15154 67563 NIL=
201403151200 AAXX 15124 67563 NIL=
201403150900 AAXX 15094 67563 NIL=
201403150600 AAXX 15064 67563 NIL=
201403150300 AAXX 15034 67563 NIL=
201403141800 AAXX 14184 67563 NIL=
201403141500 AAXX 14154 67563 NIL=
201403141200 AAXX 14124 67563 NIL=
201403140900 AAXX 14094 67563 NIL=
201403140600 AAXX 14064 67563 NIL=
201403140300 AAXX 14034 67563 NIL=
201403140000 AAXX 14004 67563 NIL=
201403132100 AAXX 13214 67563 NIL=
201403131800 AAXX 13184 67563 NIL=
201403131200 AAXX 13124 67563 NIL=
201403130900 AAXX 13094 67563 NIL=
201403130600 AAXX 13064 67563 NIL=
201403121800 AAXX 12184 67563 NIL=
201403121200 AAXX 12124 67563 NIL=
201403120900 AAXX 12094 67563 NIL=
201403120600 AAXX 12064 67563 NIL=
201403120300 AAXX 12034 67563 NIL=
201403120000 AAXX 12004 67563 NIL=
201403112100 AAXX 11214 67563 NIL=
201403111800 AAXX 11184 67563 NIL=
201403111500 AAXX 11154 67563 NIL=
201403111200 AAXX 11124 67563 NIL=
201403110600 AAXX 11064 67563 NIL=
201403102100 AAXX 10214 67563 NIL=
201403101800 AAXX 10184 67563 NIL=
201403101500 AAXX 10154 67563 NIL=
201403101200 AAXX 10124 67563 NIL=
201403100900 AAXX 10094 67563 NIL=
201403100600 AAXX 10064 67563 NIL=
201403100300 AAXX 10034 67563 NIL=
201403092100 AAXX 09214 67563 NIL=
201403091800 AAXX 09184 67563 NIL=
201403091500 AAXX 09154 67563 NIL=
201403091200 AAXX 09124 67563 NIL=
201403090900 AAXX 09094 67563 NIL=
201403090600 AAXX 09064 67563 NIL=
201403090300 AAXX 09034 67563 NIL=
201403090000 AAXX 09004 67563 NIL=
201403081800 AAXX 08184 67563 NIL=
201403081500 AAXX 08154 67563 NIL=
201403081200 AAXX 08124 67563 NIL=
201403080900 AAXX 08094 67563 NIL=
201403080600 AAXX 08064 67563 NIL=
201403080300 AAXX 08034 67563 NIL=
201403080000 AAXX 08004 67563 NIL=
201403072100 AAXX 07214 67563 NIL=
201403071500 AAXX 07154 67563 NIL=
201403071200 AAXX 07124 67563 NIL=
201403070900 AAXX 07094 67563 NIL=
201403070600 AAXX 07064 67563 NIL=
201403061800 AAXX 06184 67563 NIL=
201403061500 AAXX 06154 67563 NIL=
201403061200 AAXX 06124 67563 NIL=
201403060900 AAXX 06094 67563 NIL=
201403060600 AAXX 06064 67563 NIL=
201403052100 AAXX 05214 67563 NIL=
201403051800 AAXX 05184 67563 NIL=
201403051500 AAXX 05154 67563 NIL=
201403051200 AAXX 05124 67563 NIL=
201403050900 AAXX 05094 67563 NIL=
201403050600 AAXX 05064 67563 NIL=
201403050300 AAXX 05034 67563 NIL=
201403050000 AAXX 05004 67563 NIL=
201403042100 AAXX 04214 67563 NIL=
201403041800 AAXX 04184 67563 NIL=
201403041500 AAXX 04154 67563 NIL=
201403041200 AAXX 04124 67563 NIL=
201403040900 AAXX 04094 67563 NIL=
201403040600 AAXX 04064 67563 NIL=
201403040300 AAXX 04034 67563 NIL=
201403040000 AAXX 04004 67563 NIL=
201403031800 AAXX 03184 67563 NIL=
201403031500 AAXX 03154 67563 NIL=
201403031200 AAXX 03124 67563 NIL=
201403030900 AAXX 03094 67563 NIL=
201403030600 AAXX 03064 67563 NIL=
201403030300 AAXX 03034 67563 NIL=
201403030000 AAXX 03004 67563 NIL=
201403022100 AAXX 02214 67563 NIL=
201403021800 AAXX 02184 67563 NIL=
201403021500 AAXX 02154 67563 NIL=
201403021200 AAXX 02124 67563 NIL=
201403020900 AAXX 02094 67563 NIL=
201403020600 AAXX 02064 67563 NIL=
201403020300 AAXX 02034 67563 NIL=
201403020000 AAXX 02004 67563 NIL=
201403012100 AAXX 01214 67563 NIL=
201403011800 AAXX 01184 67563 NIL=
201403011500 AAXX 01154 67563 NIL=
201403011200 AAXX 01121 67563 NIL=
201403010900 AAXX 01094 67563 NIL=
201403010600 AAXX 01064 67563 NIL=

################################################################################
#  SYNOPS from 67571, Serenje (Zambia) | 13-14S | 030-13E | 1384 m
################################################################################
201403310300 AAXX 31034 67571 NIL=
201403310000 AAXX 31004 67571 NIL=
201403302100 AAXX 30214 67571 NIL=
201403301800 AAXX 30184 67571 NIL=
201403301500 AAXX 30154 67571 NIL=
201403301200 AAXX 30124 67571 NIL=
201403300900 AAXX 30094 67571 NIL=
201403300600 AAXX 30064 67571 NIL=
201403300000 AAXX 30004 67571 NIL=
201403292100 AAXX 29214 67571 NIL=
201403291800 AAXX 29184 67571 NIL=
201403291500 AAXX 29154 67571 NIL=
201403291200 AAXX 29124 67571 NIL=
201403290900 AAXX 29094 67571 NIL=
201403290600 AAXX 29064 67571 NIL=
201403290000 AAXX 29004 67571 NIL=
201403282100 AAXX 28214 67571 NIL=
201403281800 AAXX 28184 67571 NIL=
201403281500 AAXX 28150 67571 NIL=
201403281200 AAXX 28124 67571 42682 71503 10246 20151 48494 70222 83208
                   333 58012 83835 87281=
201403280900 AAXX 28094 67571 42582 70903 10245 20164 48514 70222 85208
                   333 58013 85820 87280=
201403280600 AAXX 28064 67571 32982 71503 10203 20160 48512 70222 81038
                   333 10290 20165 58004 81360 87280=
201403280300 AAXX 28034 67571 NIL=
201403280000 AAXX 28004 67571 NIL=
201403272100 AAXX 27214 67571 NIL=
201403271500 AAXX 27154 67571 NIL=
201403271200 AAXX 27124 67571 42682 71802 10256 20169 48484 70222 85208
                   333 59015 81930 85835=
201403270900 AAXX 27094 67571 42582 40902 10260 20159 48504 70222 84208
                   333 58003 84825 82281=
201403270600 AAXX 27064 67571 32982 70902 10205 20173 48512 70222 81038
                   333 10256 20160 58001 81360 87280=
201403270300 AAXX 27034 67571 NIL=
201403270000 AAXX 27004 67571 NIL=
201403262100 AAXX 26214 67571 NIL=
201403261500 AAXX 26154 67571 NIL=
201403261200 AAXX 26124 67571 NIL=
201403260900 AAXX 26094 67571 NIL=
201403260600 AAXX 26064 67571 32482 71204 10194 20167 48511 70222 8653/
                   333 10259 20169 59001 86615 87360=
201403260300 AAXX 26034 67571 NIL=
201403260000 AAXX 26004 67571 NIL=
201403252100 AAXX 25214 67571 NIL=
201403251800 AAXX 25184 67571 NIL=
201403251500 AAXX 25154 67571 NIL=
201403251200 AAXX 25124 67571 42682 71206 10246 20176 48504 70222 83868
                   333 59012 82638 82642 83359 87280=
201403250900 AAXX 25094 67571 42682 71206 10231 20172 48523 70222 84508
                   333 59016 84632 87280=
201403250600 AAXX 25064 67571 NIL=
201403241800 AAXX 24184 67571 NIL=
201403241500 AAXX 24154 67571 NIL=
201403241200 AAXX 24124 67571 NIL=
201403240900 AAXX 24094 67571 42582 71206 10234 20155 48543 70222 86508
                   333 58011 86628 85280=
201403240600 AAXX 24064 67571 32482 71204 10203 20156 48532 70222 82508
                   333 10264 20162 58001 82618 87280=
201403240300 AAXX 24034 67571 NIL=
201403240000 AAXX 24004 67571 NIL=
201403232100 AAXX 23214 67571 NIL=
201403231800 AAXX 23184 67571 NIL=
201403231500 AAXX 23154 67571 NIL=
201403231200 AAXX 23124 67571 NIL=
201403230600 AAXX 23064 67571 NIL=
201403230300 AAXX 23034 67571 NIL=
201403230000 AAXX 23004 67571 NIL=
201403222100 AAXX 22214 67571 NIL=
201403221800 AAXX 22184 67571 NIL=
201403221500 AAXX 22154 67571 NIL=
201403221200 AAXX 22124 67571 NIL=
201403220900 AAXX 22094 67571 NIL=
201403220600 AAXX 22064 67571 NIL=
201403220300 AAXX 22034 67571 NIL=
201403220000 AAXX 22004 67571 NIL=
201403212100 AAXX 21214 67571 NIL=
201403211800 AAXX 21184 67571 NIL=
201403211200 AAXX 21124 67571 41578 71205 10226 20174 48513 72992 83278
                   333 58013 81920 83825 86459 87281=
201403210900 AAXX 21094 67571 42482 71505 10230 20176 48533 70222 84268
                   333 58014 81919 84823 81359 87280=
201403210600 AAXX 21064 67571 12382 70000 10190 20167 48531 60254 70244 81638
                   333 10249 20149 58011 81707 87280=
201403210300 AAXX 21034 67571 NIL=
201403210000 AAXX 21004 67571 NIL=
201403202100 AAXX 20214 67571 NIL=
201403201800 AAXX 20184 67571 NIL=
201403201500 AAXX 20154 67571 NIL=
201403201200 AAXX 20124 67571 41382 70902 10179 20173 48491 75096 84778
                   333 58009 84707 81360 87280=
201403200900 AAXX 20094 67571 41478 73602 10219 20192 48523 76155 8351/
                   333 58001 83615 87460=
201403200600 AAXX 20064 67571 12382 71202 10200 20185 48522 69904 70222 8663/
                   333 10263 20185 58005 86708 87360=
201403200300 AAXX 20034 67571 NIL=
201403200000 AAXX 20004 67571 NIL=
201403192100 AAXX 19214 67571 NIL=
201403191800 AAXX 19184 67571 NIL=
201403191200 AAXX 19124 67571 41670 70603 10243 20174 48493 71522 84248
                   333 59001 81930 84835 85361 87281=
201403190900 AAXX 19094 67571 42582 71503 10245 20176 48524 70222 875//
                   333 59007 87626=
201403190600 AAXX 19064 67571 12482 71205 10216 20169 48523 69904 70222 82548
                   333 10279 20170 59008 82618 81360 87280=
201403181800 AAXX 18184 67571 NIL=
201403181500 AAXX 18154 67571 NIL=
201403181200 AAXX 18124 67571 42582 71804 10271 20182 48496 70222 85238
                   333 59011 81926 85834 81359 86281=
201403180900 AAXX 18094 67571 42582 71202 10255 20181 48535 70222 86808
                   333 58001 81923 85623 83827 86280=
201403180600 AAXX 18064 67571 12482 71203 10209 20181 48532 60024 70222 85508
                   333 10280 20180 59006 85618 87280=
201403180000 AAXX 18004 67571 NIL=
201403172100 AAXX 17214 67571 NIL=
201403171800 AAXX 17184 67571 NIL=
201403171500 AAXX 17154 67571 NIL=
201403171200 AAXX 17124 67571 41575 71203 10250 20179 48504 71799 86808
                   333 59007 81928 86682 83834 86281=
201403170900 AAXX 17094 67571 NIL=
201403170600 AAXX 17064 67571 NIL=
201403161200 AAXX 16124 67571 NIL=
201403160900 AAXX 16094 67571 NIL=
201403160600 AAXX 16064 67571 NIL=
201403160300 AAXX 16034 67571 NIL=
201403160000 AAXX 16004 67571 NIL=
201403152100 AAXX 15214 67571 NIL=
201403151800 AAXX 15184 67571 NIL=
201403151500 AAXX 15154 67571 NIL=
201403151200 AAXX 15124 67571 NIL=
201403150900 AAXX 15094 67571 NIL=
201403150600 AAXX 15064 67571 NIL=
201403150300 AAXX 15034 67571 NIL=
201403141800 AAXX 14184 67571 NIL=
201403141500 AAXX 14154 67571 NIL=
201403141200 AAXX 14124 67571 42582 71208 10241 20183 48503 70222 81338
                   333 58010 81920 81823 81361 87281=
201403140900 AAXX 14094 67571 42482 71205 10230 20183 48523 70222 8653/
                   333 59001 86617 81818 87360=
201403140600 AAXX 14064 67571 12482 71205 10185 20172 48531 60124 70222 86538
                   333 20168 59003 86615 84360 87280=
201403140300 AAXX 14034 67571 NIL=
201403140000 AAXX 14004 67571 NIL=
201403132100 AAXX 13214 67571 NIL=
201403131800 AAXX 13184 67571 NIL=
201403131200 AAXX 13124 67571 NIL=
201403130900 AAXX 13094 67571 42582 72703 10254 20179 48534 70222 82938
                   333 58001 81922 82822 86360 87280=
201403130600 AAXX 13064 67571 12982 73302 10206 20186 48532 60034 70222 86038
                   333 10269 20171 58002 86360 87280
                   555 00/// 20000=
201403121800 AAXX 12184 67571 NIL=
201403121200 AAXX 12124 67571 NIL=
201403120900 AAXX 12094 67571 NIL=
201403120600 AAXX 12064 67571 NIL=
201403120300 AAXX 12034 67571 NIL=
201403120000 AAXX 12004 67571 NIL=
201403112100 AAXX 11214 67571 NIL=
201403111800 AAXX 11184 67571 NIL=
201403111500 AAXX 11154 67571 NIL=
201403111200 AAXX 11124 67571 42582 70902 10246 20183 48504 70222 86808
                   333 58026 81925 85625 83830 87280=
201403110600 AAXX 11064 67571 NIL=
201403102100 AAXX 10214 67571 NIL=
201403101800 AAXX 10184 67571 NIL=
201403101500 AAXX 10154 67571 NIL=
201403101200 AAXX 10124 67571 41581 72103 10235 20203 48463 79596 86208
                   333 59009 81920 86825 87281=
201403100900 AAXX 10094 67571 42482 70603 10248 20184 48503 70222 84208
                   333 59012 81920 84825 87280=
201403100600 AAXX 10064 67571 32482 71203 10204 20178 48502 70222 81538
                   333 10270 20176 59024 81615 81360 87280=
201403100300 AAXX 10034 67571 NIL=
201403092100 AAXX 09214 67571 NIL=
201403091800 AAXX 09184 67571 NIL=
201403091500 AAXX 09154 67571 NIL=
201403091200 AAXX 09124 67571 NIL=
201403090900 AAXX 09094 67571 NIL=
201403090600 AAXX 09064 67571 NIL=
201403090300 AAXX 09034 67571 NIL=
201403090000 AAXX 09004 67571 NIL=
201403081800 AAXX 08184 67571 NIL=
201403081500 AAXX 08154 67571 NIL=
201403081200 AAXX 08124 67571 NIL=
201403080900 AAXX 08094 67571 NIL=
201403080600 AAXX 08064 67571 NIL=
201403080300 AAXX 08034 67571 NIL=
201403080000 AAXX 08004 67571 NIL=
201403072100 AAXX 07214 67571 NIL=
201403071500 AAXX 07154 67571 NIL=
201403071200 AAXX 07124 67571 NIL=
201403070900 AAXX 07094 67571 NIL=
201403070600 AAXX 07064 67571 12482 70000 10190 20173 48521 60394 70222 84508
                   333 10285 20159 58006 84616 87280=
201403061800 AAXX 06184 67571 NIL=
201403061500 AAXX 06154 67571 NIL=
201403061200 AAXX 06124 67571 41565 72703 10202 20174 48502 79596 875//
                   333 58006 81923 87623=
201403060900 AAXX 06094 67571 42582 60902 10264 20159 48514 70222 81148
                   333 58003 81823 81360 86280=
201403060600 AAXX 06064 67571 12982 61202 10219 20149 48523 70222 81048
                   333 10285 20164 58004 81360 86280=
201403052100 AAXX 05214 67571 NIL=
201403051800 AAXX 05184 67571 NIL=
201403051500 AAXX 05154 67571 NIL=
201403051200 AAXX 05124 67571 NIL=
201403050900 AAXX 05094 67571 42582 61203 10271 20176 48515 70222 82108
                   333 59008 82823 86280=
201403050600 AAXX 05064 67571 32982 71203 10222 20176 48513 70222 80008
                   333 10285 20159 59008 87280
                   555 00/// 20001=
201403050300 AAXX 05034 67571 NIL=
201403050000 AAXX 05004 67571 NIL=
201403042100 AAXX 04214 67571 NIL=
201403041800 AAXX 04184 67571 NIL=
201403041500 AAXX 04154 67571 NIL=
201403041200 AAXX 04124 67571 71206 10278 20171 48495 70222 82208
                   333 58004 81935 82839 87281=
201403040900 AAXX 04094 67571 42482 71505 10256 20178 48514 58003 70222 81108 81817 87280=
201403040600 AAXX 04064 67571 12982 71503 10214 20181 48522 70222 87008
                   333 10298 20165 59001 87280=
201403040300 AAXX 04034 67571 NIL=
201403040000 AAXX 04004 67571 NIL=
201403031800 AAXX 03184 67571 NIL=
201403031500 AAXX 03154 67571 NIL=
201403031200 AAXX 03124 67571 41682 33605 10267 20159 48494 72992 83203
                   333 58006 81930 83835 83081=
201403030900 AAXX 03094 67571 42582 40904 10252 20189 48513 70222 82234
                   333 58007 81925 82828 81361 84081=
201403030600 AAXX 03064 67571 12982 72702 10198 20174 48522 60244 70222 86038
                   333 10295 20178 58011 86360 87280=
201403030300 AAXX 03034 67571 NIL=
201403030000 AAXX 03004 67571 NIL=
201403022100 AAXX 02214 67571 NIL=
201403021800 AAXX 02184 67571 NIL=
201403021500 AAXX 02154 67571 NIL=
201403021200 AAXX 02124 67571 NIL=
201403020900 AAXX 02094 67571 NIL=
201403020600 AAXX 02064 67571 NIL=
201403020300 AAXX 02034 67571 NIL=
201403020000 AAXX 02004 67571 NIL=
201403012100 AAXX 01214 67571 NIL=
201403011800 AAXX 01184 67571 NIL=
201403011500 AAXX 01154 67571 NIL=
201403011200 AAXX 01121 67571 NIL=
201403010900 AAXX 01094 67571 NIL=
201403010600 AAXX 01064 67571 NIL=

################################################################################
#  SYNOPS from 67575, Mkushi (Zambia) | 13-38S | 029-53E | 1237 m
################################################################################
201403310300 AAXX 31034 67575 NIL=
201403310000 AAXX 31004 67575 NIL=
201403302100 AAXX 30214 67575 NIL=
201403301800 AAXX 30184 67575 NIL=
201403301500 AAXX 30154 67575 NIL=
201403301200 AAXX 30124 67575 NIL=
201403300900 AAXX 30094 67575 NIL=
201403300600 AAXX 30064 67575 NIL=
201403300000 AAXX 30004 67575 NIL=
201403292100 AAXX 29214 67575 NIL=
201403291800 AAXX 29184 67575 NIL=
201403291500 AAXX 29154 67575 NIL=
201403291200 AAXX 29124 67575 NIL=
201403290900 AAXX 29094 67575 NIL=
201403290600 AAXX 29064 67575 NIL=
201403290000 AAXX 29004 67575 NIL=
201403282100 AAXX 28214 67575 NIL=
201403281800 AAXX 28184 67575 NIL=
201403281500 AAXX 28150 67575 NIL=
201403281200 AAXX 28124 67575 NIL=
201403280900 AAXX 28094 67575 NIL=
201403280600 AAXX 28064 67575 32480 40000 10204 20178 48/// 81101
                   333 10303 20150 5//// 81815 84080=
201403280300 AAXX 28034 67575 NIL=
201403280000 AAXX 28004 67575 NIL=
201403272100 AAXX 27214 67575 NIL=
201403271500 AAXX 27154 67575 NIL=
201403271200 AAXX 27124 67575 NIL=
201403270900 AAXX 27094 67575 NIL=
201403270600 AAXX 27064 67575 32980 11002 10210 20178 48/// 81031
                   333 10285 20160 5//// 81360 81080=
201403270300 AAXX 27034 67575 NIL=
201403270000 AAXX 27004 67575 NIL=
201403262100 AAXX 26214 67575 NIL=
201403261500 AAXX 26154 67575 NIL=
201403261200 AAXX 26124 67575 NIL=
201403260900 AAXX 26094 67575 42580 61002 10240 20174 48/// 86200
                   333 5//// 86823=
201403260600 AAXX 26064 67575 NIL=
201403260300 AAXX 26034 67575 NIL=
201403260000 AAXX 26004 67575 NIL=
201403252100 AAXX 25214 67575 NIL=
201403251800 AAXX 25184 67575 NIL=
201403251500 AAXX 25154 67575 NIL=
201403251200 AAXX 25124 67575 NIL=
201403250900 AAXX 25094 67575 NIL=
201403250600 AAXX 25064 67575 NIL=
201403241800 AAXX 24184 67575 NIL=
201403241500 AAXX 24154 67575 NIL=
201403241200 AAXX 24124 67575 NIL=
201403240900 AAXX 24094 67575 NIL=
201403240600 AAXX 24064 67575 NIL=
201403240300 AAXX 24034 67575 NIL=
201403240000 AAXX 24004 67575 NIL=
201403232100 AAXX 23214 67575 NIL=
201403231800 AAXX 23184 67575 NIL=
201403231500 AAXX 23154 67575 NIL=
201403231200 AAXX 23124 67575 NIL=
201403230600 AAXX 23064 67575 NIL=
201403230300 AAXX 23034 67575 NIL=
201403230000 AAXX 23004 67575 NIL=
201403222100 AAXX 22214 67575 NIL=
201403221800 AAXX 22184 67575 NIL=
201403221500 AAXX 22154 67575 NIL=
201403221200 AAXX 22124 67575 NIL=
201403220900 AAXX 22094 67575 NIL=
201403220600 AAXX 22064 67575 NIL=
201403220300 AAXX 22034 67575 NIL=
201403220000 AAXX 22004 67575 NIL=
201403212100 AAXX 21214 67575 NIL=
201403211800 AAXX 21184 67575 NIL=
201403211200 AAXX 21124 67575 NIL=
201403210900 AAXX 21094 67575 NIL=
201403210600 AAXX 21064 67575 NIL=
201403210300 AAXX 21034 67575 NIL=
201403210000 AAXX 21004 67575 NIL=
201403202100 AAXX 20214 67575 NIL=
201403201800 AAXX 20184 67575 NIL=
201403201500 AAXX 20154 67575 NIL=
201403201200 AAXX 20124 67575 NIL=
201403200900 AAXX 20094 67575 NIL=
201403200600 AAXX 20064 67575 NIL=
201403200300 AAXX 20034 67575 NIL=
201403200000 AAXX 20004 67575 NIL=
201403192100 AAXX 19214 67575 NIL=
201403191800 AAXX 19184 67575 NIL=
201403191200 AAXX 19124 67575 NIL=
201403190900 AAXX 19094 67575 NIL=
201403190600 AAXX 19064 67575 NIL=
201403181800 AAXX 18184 67575 NIL=
201403181500 AAXX 18154 67575 NIL=
201403181200 AAXX 18124 67575 NIL=
201403180900 AAXX 18094 67575 NIL=
201403180600 AAXX 18064 67575 NIL=
201403180000 AAXX 18004 67575 NIL=
201403172100 AAXX 17214 67575 NIL=
201403171800 AAXX 17184 67575 NIL=
201403171500 AAXX 17154 67575 NIL=
201403171200 AAXX 17124 67575 NIL=
201403170900 AAXX 17094 67575 NIL=
201403170600 AAXX 17064 67575 NIL=
201403161200 AAXX 16124 67575 NIL=
201403160900 AAXX 16094 67575 NIL=
201403160600 AAXX 16064 67575 NIL=
201403160300 AAXX 16034 67575 NIL=
201403160000 AAXX 16004 67575 NIL=
201403152100 AAXX 15214 67575 NIL=
201403151800 AAXX 15184 67575 NIL=
201403151500 AAXX 15154 67575 NIL=
201403151200 AAXX 15124 67575 NIL=
201403150900 AAXX 15094 67575 NIL=
201403150600 AAXX 15064 67575 NIL=
201403150300 AAXX 15034 67575 NIL=
201403141800 AAXX 14184 67575 NIL=
201403141500 AAXX 14154 67575 NIL=
201403141200 AAXX 14124 67575 NIL=
201403140900 AAXX 14094 67575 NIL=
201403140600 AAXX 14064 67575 NIL=
201403140300 AAXX 14034 67575 NIL=
201403140000 AAXX 14004 67575 NIL=
201403132100 AAXX 13214 67575 NIL=
201403131800 AAXX 13184 67575 NIL=
201403131200 AAXX 13124 67575 NIL=
201403130900 AAXX 13094 67575 NIL=
201403130600 AAXX 13064 67575 NIL=
201403121800 AAXX 12184 67575 NIL=
201403121200 AAXX 12124 67575 NIL=
201403120900 AAXX 12094 67575 NIL=
201403120600 AAXX 12064 67575 NIL=
201403120300 AAXX 12034 67575 NIL=
201403120000 AAXX 12004 67575 NIL=
201403112100 AAXX 11214 67575 NIL=
201403111800 AAXX 11184 67575 NIL=
201403111500 AAXX 11154 67575 NIL=
201403111200 AAXX 11124 67575 NIL=
201403110600 AAXX 11064 67575 NIL=
201403102100 AAXX 10214 67575 NIL=
201403101800 AAXX 10184 67575 NIL=
201403101500 AAXX 10154 67575 NIL=
201403101200 AAXX 10124 67575 NIL=
201403100900 AAXX 10094 67575 NIL=
201403100600 AAXX 10064 67575 NIL=
201403100300 AAXX 10034 67575 NIL=
201403092100 AAXX 09214 67575 NIL=
201403091800 AAXX 09184 67575 NIL=
201403091500 AAXX 09154 67575 NIL=
201403091200 AAXX 09124 67575 NIL=
201403090900 AAXX 09094 67575 NIL=
201403090600 AAXX 09064 67575 NIL=
201403090300 AAXX 09034 67575 NIL=
201403090000 AAXX 09004 67575 NIL=
201403081800 AAXX 08184 67575 NIL=
201403081500 AAXX 08154 67575 NIL=
201403081200 AAXX 08124 67575 NIL=
201403080900 AAXX 08094 67575 NIL=
201403080600 AAXX 08064 67575 NIL=
201403080300 AAXX 08034 67575 NIL=
201403080000 AAXX 08004 67575 NIL=
201403072100 AAXX 07214 67575 NIL=
201403071500 AAXX 07154 67575 NIL=
201403071200 AAXX 07124 67575 NIL=
201403070900 AAXX 07094 67575 NIL=
201403070600 AAXX 07064 67575 NIL=
201403061800 AAXX 06184 67575 NIL=
201403061500 AAXX 06154 67575 NIL=
201403061200 AAXX 06124 67575 NIL=
201403060900 AAXX 06094 67575 NIL=
201403060600 AAXX 06064 67575 NIL=
201403052100 AAXX 05214 67575 NIL=
201403051800 AAXX 05184 67575 NIL=
201403051500 AAXX 05154 67575 NIL=
201403051200 AAXX 05124 67575 NIL=
201403050900 AAXX 05094 67575 NIL=
201403050600 AAXX 05064 67575 NIL=
201403050300 AAXX 05034 67575 NIL=
201403050000 AAXX 05004 67575 NIL=
201403042100 AAXX 04214 67575 NIL=
201403041800 AAXX 04184 67575 NIL=
201403041500 AAXX 04154 67575 NIL=
201403041200 AAXX 04124 67575 NIL=
201403040900 AAXX 04094 67575 NIL=
201403040600 AAXX 04064 67575 NIL=
201403040300 AAXX 04034 67575 NIL=
201403040000 AAXX 04004 67575 NIL=
201403031800 AAXX 03184 67575 NIL=
201403031500 AAXX 03154 67575 NIL=
201403031200 AAXX 03124 67575 NIL=
201403030900 AAXX 03094 67575 NIL=
201403030600 AAXX 03064 67575 NIL=
201403030300 AAXX 03034 67575 NIL=
201403030000 AAXX 03004 67575 NIL=
201403022100 AAXX 02214 67575 NIL=
201403021800 AAXX 02184 67575 NIL=
201403021500 AAXX 02154 67575 NIL=
201403021200 AAXX 02124 67575 NIL=
201403020900 AAXX 02094 67575 NIL=
201403020600 AAXX 02064 67575 NIL=
201403020300 AAXX 02034 67575 NIL=
201403020000 AAXX 02004 67575 NIL=
201403012100 AAXX 01214 67575 NIL=
201403011800 AAXX 01184 67575 NIL=
201403011500 AAXX 01154 67575 NIL=
201403011200 AAXX 01121 67575 NIL=
201403010900 AAXX 01094 67575 NIL=
201403010600 AAXX 01064 67575 NIL=

################################################################################
#  SYNOPS from 67580, Msekera (Zambia) | 13-39S | 032-34E | 1025 m
################################################################################
201403310300 AAXX 31034 67580 NIL=
201403310000 AAXX 31004 67580 NIL=
201403302100 AAXX 30214 67580 NIL=
201403301800 AAXX 30184 67580 NIL=
201403301500 AAXX 30154 67580 NIL=
201403301200 AAXX 30124 67580 NIL=
201403300900 AAXX 30094 67580 NIL=
201403300600 AAXX 30064 67580 NIL=
201403300000 AAXX 30004 67580 NIL=
201403292100 AAXX 29214 67580 NIL=
201403291800 AAXX 29184 67580 NIL=
201403291500 AAXX 29154 67580 NIL=
201403291200 AAXX 29124 67580 NIL=
201403290900 AAXX 29094 67580 NIL=
201403290600 AAXX 29064 67580 NIL=
201403290000 AAXX 29004 67580 NIL=
201403282100 AAXX 28214 67580 NIL=
201403281800 AAXX 28184 67580 NIL=
201403281500 AAXX 28150 67580 NIL=
201403281200 AAXX 28124 67580 NIL=
201403280900 AAXX 28094 67580 NIL=
201403280600 AAXX 28064 67580 32480 41505 10224 20177 48/// 82501
                   333 10295 20/// 58006 82616 82080=
201403280300 AAXX 28034 67580 NIL=
201403280000 AAXX 28004 67580 NIL=
201403272100 AAXX 27214 67580 NIL=
201403271500 AAXX 27154 67580 NIL=
201403271200 AAXX 27124 67580 NIL=
201403270900 AAXX 27094 67580 NIL=
201403270600 AAXX 27064 67580 32480 40902 10224 20188 48/// 81131
                   333 10297 20/// 58002 81816 83361 81080=
201403270300 AAXX 27034 67580 NIL=
201403270000 AAXX 27004 67580 NIL=
201403262100 AAXX 26214 67580 NIL=
201403261500 AAXX 26154 67580 NIL=
201403261200 AAXX 26124 67580 NIL=
201403260900 AAXX 26094 67580 42680 61505 10262 20187 48/// 85132
                   333 59012 85840 81362 83080=
201403260600 AAXX 26064 67580 32480 61604 10228 20183 48/// 81138
                   333 10284 20/// 59009 81815 85360 85280=
201403260300 AAXX 26034 67580 NIL=
201403260000 AAXX 26004 67580 NIL=
201403252100 AAXX 25214 67580 NIL=
201403251800 AAXX 25184 67580 NIL=
201403251500 AAXX 25154 67580 NIL=
201403251200 AAXX 25124 67580 42780 61204 10272 20189 48/// 85138
                   333 59008 85856 81362 86280=
201403250900 AAXX 25094 67580 42680 71606 10253 20176 48/// 85138
                   333 59009 85840 81362 87280=
201403250600 AAXX 25064 67580 12580 70903 10221 20187 48/// 60034 81138
                   333 10294 20/// 59009 81820 85360 87280=
201403241800 AAXX 24184 67580 NIL=
201403241500 AAXX 24154 67580 NIL=
201403241200 AAXX 24124 67580 NIL=
201403240900 AAXX 24094 67580 42680 71204 10/// 20191 48/// 87200
                   333 58004 87840=
201403240600 AAXX 24064 67580 32480 11503 10225 20187 48/// 81500
                   333 10296 20/// 59001 81616=
201403240300 AAXX 24034 67580 NIL=
201403240000 AAXX 24004 67580 NIL=
201403232100 AAXX 23214 67580 NIL=
201403231800 AAXX 23184 67580 NIL=
201403231500 AAXX 23154 67580 NIL=
201403231200 AAXX 23124 67580 NIL=
201403230600 AAXX 23064 67580 NIL=
201403230300 AAXX 23034 67580 NIL=
201403230000 AAXX 23004 67580 NIL=
201403222100 AAXX 22214 67580 NIL=
201403221800 AAXX 22184 67580 NIL=
201403221500 AAXX 22154 67580 NIL=
201403221200 AAXX 22124 67580 NIL=
201403220900 AAXX 22094 67580 NIL=
201403220600 AAXX 22064 67580 NIL=
201403220300 AAXX 22034 67580 NIL=
201403220000 AAXX 22004 67580 NIL=
201403212100 AAXX 21214 67580 NIL=
201403211800 AAXX 21184 67580 NIL=
201403211200 AAXX 21124 67580 41675 71204 10237 20198 48/// 72998
                   333 58025 81935 84460 87280=
201403210900 AAXX 21094 67580 41570 80604 10188 20178 48/// 79592 8297/
                   333 58026 82920 87458=
201403210600 AAXX 21064 67580 32580 70000 10222 20202 48/// 85238
                   333 10294 20/// 58014 85820 81360 87280=
201403210300 AAXX 21034 67580 NIL=
201403210000 AAXX 21004 67580 NIL=
201403202100 AAXX 20214 67580 NIL=
201403201800 AAXX 20184 67580 NIL=
201403201500 AAXX 20154 67580 NIL=
201403201200 AAXX 20124 67580 41675 72404 10247 20214 48/// 71792 81908
                   333 58019 81940 87275=
201403200900 AAXX 20094 67580 42680 70000 10269 20212 48/// 58001 81362 85238 85840 87280=
201403200600 AAXX 20064 67580 12980 70000 10233 20185 48/// 60134 8707/
                   333 10300 20/// 58000 87460=
201403200300 AAXX 20034 67580 NIL=
201403200000 AAXX 20004 67580 NIL=
201403192100 AAXX 19214 67580 NIL=
201403191800 AAXX 19184 67580 NIL=
201403191200 AAXX 19124 67580 NIL=
201403190900 AAXX 19094 67580 42680 70302 10265 20204 48/// 87230
                   333 59001 87840 81361=
201403190600 AAXX 19064 67580 12980 70902 10224 20204 48/// 60024 87031
                   333 10285 20/// 59005 87360 81080=
201403181800 AAXX 18184 67580 NIL=
201403181500 AAXX 18154 67580 NIL=
201403181200 AAXX 18124 67580 NIL=
201403180900 AAXX 18094 67580 NIL=
201403180600 AAXX 18064 67580 12980 70000 10224 20211 48/// 60154 87031
                   333 10316 20/// 59002 87360 82080=
201403180000 AAXX 18004 67580 NIL=
201403172100 AAXX 17214 67580 NIL=
201403171800 AAXX 17184 67580 NIL=
201403171500 AAXX 17154 67580 NIL=
201403171200 AAXX 17124 67580 42780 71603 10294 20213 48/// 86238
                   333 59007 86856 81362 87280=
201403170900 AAXX 17094 67580 NIL=
201403170600 AAXX 17064 67580 12480 60000 10222 20192 48/// 60324 81138
                   333 10294 20/// 59011 81818 81362 86280=
201403161200 AAXX 16124 67580 NIL=
201403160900 AAXX 16094 67580 NIL=
201403160600 AAXX 16064 67580 NIL=
201403160300 AAXX 16034 67580 NIL=
201403160000 AAXX 16004 67580 NIL=
201403152100 AAXX 15214 67580 NIL=
201403151800 AAXX 15184 67580 NIL=
201403151500 AAXX 15154 67580 NIL=
201403151200 AAXX 15124 67580 NIL=
201403150900 AAXX 15094 67580 NIL=
201403150600 AAXX 15064 67580 NIL=
201403150300 AAXX 15034 67580 NIL=
201403141800 AAXX 14184 67580 NIL=
201403141500 AAXX 14154 67580 NIL=
201403141200 AAXX 14124 67580 NIL=
201403140900 AAXX 14094 67580 42680 71103 10255 20194 48/// 87101
                   333 59003 87834 82080=
201403140600 AAXX 14064 67580 12480 71202 10216 20200 48/// 60214 85831
                   333 10274 20/// 59004 82816 83620 81361 84080=
201403140300 AAXX 14034 67580 NIL=
201403140000 AAXX 14004 67580 NIL=
201403132100 AAXX 13214 67580 NIL=
201403131800 AAXX 13184 67580 NIL=
201403131200 AAXX 13124 67580 NIL=
201403130900 AAXX 13094 67580 41680 73004 10259 20202 48/// 79522 8197/
                   333 58012 81940 87840 83360=
201403130600 AAXX 13064 67580 12580 70000 10239 20204 48/// 60144 82231
                   333 10316 20/// 58012 82820 84361 83080
                   555 00/// 20000=
201403121800 AAXX 12184 67580 NIL=
201403121200 AAXX 12124 67580 41780 73004 10303 20192 48/// 71522 85238
                   333 5//// 85856 82360 87280=
201403120900 AAXX 12094 67580 42680 70903 10284 20209 48/// 85232
                   333 58010 85845 85360 82080=
201403120600 AAXX 12064 67580 32980 70000 10248 20204 48///
                   333 10322 20/// 58004 81362 87280
                   555 00/// 20000=
201403120300 AAXX 12034 67580 NIL=
201403120000 AAXX 12004 67580 NIL=
201403112100 AAXX 11214 67580 NIL=
201403111800 AAXX 11184 67580 NIL=
201403111500 AAXX 11154 67580 NIL=
201403111200 AAXX 11124 67580 42780 70000 10307 20190 48/// 85208
                   333 5//// 85856 85280=
201403110900 AAXX 11094 67580 42680 73604 10287 20174 48/// 83208
                   333 58006 83845 87280=
201403110600 AAXX 11064 67580 32980 70000 10230 20196 48/// 81038
                   333 10304 20/// 58021 81362 87280=
201403102100 AAXX 10214 67580 NIL=
201403101800 AAXX 10184 67580 NIL=
201403101500 AAXX 10154 67580 NIL=
201403101200 AAXX 10124 67580 42780 70603 10296 20208 48/// 86201
                   333 58000 86856 83080=
201403100900 AAXX 10094 67580 42680 70902 10269 20204 48/// 87131
                   333 58004 87836 82361 81080=
201403100600 AAXX 10064 67580 12580 61004 10248 20197 48/// 60084 84831
                   333 10310 20/// 59008 81820 83622 81361 82080=
201403100300 AAXX 10034 67580 NIL=
201403092100 AAXX 09214 67580 NIL=
201403091800 AAXX 09184 67580 NIL=
201403091500 AAXX 09154 67580 NIL=
201403091200 AAXX 09124 67580 NIL=
201403090900 AAXX 09094 67580 NIL=
201403090600 AAXX 09064 67580 NIL=
201403090300 AAXX 09034 67580 NIL=
201403090000 AAXX 09004 67580 NIL=
201403081800 AAXX 08184 67580 NIL=
201403081500 AAXX 08154 67580 NIL=
201403081200 AAXX 08124 67580 NIL=
201403080900 AAXX 08094 67580 NIL=
201403080600 AAXX 08064 67580 NIL=
201403080300 AAXX 08034 67580 NIL=
201403080000 AAXX 08004 67580 NIL=
201403072100 AAXX 07214 67580 NIL=
201403071500 AAXX 07154 67580 NIL=
201403071200 AAXX 07124 67580 NIL=
201403070900 AAXX 07094 67580 42680 60903 10268 20195 48/// 86201
                   333 58007 86845 81080=
201403070600 AAXX 07064 67580 12580 30000 10230 20191 48/// 69904 81132
                   333 10321 20/// 58004 81820 82360 82080=
201403061800 AAXX 06184 67580 NIL=
201403061500 AAXX 06154 67580 NIL=
201403061200 AAXX 06124 67580 41780 61203 10260 20195 48/// 78021 86201
                   333 58000 86856 81080=
201403060900 AAXX 06094 67580 42782 41604 10295 20198 48/// 83101
                   333 59001 83850 81080=
201403060600 AAXX 06064 67580 32582 21204 10248 20187 48/// 81102
                   333 10310 20/// 58002 81820 82080=
201403052100 AAXX 05214 67580 NIL=
201403051800 AAXX 05184 67580 NIL=
201403051500 AAXX 05154 67580 NIL=
201403051200 AAXX 05124 67580 NIL=
201403050900 AAXX 05094 67580 42680 71004 10285 20195 48/// 87201
                   333 59005 87842 81080=
201403050600 AAXX 05064 67580 32580 30602 10240 20197 48/// 81101
                   333 10316 20/// 59001 81820 83080=
201403050300 AAXX 05034 67580 NIL=
201403050000 AAXX 05004 67580 NIL=
201403042100 AAXX 04214 67580 NIL=
201403041800 AAXX 04184 67580 NIL=
201403041500 AAXX 04154 67580 NIL=
201403041200 AAXX 04124 67580 NIL=
201403040900 AAXX 04094 67580 42680 73302 10274 20196 48/// 87201
                   333 58011 87838 83080=
201403040600 AAXX 04064 67580 32580 52702 10243 20194 48/// 81108
                   333 10316 20/// 58000 81820 85280=
201403040300 AAXX 04034 67580 NIL=
201403040000 AAXX 04004 67580 NIL=
201403031800 AAXX 03184 67580 NIL=
201403031500 AAXX 03154 67580 NIL=
201403031200 AAXX 03124 67580 42880 71204 10291 20201 48/// 83208
                   333 5//// 83857 87280=
201403030900 AAXX 03094 67580 42680 7//// 10291 20204 48/// 81108
                   333 5//// 81848 87280=
201403030600 AAXX 03064 67580 32980 71203 10247 20198 48/// 81038
                   333 10319 20/// 58004 81362 87280=
201403030300 AAXX 03034 67580 NIL=
201403030000 AAXX 03004 67580 NIL=
201403022100 AAXX 02214 67580 NIL=
201403021800 AAXX 02184 67580 NIL=
201403021500 AAXX 02154 67580 NIL=
201403021200 AAXX 02124 67580 NIL=
201403020900 AAXX 02094 67580 NIL=
201403020600 AAXX 02064 67580 NIL=
201403020300 AAXX 02034 67580 NIL=
201403020000 AAXX 02004 67580 NIL=
201403012100 AAXX 01214 67580 NIL=
201403011800 AAXX 01184 67580 NIL=
201403011500 AAXX 01154 67580 NIL=
201403011200 AAXX 01121 67580 NIL=
201403010900 AAXX 01094 67580 NIL=
201403010600 AAXX 01064 67580 NIL=

################################################################################
#  SYNOPS from 67581, Chipata (Zambia) | 13-33S | 032-35E | 1028 m
################################################################################
201403310300 AAXX 31034 67581 NIL=
201403310000 AAXX 31004 67581 NIL=
201403302100 AAXX 30214 67581 NIL=
201403301800 AAXX 30184 67581 NIL=
201403301500 AAXX 30154 67581 NIL=
201403301200 AAXX 30124 67581 NIL=
201403300900 AAXX 30094 67581 NIL=
201403300600 AAXX 30064 67581 NIL=
201403300000 AAXX 30004 67581 NIL=
201403292100 AAXX 29214 67581 NIL=
201403291800 AAXX 29184 67581 NIL=
201403291500 AAXX 29154 67581 NIL=
201403291200 AAXX 29124 67581 NIL=
201403290900 AAXX 29094 67581 NIL=
201403290600 AAXX 29064 67581 NIL=
201403290000 AAXX 29004 67581 NIL=
201403282100 AAXX 28214 67581 NIL=
201403281800 AAXX 28184 67581 NIL=
201403281500 AAXX 28150 67581 NIL=
201403281200 AAXX 28124 67581 NIL=
201403280900 AAXX 28094 67581 NIL=
201403280600 AAXX 28064 67581 32680 61603 10222 20172 48535 82132
                   333 10290 20166 58005 82832 83360 83080 91019=
201403280300 AAXX 28034 67581 NIL=
201403280000 AAXX 28004 67581 NIL=
201403272100 AAXX 27214 67581 NIL=
201403271500 AAXX 27154 67581 NIL=
201403271200 AAXX 27124 67581 42680 72004 10275 20186 48508 8527/
                   333 58007 85840 84360 91015=
201403270900 AAXX 27094 67581 NIL=
201403270600 AAXX 27064 67581 32580 60000 10215 20193 48529 81178
                   333 10282 20165 58004 81825 83360 85280 91018=
201403270300 AAXX 27034 67581 NIL=
201403270000 AAXX 27004 67581 NIL=
201403262100 AAXX 26214 67581 NIL=
201403261500 AAXX 26154 67581 NIL=
201403261200 AAXX 26124 67581 NIL=
201403260900 AAXX 26094 67581 NIL=
201403260600 AAXX 26064 67581 32680 41204 10223 20178 48526 70300 82130
                   333 10277 20176 59009 82830 83360
                   555 00164 20007 91018=
201403260300 AAXX 26034 67581 NIL=
201403260000 AAXX 26004 67581 NIL=
201403252100 AAXX 25214 67581 NIL=
201403251800 AAXX 25184 67581 NIL=
201403251500 AAXX 25154 67581 NIL=
201403251200 AAXX 25124 67581 42580 51803 10275 20161 48520 85238
                   333 59010 85839 82359 81280 91016=
201403250900 AAXX 25094 67581 42580 51305 10255 20174 48539 85231
                   333 85833 82359 82080 91018=
201403250600 AAXX 25064 67581 12480 61306 10220 20210 48534 60074 82131
                   333 10293 20185 59011 82810 84359 84080 91019=
201403241800 AAXX 24184 67581 NIL=
201403241500 AAXX 24154 67581 NIL=
201403241200 AAXX 24124 67581 NIL=
201403240900 AAXX 24094 67581 42680 51504 10262 20/// 48550 85200
                   333 58003 85835 91019=
201403240600 AAXX 24064 67581 32680 21806 10229 20183 48545 81102
                   333 10295 20166 58000 81830 82080 91020=
201403240300 AAXX 24034 67581 NIL=
201403240000 AAXX 24004 67581 NIL=
201403232100 AAXX 23214 67581 NIL=
201403231800 AAXX 23184 67581 NIL=
201403231500 AAXX 23154 67581 NIL=
201403231200 AAXX 23124 67581 NIL=
201403230600 AAXX 23064 67581 NIL=
201403230300 AAXX 23034 67581 NIL=
201403230000 AAXX 23004 67581 NIL=
201403222100 AAXX 22214 67581 NIL=
201403221800 AAXX 22184 67581 NIL=
201403221500 AAXX 22154 67581 NIL=
201403221200 AAXX 22124 67581 NIL=
201403220900 AAXX 22094 67581 NIL=
201403220600 AAXX 22064 67581 NIL=
201403220300 AAXX 22034 67581 NIL=
201403220000 AAXX 22004 67581 NIL=
201403212100 AAXX 21214 67581 NIL=
201403211800 AAXX 21184 67581 NIL=
201403211200 AAXX 21124 67581 42480 60000 10223 20196 48526 81970
                   333 58021 81915 82815 86458 91018=
201403210900 AAXX 21094 67581 41410 80000 10185 20176 48553 79596 8192/
                   333 58029 81910 88458 91022=
201403210600 AAXX 21064 67581 34480 60000 10215 20196 48548 85270
                   333 10275 20179 58013 85810 84459 91021=
201403210300 AAXX 21034 67581 NIL=
201403210000 AAXX 21004 67581 NIL=
201403202100 AAXX 20214 67581 NIL=
201403201800 AAXX 20184 67581 NIL=
201403201500 AAXX 20154 67581 NIL=
201403201200 AAXX 20124 67581 NIL=
201403200900 AAXX 20094 67581 42680 70302 10260 20203 48540 84278
                   333 58004 84835 81360 87280 91018=
201403200600 AAXX 20064 67581 12580 70000 10225 20203 48538 61064 8147/
                   333 10295 20165 58000 81625 87360 91019=
201403200300 AAXX 20034 67581 NIL=
201403200000 AAXX 20004 67581 NIL=
201403192100 AAXX 19214 67581 NIL=
201403191800 AAXX 19184 67581 NIL=
201403191200 AAXX 19124 67581 NIL=
201403190900 AAXX 19094 67581 NIL=
201403190600 AAXX 19064 67581 12680 71603 10237 20196 48540 60514 83132
                   333 10272 20166 59003 59003 83835 83360 82080
                   555 00166 20005 91019=
201403181800 AAXX 18184 67581 NIL=
201403181500 AAXX 18154 67581 NIL=
201403181200 AAXX 18124 67581 NIL=
201403180900 AAXX 18094 67581 NIL=
201403180600 AAXX 18064 67581 12980 51604 10226 20201 48540 60064 70222 84032
                   333 10300 20192 59003 84360 83080 91019=
201403180000 AAXX 18004 67581 NIL=
201403172100 AAXX 17214 67581 NIL=
201403171800 AAXX 17184 67581 NIL=
201403171500 AAXX 17154 67581 NIL=
201403171200 AAXX 17124 67581 42580 50901 10293 20194 48523 85231
                   333 59014 85839 81360 81080 91016=
201403170900 AAXX 17094 67581 NIL=
201403170600 AAXX 17064 67581 12480 30000 10226 20183 48543 60144 82138
                   333 10286 20170 59009 82819 81359 82280 91019=
201403161200 AAXX 16124 67581 NIL=
201403160900 AAXX 16094 67581 NIL=
201403160600 AAXX 16064 67581 NIL=
201403160300 AAXX 16034 67581 NIL=
201403160000 AAXX 16004 67581 NIL=
201403152100 AAXX 15214 67581 NIL=
201403151800 AAXX 15184 67581 NIL=
201403151500 AAXX 15154 67581 NIL=
201403151200 AAXX 15124 67581 NIL=
201403150900 AAXX 15094 67581 NIL=
201403150600 AAXX 15064 67581 NIL=
201403150300 AAXX 15034 67581 NIL=
201403141800 AAXX 14184 67581 NIL=
201403141500 AAXX 14154 67581 NIL=
201403141200 AAXX 14124 67581 NIL=
201403140900 AAXX 14094 67581 NIL=
201403140600 AAXX 14064 67581 12680 51206 10222 20187 48547 60084 70322 83132
                   333 10265 20189 59007 83830 82360 82080 91020=
201403140300 AAXX 14034 67581 NIL=
201403140000 AAXX 14004 67581 NIL=
201403132100 AAXX 13214 67581 NIL=
201403131800 AAXX 13184 67581 NIL=
201403131200 AAXX 13124 67581 NIL=
201403130900 AAXX 13094 67581 NIL=
201403130600 AAXX 13064 67581 NIL=
201403121800 AAXX 12184 67581 NIL=
201403121200 AAXX 12124 67581 NIL=
201403120900 AAXX 12094 67581 NIL=
201403120600 AAXX 12064 67581 12980 63501 10237 20202 48544 60074 82032
                   333 10304 20163 58007 82360 84080
                   555 00165 20000 QNH 1019.0=
201403120300 AAXX 12034 67581 NIL=
201403120000 AAXX 12004 67581 NIL=
201403112100 AAXX 11214 67581 NIL=
201403111800 AAXX 11184 67581 NIL=
201403111500 AAXX 11154 67581 42580 43105 10286 20205 48506 82238
                   333 58011 82830 82359 83280 91015=
201403111200 AAXX 11124 67581 42680 50403 10299 20170 48516 85200
                   333 58013 85850 91015=
201403110600 AAXX 11064 67581 32580 60802 10240 20187 48539 81108
                   333 10296 20155 58019 81825 86280 91019=
201403102100 AAXX 10214 67581 NIL=
201403101800 AAXX 10184 67581 NIL=
201403101500 AAXX 10154 67581 NIL=
201403101200 AAXX 10124 67581 NIL=
201403100900 AAXX 10094 67581 NIL=
201403100600 AAXX 10064 67581 NIL=
201403100300 AAXX 10034 67581 NIL=
201403092100 AAXX 09214 67581 NIL=
201403091800 AAXX 09184 67581 NIL=
201403091500 AAXX 09154 67581 NIL=
201403091200 AAXX 09124 67581 42580 60903 10280 20199 48503 81970
                   333 59012 81930 83830 86459 91014=
201403090900 AAXX 09094 67581 NIL=
201403090600 AAXX 09064 67581 NIL=
201403090300 AAXX 09034 67581 NIL=
201403090000 AAXX 09004 67581 NIL=
201403081800 AAXX 08184 67581 NIL=
201403081500 AAXX 08154 67581 NIL=
201403081200 AAXX 08124 67581 NIL=
201403080900 AAXX 08094 67581 NIL=
201403080600 AAXX 08064 67581 32980 60405 10252 20176 48543 83032
                   333 10300 20146 58001 83360 83080 91019=
201403080300 AAXX 08034 67581 NIL=
201403080000 AAXX 08004 67581 NIL=
201403072100 AAXX 07214 67581 NIL=
201403071500 AAXX 07154 67581 NIL=
201403071200 AAXX 07124 67581 NIL=
201403070900 AAXX 07094 67581 42680 50302 10260 20199 48545 85202
                   333 58007 85835 82080 91019=
201403070600 AAXX 07064 67581 NIL=
201403061800 AAXX 06184 67581 NIL=
201403061500 AAXX 06154 67581 NIL=
201403061200 AAXX 06124 67581 NIL=
201403060900 AAXX 06094 67581 NIL=
201403060600 AAXX 06064 67581 32680 30904 10236 20176 48533 70300 81132
                   333 10300 20182 59002 81830 81360 82080 91018=
201403052100 AAXX 05214 67581 NIL=
201403051800 AAXX 05184 67581 NIL=
201403051500 AAXX 05154 67581 NIL=
201403051200 AAXX 05124 67581 42580 50404 10289 20185 48522 85238
                   333 59001 81931 85831 81360 81280 91016=
201403050900 AAXX 05094 67581 NIL=
201403050600 AAXX 05064 67581 NIL=
201403050300 AAXX 05034 67581 NIL=
201403050000 AAXX 05004 67581 NIL=
201403042100 AAXX 04214 67581 NIL=
201403041800 AAXX 04184 67581 NIL=
201403041500 AAXX 04154 67581 NIL=
201403041200 AAXX 04124 67581 NIL=
201403040900 AAXX 04094 67581 NIL=
201403040600 AAXX 04064 67581 32980 60704 10244 20194 48537 80002
                   333 10290 20174 59002 86080 91018=
201403040300 AAXX 04034 67581 NIL=
201403040000 AAXX 04004 67581 NIL=
201403031800 AAXX 03184 67581 NIL=
201403031500 AAXX 03154 67581 NIL=
201403031200 AAXX 03124 67581 NIL=
201403030900 AAXX 03094 67581 NIL=
201403030600 AAXX 03064 67581 32580 70308 10240 20187 48537 81108
                   333 10302 20175 59005 81825 87280 91019=
201403030300 AAXX 03034 67581 NIL=
201403030000 AAXX 03004 67581 NIL=
201403022100 AAXX 02214 67581 NIL=
201403021800 AAXX 02184 67581 NIL=
201403021500 AAXX 02154 67581 NIL=
201403021200 AAXX 02124 67581 NIL=
201403020900 AAXX 02094 67581 NIL=
201403020600 AAXX 02064 67581 NIL=
201403020300 AAXX 02034 67581 NIL=
201403020000 AAXX 02004 67581 NIL=
201403012100 AAXX 01214 67581 NIL=
201403011800 AAXX 01184 67581 NIL=
201403011500 AAXX 01154 67581 NIL=
201403011200 AAXX 01121 67581 NIL=
201403010900 AAXX 01094 67581 NIL=
201403010600 AAXX 01064 67581 NIL=

################################################################################
#  SYNOPS from 67583, Lundazi (Zambia) | 12-17S | 033-12E | 1143 m
################################################################################
201403310300 AAXX 31034 67583 NIL=
201403310000 AAXX 31004 67583 NIL=
201403302100 AAXX 30214 67583 NIL=
201403301800 AAXX 30184 67583 NIL=
201403301500 AAXX 30154 67583 NIL=
201403301200 AAXX 30124 67583 NIL=
201403300900 AAXX 30094 67583 NIL=
201403300600 AAXX 30064 67583 NIL=
201403300000 AAXX 30004 67583 NIL=
201403292100 AAXX 29214 67583 NIL=
201403291800 AAXX 29184 67583 NIL=
201403291500 AAXX 29154 67583 NIL=
201403291200 AAXX 29124 67583 NIL=
201403290900 AAXX 29094 67583 NIL=
201403290600 AAXX 29064 67583 NIL=
201403290000 AAXX 29004 67583 NIL=
201403282100 AAXX 28214 67583 NIL=
201403281800 AAXX 28184 67583 NIL=
201403281500 AAXX 28150 67583 NIL=
201403281200 AAXX 28124 67583 NIL=
201403280900 AAXX 28094 67583 NIL=
201403280600 AAXX 28064 67583 32580 71203 10230 20194 82537
                   333 10305 20170 5//// 82625 83360 86280=
201403280300 AAXX 28034 67583 NIL=
201403280000 AAXX 28004 67583 NIL=
201403272100 AAXX 27214 67583 NIL=
201403271500 AAXX 27154 67583 NIL=
201403271200 AAXX 27124 67583 NIL=
201403270900 AAXX 27094 67583 NIL=
201403270600 AAXX 27064 67583 12680 42401 10230 20197 70122 81131
                   333 10285 20163 5//// 81827 81360 83080=
201403270300 AAXX 27034 67583 NIL=
201403270000 AAXX 27004 67583 NIL=
201403262100 AAXX 26214 67583 NIL=
201403261500 AAXX 26154 67583 NIL=
201403261200 AAXX 26124 67583 NIL=
201403260900 AAXX 26094 67583 NIL=
201403260600 AAXX 26064 67583 32580 73604 10215 20187 85530
                   333 10295 20180 5//// 85625 82360=
201403260300 AAXX 26034 67583 NIL=
201403260000 AAXX 26004 67583 NIL=
201403252100 AAXX 25214 67583 NIL=
201403251800 AAXX 25184 67583 NIL=
201403251500 AAXX 25154 67583 NIL=
201403251200 AAXX 25124 67583 NIL=
201403250900 AAXX 25094 67583 NIL=
201403250600 AAXX 25064 67583 NIL=
201403241800 AAXX 24184 67583 NIL=
201403241500 AAXX 24154 67583 NIL=
201403241200 AAXX 24124 67583 NIL=
201403240900 AAXX 24094 67583 NIL=
201403240600 AAXX 24064 67583 NIL=
201403240300 AAXX 24034 67583 NIL=
201403240000 AAXX 24004 67583 NIL=
201403232100 AAXX 23214 67583 NIL=
201403231800 AAXX 23184 67583 NIL=
201403231500 AAXX 23154 67583 NIL=
201403231200 AAXX 23124 67583 NIL=
201403230600 AAXX 23064 67583 NIL=
201403230300 AAXX 23034 67583 NIL=
201403230000 AAXX 23004 67583 NIL=
201403222100 AAXX 22214 67583 NIL=
201403221800 AAXX 22184 67583 NIL=
201403221500 AAXX 22154 67583 NIL=
201403221200 AAXX 22124 67583 NIL=
201403220900 AAXX 22094 67583 NIL=
201403220600 AAXX 22064 67583 NIL=
201403220300 AAXX 22034 67583 NIL=
201403220000 AAXX 22004 67583 NIL=
201403212100 AAXX 21214 67583 NIL=
201403211800 AAXX 21184 67583 NIL=
201403211200 AAXX 21124 67583 NIL=
201403210900 AAXX 21094 67583 NIL=
201403210600 AAXX 21064 67583 NIL=
201403210300 AAXX 21034 67583 NIL=
201403210000 AAXX 21004 67583 NIL=
201403202100 AAXX 20214 67583 NIL=
201403201800 AAXX 20184 67583 NIL=
201403201500 AAXX 20154 67583 NIL=
201403201200 AAXX 20124 67583 NIL=
201403200900 AAXX 20094 67583 NIL=
201403200600 AAXX 20064 67583 NIL=
201403200300 AAXX 20034 67583 NIL=
201403200000 AAXX 20004 67583 NIL=
201403192100 AAXX 19214 67583 NIL=
201403191800 AAXX 19184 67583 NIL=
201403191200 AAXX 19124 67583 NIL=
201403190900 AAXX 19094 67583 NIL=
201403190600 AAXX 19064 67583 32580 70301 10235 20198 70222 81831
                   333 10295 20173 5//// 81625 87360 81080=
201403181800 AAXX 18184 67583 NIL=
201403181500 AAXX 18154 67583 NIL=
201403181200 AAXX 18124 67583 NIL=
201403180900 AAXX 18094 67583 NIL=
201403180600 AAXX 18064 67583 32980 71401 10214 20202 81037
                   333 10305 20175 5//// 81360 87280=
201403180000 AAXX 18004 67583 NIL=
201403172100 AAXX 17214 67583 NIL=
201403171800 AAXX 17184 67583 NIL=
201403171500 AAXX 17154 67583 NIL=
201403171200 AAXX 17124 67583 NIL=
201403170900 AAXX 17094 67583 NIL=
201403170600 AAXX 17064 67583 NIL=
201403161200 AAXX 16124 67583 NIL=
201403160900 AAXX 16094 67583 NIL=
201403160600 AAXX 16064 67583 NIL=
201403160300 AAXX 16034 67583 NIL=
201403160000 AAXX 16004 67583 NIL=
201403152100 AAXX 15214 67583 NIL=
201403151800 AAXX 15184 67583 NIL=
201403151500 AAXX 15154 67583 NIL=
201403151200 AAXX 15124 67583 NIL=
201403150900 AAXX 15094 67583 NIL=
201403150600 AAXX 15064 67583 NIL=
201403150300 AAXX 15034 67583 NIL=
201403141800 AAXX 14184 67583 NIL=
201403141500 AAXX 14154 67583 NIL=
201403141200 AAXX 14124 67583 NIL=
201403140900 AAXX 14094 67583 NIL=
201403140600 AAXX 14064 67583 NIL=
201403140300 AAXX 14034 67583 NIL=
201403140000 AAXX 14004 67583 NIL=
201403132100 AAXX 13214 67583 NIL=
201403131800 AAXX 13184 67583 NIL=
201403131200 AAXX 13124 67583 NIL=
201403130900 AAXX 13094 67583 NIL=
201403130600 AAXX 13064 67583 NIL=
201403121800 AAXX 12184 67583 NIL=
201403121200 AAXX 12124 67583 NIL=
201403120900 AAXX 12094 67583 NIL=
201403120600 AAXX 12064 67583 NIL=
201403120300 AAXX 12034 67583 NIL=
201403120000 AAXX 12004 67583 NIL=
201403112100 AAXX 11214 67583 NIL=
201403111800 AAXX 11184 67583 NIL=
201403111500 AAXX 11154 67583 NIL=
201403111200 AAXX 11124 67583 NIL=
201403110600 AAXX 11064 67583 NIL=
201403102100 AAXX 10214 67583 NIL=
201403101800 AAXX 10184 67583 NIL=
201403101500 AAXX 10154 67583 NIL=
201403101200 AAXX 10124 67583 NIL=
201403100900 AAXX 10094 67583 NIL=
201403100600 AAXX 10064 67583 12580 31503 10230 20201 60454 70200 81531
                   333 10306 20175 5//// 81625 81360 81080=
201403100300 AAXX 10034 67583 NIL=
201403092100 AAXX 09214 67583 NIL=
201403091800 AAXX 09184 67583 NIL=
201403091500 AAXX 09154 67583 NIL=
201403091200 AAXX 09124 67583 NIL=
201403090900 AAXX 09094 67583 NIL=
201403090600 AAXX 09064 67583 NIL=
201403090300 AAXX 09034 67583 NIL=
201403090000 AAXX 09004 67583 NIL=
201403081800 AAXX 08184 67583 NIL=
201403081500 AAXX 08154 67583 NIL=
201403081200 AAXX 08124 67583 NIL=
201403080900 AAXX 08094 67583 NIL=
201403080600 AAXX 08064 67583 NIL=
201403080300 AAXX 08034 67583 NIL=
201403080000 AAXX 08004 67583 NIL=
201403072100 AAXX 07214 67583 NIL=
201403071500 AAXX 07154 67583 NIL=
201403071200 AAXX 07124 67583 NIL=
201403070900 AAXX 07094 67583 NIL=
201403070600 AAXX 07064 67583 NIL=
201403061800 AAXX 06184 67583 NIL=
201403061500 AAXX 06154 67583 NIL=
201403061200 AAXX 06124 67583 NIL=
201403060900 AAXX 06094 67583 NIL=
201403060600 AAXX 06064 67583 32580 10301 10214 20193 81500
                   333 10315 20179 5//// 81625=
201403052100 AAXX 05214 67583 NIL=
201403051800 AAXX 05184 67583 NIL=
201403051500 AAXX 05154 67583 NIL=
201403051200 AAXX 05124 67583 NIL=
201403050900 AAXX 05094 67583 NIL=
201403050600 AAXX 05064 67583 NIL=
201403050300 AAXX 05034 67583 NIL=
201403050000 AAXX 05004 67583 NIL=
201403042100 AAXX 04214 67583 NIL=
201403041800 AAXX 04184 67583 NIL=
201403041500 AAXX 04154 67583 NIL=
201403041200 AAXX 04124 67583 NIL=
201403040900 AAXX 04094 67583 NIL=
201403040600 AAXX 04064 67583 32580 31201 10240 20196 70200 81531
                   333 10315 20169 5//// 81625 81360 81080=
201403040300 AAXX 04034 67583 NIL=
201403040000 AAXX 04004 67583 NIL=
201403031800 AAXX 03184 67583 NIL=
201403031500 AAXX 03154 67583 NIL=
201403031200 AAXX 03124 67583 NIL=
201403030900 AAXX 03094 67583 NIL=
201403030600 AAXX 03064 67583 32680 72701 10225 20199 70322 82137
                   333 10315 20178 5//// 82828 83360 87280=
201403030300 AAXX 03034 67583 NIL=
201403030000 AAXX 03004 67583 NIL=
201403022100 AAXX 02214 67583 NIL=
201403021800 AAXX 02184 67583 NIL=
201403021500 AAXX 02154 67583 NIL=
201403021200 AAXX 02124 67583 NIL=
201403020900 AAXX 02094 67583 NIL=
201403020600 AAXX 02064 67583 NIL=
201403020300 AAXX 02034 67583 NIL=
201403020000 AAXX 02004 67583 NIL=
201403012100 AAXX 01214 67583 NIL=
201403011800 AAXX 01184 67583 NIL=
201403011500 AAXX 01154 67583 NIL=
201403011200 AAXX 01121 67583 NIL=
201403010900 AAXX 01094 67583 NIL=
201403010600 AAXX 01064 67583 NIL=

################################################################################
#  SYNOPS from 67599, Mfuwe (Zambia) | 13-16S | 031-56E | 568 m
################################################################################
201403310300 AAXX 31034 67599 NIL=
201403310000 AAXX 31004 67599 NIL=
201403302100 AAXX 30214 67599 NIL=
201403301800 AAXX 30184 67599 NIL=
201403301500 AAXX 30154 67599 NIL=
201403301200 AAXX 30124 67599 NIL=
201403300900 AAXX 30094 67599 NIL=
201403300600 AAXX 30064 67599 NIL=
201403300000 AAXX 30004 67599 NIL=
201403292100 AAXX 29214 67599 NIL=
201403291800 AAXX 29184 67599 NIL=
201403291500 AAXX 29154 67599 NIL=
201403291200 AAXX 29124 67599 NIL=
201403290900 AAXX 29094 67599 NIL=
201403290600 AAXX 29064 67599 NIL=
201403290000 AAXX 29004 67599 NIL=
201403282100 AAXX 28214 67599 NIL=
201403281800 AAXX 28184 67599 NIL=
201403281500 AAXX 28150 67599 NIL=
201403281200 AAXX 28124 67599 NIL=
201403280900 AAXX 28094 67599 NIL=
201403280600 AAXX 28064 67599 32980 50000 10230 20198 48541 70122 83034
                   333 10333 20190 58007 83359 83080 91018=
201403280300 AAXX 28034 67599 NIL=
201403280000 AAXX 28004 67599 NIL=
201403272100 AAXX 27214 67599 NIL=
201403271500 AAXX 27154 67599 NIL=
201403271200 AAXX 27124 67599 NIL=
201403270900 AAXX 27094 67599 NIL=
201403270600 AAXX 27064 67599 NIL=
201403270300 AAXX 27034 67599 NIL=
201403270000 AAXX 27004 67599 NIL=
201403262100 AAXX 26214 67599 NIL=
201403261500 AAXX 26154 67599 NIL=
201403261200 AAXX 26124 67599 NIL=
201403260900 AAXX 26094 67599 NIL=
201403260600 AAXX 26064 67599 NIL=
201403260300 AAXX 26034 67599 NIL=
201403260000 AAXX 26004 67599 NIL=
201403252100 AAXX 25214 67599 NIL=
201403251800 AAXX 25184 67599 NIL=
201403251500 AAXX 25154 67599 NIL=
201403251200 AAXX 25124 67599 NIL=
201403250900 AAXX 25094 67599 NIL=
201403250600 AAXX 25064 67599 32380 70000 10242 20218 48545 69994 70244 81734
                   333 10325 20202 59006 81706 82359 87080 91018=
201403241800 AAXX 24184 67599 NIL=
201403241500 AAXX 24154 67599 NIL=
201403241200 AAXX 24124 67599 NIL=
201403240900 AAXX 24094 67599 NIL=
201403240600 AAXX 24064 67599 32970 00000 10237 20205 48548 70244
                   333 10330 20185 59001 91019=
201403240300 AAXX 24034 67599 NIL=
201403240000 AAXX 24004 67599 NIL=
201403232100 AAXX 23214 67599 NIL=
201403231800 AAXX 23184 67599 NIL=
201403231500 AAXX 23154 67599 NIL=
201403231200 AAXX 23124 67599 NIL=
201403230600 AAXX 23064 67599 NIL=
201403230300 AAXX 23034 67599 NIL=
201403230000 AAXX 23004 67599 NIL=
201403222100 AAXX 22214 67599 NIL=
201403221800 AAXX 22184 67599 NIL=
201403221500 AAXX 22154 67599 NIL=
201403221200 AAXX 22124 67599 NIL=
201403220900 AAXX 22094 67599 NIL=
201403220600 AAXX 22064 67599 NIL=
201403220300 AAXX 22034 67599 NIL=
201403220000 AAXX 22004 67599 NIL=
201403212100 AAXX 21214 67599 NIL=
201403211800 AAXX 21184 67599 NIL=
201403211200 AAXX 21124 67599 NIL=
201403210900 AAXX 21094 67599 NIL=
201403210600 AAXX 21064 67599 32380 71903 10230 20219 48555 69994 70222 8277/
                   333 10315 20208 58016 82706 87359 91020=
201403210300 AAXX 21034 67599 NIL=
201403210000 AAXX 21004 67599 NIL=
201403202100 AAXX 20214 67599 NIL=
201403201800 AAXX 20184 67599 NIL=
201403201500 AAXX 20154 67599 NIL=
201403201200 AAXX 20124 67599 NIL=
201403200900 AAXX 20094 67599 NIL=
201403200600 AAXX 20064 67599 12480 70000 10245 20227 48544 60054 70222 8173/
                   333 10330 20218 58000 81710 87359 91018=
201403200300 AAXX 20034 67599 NIL=
201403200000 AAXX 20004 67599 NIL=
201403192100 AAXX 19214 67599 NIL=
201403191800 AAXX 19184 67599 NIL=
201403191200 AAXX 19124 67599 NIL=
201403190900 AAXX 19094 67599 NIL=
201403190600 AAXX 19064 67599 12980 70000 10236 20216 48541 69904 8703/
                   333 10316 20214 58000 87360 91018=
201403181800 AAXX 18184 67599 NIL=
201403181500 AAXX 18154 67599 NIL=
201403181200 AAXX 18124 67599 NIL=
201403180900 AAXX 18094 67599 42580 70000 10280 20227 48558 70322 8227/
                   333 59004 82820 87460 91018=
201403180600 AAXX 18064 67599 12980 70000 10242 20225 48544 60064 8703/
                   333 10330 20218 59010 87360 91018=
201403180000 AAXX 18004 67599 NIL=
201403172100 AAXX 17214 67599 NIL=
201403171800 AAXX 17184 67599 NIL=
201403171500 AAXX 17154 67599 NIL=
201403171200 AAXX 17124 67599 NIL=
201403170900 AAXX 17094 67599 NIL=
201403170600 AAXX 17064 67599 12380 40000 10230 20213 48550 60454 70322 81734
                   333 10325 20192 59004 81706 82359 84080 91019=
201403161200 AAXX 16124 67599 NIL=
201403160900 AAXX 16094 67599 NIL=
201403160600 AAXX 16064 67599 NIL=
201403160300 AAXX 16034 67599 NIL=
201403160000 AAXX 16004 67599 NIL=
201403152100 AAXX 15214 67599 NIL=
201403151800 AAXX 15184 67599 NIL=
201403151500 AAXX 15154 67599 NIL=
201403151200 AAXX 15124 67599 NIL=
201403150900 AAXX 15094 67599 NIL=
201403150600 AAXX 15064 67599 NIL=
201403150300 AAXX 15034 67599 NIL=
201403141800 AAXX 14184 67599 NIL=
201403141500 AAXX 14154 67599 NIL=
201403141200 AAXX 14124 67599 NIL=
201403140900 AAXX 14094 67599 NIL=
201403140600 AAXX 14064 67599 NIL=
201403140300 AAXX 14034 67599 NIL=
201403140000 AAXX 14004 67599 NIL=
201403132100 AAXX 13214 67599 NIL=
201403131800 AAXX 13184 67599 NIL=
201403131200 AAXX 13124 67599 NIL=
201403130900 AAXX 13094 67599 NIL=
201403130600 AAXX 13064 67599 NIL=
201403121800 AAXX 12184 67599 NIL=
201403121200 AAXX 12124 67599 NIL=
201403120900 AAXX 12094 67599 NIL=
201403120600 AAXX 12064 67599 NIL=
201403120300 AAXX 12034 67599 NIL=
201403120000 AAXX 12004 67599 NIL=
201403112100 AAXX 11214 67599 NIL=
201403111800 AAXX 11184 67599 NIL=
201403111500 AAXX 11154 67599 NIL=
201403111200 AAXX 11124 67599 NIL=
201403110600 AAXX 11064 67599 NIL=
201403102100 AAXX 10214 67599 NIL=
201403101800 AAXX 10184 67599 NIL=
201403101500 AAXX 10154 67599 NIL=
201403101200 AAXX 10124 67599 NIL=
201403100900 AAXX 10094 67599 NIL=
201403100600 AAXX 10064 67599 NIL=
201403100300 AAXX 10034 67599 NIL=
201403092100 AAXX 09214 67599 NIL=
201403091800 AAXX 09184 67599 NIL=
201403091500 AAXX 09154 67599 NIL=
201403091200 AAXX 09124 67599 NIL=
201403090900 AAXX 09094 67599 NIL=
201403090600 AAXX 09064 67599 NIL=
201403090300 AAXX 09034 67599 NIL=
201403090000 AAXX 09004 67599 NIL=
201403081800 AAXX 08184 67599 NIL=
201403081500 AAXX 08154 67599 NIL=
201403081200 AAXX 08124 67599 NIL=
201403080900 AAXX 08094 67599 NIL=
201403080600 AAXX 08064 67599 NIL=
201403080300 AAXX 08034 67599 NIL=
201403080000 AAXX 08004 67599 NIL=
201403072100 AAXX 07214 67599 NIL=
201403071500 AAXX 07154 67599 NIL=
201403071200 AAXX 07124 67599 NIL=
201403070900 AAXX 07094 67599 NIL=
201403070600 AAXX 07064 67599 NIL=
201403061800 AAXX 06184 67599 NIL=
201403061500 AAXX 06154 67599 NIL=
201403061200 AAXX 06124 67599 NIL=
201403060900 AAXX 06094 67599 NIL=
201403060600 AAXX 06064 67599 NIL=
201403052100 AAXX 05214 67599 NIL=
201403051800 AAXX 05184 67599 NIL=
201403051500 AAXX 05154 67599 NIL=
201403051200 AAXX 05124 67599 NIL=
201403050900 AAXX 05094 67599 NIL=
201403050600 AAXX 05064 67599 32480 30907 10255 20214 48547 70222 81201
                   333 10362 20200 58001 81815 83080 91018=
201403050300 AAXX 05034 67599 NIL=
201403050000 AAXX 05004 67599 NIL=
201403042100 AAXX 04214 67599 NIL=
201403041800 AAXX 04184 67599 NIL=
201403041500 AAXX 04154 67599 NIL=
201403041200 AAXX 04124 67599 NIL=
201403040900 AAXX 04094 67599 NIL=
201403040600 AAXX 04064 67599 32980 41902 10250 20221 48546 70244 80004
                   333 10338 20200 58005 84080 91018=
201403040300 AAXX 04034 67599 NIL=
201403040000 AAXX 04004 67599 NIL=
201403031800 AAXX 03184 67599 NIL=
201403031500 AAXX 03154 67599 NIL=
201403031200 AAXX 03124 67599 NIL=
201403030900 AAXX 03094 67599 NIL=
201403030600 AAXX 03064 67599 NIL=
201403030300 AAXX 03034 67599 NIL=
201403030000 AAXX 03004 67599 NIL=
201403022100 AAXX 02214 67599 NIL=
201403021800 AAXX 02184 67599 NIL=
201403021500 AAXX 02154 67599 NIL=
201403021200 AAXX 02124 67599 NIL=
201403020900 AAXX 02094 67599 NIL=
201403020600 AAXX 02064 67599 NIL=
201403020300 AAXX 02034 67599 NIL=
201403020000 AAXX 02004 67599 NIL=
201403012100 AAXX 01214 67599 NIL=
201403011800 AAXX 01184 67599 NIL=
201403011500 AAXX 01154 67599 NIL=
201403011200 AAXX 01121 67599 NIL=
201403010900 AAXX 01094 67599 NIL=
201403010600 AAXX 01064 67599 NIL=

################################################################################
#  SYNOPS from 67625, Kalabo (Zambia) | 14-51S | 022-42E | 1033 m
################################################################################
201403310300 AAXX 31034 67625 NIL=
201403310000 AAXX 31004 67625 NIL=
201403302100 AAXX 30214 67625 NIL=
201403301800 AAXX 30184 67625 NIL=
201403301500 AAXX 30154 67625 NIL=
201403301200 AAXX 30124 67625 NIL=
201403300900 AAXX 30094 67625 NIL=
201403300600 AAXX 30064 67625 NIL=
201403300000 AAXX 30004 67625 NIL=
201403292100 AAXX 29214 67625 NIL=
201403291800 AAXX 29184 67625 NIL=
201403291500 AAXX 29154 67625 NIL=
201403291200 AAXX 29124 67625 NIL=
201403290900 AAXX 29094 67625 NIL=
201403290600 AAXX 29064 67625 NIL=
201403290000 AAXX 29004 67625 NIL=
201403282100 AAXX 28214 67625 NIL=
201403281800 AAXX 28184 67625 NIL=
201403281500 AAXX 28150 67625 NIL=
201403281200 AAXX 28120 67625 NIL=
201403280900 AAXX 28094 67625 NIL=
201403280600 AAXX 28064 67625 NIL=
201403280300 AAXX 28034 67625 NIL=
201403280000 AAXX 28004 67625 NIL=
201403272100 AAXX 27214 67625 NIL=
201403271500 AAXX 27154 67625 NIL=
201403271200 AAXX 27124 67625 NIL=
201403270900 AAXX 27094 67625 NIL=
201403270600 AAXX 27064 67625 NIL=
201403270300 AAXX 27034 67625 NIL=
201403270000 AAXX 27004 67625 NIL=
201403262100 AAXX 26214 67625 NIL=
201403261500 AAXX 26154 67625 NIL=
201403261200 AAXX 26124 67625 NIL=
201403260900 AAXX 26094 67625 NIL=
201403260600 AAXX 26064 67625 NIL=
201403260300 AAXX 26034 67625 NIL=
201403260000 AAXX 26004 67625 NIL=
201403252100 AAXX 25214 67625 NIL=
201403251800 AAXX 25184 67625 NIL=
201403251500 AAXX 25154 67625 NIL=
201403251200 AAXX 25124 67625 NIL=
201403250900 AAXX 25094 67625 NIL=
201403250600 AAXX 25060 67625 NIL=
201403241800 AAXX 24184 67625 NIL=
201403241500 AAXX 24154 67625 NIL=
201403241200 AAXX 24124 67625 NIL=
201403240900 AAXX 24094 67625 NIL=
201403240600 AAXX 24064 67625 NIL=
201403240300 AAXX 24034 67625 NIL=
201403240000 AAXX 24004 67625 NIL=
201403232100 AAXX 23214 67625 NIL=
201403231800 AAXX 23184 67625 NIL=
201403231500 AAXX 23154 67625 NIL=
201403231200 AAXX 23124 67625 NIL=
201403230600 AAXX 23064 67625 NIL=
201403230300 AAXX 23034 67625 NIL=
201403230000 AAXX 23004 67625 NIL=
201403222100 AAXX 22214 67625 NIL=
201403221800 AAXX 22184 67625 NIL=
201403221500 AAXX 22154 67625 NIL=
201403221200 AAXX 22124 67625 NIL=
201403220900 AAXX 22094 67625 NIL=
201403220600 AAXX 22064 67625 NIL=
201403220300 AAXX 22034 67625 NIL=
201403220000 AAXX 22004 67625 NIL=
201403212100 AAXX 21214 67625 NIL=
201403211800 AAXX 21184 67625 NIL=
201403211200 AAXX 21124 67625 NIL=
201403210900 AAXX 21094 67625 NIL=
201403210600 AAXX 21064 67625 NIL=
201403210300 AAXX 21034 67625 NIL=
201403210000 AAXX 21004 67625 NIL=
201403202100 AAXX 20214 67625 NIL=
201403201800 AAXX 20184 67625 NIL=
201403201500 AAXX 20154 67625 NIL=
201403201200 AAXX 20120 67625 NIL=
201403200900 AAXX 20094 67625 NIL=
201403200600 AAXX 20064 67625 NIL=
201403200300 AAXX 20034 67625 NIL=
201403200000 AAXX 20004 67625 NIL=
201403192100 AAXX 19214 67625 NIL=
201403191800 AAXX 19184 67625 NIL=
201403191200 AAXX 19124 67625 NIL=
201403190900 AAXX 19094 67625 NIL=
201403190600 AAXX 19064 67625 NIL=
201403181800 AAXX 18184 67625 NIL=
201403181500 AAXX 18154 67625 NIL=
201403181200 AAXX 18124 67625 NIL=
201403180900 AAXX 18094 67625 NIL=
201403180600 AAXX 18064 67625 NIL=
201403180000 AAXX 18004 67625 NIL=
201403172100 AAXX 17214 67625 NIL=
201403171800 AAXX 17184 67625 NIL=
201403171500 AAXX 17154 67625 NIL=
201403171200 AAXX 17124 67625 NIL=
201403170900 AAXX 17094 67625 NIL=
201403170600 AAXX 17064 67625 NIL=
201403161200 AAXX 16124 67625 NIL=
201403160900 AAXX 16094 67625 NIL=
201403160600 AAXX 16064 67625 NIL=
201403160300 AAXX 16034 67625 NIL=
201403160000 AAXX 16004 67625 NIL=
201403152100 AAXX 15214 67625 NIL=
201403151800 AAXX 15184 67625 NIL=
201403151500 AAXX 15154 67625 NIL=
201403151200 AAXX 15124 67625 NIL=
201403150900 AAXX 15094 67625 NIL=
201403150600 AAXX 15064 67625 NIL=
201403150300 AAXX 15034 67625 NIL=
201403141800 AAXX 14184 67625 NIL=
201403141500 AAXX 14154 67625 NIL=
201403141200 AAXX 14124 67625 NIL=
201403140900 AAXX 14094 67625 NIL=
201403140600 AAXX 14064 67625 NIL=
201403140300 AAXX 14034 67625 NIL=
201403140000 AAXX 14004 67625 NIL=
201403132100 AAXX 13214 67625 NIL=
201403131800 AAXX 13184 67625 NIL=
201403131200 AAXX 13124 67625 NIL=
201403130900 AAXX 13094 67625 NIL=
201403130600 AAXX 13064 67625 NIL=
201403121800 AAXX 12184 67625 NIL=
201403121200 AAXX 12124 67625 NIL=
201403120900 AAXX 12094 67625 NIL=
201403120600 AAXX 12064 67625 NIL=
201403120300 AAXX 12034 67625 NIL=
201403120000 AAXX 12004 67625 NIL=
201403112100 AAXX 11214 67625 NIL=
201403111800 AAXX 11184 67625 NIL=
201403111500 AAXX 11154 67625 NIL=
201403111200 AAXX 11124 67625 NIL=
201403110600 AAXX 11064 67625 NIL=
201403102100 AAXX 10214 67625 NIL=
201403101800 AAXX 10184 67625 NIL=
201403101500 AAXX 10154 67625 NIL=
201403101200 AAXX 10124 67625 NIL=
201403100900 AAXX 10094 67625 NIL=
201403100600 AAXX 10064 67625 NIL=
201403100300 AAXX 10034 67625 NIL=
201403092100 AAXX 09214 67625 NIL=
201403091800 AAXX 09184 67625 NIL=
201403091500 AAXX 09154 67625 NIL=
201403091200 AAXX 09124 67625 NIL=
201403090900 AAXX 09094 67625 NIL=
201403090600 AAXX 09064 67625 NIL=
201403090300 AAXX 09034 67625 NIL=
201403090000 AAXX 09004 67625 NIL=
201403081800 AAXX 08184 67625 NIL=
201403081500 AAXX 08154 67625 NIL=
201403081200 AAXX 08124 67625 NIL=
201403080900 AAXX 08094 67625 NIL=
201403080600 AAXX 08064 67625 NIL=
201403080300 AAXX 08034 67625 NIL=
201403080000 AAXX 08004 67625 NIL=
201403072100 AAXX 07214 67625 NIL=
201403071500 AAXX 07154 67625 NIL=
201403071200 AAXX 07124 67625 NIL=
201403070900 AAXX 07094 67625 NIL=
201403070600 AAXX 07064 67625 NIL=
201403061800 AAXX 06184 67625 NIL=
201403061500 AAXX 06154 67625 NIL=
201403061200 AAXX 06124 67625 NIL=
201403060900 AAXX 06094 67625 NIL=
201403060600 AAXX 06064 67625 NIL=
201403052100 AAXX 05214 67625 NIL=
201403051800 AAXX 05184 67625 NIL=
201403051500 AAXX 05154 67625 NIL=
201403051200 AAXX 05124 67625 NIL=
201403050900 AAXX 05094 67625 NIL=
201403050600 AAXX 05064 67625 NIL=
201403050300 AAXX 05034 67625 NIL=
201403050000 AAXX 05004 67625 NIL=
201403042100 AAXX 04214 67625 NIL=
201403041800 AAXX 04184 67625 NIL=
201403041500 AAXX 04154 67625 NIL=
201403041200 AAXX 04124 67625 NIL=
201403040900 AAXX 04094 67625 NIL=
201403040600 AAXX 04064 67625 NIL=
201403040300 AAXX 04034 67625 NIL=
201403040000 AAXX 04004 67625 NIL=
201403031800 AAXX 03184 67625 NIL=
201403031500 AAXX 03154 67625 NIL=
201403031200 AAXX 03124 67625 NIL=
201403030900 AAXX 03094 67625 NIL=
201403030600 AAXX 03064 67625 NIL=
201403030300 AAXX 03034 67625 NIL=
201403030000 AAXX 03004 67625 NIL=
201403022100 AAXX 02214 67625 NIL=
201403021800 AAXX 02184 67625 NIL=
201403021500 AAXX 02154 67625 NIL=
201403021200 AAXX 02124 67625 NIL=
201403020900 AAXX 02094 67625 NIL=
201403020600 AAXX 02064 67625 NIL=
201403020300 AAXX 02034 67625 NIL=
201403020000 AAXX 02004 67625 NIL=
201403012100 AAXX 01214 67625 NIL=
201403011800 AAXX 01184 67625 NIL=
201403011500 AAXX 01154 67625 NIL=
201403011200 AAXX 01121 67625 NIL=
201403010900 AAXX 01094 67625 NIL=
201403010600 AAXX 01064 67625 NIL=

################################################################################
#  SYNOPS from 67633, Mongu (Zambia) | 15-15S | 023-09E | 1052 m
################################################################################
201403310300 AAXX 31034 67633 NIL=
201403310000 AAXX 31004 67633 NIL=
201403302100 AAXX 30214 67633 NIL=
201403301800 AAXX 30184 67633 NIL=
201403301500 AAXX 30154 67633 NIL=
201403301200 AAXX 30124 67633 NIL=
201403300900 AAXX 30094 67633 NIL=
201403300600 AAXX 30064 67633 NIL=
201403300000 AAXX 30004 67633 NIL=
201403292100 AAXX 29214 67633 NIL=
201403291800 AAXX 29184 67633 NIL=
201403291500 AAXX 29154 67633 NIL=
201403291200 AAXX 29124 67633 NIL=
201403290900 AAXX 29094 67633 NIL=
201403290600 AAXX 29064 67633 NIL=
201403290000 AAXX 29004 67633 NIL=
201403282100 AAXX 28214 67633 NIL=
201403281800 AAXX 28184 67633 NIL=
201403281500 AAXX 28150 67633 NIL=
201403281200 AAXX 28120 67633 NIL=
201403280900 AAXX 28094 67633 NIL=
201403280600 AAXX 28064 67633 32980 50904 10228 20190 48520 70222 85030
                   333 10310 20195 58016 85361 91018=
201403280300 AAXX 28034 67633 NIL=
201403280000 AAXX 28004 67633 NIL=
201403272100 AAXX 27214 67633 NIL=
201403271500 AAXX 27154 67633 NIL=
201403271200 AAXX 27124 67633 NIL=
201403270900 AAXX 27094 67633 NIL=
201403270600 AAXX 27064 67633 NIL=
201403270300 AAXX 27034 67633 NIL=
201403270000 AAXX 27004 67633 NIL=
201403262100 AAXX 26214 67633 NIL=
201403261500 AAXX 26154 67633 NIL=
201403261200 AAXX 26124 67633 42680 43002 10296 20189 48488 84200
                   333 59026 84856 91013=
201403260900 AAXX 26094 67633 42680 30902 10291 20183 48507 70322 81130
                   333 59022 81850 83360 91016=
201403260600 AAXX 26064 67633 32980 20903 10230 20175 48518 82030
                   333 10315 20194 59005 82361 91017=
201403260300 AAXX 26034 67633 NIL=
201403260000 AAXX 26004 67633 NIL=
201403252100 AAXX 25214 67633 NIL=
201403251800 AAXX 25184 67633 NIL=
201403251500 AAXX 25154 67633 NIL=
201403251200 AAXX 25124 67633 NIL=
201403250900 AAXX 25094 67633 NIL=
201403250600 AAXX 25064 67633 32980 21003 10225 20178 48516 80002
                   333 10315 20187 59005 82080 91018=
201403241800 AAXX 24184 67633 NIL=
201403241500 AAXX 24154 67633 NIL=
201403241200 AAXX 24124 67633 NIL=
201403240900 AAXX 24094 67633 NIL=
201403240600 AAXX 24064 67633 32980 20904 10235 20170 48527 70200 82030
                   333 10315 20195 58003 82361 91019=
201403240300 AAXX 24034 67633 NIL=
201403240000 AAXX 24004 67633 NIL=
201403232100 AAXX 23214 67633 NIL=
201403231800 AAXX 23184 67633 NIL=
201403231500 AAXX 23154 67633 NIL=
201403231200 AAXX 23124 67633 NIL=
201403230600 AAXX 23064 67633 NIL=
201403230300 AAXX 23034 67633 NIL=
201403230000 AAXX 23004 67633 NIL=
201403222100 AAXX 22214 67633 NIL=
201403221800 AAXX 22184 67633 NIL=
201403221500 AAXX 22154 67633 NIL=
201403221200 AAXX 22124 67633 NIL=
201403220900 AAXX 22094 67633 NIL=
201403220600 AAXX 22064 67633 NIL=
201403220300 AAXX 22034 67633 NIL=
201403220000 AAXX 22004 67633 NIL=
201403212100 AAXX 21214 67633 NIL=
201403211800 AAXX 21184 67633 NIL=
201403211200 AAXX 21124 67633 42780 60902 10318 20189 48500 81200
                   333 59019 81956 84856 91014=
201403210900 AAXX 21094 67633 NIL=
201403210600 AAXX 21064 67633 12980 51001 10233 20190 48508 60034 84032
                   333 10315 20195 59005 84360 84080 91017=
201403210300 AAXX 21034 67633 NIL=
201403210000 AAXX 21004 67633 NIL=
201403202100 AAXX 20214 67633 NIL=
201403201800 AAXX 20184 67633 NIL=
201403201500 AAXX 20154 67633 NIL=
201403201200 AAXX 20120 67633 NIL=
201403200900 AAXX 20094 67633 NIL=
201403200600 AAXX 20064 67633 32980 50000 10225 20211 48520 70222 82032
                   333 10312 20200 58001 82361 83080 91018=
201403200300 AAXX 20034 67633 NIL=
201403200000 AAXX 20004 67633 NIL=
201403192100 AAXX 19214 67633 NIL=
201403191800 AAXX 19184 67633 NIL=
201403191200 AAXX 19124 67633 NIL=
201403190900 AAXX 19094 67633 NIL=
201403190600 AAXX 19064 67633 12980 61701 10230 20201 48521 69901 81038
                   333 10310 20182 58003 81360 86280 91018=
201403181800 AAXX 18184 67633 NIL=
201403181500 AAXX 18154 67633 NIL=
201403181200 AAXX 18124 67633 NIL=
201403180900 AAXX 18094 67633 42680 30706 10287 20200 48531 82230
                   333 59002 82835 82360 91018=
201403180600 AAXX 18064 67633 12980 50906 10240 20205 48518 60014 85030
                   333 10306 20205 59008 85360 91017=
201403180000 AAXX 18004 67633 NIL=
201403172100 AAXX 17214 67633 NIL=
201403171800 AAXX 17184 67633 NIL=
201403171500 AAXX 17154 67633 NIL=
201403171200 AAXX 17124 67633 42580 52702 10284 20210 48506 71799 81900
                   333 59003 81950 84856 91016=
201403170900 AAXX 17094 67633 NIL=
201403170600 AAXX 17064 67633 12980 30901 10228 20192 48518 69904 70222 83030
                   333 10310 20191 59011 83360 91018=
201403161200 AAXX 16124 67633 NIL=
201403160900 AAXX 16094 67633 NIL=
201403160600 AAXX 16064 67633 NIL=
201403160300 AAXX 16034 67633 NIL=
201403160000 AAXX 16004 67633 NIL=
201403152100 AAXX 15214 67633 NIL=
201403151800 AAXX 15184 67633 NIL=
201403151500 AAXX 15154 67633 NIL=
201403151200 AAXX 15124 67633 NIL=
201403150900 AAXX 15094 67633 NIL=
201403150600 AAXX 15064 67633 NIL=
201403150300 AAXX 15034 67633 NIL=
201403141800 AAXX 14184 67633 NIL=
201403141500 AAXX 14154 67633 NIL=
201403141200 AAXX 14124 67633 NIL=
201403140900 AAXX 14094 67633 NIL=
201403140600 AAXX 14064 67633 NIL=
201403140300 AAXX 14034 67633 NIL=
201403140000 AAXX 14004 67633 NIL=
201403132100 AAXX 13214 67633 NIL=
201403131800 AAXX 13184 67633 NIL=
201403131200 AAXX 13124 67633 42580 53502 10281 20205 48506 84230
                   333 59007 84830 84361 91016=
201403130900 AAXX 13094 67633 42580 63505 10238 20192 48529 70322 84170
                   333 58004 84820 86461 91019=
201403130600 AAXX 13064 67633 11480 73601 10200 20193 48513 60054 75055 84670
                   333 10221 20186 58007 84708 87460
                   555 00/// 20049 91018=
201403121800 AAXX 12184 67633 NIL=
201403121200 AAXX 12124 67633 NIL=
201403120900 AAXX 12094 67633 NIL=
201403120600 AAXX 12064 67633 11480 80000 10196 20193 48513 60194 76166 8467/
                   333 10285 20184 58008 84709 88460
                   555 00/// 20000 QNH 1017.9=
201403120300 AAXX 12034 67633 NIL=
201403120000 AAXX 12004 67633 NIL=
201403112100 AAXX 11214 67633 NIL=
201403111800 AAXX 11184 67633 NIL=
201403111500 AAXX 11154 67633 NIL=
201403111200 AAXX 11124 67633 NIL=
201403110900 AAXX 11094 67633 42580 70605 10265 20205 48517 83182
                   333 58006 83825 84361 83080 91017=
201403110600 AAXX 11064 67633 32980 70602 10224 20203 48508 8703/
                   333 10300 20208 58004 87360 91016=
201403102100 AAXX 10214 67633 NIL=
201403101800 AAXX 10184 67633 NIL=
201403101500 AAXX 10154 67633 NIL=
201403101200 AAXX 10124 67633 42680 53602 10279 20197 48486 85258
                   333 58018 85856 82561 86280 91014=
201403100900 AAXX 10094 67633 42480 60903 10222 20186 48497 85770
                   333 58005 83706 81609 86461 91016=
201403100600 AAXX 10064 67633 42580 70000 10212 20202 48476 8197/
                   333 59004 81930 87460 91014=
201403100300 AAXX 10034 67633 NIL=
201403092100 AAXX 09214 67633 NIL=
201403091800 AAXX 09184 67633 NIL=
201403091500 AAXX 09154 67633 NIL=
201403091200 AAXX 09124 67633 NIL=
201403090900 AAXX 09094 67633 NIL=
201403090600 AAXX 09064 67633 NIL=
201403090300 AAXX 09034 67633 NIL=
201403090000 AAXX 09004 67633 NIL=
201403081800 AAXX 08184 67633 NIL=
201403081500 AAXX 08154 67633 NIL=
201403081200 AAXX 08124 67633 NIL=
201403080900 AAXX 08094 67633 NIL=
201403080600 AAXX 08064 67633 32980 70000 10220 20191 48513 70222 8707/
                   333 10293 20195 58008 87460 91017=
201403080300 AAXX 08034 67633 NIL=
201403080000 AAXX 08004 67633 NIL=
201403072100 AAXX 07214 67633 NIL=
201403071500 AAXX 07154 67633 NIL=
201403071200 AAXX 07124 67633 NIL=
201403070900 AAXX 07094 67633 NIL=
201403070600 AAXX 07064 67633 32980 71203 10206 20193 48510 82037
                   333 10287 20200 58000 82360 87280 91017=
201403061800 AAXX 06184 67633 NIL=
201403061500 AAXX 06154 67633 NIL=
201403061200 AAXX 06124 67633 NIL=
201403060900 AAXX 06094 67633 NIL=
201403060600 AAXX 06064 67633 12980 60000 10220 20206 48513 60064 70222 83032
                   333 10297 20204 59002 83360 84080 91017=
201403052100 AAXX 05214 67633 NIL=
201403051800 AAXX 05184 67633 NIL=
201403051500 AAXX 05154 67633 NIL=
201403051200 AAXX 05124 67633 42980 52801 10263 20201 48493 86078
                   333 59007 86361 84280 91014=
201403050900 AAXX 05094 67633 41380 60402 10218 20201 48516 76266 8577/
                   333 58009 85709 87461 91018=
201403050600 AAXX 05064 67633 31580 73504 10210 20194 48505 69904 81938
                   333 10306 20204 58010 83608 81956 81361 82280
                   91017=
201403050300 AAXX 05034 67633 NIL=
201403050000 AAXX 05004 67633 NIL=
201403042100 AAXX 04214 67633 NIL=
201403041800 AAXX 04184 67633 NIL=
201403041500 AAXX 04154 67633 NIL=
201403041200 AAXX 04124 67633 NIL=
201403040900 AAXX 04094 67633 NIL=
201403040600 AAXX 04064 67633 12980 70000 10210 20203 48504 70222 8707/
                   333 10247 20180 59008 87460 91016=
201403040300 AAXX 04034 67633 NIL=
201403040000 AAXX 04004 67633 NIL=
201403031800 AAXX 03184 67633 NIL=
201403031500 AAXX 03154 67633 NIL=
201403031200 AAXX 03124 67633 NIL=
201403030900 AAXX 03094 67633 NIL=
201403030600 AAXX 03064 67633 11858 80000 10200 20197 48510 60294 79599 8193/
                   333 10301 20187 58002 84706 86609 81957 87360
                   91017=
201403030300 AAXX 03034 67633 NIL=
201403030000 AAXX 03004 67633 NIL=
201403022100 AAXX 02214 67633 NIL=
201403021800 AAXX 02184 67633 NIL=
201403021500 AAXX 02154 67633 NIL=
201403021200 AAXX 02124 67633 NIL=
201403020900 AAXX 02094 67633 NIL=
201403020600 AAXX 02064 67633 NIL=
201403020300 AAXX 02034 67633 NIL=
201403020000 AAXX 02004 67633 NIL=
201403012100 AAXX 01214 67633 NIL=
201403011800 AAXX 01184 67633 NIL=
201403011500 AAXX 01154 67633 NIL=
201403011200 AAXX 01121 67633 NIL=
201403010900 AAXX 01094 67633 NIL=
201403010600 AAXX 01064 67633 NIL=

################################################################################
#  SYNOPS from 67641, Kaoma (Zambia) | 14-48S | 024-48E | 1213 m
################################################################################
201403310300 AAXX 31034 67641 NIL=
201403310000 AAXX 31004 67641 NIL=
201403302100 AAXX 30214 67641 NIL=
201403301800 AAXX 30184 67641 NIL=
201403301500 AAXX 30154 67641 NIL=
201403301200 AAXX 30124 67641 NIL=
201403300900 AAXX 30094 67641 NIL=
201403300600 AAXX 30064 67641 NIL=
201403300000 AAXX 30004 67641 NIL=
201403292100 AAXX 29214 67641 NIL=
201403291800 AAXX 29184 67641 NIL=
201403291500 AAXX 29154 67641 NIL=
201403291200 AAXX 29124 67641 NIL=
201403290900 AAXX 29094 67641 NIL=
201403290600 AAXX 29064 67641 NIL=
201403290000 AAXX 29004 67641 NIL=
201403282100 AAXX 28214 67641 NIL=
201403281800 AAXX 28184 67641 NIL=
201403281500 AAXX 28150 67641 NIL=
201403281200 AAXX 28120 67641 NIL=
201403280900 AAXX 28094 67641 NIL=
201403280600 AAXX 28064 67641 NIL=
201403280300 AAXX 28034 67641 NIL=
201403280000 AAXX 28004 67641 NIL=
201403272100 AAXX 27214 67641 NIL=
201403271500 AAXX 27154 67641 NIL=
201403271200 AAXX 27124 67641 NIL=
201403270900 AAXX 27094 67641 NIL=
201403270600 AAXX 27064 67641 NIL=
201403270300 AAXX 27034 67641 NIL=
201403270000 AAXX 27004 67641 NIL=
201403262100 AAXX 26214 67641 NIL=
201403261500 AAXX 26154 67641 NIL=
201403261200 AAXX 26124 67641 NIL=
201403260900 AAXX 26094 67641 NIL=
201403260600 AAXX 26064 67641 NIL=
201403260300 AAXX 26034 67641 NIL=
201403260000 AAXX 26004 67641 NIL=
201403252100 AAXX 25214 67641 NIL=
201403251800 AAXX 25184 67641 NIL=
201403251500 AAXX 25154 67641 NIL=
201403251200 AAXX 25124 67641 NIL=
201403250900 AAXX 25094 67641 NIL=
201403250600 AAXX 25060 67641 NIL=
201403241800 AAXX 24184 67641 NIL=
201403241500 AAXX 24154 67641 NIL=
201403241200 AAXX 24124 67641 NIL=
201403240900 AAXX 24094 67641 NIL=
201403240600 AAXX 24064 67641 NIL=
201403240300 AAXX 24034 67641 NIL=
201403240000 AAXX 24004 67641 NIL=
201403232100 AAXX 23214 67641 NIL=
201403231800 AAXX 23184 67641 NIL=
201403231500 AAXX 23154 67641 NIL=
201403231200 AAXX 23124 67641 NIL=
201403230600 AAXX 23064 67641 NIL=
201403230300 AAXX 23034 67641 NIL=
201403230000 AAXX 23004 67641 NIL=
201403222100 AAXX 22214 67641 NIL=
201403221800 AAXX 22184 67641 NIL=
201403221500 AAXX 22154 67641 NIL=
201403221200 AAXX 22124 67641 NIL=
201403220900 AAXX 22094 67641 NIL=
201403220600 AAXX 22064 67641 NIL=
201403220300 AAXX 22034 67641 NIL=
201403220000 AAXX 22004 67641 NIL=
201403212100 AAXX 21214 67641 NIL=
201403211800 AAXX 21184 67641 NIL=
201403211200 AAXX 21124 67641 NIL=
201403210900 AAXX 21094 67641 NIL=
201403210600 AAXX 21064 67641 NIL=
201403210300 AAXX 21034 67641 NIL=
201403210000 AAXX 21004 67641 NIL=
201403202100 AAXX 20214 67641 NIL=
201403201800 AAXX 20184 67641 NIL=
201403201500 AAXX 20154 67641 NIL=
201403201200 AAXX 20120 67641 NIL=
201403200900 AAXX 20094 67641 NIL=
201403200600 AAXX 20064 67641 NIL=
201403200300 AAXX 20034 67641 NIL=
201403200000 AAXX 20004 67641 NIL=
201403192100 AAXX 19214 67641 NIL=
201403191800 AAXX 19184 67641 NIL=
201403191200 AAXX 19124 67641 NIL=
201403190900 AAXX 19094 67641 NIL=
201403190600 AAXX 19064 67641 32982 40802 10209 20194 48513 81032
                   333 10304 20179 59002 81360 84080 91017=
201403181800 AAXX 18184 67641 NIL=
201403181500 AAXX 18154 67641 NIL=
201403181200 AAXX 18124 67641 NIL=
201403180900 AAXX 18094 67641 NIL=
201403180600 AAXX 18064 67641 12982 70000 10210 20200 48516 87030
                   333 10303 20199 59002 87360 91017=
201403180000 AAXX 18004 67641 NIL=
201403172100 AAXX 17214 67641 NIL=
201403171800 AAXX 17184 67641 NIL=
201403171500 AAXX 17154 67641 NIL=
201403171200 AAXX 17124 67641 NIL=
201403170900 AAXX 17094 67641 NIL=
201403170600 AAXX 17064 67641 NIL=
201403161200 AAXX 16124 67641 NIL=
201403160900 AAXX 16094 67641 NIL=
201403160600 AAXX 16064 67641 NIL=
201403160300 AAXX 16034 67641 NIL=
201403160000 AAXX 16004 67641 NIL=
201403152100 AAXX 15214 67641 NIL=
201403151800 AAXX 15184 67641 NIL=
201403151500 AAXX 15154 67641 NIL=
201403151200 AAXX 15124 67641 NIL=
201403150900 AAXX 15094 67641 NIL=
201403150600 AAXX 15064 67641 NIL=
201403150300 AAXX 15034 67641 NIL=
201403141800 AAXX 14184 67641 NIL=
201403141500 AAXX 14154 67641 NIL=
201403141200 AAXX 14124 67641 NIL=
201403140900 AAXX 14094 67641 NIL=
201403140600 AAXX 14064 67641 12680 72602 10202 20193 48529 60134 8353/
                   333 10318 20198 58006 83630 87360 91020=
201403140300 AAXX 14034 67641 NIL=
201403140000 AAXX 14004 67641 NIL=
201403132100 AAXX 13214 67641 NIL=
201403131800 AAXX 13184 67641 NIL=
201403131200 AAXX 13124 67641 NIL=
201403130900 AAXX 13094 67641 NIL=
201403130600 AAXX 13064 67641 NIL=
201403121800 AAXX 12184 67641 NIL=
201403121200 AAXX 12124 67641 NIL=
201403120900 AAXX 12094 67641 NIL=
201403120600 AAXX 12064 67641 11680 83402 10194 20190 48508 60534 75156 875//
                   333 10310 20187 58007 87645
                   555 00/// 20002 QNH 1017.1=
201403120300 AAXX 12034 67641 NIL=
201403120000 AAXX 12004 67641 NIL=
201403112100 AAXX 11214 67641 NIL=
201403111800 AAXX 11184 67641 NIL=
201403111500 AAXX 11154 67641 NIL=
201403111200 AAXX 11124 67641 NIL=
201403110900 AAXX 11094 67641 42682 70301 10/// 20211 48509 70222 84231
                   333 59004 84840 82360 82080 91016=
201403110600 AAXX 11064 67641 12982 70000 10201 20192 48503 60024 70222 8707/
                   333 10263 20190 58002 87360 91016=
201403102100 AAXX 10214 67641 NIL=
201403101800 AAXX 10184 67641 NIL=
201403101500 AAXX 10154 67641 NIL=
201403101200 AAXX 10124 67641 NIL=
201403100900 AAXX 10094 67641 NIL=
201403100600 AAXX 10064 67641 11680 80000 10185 20179 48500 60404 76198 8802/
                   333 10300 20180 59002 88537 91016=
201403100300 AAXX 10034 67641 NIL=
201403092100 AAXX 09214 67641 NIL=
201403091800 AAXX 09184 67641 NIL=
201403091500 AAXX 09154 67641 NIL=
201403091200 AAXX 09124 67641 NIL=
201403090900 AAXX 09094 67641 NIL=
201403090600 AAXX 09064 67641 NIL=
201403090300 AAXX 09034 67641 NIL=
201403090000 AAXX 09004 67641 NIL=
201403081800 AAXX 08184 67641 NIL=
201403081500 AAXX 08154 67641 NIL=
201403081200 AAXX 08124 67641 NIL=
201403080900 AAXX 08094 67641 NIL=
201403080600 AAXX 08064 67641 NIL=
201403080300 AAXX 08034 67641 NIL=
201403080000 AAXX 08004 67641 NIL=
201403072100 AAXX 07214 67641 NIL=
201403071500 AAXX 07154 67641 NIL=
201403071200 AAXX 07124 67641 NIL=
201403070900 AAXX 07094 67641 NIL=
201403070600 AAXX 07064 67641 11680 71204 10180 20172 48501 60144 72166 8453/
                   333 10320 20180 59002 84640 83360 91016=
201403061800 AAXX 06184 67641 NIL=
201403061500 AAXX 06154 67641 NIL=
201403061200 AAXX 06124 67641 NIL=
201403060900 AAXX 06094 67641 NIL=
201403060600 AAXX 06064 67641 NIL=
201403052100 AAXX 05214 67641 NIL=
201403051800 AAXX 05184 67641 NIL=
201403051500 AAXX 05154 67641 NIL=
201403051200 AAXX 05124 67641 NIL=
201403050900 AAXX 05094 67641 NIL=
201403050600 AAXX 05064 67641 NIL=
201403050300 AAXX 05034 67641 NIL=
201403050000 AAXX 05004 67641 NIL=
201403042100 AAXX 04214 67641 NIL=
201403041800 AAXX 04184 67641 NIL=
201403041500 AAXX 04154 67641 NIL=
201403041200 AAXX 04124 67641 NIL=
201403040900 AAXX 04094 67641 NIL=
201403040600 AAXX 04064 67641 NIL=
201403040300 AAXX 04034 67641 NIL=
201403040000 AAXX 04004 67641 NIL=
201403031800 AAXX 03184 67641 NIL=
201403031500 AAXX 03154 67641 NIL=
201403031200 AAXX 03124 67641 42682 72403 10247 20202 48505 70262 8387/
                   333 58014 82835 81638 87360 91016=
201403030900 AAXX 03094 67641 NIL=
201403030600 AAXX 03064 67641 11682 70302 10193 20184 48505 60054 72162 8557/
                   333 10306 20190 58012 85635 84360
                   555 00/// 91016=
201403030300 AAXX 03034 67641 NIL=
201403030000 AAXX 03004 67641 NIL=
201403022100 AAXX 02214 67641 NIL=
201403021800 AAXX 02184 67641 NIL=
201403021500 AAXX 02154 67641 NIL=
201403021200 AAXX 02124 67641 NIL=
201403020900 AAXX 02094 67641 NIL=
201403020600 AAXX 02064 67641 NIL=
201403020300 AAXX 02034 67641 NIL=
201403020000 AAXX 02004 67641 NIL=
201403012100 AAXX 01214 67641 NIL=
201403011800 AAXX 01184 67641 NIL=
201403011500 AAXX 01154 67641 NIL=
201403011200 AAXX 01121 67641 NIL=
201403010900 AAXX 01094 67641 NIL=
201403010600 AAXX 01064 67641 NIL=

################################################################################
#  SYNOPS from 67655, Mumbwa (Zambia) | 15-04S | 027-11E | 1216 m
################################################################################
201403310300 AAXX 31034 67655 NIL=
201403310000 AAXX 31004 67655 NIL=
201403302100 AAXX 30214 67655 NIL=
201403301800 AAXX 30184 67655 NIL=
201403301500 AAXX 30154 67655 NIL=
201403301200 AAXX 30124 67655 NIL=
201403300900 AAXX 30094 67655 NIL=
201403300600 AAXX 30064 67655 NIL=
201403300000 AAXX 30004 67655 NIL=
201403292100 AAXX 29214 67655 NIL=
201403291800 AAXX 29184 67655 NIL=
201403291500 AAXX 29154 67655 NIL=
201403291200 AAXX 29124 67655 NIL=
201403290900 AAXX 29094 67655 NIL=
201403290600 AAXX 29064 67655 NIL=
201403290000 AAXX 29004 67655 NIL=
201403282100 AAXX 28214 67655 NIL=
201403281800 AAXX 28184 67655 NIL=
201403281500 AAXX 28150 67655 NIL=
201403281200 AAXX 28120 67655 NIL=
201403280900 AAXX 28094 67655 NIL=
201403280600 AAXX 28064 67655 NIL=
201403280300 AAXX 28034 67655 NIL=
201403280000 AAXX 28004 67655 NIL=
201403272100 AAXX 27214 67655 NIL=
201403271500 AAXX 27154 67655 NIL=
201403271200 AAXX 27124 67655 NIL=
201403270900 AAXX 27094 67655 NIL=
201403270600 AAXX 27064 67655 NIL=
201403270300 AAXX 27034 67655 NIL=
201403270000 AAXX 27004 67655 NIL=
201403262100 AAXX 26214 67655 NIL=
201403261500 AAXX 26154 67655 NIL=
201403261200 AAXX 26124 67655 NIL=
201403260900 AAXX 26094 67655 NIL=
201403260600 AAXX 26064 67655 NIL=
201403260300 AAXX 26034 67655 NIL=
201403260000 AAXX 26004 67655 NIL=
201403252100 AAXX 25214 67655 NIL=
201403251800 AAXX 25184 67655 NIL=
201403251500 AAXX 25154 67655 NIL=
201403251200 AAXX 25124 67655 NIL=
201403250900 AAXX 25094 67655 NIL=
201403250600 AAXX 25060 67655 NIL=
201403241800 AAXX 24184 67655 NIL=
201403241500 AAXX 24154 67655 NIL=
201403241200 AAXX 24124 67655 NIL=
201403240900 AAXX 24094 67655 NIL=
201403240600 AAXX 24064 67655 NIL=
201403240300 AAXX 24034 67655 NIL=
201403240000 AAXX 24004 67655 NIL=
201403232100 AAXX 23214 67655 NIL=
201403231800 AAXX 23184 67655 NIL=
201403231500 AAXX 23154 67655 NIL=
201403231200 AAXX 23124 67655 NIL=
201403230600 AAXX 23064 67655 NIL=
201403230300 AAXX 23034 67655 NIL=
201403230000 AAXX 23004 67655 NIL=
201403222100 AAXX 22214 67655 NIL=
201403221800 AAXX 22184 67655 NIL=
201403221500 AAXX 22154 67655 NIL=
201403221200 AAXX 22124 67655 NIL=
201403220900 AAXX 22094 67655 NIL=
201403220600 AAXX 22064 67655 NIL=
201403220300 AAXX 22034 67655 NIL=
201403220000 AAXX 22004 67655 NIL=
201403212100 AAXX 21214 67655 NIL=
201403211800 AAXX 21184 67655 NIL=
201403211200 AAXX 21124 67655 NIL=
201403210900 AAXX 21094 67655 NIL=
201403210600 AAXX 21064 67655 NIL=
201403210300 AAXX 21034 67655 NIL=
201403210000 AAXX 21004 67655 NIL=
201403202100 AAXX 20214 67655 NIL=
201403201800 AAXX 20184 67655 NIL=
201403201500 AAXX 20154 67655 NIL=
201403201200 AAXX 20120 67655 NIL=
201403200900 AAXX 20094 67655 NIL=
201403200600 AAXX 20064 67655 32880 60804 10214 20194 48526 80002
                   333 10290 20/// 59006 86280 91020=
201403200300 AAXX 20034 67655 NIL=
201403200000 AAXX 20004 67655 NIL=
201403192100 AAXX 19214 67655 NIL=
201403191800 AAXX 19184 67655 NIL=
201403191200 AAXX 19124 67655 NIL=
201403190900 AAXX 19094 67655 NIL=
201403190600 AAXX 19064 67655 NIL=
201403181800 AAXX 18184 67655 NIL=
201403181500 AAXX 18154 67655 NIL=
201403181200 AAXX 18124 67655 NIL=
201403180900 AAXX 18094 67655 NIL=
201403180600 AAXX 18064 67655 NIL=
201403180000 AAXX 18004 67655 NIL=
201403172100 AAXX 17214 67655 NIL=
201403171800 AAXX 17184 67655 NIL=
201403171500 AAXX 17154 67655 NIL=
201403171200 AAXX 17124 67655 NIL=
201403170900 AAXX 17094 67655 NIL=
201403170600 AAXX 17064 67655 NIL=
201403161200 AAXX 16124 67655 NIL=
201403160900 AAXX 16094 67655 NIL=
201403160600 AAXX 16064 67655 NIL=
201403160300 AAXX 16034 67655 NIL=
201403160000 AAXX 16004 67655 NIL=
201403152100 AAXX 15214 67655 NIL=
201403151800 AAXX 15184 67655 NIL=
201403151500 AAXX 15154 67655 NIL=
201403151200 AAXX 15124 67655 NIL=
201403150900 AAXX 15094 67655 NIL=
201403150600 AAXX 15064 67655 NIL=
201403150300 AAXX 15034 67655 NIL=
201403141800 AAXX 14184 67655 NIL=
201403141500 AAXX 14154 67655 NIL=
201403141200 AAXX 14124 67655 NIL=
201403140900 AAXX 14094 67655 NIL=
201403140600 AAXX 14064 67655 NIL=
201403140300 AAXX 14034 67655 NIL=
201403140000 AAXX 14004 67655 NIL=
201403132100 AAXX 13214 67655 NIL=
201403131800 AAXX 13184 67655 NIL=
201403131200 AAXX 13124 67655 NIL=
201403130900 AAXX 13094 67655 NIL=
201403130600 AAXX 13064 67655 NIL=
201403121800 AAXX 12184 67655 NIL=
201403121200 AAXX 12124 67655 NIL=
201403120900 AAXX 12094 67655 NIL=
201403120600 AAXX 12064 67655 NIL=
201403120300 AAXX 12034 67655 NIL=
201403120000 AAXX 12004 67655 NIL=
201403112100 AAXX 11214 67655 NIL=
201403111800 AAXX 11184 67655 NIL=
201403111500 AAXX 11154 67655 NIL=
201403111200 AAXX 11124 67655 NIL=
201403110600 AAXX 11064 67655 NIL=
201403102100 AAXX 10214 67655 NIL=
201403101800 AAXX 10184 67655 NIL=
201403101500 AAXX 10154 67655 NIL=
201403101200 AAXX 10124 67655 NIL=
201403100900 AAXX 10094 67655 NIL=
201403100600 AAXX 10064 67655 NIL=
201403100300 AAXX 10034 67655 NIL=
201403092100 AAXX 09214 67655 NIL=
201403091800 AAXX 09184 67655 NIL=
201403091500 AAXX 09154 67655 NIL=
201403091200 AAXX 09124 67655 NIL=
201403090900 AAXX 09094 67655 NIL=
201403090600 AAXX 09064 67655 NIL=
201403090300 AAXX 09034 67655 NIL=
201403090000 AAXX 09004 67655 NIL=
201403081800 AAXX 08184 67655 NIL=
201403081500 AAXX 08154 67655 NIL=
201403081200 AAXX 08124 67655 NIL=
201403080900 AAXX 08094 67655 NIL=
201403080600 AAXX 08064 67655 NIL=
201403080300 AAXX 08034 67655 NIL=
201403080000 AAXX 08004 67655 NIL=
201403072100 AAXX 07214 67655 NIL=
201403071500 AAXX 07154 67655 NIL=
201403071200 AAXX 07124 67655 NIL=
201403070900 AAXX 07094 67655 NIL=
201403070600 AAXX 07064 67655 NIL=
201403061800 AAXX 06184 67655 NIL=
201403061500 AAXX 06154 67655 NIL=
201403061200 AAXX 06124 67655 NIL=
201403060900 AAXX 06094 67655 NIL=
201403060600 AAXX 06064 67655 NIL=
201403052100 AAXX 05214 67655 NIL=
201403051800 AAXX 05184 67655 NIL=
201403051500 AAXX 05154 67655 NIL=
201403051200 AAXX 05124 67655 NIL=
201403050900 AAXX 05094 67655 NIL=
201403050600 AAXX 05064 67655 NIL=
201403050300 AAXX 05034 67655 NIL=
201403050000 AAXX 05004 67655 NIL=
201403042100 AAXX 04214 67655 NIL=
201403041800 AAXX 04184 67655 NIL=
201403041500 AAXX 04154 67655 NIL=
201403041200 AAXX 04124 67655 NIL=
201403040900 AAXX 04094 67655 NIL=
201403040600 AAXX 04064 67655 NIL=
201403040300 AAXX 04034 67655 NIL=
201403040000 AAXX 04004 67655 NIL=
201403031800 AAXX 03184 67655 NIL=
201403031500 AAXX 03154 67655 NIL=
201403031200 AAXX 03124 67655 NIL=
201403030900 AAXX 03094 67655 NIL=
201403030600 AAXX 03064 67655 32680 73402 10200 20177 48522 8427/
                   333 10299 20/// 58011 84840 86360 91020=
201403030300 AAXX 03034 67655 NIL=
201403030000 AAXX 03004 67655 NIL=
201403022100 AAXX 02214 67655 NIL=
201403021800 AAXX 02184 67655 NIL=
201403021500 AAXX 02154 67655 NIL=
201403021200 AAXX 02124 67655 NIL=
201403020900 AAXX 02094 67655 NIL=
201403020600 AAXX 02064 67655 NIL=
201403020300 AAXX 02034 67655 NIL=
201403020000 AAXX 02004 67655 NIL=
201403012100 AAXX 01214 67655 NIL=
201403011800 AAXX 01184 67655 NIL=
201403011500 AAXX 01154 67655 NIL=
201403011200 AAXX 01121 67655 NIL=
201403010900 AAXX 01094 67655 NIL=
201403010600 AAXX 01064 67655 NIL=

################################################################################
#  SYNOPS from 67659, Kafue Polder (Zambia) | 15-46S | 027-55E | 978 m
################################################################################
201403310300 AAXX 31034 67659 NIL=
201403310000 AAXX 31004 67659 NIL=
201403302100 AAXX 30214 67659 NIL=
201403301800 AAXX 30184 67659 NIL=
201403301500 AAXX 30154 67659 NIL=
201403301200 AAXX 30124 67659 NIL=
201403300900 AAXX 30094 67659 NIL=
201403300600 AAXX 30064 67659 NIL=
201403300000 AAXX 30004 67659 NIL=
201403292100 AAXX 29214 67659 NIL=
201403291800 AAXX 29184 67659 NIL=
201403291500 AAXX 29154 67659 NIL=
201403291200 AAXX 29124 67659 NIL=
201403290900 AAXX 29094 67659 NIL=
201403290600 AAXX 29064 67659 NIL=
201403290000 AAXX 29004 67659 NIL=
201403282100 AAXX 28214 67659 NIL=
201403281800 AAXX 28184 67659 NIL=
201403281500 AAXX 28150 67659 NIL=
201403281200 AAXX 28120 67659 NIL=
201403280900 AAXX 28094 67659 NIL=
201403280600 AAXX 28064 67659 NIL=
201403280300 AAXX 28034 67659 NIL=
201403280000 AAXX 28004 67659 NIL=
201403272100 AAXX 27214 67659 NIL=
201403271500 AAXX 27154 67659 NIL=
201403271200 AAXX 27124 67659 NIL=
201403270900 AAXX 27094 67659 NIL=
201403270600 AAXX 27064 67659 NIL=
201403270300 AAXX 27034 67659 NIL=
201403270000 AAXX 27004 67659 NIL=
201403262100 AAXX 26214 67659 NIL=
201403261500 AAXX 26154 67659 NIL=
201403261200 AAXX 26124 67659 NIL=
201403260900 AAXX 26094 67659 NIL=
201403260600 AAXX 26064 67659 NIL=
201403260300 AAXX 26034 67659 NIL=
201403260000 AAXX 26004 67659 NIL=
201403252100 AAXX 25214 67659 NIL=
201403251800 AAXX 25184 67659 NIL=
201403251500 AAXX 25154 67659 NIL=
201403251200 AAXX 25124 67659 NIL=
201403250900 AAXX 25094 67659 NIL=
201403250600 AAXX 25060 67659 NIL=
201403241800 AAXX 24184 67659 NIL=
201403241500 AAXX 24154 67659 NIL=
201403241200 AAXX 24124 67659 NIL=
201403240900 AAXX 24094 67659 NIL=
201403240600 AAXX 24064 67659 NIL=
201403240300 AAXX 24034 67659 NIL=
201403240000 AAXX 24004 67659 NIL=
201403232100 AAXX 23214 67659 NIL=
201403231800 AAXX 23184 67659 NIL=
201403231500 AAXX 23154 67659 NIL=
201403231200 AAXX 23124 67659 NIL=
201403230600 AAXX 23064 67659 NIL=
201403230300 AAXX 23034 67659 NIL=
201403230000 AAXX 23004 67659 NIL=
201403222100 AAXX 22214 67659 NIL=
201403221800 AAXX 22184 67659 NIL=
201403221500 AAXX 22154 67659 NIL=
201403221200 AAXX 22124 67659 NIL=
201403220900 AAXX 22094 67659 NIL=
201403220600 AAXX 22064 67659 NIL=
201403220300 AAXX 22034 67659 NIL=
201403220000 AAXX 22004 67659 NIL=
201403212100 AAXX 21214 67659 NIL=
201403211800 AAXX 21184 67659 NIL=
201403211200 AAXX 21124 67659 NIL=
201403210900 AAXX 21094 67659 NIL=
201403210600 AAXX 21064 67659 NIL=
201403210300 AAXX 21034 67659 NIL=
201403210000 AAXX 21004 67659 NIL=
201403202100 AAXX 20214 67659 NIL=
201403201800 AAXX 20184 67659 NIL=
201403201500 AAXX 20154 67659 NIL=
201403201200 AAXX 20120 67659 NIL=
201403200900 AAXX 20094 67659 NIL=
201403200600 AAXX 20064 67659 NIL=
201403200300 AAXX 20034 67659 NIL=
201403200000 AAXX 20004 67659 NIL=
201403192100 AAXX 19214 67659 NIL=
201403191800 AAXX 19184 67659 NIL=
201403191200 AAXX 19124 67659 NIL=
201403190900 AAXX 19094 67659 NIL=
201403190600 AAXX 19064 67659 NIL=
201403181800 AAXX 18184 67659 NIL=
201403181500 AAXX 18154 67659 NIL=
201403181200 AAXX 18124 67659 NIL=
201403180900 AAXX 18094 67659 NIL=
201403180600 AAXX 18064 67659 NIL=
201403180000 AAXX 18004 67659 NIL=
201403172100 AAXX 17214 67659 NIL=
201403171800 AAXX 17184 67659 NIL=
201403171500 AAXX 17154 67659 NIL=
201403171200 AAXX 17124 67659 NIL=
201403170900 AAXX 17094 67659 NIL=
201403170600 AAXX 17064 67659 NIL=
201403161200 AAXX 16124 67659 NIL=
201403160900 AAXX 16094 67659 NIL=
201403160600 AAXX 16064 67659 NIL=
201403160300 AAXX 16034 67659 NIL=
201403160000 AAXX 16004 67659 NIL=
201403152100 AAXX 15214 67659 NIL=
201403151800 AAXX 15184 67659 NIL=
201403151500 AAXX 15154 67659 NIL=
201403151200 AAXX 15124 67659 NIL=
201403150900 AAXX 15094 67659 NIL=
201403150600 AAXX 15064 67659 NIL=
201403150300 AAXX 15034 67659 NIL=
201403141800 AAXX 14184 67659 NIL=
201403141500 AAXX 14154 67659 NIL=
201403141200 AAXX 14124 67659 NIL=
201403140900 AAXX 14094 67659 NIL=
201403140600 AAXX 14064 67659 NIL=
201403140300 AAXX 14034 67659 NIL=
201403140000 AAXX 14004 67659 NIL=
201403132100 AAXX 13214 67659 NIL=
201403131800 AAXX 13184 67659 NIL=
201403131200 AAXX 13124 67659 NIL=
201403130900 AAXX 13094 67659 NIL=
201403130600 AAXX 13064 67659 NIL=
201403121800 AAXX 12184 67659 NIL=
201403121200 AAXX 12124 67659 NIL=
201403120900 AAXX 12094 67659 NIL=
201403120600 AAXX 12064 67659 NIL=
201403120300 AAXX 12034 67659 NIL=
201403120000 AAXX 12004 67659 NIL=
201403112100 AAXX 11214 67659 NIL=
201403111800 AAXX 11184 67659 NIL=
201403111500 AAXX 11154 67659 NIL=
201403111200 AAXX 11124 67659 NIL=
201403110600 AAXX 11064 67659 NIL=
201403102100 AAXX 10214 67659 NIL=
201403101800 AAXX 10184 67659 NIL=
201403101500 AAXX 10154 67659 NIL=
201403101200 AAXX 10124 67659 NIL=
201403100900 AAXX 10094 67659 NIL=
201403100600 AAXX 10064 67659 NIL=
201403100300 AAXX 10034 67659 NIL=
201403092100 AAXX 09214 67659 NIL=
201403091800 AAXX 09184 67659 NIL=
201403091500 AAXX 09154 67659 NIL=
201403091200 AAXX 09124 67659 NIL=
201403090900 AAXX 09094 67659 NIL=
201403090600 AAXX 09064 67659 NIL=
201403090300 AAXX 09034 67659 NIL=
201403090000 AAXX 09004 67659 NIL=
201403081800 AAXX 08184 67659 NIL=
201403081500 AAXX 08154 67659 NIL=
201403081200 AAXX 08124 67659 NIL=
201403080900 AAXX 08094 67659 NIL=
201403080600 AAXX 08064 67659 NIL=
201403080300 AAXX 08034 67659 NIL=
201403080000 AAXX 08004 67659 NIL=
201403072100 AAXX 07214 67659 NIL=
201403071500 AAXX 07154 67659 NIL=
201403071200 AAXX 07124 67659 NIL=
201403070900 AAXX 07094 67659 NIL=
201403070600 AAXX 07064 67659 NIL=
201403061800 AAXX 06184 67659 NIL=
201403061500 AAXX 06154 67659 NIL=
201403061200 AAXX 06124 67659 NIL=
201403060900 AAXX 06094 67659 NIL=
201403060600 AAXX 06064 67659 NIL=
201403052100 AAXX 05214 67659 NIL=
201403051800 AAXX 05184 67659 NIL=
201403051500 AAXX 05154 67659 NIL=
201403051200 AAXX 05124 67659 NIL=
201403050900 AAXX 05094 67659 NIL=
201403050600 AAXX 05064 67659 NIL=
201403050300 AAXX 05034 67659 NIL=
201403050000 AAXX 05004 67659 NIL=
201403042100 AAXX 04214 67659 NIL=
201403041800 AAXX 04184 67659 NIL=
201403041500 AAXX 04154 67659 NIL=
201403041200 AAXX 04124 67659 NIL=
201403040900 AAXX 04094 67659 NIL=
201403040600 AAXX 04064 67659 NIL=
201403040300 AAXX 04034 67659 NIL=
201403040000 AAXX 04004 67659 NIL=
201403031800 AAXX 03184 67659 NIL=
201403031500 AAXX 03154 67659 NIL=
201403031200 AAXX 03124 67659 NIL=
201403030900 AAXX 03094 67659 NIL=
201403030600 AAXX 03064 67659 NIL=
201403030300 AAXX 03034 67659 NIL=
201403030000 AAXX 03004 67659 NIL=
201403022100 AAXX 02214 67659 NIL=
201403021800 AAXX 02184 67659 NIL=
201403021500 AAXX 02154 67659 NIL=
201403021200 AAXX 02124 67659 NIL=
201403020900 AAXX 02094 67659 NIL=
201403020600 AAXX 02064 67659 NIL=
201403020300 AAXX 02034 67659 NIL=
201403020000 AAXX 02004 67659 NIL=
201403012100 AAXX 01214 67659 NIL=
201403011800 AAXX 01184 67659 NIL=
201403011500 AAXX 01154 67659 NIL=
201403011200 AAXX 01121 67659 NIL=
201403010900 AAXX 01094 67659 NIL=
201403010600 AAXX 01064 67659 NIL=

################################################################################
#  SYNOPS from 67662, Kabwe Agric (Zambia) | 14-24S | 028-30E | 1165 m
################################################################################
201403310300 AAXX 31034 67662 NIL=
201403310000 AAXX 31004 67662 NIL=
201403302100 AAXX 30214 67662 NIL=
201403301800 AAXX 30184 67662 NIL=
201403301500 AAXX 30154 67662 NIL=
201403301200 AAXX 30124 67662 NIL=
201403300900 AAXX 30094 67662 NIL=
201403300600 AAXX 30064 67662 NIL=
201403300000 AAXX 30004 67662 NIL=
201403292100 AAXX 29214 67662 NIL=
201403291800 AAXX 29184 67662 NIL=
201403291500 AAXX 29154 67662 NIL=
201403291200 AAXX 29124 67662 NIL=
201403290900 AAXX 29094 67662 NIL=
201403290600 AAXX 29064 67662 NIL=
201403290000 AAXX 29004 67662 NIL=
201403282100 AAXX 28214 67662 NIL=
201403281800 AAXX 28184 67662 NIL=
201403281500 AAXX 28150 67662 NIL=
201403281200 AAXX 28120 67662 NIL=
201403280900 AAXX 28094 67662 NIL=
201403280600 AAXX 28064 67662 NIL=
201403280300 AAXX 28034 67662 NIL=
201403280000 AAXX 28004 67662 NIL=
201403272100 AAXX 27214 67662 NIL=
201403271500 AAXX 27154 67662 NIL=
201403271200 AAXX 27124 67662 NIL=
201403270900 AAXX 27094 67662 NIL=
201403270600 AAXX 27064 67662 NIL=
201403270300 AAXX 27034 67662 NIL=
201403270000 AAXX 27004 67662 NIL=
201403262100 AAXX 26214 67662 NIL=
201403261500 AAXX 26154 67662 NIL=
201403261200 AAXX 26124 67662 NIL=
201403260900 AAXX 26094 67662 NIL=
201403260600 AAXX 26064 67662 NIL=
201403260300 AAXX 26034 67662 NIL=
201403260000 AAXX 26004 67662 NIL=
201403252100 AAXX 25214 67662 NIL=
201403251800 AAXX 25184 67662 NIL=
201403251500 AAXX 25154 67662 NIL=
201403251200 AAXX 25124 67662 NIL=
201403250900 AAXX 25094 67662 NIL=
201403250600 AAXX 25060 67662 NIL=
201403241800 AAXX 24184 67662 NIL=
201403241500 AAXX 24154 67662 NIL=
201403241200 AAXX 24124 67662 NIL=
201403240900 AAXX 24094 67662 NIL=
201403240600 AAXX 24064 67662 NIL=
201403240300 AAXX 24034 67662 NIL=
201403240000 AAXX 24004 67662 NIL=
201403232100 AAXX 23214 67662 NIL=
201403231800 AAXX 23184 67662 NIL=
201403231500 AAXX 23154 67662 NIL=
201403231200 AAXX 23124 67662 NIL=
201403230600 AAXX 23064 67662 NIL=
201403230300 AAXX 23034 67662 NIL=
201403230000 AAXX 23004 67662 NIL=
201403222100 AAXX 22214 67662 NIL=
201403221800 AAXX 22184 67662 NIL=
201403221500 AAXX 22154 67662 NIL=
201403221200 AAXX 22124 67662 NIL=
201403220900 AAXX 22094 67662 NIL=
201403220600 AAXX 22064 67662 NIL=
201403220300 AAXX 22034 67662 NIL=
201403220000 AAXX 22004 67662 NIL=
201403212100 AAXX 21214 67662 NIL=
201403211800 AAXX 21184 67662 NIL=
201403211200 AAXX 21124 67662 NIL=
201403210900 AAXX 21094 67662 NIL=
201403210600 AAXX 21064 67662 NIL=
201403210300 AAXX 21034 67662 NIL=
201403210000 AAXX 21004 67662 NIL=
201403202100 AAXX 20214 67662 NIL=
201403201800 AAXX 20184 67662 NIL=
201403201500 AAXX 20154 67662 NIL=
201403201200 AAXX 20120 67662 NIL=
201403200900 AAXX 20094 67662 NIL=
201403200600 AAXX 20064 67662 NIL=
201403200300 AAXX 20034 67662 NIL=
201403200000 AAXX 20004 67662 NIL=
201403192100 AAXX 19214 67662 NIL=
201403191800 AAXX 19184 67662 NIL=
201403191200 AAXX 19124 67662 NIL=
201403190900 AAXX 19094 67662 NIL=
201403190600 AAXX 19064 67662 NIL=
201403181800 AAXX 18184 67662 NIL=
201403181500 AAXX 18154 67662 NIL=
201403181200 AAXX 18124 67662 NIL=
201403180900 AAXX 18094 67662 NIL=
201403180600 AAXX 18064 67662 NIL=
201403180000 AAXX 18004 67662 NIL=
201403172100 AAXX 17214 67662 NIL=
201403171800 AAXX 17184 67662 NIL=
201403171500 AAXX 17154 67662 NIL=
201403171200 AAXX 17124 67662 NIL=
201403170900 AAXX 17094 67662 NIL=
201403170600 AAXX 17064 67662 NIL=
201403161200 AAXX 16124 67662 NIL=
201403160900 AAXX 16094 67662 NIL=
201403160600 AAXX 16064 67662 NIL=
201403160300 AAXX 16034 67662 NIL=
201403160000 AAXX 16004 67662 NIL=
201403152100 AAXX 15214 67662 NIL=
201403151800 AAXX 15184 67662 NIL=
201403151500 AAXX 15154 67662 NIL=
201403151200 AAXX 15124 67662 NIL=
201403150900 AAXX 15094 67662 NIL=
201403150600 AAXX 15064 67662 NIL=
201403150300 AAXX 15034 67662 NIL=
201403141800 AAXX 14184 67662 NIL=
201403141500 AAXX 14154 67662 NIL=
201403141200 AAXX 14124 67662 NIL=
201403140900 AAXX 14094 67662 NIL=
201403140600 AAXX 14064 67662 NIL=
201403140300 AAXX 14034 67662 NIL=
201403140000 AAXX 14004 67662 NIL=
201403132100 AAXX 13214 67662 NIL=
201403131800 AAXX 13184 67662 NIL=
201403131200 AAXX 13124 67662 NIL=
201403130900 AAXX 13094 67662 NIL=
201403130600 AAXX 13064 67662 NIL=
201403121800 AAXX 12184 67662 NIL=
201403121200 AAXX 12124 67662 NIL=
201403120900 AAXX 12094 67662 NIL=
201403120600 AAXX 12064 67662 NIL=
201403120300 AAXX 12034 67662 NIL=
201403120000 AAXX 12004 67662 NIL=
201403112100 AAXX 11214 67662 NIL=
201403111800 AAXX 11184 67662 NIL=
201403111500 AAXX 11154 67662 NIL=
201403111200 AAXX 11124 67662 NIL=
201403110600 AAXX 11064 67662 NIL=
201403102100 AAXX 10214 67662 NIL=
201403101800 AAXX 10184 67662 NIL=
201403101500 AAXX 10154 67662 NIL=
201403101200 AAXX 10124 67662 NIL=
201403100900 AAXX 10094 67662 NIL=
201403100600 AAXX 10064 67662 NIL=
201403100300 AAXX 10034 67662 NIL=
201403092100 AAXX 09214 67662 NIL=
201403091800 AAXX 09184 67662 NIL=
201403091500 AAXX 09154 67662 NIL=
201403091200 AAXX 09124 67662 NIL=
201403090900 AAXX 09094 67662 NIL=
201403090600 AAXX 09064 67662 NIL=
201403090300 AAXX 09034 67662 NIL=
201403090000 AAXX 09004 67662 NIL=
201403081800 AAXX 08184 67662 NIL=
201403081500 AAXX 08154 67662 NIL=
201403081200 AAXX 08124 67662 NIL=
201403080900 AAXX 08094 67662 NIL=
201403080600 AAXX 08064 67662 NIL=
201403080300 AAXX 08034 67662 NIL=
201403080000 AAXX 08004 67662 NIL=
201403072100 AAXX 07214 67662 NIL=
201403071500 AAXX 07154 67662 NIL=
201403071200 AAXX 07124 67662 NIL=
201403070900 AAXX 07094 67662 NIL=
201403070600 AAXX 07064 67662 NIL=
201403061800 AAXX 06184 67662 NIL=
201403061500 AAXX 06154 67662 NIL=
201403061200 AAXX 06124 67662 NIL=
201403060900 AAXX 06094 67662 NIL=
201403060600 AAXX 06064 67662 NIL=
201403052100 AAXX 05214 67662 NIL=
201403051800 AAXX 05184 67662 NIL=
201403051500 AAXX 05154 67662 NIL=
201403051200 AAXX 05124 67662 NIL=
201403050900 AAXX 05094 67662 NIL=
201403050600 AAXX 05064 67662 NIL=
201403050300 AAXX 05034 67662 NIL=
201403050000 AAXX 05004 67662 NIL=
201403042100 AAXX 04214 67662 NIL=
201403041800 AAXX 04184 67662 NIL=
201403041500 AAXX 04154 67662 NIL=
201403041200 AAXX 04124 67662 NIL=
201403040900 AAXX 04094 67662 NIL=
201403040600 AAXX 04064 67662 NIL=
201403040300 AAXX 04034 67662 NIL=
201403040000 AAXX 04004 67662 NIL=
201403031800 AAXX 03184 67662 NIL=
201403031500 AAXX 03154 67662 NIL=
201403031200 AAXX 03124 67662 NIL=
201403030900 AAXX 03094 67662 NIL=
201403030600 AAXX 03064 67662 NIL=
201403030300 AAXX 03034 67662 NIL=
201403030000 AAXX 03004 67662 NIL=
201403022100 AAXX 02214 67662 NIL=
201403021800 AAXX 02184 67662 NIL=
201403021500 AAXX 02154 67662 NIL=
201403021200 AAXX 02124 67662 NIL=
201403020900 AAXX 02094 67662 NIL=
201403020600 AAXX 02064 67662 NIL=
201403020300 AAXX 02034 67662 NIL=
201403020000 AAXX 02004 67662 NIL=
201403012100 AAXX 01214 67662 NIL=
201403011800 AAXX 01184 67662 NIL=
201403011500 AAXX 01154 67662 NIL=
201403011200 AAXX 01121 67662 NIL=
201403010900 AAXX 01094 67662 NIL=
201403010600 AAXX 01064 67662 NIL=

################################################################################
#  SYNOPS from 67663, Kabwe (Zambia) | 14-27S | 028-28E | 1206 m
################################################################################
201403310300 AAXX 31034 67663 NIL=
201403310000 AAXX 31004 67663 NIL=
201403302100 AAXX 30214 67663 NIL=
201403301800 AAXX 30184 67663 NIL=
201403301500 AAXX 30154 67663 NIL=
201403301200 AAXX 30124 67663 NIL=
201403300900 AAXX 30094 67663 NIL=
201403300600 AAXX 30064 67663 NIL=
201403300000 AAXX 30004 67663 NIL=
201403292100 AAXX 29214 67663 NIL=
201403291800 AAXX 29184 67663 NIL=
201403291500 AAXX 29154 67663 NIL=
201403291200 AAXX 29124 67663 NIL=
201403290900 AAXX 29094 67663 NIL=
201403290600 AAXX 29064 67663 NIL=
201403290000 AAXX 29004 67663 NIL=
201403282100 AAXX 28214 67663 NIL=
201403281800 AAXX 28184 67663 NIL=
201403281500 AAXX 28150 67663 NIL=
201403281200 AAXX 28120 67663 NIL=
201403280900 AAXX 28094 67663 NIL=
201403280600 AAXX 28064 67663 32980 40804 10204 20159 48517 80002
                   333 10286 20169 58009 84080=
201403280300 AAXX 28034 67663 NIL=
201403280000 AAXX 28004 67663 NIL=
201403272100 AAXX 27214 67663 NIL=
201403271500 AAXX 27154 67663 NIL=
201403271200 AAXX 27124 67663 NIL=
201403270900 AAXX 27094 67663 NIL=
201403270600 AAXX 27064 67663 32980 60403 10210 48527 80008
                   333 10283 20169 58003 86080=
201403270300 AAXX 27034 67663 NIL=
201403270000 AAXX 27004 67663 NIL=
201403262100 AAXX 26214 67663 NIL=
201403261500 AAXX 26154 67663 NIL=
201403261200 AAXX 26124 67663 NIL=
201403260900 AAXX 26094 67663 NIL=
201403260600 AAXX 26064 67663 32480 80703 10194 20176 48521 8257/
                   333 10284 20163 59005 82618 88460=
201403260300 AAXX 26034 67663 NIL=
201403260000 AAXX 26004 67663 NIL=
201403252100 AAXX 25214 67663 NIL=
201403251800 AAXX 25184 67663 NIL=
201403251500 AAXX 25154 67663 NIL=
201403251200 AAXX 25124 67663 NIL=
201403250900 AAXX 25094 67663 NIL=
201403250600 AAXX 25064 67663 32980 21806 10211 20178 48529 82032
                   333 10288 20165 59005 82360 81080=
201403241800 AAXX 24184 67663 NIL=
201403241500 AAXX 24154 67663 NIL=
201403241200 AAXX 24124 67663 NIL=
201403240900 AAXX 24094 67663 NIL=
201403240600 AAXX 24064 67663 32980 10906 10198 20173 48535
                   333 10280 20160 58001 81080=
201403240300 AAXX 24034 67663 NIL=
201403240000 AAXX 24004 67663 NIL=
201403232100 AAXX 23214 67663 NIL=
201403231800 AAXX 23184 67663 NIL=
201403231500 AAXX 23154 67663 NIL=
201403231200 AAXX 23124 67663 NIL=
201403230600 AAXX 23064 67663 NIL=
201403230300 AAXX 23034 67663 NIL=
201403230000 AAXX 23004 67663 NIL=
201403222100 AAXX 22214 67663 NIL=
201403221800 AAXX 22184 67663 NIL=
201403221500 AAXX 22154 67663 NIL=
201403221200 AAXX 22124 67663 NIL=
201403220900 AAXX 22094 67663 NIL=
201403220600 AAXX 22064 67663 NIL=
201403220300 AAXX 22034 67663 NIL=
201403220000 AAXX 22004 67663 NIL=
201403212100 AAXX 21214 67663 NIL=
201403211800 AAXX 21184 67663 NIL=
201403211200 AAXX 21124 67663 NIL=
201403210900 AAXX 21094 67663 NIL=
201403210600 AAXX 21064 67663 11980 70803 10200 20193 48534 69934 72166 85088
                   333 10282 20184 59006 85360 85280=
201403210300 AAXX 21034 67663 NIL=
201403210000 AAXX 21004 67663 NIL=
201403202100 AAXX 20214 67663 NIL=
201403201800 AAXX 20184 67663 NIL=
201403201500 AAXX 20154 67663 NIL=
201403201200 AAXX 20120 67663 NIL=
201403200900 AAXX 20094 67663 NIL=
201403200600 AAXX 20064 67663 32980 60805 10223 20194 48531 83038
                   333 10288 20173 58028 83360 85280=
201403200300 AAXX 20034 67663 NIL=
201403200000 AAXX 20004 67663 NIL=
201403192100 AAXX 19214 67663 NIL=
201403191800 AAXX 19184 67663 NIL=
201403191200 AAXX 19124 67663 NIL=
201403190900 AAXX 19094 67663 NIL=
201403190600 AAXX 19064 67663 32480 60804 10202 20195 48501 85508
                   333 10295 20175 59022 85619 85280=
201403181800 AAXX 18184 67663 NIL=
201403181500 AAXX 18154 67663 NIL=
201403181200 AAXX 18124 67663 NIL=
201403180900 AAXX 18094 67663 NIL=
201403180600 AAXX 18064 67663 32580 41805 10214 20195 48524 84502
                   333 10295 20180 59008 84620 83080=
201403180000 AAXX 18004 67663 NIL=
201403172100 AAXX 17214 67663 NIL=
201403171800 AAXX 17184 67663 NIL=
201403171500 AAXX 17154 67663 NIL=
201403171200 AAXX 17124 67663 NIL=
201403170900 AAXX 17094 67663 NIL=
201403170600 AAXX 17064 67663 NIL=
201403161200 AAXX 16124 67663 NIL=
201403160900 AAXX 16094 67663 NIL=
201403160600 AAXX 16064 67663 NIL=
201403160300 AAXX 16034 67663 NIL=
201403160000 AAXX 16004 67663 NIL=
201403152100 AAXX 15214 67663 NIL=
201403151800 AAXX 15184 67663 NIL=
201403151500 AAXX 15154 67663 NIL=
201403151200 AAXX 15124 67663 NIL=
201403150900 AAXX 15094 67663 NIL=
201403150600 AAXX 15064 67663 NIL=
201403150300 AAXX 15034 67663 NIL=
201403141800 AAXX 14184 67663 NIL=
201403141500 AAXX 14154 67663 NIL=
201403141200 AAXX 14124 67663 NIL=
201403140900 AAXX 14094 67663 NIL=
201403140600 AAXX 14064 67663 12480 60604 10197 20183 48528 60044 82530
                   333 10295 20182 59005 82613 86360=
201403140300 AAXX 14034 67663 NIL=
201403140000 AAXX 14004 67663 NIL=
201403132100 AAXX 13214 67663 NIL=
201403131800 AAXX 13184 67663 NIL=
201403131200 AAXX 13124 67663 NIL=
201403130900 AAXX 13094 67663 NIL=
201403130600 AAXX 13064 67663 12980 40303 10201 20169 48532 60184 84032
                   333 10291 20172 58011 84360 81080
                   555 00/// 20000=
201403121800 AAXX 12184 67663 NIL=
201403121200 AAXX 12124 67663 NIL=
201403120900 AAXX 12094 67663 NIL=
201403120600 AAXX 12064 67663 NIL=
201403120300 AAXX 12034 67663 NIL=
201403120000 AAXX 12004 67663 NIL=
201403112100 AAXX 11214 67663 NIL=
201403111800 AAXX 11184 67663 NIL=
201403111500 AAXX 11154 67663 NIL=
201403111200 AAXX 11124 67663 NIL=
201403110600 AAXX 11064 67663 NIL=
201403102100 AAXX 10214 67663 NIL=
201403101800 AAXX 10184 67663 NIL=
201403101500 AAXX 10154 67663 NIL=
201403101200 AAXX 10124 67663 NIL=
201403100900 AAXX 10094 67663 NIL=
201403100600 AAXX 10064 67663 NIL=
201403100300 AAXX 10034 67663 NIL=
201403092100 AAXX 09214 67663 NIL=
201403091800 AAXX 09184 67663 NIL=
201403091500 AAXX 09154 67663 NIL=
201403091200 AAXX 09124 67663 NIL=
201403090900 AAXX 09094 67663 NIL=
201403090600 AAXX 09064 67663 NIL=
201403090300 AAXX 09034 67663 NIL=
201403090000 AAXX 09004 67663 NIL=
201403081800 AAXX 08184 67663 NIL=
201403081500 AAXX 08154 67663 NIL=
201403081200 AAXX 08124 67663 NIL=
201403080900 AAXX 08094 67663 NIL=
201403080600 AAXX 08064 67663 NIL=
201403080300 AAXX 08034 67663 NIL=
201403080000 AAXX 08004 67663 NIL=
201403072100 AAXX 07214 67663 NIL=
201403071500 AAXX 07154 67663 NIL=
201403071200 AAXX 07124 67663 NIL=
201403070900 AAXX 07094 67663 NIL=
201403070600 AAXX 07064 67663 12480 51603 10202 20177 48513 69904 84530
                   333 10298 20178 59002 84618 85360
                   555 00///=
201403061800 AAXX 06184 67663 NIL=
201403061500 AAXX 06154 67663 NIL=
201403061200 AAXX 06124 67663 NIL=
201403060900 AAXX 06094 67663 NIL=
201403060600 AAXX 06064 67663 NIL=
201403052100 AAXX 05214 67663 NIL=
201403051800 AAXX 05184 67663 NIL=
201403051500 AAXX 05154 67663 NIL=
201403051200 AAXX 05124 67663 NIL=
201403050900 AAXX 05094 67663 NIL=
201403050600 AAXX 05064 67663 31480 40903 10210 20200 48518 72844 84502
                   333 10298 20191 59015 84618 81080
                   555 00/// 20048=
201403050300 AAXX 05034 67663 NIL=
201403050000 AAXX 05004 67663 NIL=
201403042100 AAXX 04214 67663 NIL=
201403041800 AAXX 04184 67663 NIL=
201403041500 AAXX 04154 67663 NIL=
201403041200 AAXX 04124 67663 NIL=
201403040900 AAXX 04094 67663 NIL=
201403040600 AAXX 04064 67663 12980 80303 10189 20181 48531 60484 8807/
                   333 10297 20172 58010 88460=
201403040300 AAXX 04034 67663 NIL=
201403040000 AAXX 04004 67663 NIL=
201403031800 AAXX 03184 67663 NIL=
201403031500 AAXX 03154 67663 NIL=
201403031200 AAXX 03124 67663 NIL=
201403030900 AAXX 03094 67663 NIL=
201403030600 AAXX 03064 67663 NIL=
201403030300 AAXX 03034 67663 NIL=
201403030000 AAXX 03004 67663 NIL=
201403022100 AAXX 02214 67663 NIL=
201403021800 AAXX 02184 67663 NIL=
201403021500 AAXX 02154 67663 NIL=
201403021200 AAXX 02124 67663 NIL=
201403020900 AAXX 02094 67663 NIL=
201403020600 AAXX 02064 67663 NIL=
201403020300 AAXX 02034 67663 NIL=
201403020000 AAXX 02004 67663 NIL=
201403012100 AAXX 01214 67663 NIL=
201403011800 AAXX 01184 67663 NIL=
201403011500 AAXX 01154 67663 NIL=
201403011200 AAXX 01121 67663 NIL=
201403010900 AAXX 01094 67663 NIL=
201403010600 AAXX 01064 67663 NIL=

################################################################################
#  SYNOPS from 67665, Lusaka Internationalairport (Zambia) | 15-19S | 028-27E | 1152 m
################################################################################
201403310300 AAXX 31034 67665 42980 01304 10152 20136 48513
                   333 58001=
201403310000 AAXX 31004 67665 NIL=
201403302100 AAXX 30214 67665 NIL=
201403301800 AAXX 30184 67665 42980 31404 10192 20160 48518 83030
                   333 58005 83360=
201403301500 AAXX 30154 67665 42680 61306 10228 20149 48511 85230
                   333 58002 85835 82360=
201403301200 AAXX 30124 67665 42580 50406 10271 2175/ 48524 85200
                   333 59003 85830=
201403300900 AAXX 30094 67665 42480 20608 10244 20167 48551 82101
                   333 59009 82818 81080 91020=
201403300600 AAXX 30064 67665 32980 11203 10191 20132 48534 80001
                   333 58000 81080 555=
201403300000 AAXX 30004 67665 42980 00000 10153 20135 48511
                   333 59002=
201403292100 AAXX 29214 67665 42980 01102 10164 20154 48523
                   333 59002=
201403291800 AAXX 29184 67665 42980 01304 10190 20159 48514 70200
                   333 59001=
201403291500 AAXX 29154 67665 42680 31010 10242 20165 48509 70122 83200
                   333 59001 83848=
201403291200 AAXX 29124 67665 NIL=
201403290900 AAXX 29094 67665 42580 60509 10232 20163 48545 86232
                   333 58001 86825 81360 81080=
201403290600 AAXX 29064 67665 32480 20706 10184 20152 48533 81130
                   333 58005 81812 82360=
201403290000 AAXX 29004 67665 NIL=
201403282100 AAXX 28214 67665 42980 11003 10173 20155 48527 81030
                   333 58008 81360=
201403281800 AAXX 28184 67665 42980 21203 10192 20175 48521 82030
                   333 58013 82360=
201403281500 AAXX 28154 67665 42780 50812 10248 20188 48511 83202
                   333 58011 83855 84080=
201403281200 AAXX 28120 67665 NIL=
201403280900 AAXX 28094 67665 NIL=
201403280600 AAXX 28064 67665 32480 30812 10198 20161 48530 70300 81501
                   333 10/// 20/// 58001 81612 82080=
201403280300 AAXX 28034 67665 42980 20000 10164 20156 48509 82030
                   333 59001 82360=
201403280000 AAXX 28004 67665 NIL=
201403272100 AAXX 27214 67665 42980 31303 10191 20159 48521 83030
                   333 58010 83360=
201403271500 AAXX 27154 67665 NIL=
201403271200 AAXX 27124 67665 NIL=
201403270900 AAXX 27094 67665 42680 60807 10247 20186 48534 86800
                   333 59003 83830 84635=
201403270600 AAXX 27061 67665 32980 31203 10206 20167 48531 81032
                   333 10//0 20//0 59004 81360 83080=
201403270300 AAXX 27034 67665 NIL=
201403270000 AAXX 27004 67665 42980 11403 10176 20152 48508 81030
                   333 59008 81360=
201403262100 AAXX 26214 67665 42980 42980 10802 20153 48512 81030
                   333 81360 91018=
201403261500 AAXX 26154 67665 42680 50909 10260 20194 48498 84230
                   333 59014 84850 82360=
201403261200 AAXX 26124 67665 42680 50905 10266 20199 48513 85230
                   333 59012 85835 83360=
201403260900 AAXX 26094 67665 NIL=
201403260600 AAXX 26064 67665 32480 53005 10187 20163 48532 83530
                   333 59006 83620 83366=
201403260300 AAXX 26034 67665 42980 11005 10171 20154 48519 81030
                   333 58/// 81360=
201403260000 AAXX 26004 67665 42980 11702 10174 20158 48514 81030
                   333 58/// 81360=
201403252100 AAXX 25214 67665 42980 21504 10188 20157 48525 82030
                   333 58/// 82360=
201403251800 AAXX 25184 67665 42980 21004 10210 20171 48513 82030
                   333 59022 82360=
201403251500 AAXX 25154 67665 42780 30907 10264 20164 48512 83230
                   333 59021 83850 81360 91017=
201403251200 AAXX 25124 67665 42680 41008 10272 20184 48525 84200
                   333 59020 84835=
201403250900 AAXX 25094 67665 NIL=
201403250600 AAXX 25064 67665 32480 21009 10198 20175 48539 82530
                   333 10285 20//0 59006 82612 81360=
201403241800 AAXX 24184 67665 42980 11305 10210 20171 48535 81030
                   333 58008 81360=
201403241500 AAXX 24154 67665 42680 40805 10269 20165 48534 84200
                   333 58007 84832=
201403241200 AAXX 24124 67665 42580 61008 10268 20174 48544 86200
                   333 58018 86830=
201403240900 AAXX 24094 67665 42480 50909 10243 20176 48556 85800
                   333 58008 82812 83615 91022=
201403240600 AAXX 24064 67665 32380 11106 10193 20144 48544 70300 81600
                   333 58001 81707 555 00///=
201403240300 AAXX 24034 67665 42980 10903 10155 20146 48523 81030
                   333 58000 81360=
201403240000 AAXX 24004 67665 42980 11302 10158 20148 48521 81030
                   333 58001 81360=
201403232100 AAXX 23214 67665 42980 11003 10167 20159 48531 81030
                   333 58003 81360=
201403231800 AAXX 23184 67665 42980 11304 10194 20154 48524 70200 81031
                   333 58001 81360 81980=
201403231500 AAXX 23154 67665 NIL=
201403231200 AAXX 23124 67665 42580 50810 10267 20176 48526 70222 85100
                   333 59008 85835=
201403230600 AAXX 23064 67665 NIL=
201403230300 AAXX 23034 67665 42980 10903 10154 20136 48522 81030
                   333 59008 81360=
201403230000 AAXX 23004 67665 NIL=
201403222100 AAXX 22214 67665 42980 10902 10174 20158 48528 81030
                   333 59002 81360=
201403221800 AAXX 22184 67665 42980 41005 10203 20180 48525 83031
                   333 59003 83360 81080=
201403221500 AAXX 22154 67665 42680 50704 10250 20198 48521 84900
                   333 58003 84840 81945=
201403221200 AAXX 22124 67665 42580 70709 10258 20194 48533 87200
                   333 58006 87825=
201403220900 AAXX 22094 67665 42480 70910 10242 20190 48551 70222 875//
                   333 59003 87612=
201403220600 AAXX 22064 67665 NIL=
201403220300 AAXX 22034 67665 42980 21202 10155 20139 48531 80001
                   333 58011 82080=
201403220000 AAXX 22004 67665 NIL=
201403212100 AAXX 21214 67665 42980 30903 10184 20160 48531 83031
                   333 58003 83360 81080=
201403211800 AAXX 21184 67665 42980 60804 10210 20164 48529 84031
                   333 58004 84360 81080=
201403211200 AAXX 21124 67665 NIL=
201403210900 AAXX 21094 67665 41559 60811 10256 20201 48555 71522 82932
                   333 58005 82930 83830 81636=
201403210600 AAXX 21064 67665 32480 61005 10200 20169 48544 81132
                   333 58013 81812 82360 85080=
201403210300 AAXX 21034 67665 42980 51403 10170 20154 48522 85030
                   333 58006 85360 91019=
201403210000 AAXX 21004 67665 42980 31803 10179 20156 48526 83030
                   333 58009 83360=
201403202100 AAXX 20214 67665 42980 21403 10194 20163 48528 82030
                   333 58003 82360=
201403201800 AAXX 20184 67665 42980 41603 10215 20176 48526 80001
                   333 58015 84080=
201403201500 AAXX 20154 67665 42680 51204 10273 20200 48516 84201
                   333 58008 84850 84080=
201403201200 AAXX 20124 67665 42680 60905 10285 20198 48519 85201
                   333 59005 85830 83080=
201403200900 AAXX 20094 67665 NIL=
201403200600 AAXX 20064 67665 NIL=
201403200300 AAXX 20034 67665 42980 53203 10185 20169 48518 84031
                   333 58001 84360 82080=
201403200000 AAXX 20004 67665 42980 61703 10184 20168 48517 85031
                   333 59003 85360 81080=
201403192100 AAXX 19214 67665 42980 51803 10178 20145 48525 85031
                   333 59004 84360 82080=
201403191800 AAXX 19184 67665 42980 21204 10200 20145 48509 81031
                   333 59009 81360 81080=
201403191500 AAXX 19154 67665 41680 41206 10268 20167 48508 71622 81931
                   333 59001 81945 82850 81360 83080=
201403191200 AAXX 19124 67665 42680 40806 10275 20186 48523 84201
                   333 59008 84835 81080=
201403190900 AAXX 19094 67665 NIL=
201403190600 AAXX 19064 67665 32980 51305 10200 20160 48531 83031
                   333 1//// 2//// 59019 83360 84080=
201403181800 AAXX 18184 67665 42680 61005 10204 20164 48518 81902
                   333 59009 81930 85080=
201403181500 AAXX 18154 67665 42680 51208 10273 20192 48509 82902
                   333 59007 82930 85080=
201403181200 AAXX 18124 67665 42680 50510 10276 20193 48530 86802
                   333 59003 85632 82838 84080=
201403180900 AAXX 18094 67665 42580 51007 10256 20178 48551 84501
                   333 58002 84620 82080=
201403180600 AAXX 18064 67665 32960 31008 10206 20165 48539 80001
                   333 59002 82080=
201403180300 AAXX 18034 67665 42980 41402 10174 20158 48517 82030
                   333 59005 82030=
201403180000 AAXX 18004 67665 42680 40000 10183 20167 48519 82030
                   333 59001 82360=
201403172100 AAXX 17214 67665 42680 51502 10192 20175 48531 81931
                   333 59007 81950 82360 83080=
201403171800 AAXX 17184 67665 41680 61405 10208 20177 48525 71322 81932
                   333 59003 81935 82360 85080=
201403171500 AAXX 17154 67665 42680 61210 10254 20187 48513 84202
                   333 59003 81935 83835 84080=
201403171200 AAXX 17124 67665 42680 60206 10274 20224 48531 86800
                   333 58003 84635 84838=
201403170900 AAXX 17094 67665 NIL=
201403170600 AAXX 17064 67665 NIL=
201403161200 AAXX 16124 67665 NIL=
201403160900 AAXX 16094 67665 42480 60614 20170 48554 85531
                   333 59003 85620 82360 84080=
201403160600 AAXX 16064 67665 32480 60905 10197 20158 48551 83531
                   333 58004 83612 83360 85080=
201403160300 AAXX 16034 67665 42980 30000 10171 20164 48530 80001
                   333 59001 83080=
201403160000 AAXX 16004 67665 42980 30000 10176 20169 48531 80001
                   333 59002 83080=
201403152100 AAXX 15214 67665 42980 31703 10183 20171 48542 80001
                   333 58002 83080=
201403151800 AAXX 15184 67665 41680 41502 10200 20189 48531 71322
                   333 59005 81950 82360 84080=
201403151500 AAXX 15154 67665 42680 61009 10254 20193 48514 81902
                   333 59005 83840 81945 84080=
201403151200 AAXX 15124 67665 42580 61013 10244 20194 48540 86230
                   333 59001 86830 83360=
201403150900 AAXX 15094 67665 NIL=
201403150600 AAXX 15064 67665 NIL=
201403150300 AAXX 15034 67665 42380 61203 10178 20161 48534 81630
                   333 59003 81706 84360 91020=
201403150000 AAXX 15004 67665 42980 41102 10174 20156 48533 84030
                   333 59006 84360=
201403141800 AAXX 14184 67665 42980 51303 10210 20179 48539 84031
                   333 58007 84360 83080=
201403141500 AAXX 14154 67665 42680 61107 10250 20184 48519 85231
                   333 59009 85835 81360 83080=
201403141200 AAXX 14124 67665 42480 70904 10235 20183 48541 86830
                   333 58020 82618 84820 86360=
201403140900 AAXX 14094 67665 42460 80906 10225 20187 48560 8553/
                   333 58006 85612 87360 91023=
201403140600 AAXX 14064 67665 12360 81006 10194 20171 48548 60014 886//
                   333 10310 20/// 59001 88707
                   555 00///=
201403140300 AAXX 14034 67665 NIL=
201403140000 AAXX 14004 67665 42760 71204 10180 20164 48538 8193/
                   333 59002 81950 87360=
201403132100 AAXX 13214 67665 42760 71503 10193 20175 48553 70222 81930
                   333 58016 81950 87360=
201403131800 AAXX 13184 67665 41760 71305 10198 20174 48529 71399 8193/
                   333 10298 58004 81950 87360=
201403131500 AAXX 13154 67665 41659 70506 10214 20195 49524 79592 8197/
                   333 58015 81940 87459=
201403131200 AAXX 13124 67665 NIL=
201403130900 AAXX 13094 67665 NIL=
201403130600 AAXX 13064 67665 NIL=
201403122100 AAXX 12214 67665 42780 60000 10202 20171 48539 82931
                   333 58011 81957 83360 83080=
201403121800 AAXX 12184 67665 42780 62402 10198 20155 48528 83030
                   333 10276 58017 81956 83360 83080=
201403121500 AAXX 12154 67665 42680 62603 10265 20182 48516 81032
                   333 58013 81940 82360 85080=
201403121200 AAXX 12124 67665 42680 73306 10258 20195 48524 58011 81080=
201403120900 AAXX 12094 67665 NIL=
201403120600 AAXX 12064 67665 NIL=
201403120300 AAXX 12034 67665 42980 30000 10172 20164 48513 80002
                   333 59003 83080=
201403120000 AAXX 12004 67665 42980 30000 10180 20164 48516 80002
                   333 58008 83080=
201403112100 AAXX 11214 67665 42980 41303 10183 20167 48526 82032
                   333 58011 82360 83080=
201403111800 AAXX 11184 67665 42780 50903 10199 20175 48509 81932
                   333 58000 81950 82360 82080=
201403111500 AAXX 11154 67665 NIL=
201403111200 AAXX 11124 67665 NIL=
201403110900 AAXX 11094 67665 42460 70503 10232 20210 48529 70322 82531
                   333 58009 82612 84360 86080=
201403110600 AAXX 11064 67665 12360 70504 10195 20195 48531 70222 8673/
                   333 10330 20/// 58017 86706 87359=
201403102100 AAXX 10214 67665 42660 60903 10193 20193 48516 81932
                   333 58006 81940 86359 81080=
201403101800 AAXX 10184 67665 41660 70503 10199 20199 48509 79599 81972
                   333 58013 81940 86359 82078=
201403101500 AAXX 10154 67665 41660 72410 10200 20200 48491 79592 81970
                   333 58014 83830 81935 85459=
201403101200 AAXX 10124 67665 42580 70509 10266 20212 48495 81932
                   333 59008 84830 81935 81360 84080=
201403100900 AAXX 10094 67665 NIL=
201403100600 AAXX 10064 67665 32480 71104 10210 20188 48516 70322 83532
                   333 10290 20/// 58012 83610 84360 83080=
201403100300 AAXX 10034 67665 42980 31303 10187 20179 48499 83030
                   333 59013 83360=
201403092100 AAXX 09214 67665 41780 41403 10206 20198 48513 71322 81930
                   333 59010 81957 84360=
201403091800 AAXX 09184 67665 41680 60803 10224 20213 48499 71322 81932
                   333 59011 81950 83360 85080=
201403091500 AAXX 09154 67665 NIL=
201403091200 AAXX 09124 67665 42680 60606 10270 20188 48503 81900
                   333 59018 85840 81945=
201403090900 AAXX 09094 67665 42680 60810 10260 20199 48530 86832
                   333 59011 83830 84632 81360 81080=
201403090600 AAXX 09061 67665 32480 50906 10218 20191 48529 82532
                   333 10310 20//0 59005 82615 81360 84080=
201403090300 AAXX 09034 67665 42980 21305 10183 20159 48511 82030
                   333 59011 82360 91018=
201403090000 AAXX 09004 67665 42980 20802 10190 20158 48514 82030
                   333 59009 82360=
201403082100 AAXX 08214 67665 42780 21304 10198 20174 48520 81930
                   333 59007 81957 82360 91019=
201403081800 AAXX 08184 67665 41680 61406 10211 20193 48508 71322 81932
                   333 59005 81950 82360 83080=
201403081500 AAXX 08154 67665 42680 60608 10278 20182 48499 81902
                   333 59007 81950 83850 84080=
201403081200 AAXX 08124 67665 42680 60611 10277 20179 48522 86200
                   333 58003 86845=
201403080900 AAXX 08094 67665 42680 60506 10258 20189 48541 86800
                   333 59002 84830 83632=
201403080600 AAXX 08064 67665 12480 41106 10216 20192 48534 69904 84530
                   333 10302 20/// 59006 84615 81360=
201403080300 AAXX 08034 67665 42980 41404 10177 20161 48512 84030
                   333 58010 84360=
201403080000 AAXX 08004 67665 42980 51403 10183 20166 48512 85030
                   333 58003 85360=
201403072100 AAXX 07214 67665 42780 31003 10198 20168 48528 81930
                   333 58002 81950 82360=
201403071800 AAXX 07184 67665 42780 41203 10202 20176 48512 81930
                   333 10291 58001 81950 82360=
201403071500 AAXX 07154 67665 41680 50805 10274 20144 48505 71622 81931
                   333 58000 81940 81360 83080=
201403071200 AAXX 07124 67665 42580 60604 10274 20170 48518 84231
                   333 58002 81925 84830 81360 81080=
201403070900 AAXX 07094 67665 42480 60607 10241 20186 48540 86832
                   333 58008 83615 84820 86360 81080=
201403070600 AAXX 07064 67665 NIL=
201403061800 AAXX 06184 67665 42660 51305 10209 20180 48512 81932
                   333 59002 81935 83360 83080=
201403061500 AAXX 06154 67665 41680 71806 10249 20188 48502 71799 87201
                   333 58002 81935 86838 82360 81080=
201403061200 AAXX 06124 67665 42580 70511 10274 20186 48516 87801
                   333 59007 83625 85830 81930 83080=
201403060900 AAXX 06094 67665 42480 70603 10243 20214 48532 70222
                   333 59004 84618 83820 83360=
201403060600 AAXX 06064 67665 32/80 70808 10213 20186 48532 81932
                   333 10270 20/// 59001 819// 84360 85080=
201403060500 AAXX 06054 67665 32/80 70808 10213 20186 48532 81932
                   333 10270 20//0 59001 819// 84360 85080=
201403060300 AAXX 06034 67665 41680 41304 10188 20172 48513 71322 81930
                   333 59007 81950 82360=
201403052100 AAXX 05214 67665 42680 41203 10201 20186 48527 81932
                   333 58000 81950 82360 82080=
201403051800 AAXX 05184 67665 NIL=
201403051500 AAXX 05154 67665 NIL=
201403051200 AAXX 05124 67665 42680 60707 10275 20203 48524 85201
                   333 58003 85840 82080=
201403050900 AAXX 05094 67665 42480 60407 10253 20194 48538 70222 86500
                   333 59005 82623 85825=
201403050600 AAXX 05064 67665 32480 60907 10215 20167 38534 47322 86530
                   333 10322 20/// 59008 86615 81360=
201403050300 AAXX 05034 67665 42980 30903 10183 20174 48518 83030
                   333 59004 83360=
201403050000 AAXX 05004 67665 NIL=
201403042100 AAXX 04214 67665 42680 41206 10197 20166 48527 81930
                   333 59003 81945 84360=
201403041800 AAXX 04184 67665 42680 51005 10216 20163 48516 81930
                   333 10322 59002 81945 85360=
201403041500 AAXX 04154 67665 NIL=
201403041200 AAXX 04124 67665 42680 60405 10267 20204 48520 85232
                   333 58004 85838 83360 85080=
201403040900 AAXX 04094 67665 42480 70502 10232 20194 48540 82132
                   333 58004 82820 84360 85080=
201403040600 AAXX 04064 67665 12475 73203 10194 20163 48538 83132
                   333 10330 20//0 58010 83815 86360 84080=
201403040300 AAXX 04034 67665 42960 41303 10176 20169 48522 84030
                   333 58012 84360=
201403040000 AAXX 04004 67665 NIL=
201403032100 AAXX 03214 67665 41759 62506 10184 20176 48528 71322 81930
                   333 58008 81956 86360=
201403031800 AAXX 03184 67665 41615 61813 10179 20179 48514 79592 819//
                   333 58005 81950 87459=
201403031500 AAXX 03154 67665 42680 61009 10266 20205 48500 81902
                   333 58002 81945 83845 85080=
201403031200 AAXX 03124 67665 42580 62306 10276 20185 48517 85232
                   333 58011 85830 83360 83080=
201403030900 AAXX 03094 67665 70903 10221 20191 48535 72022 8553/
                   333 58009 85610 87360=
201403030600 AAXX 03064 67665 12380 73003 10207 20186 48531 60024 8463/
                   333 10300 20//0 58007 84709 87360=
201403030300 AAXX 03034 67665 42980 41202 10184 20160 48511 84030
                   333 58009 84360 91018=
201403030000 AAXX 03004 67665 42760 41404 10183 20159 48513 84030
                   333 59004 81957 84360=
201403022100 AAXX 02214 67665 42760 61504 10187 20173 48521 72999 81930
                   333 59007 81956 86360=
201403021800 AAXX 02184 67665 42780 41303 10214 20194 48512 71392 81930
                   333 10300 58007 81956 84360=
201403021500 AAXX 02154 67665 41680 73404 10234 20183 48493 71790 81930
                   333 81948 85850 85360=
201403021200 AAXX 02124 67665 42680 60603 10292 20199 48507 84231
                   333 58004 84840 85360 82080=
201403020900 AAXX 02094 67665 NIL=
201403020600 AAXX 02064 67665 NIL=
201403020300 AAXX 02034 67665 41360 70705 10186 20178 48503 71799 86630
                   333 59001 86707 81935 86360=
201403020000 AAXX 02004 67665 42960 61403 10184 20168 48516 86030
                   333 58013 86360=
201403012100 AAXX 01214 67665 42760 71305 10193 20170 48528 81930
                   333 58020 81950 87360 81080=
201403011800 AAXX 01184 67665 42760 71004 10195 20180 48502 8193/
                   333 10280 58006 81950 87360=
201403011500 AAXX 01154 67665 42680 70804 10240 20178 48498 8193/
                   333 58002 81940 87360=
201403011200 AAXX 01124 67665 41560 73105 10265 20166 48501 8193/
                   333 59005 81925 83828 87360=
201403010900 AAXX 01094 67665 42460 73204 10255 20193 48532 85530
                   333 58003 85615 85360=
201403010600 AAXX 01064 67665 11359 73404 10210 20203 48526 60094 71022 8563/
                   333 10283 20/// 58006 85707 87360=

################################################################################
#  SYNOPS from 67666, Lusaka City Airport (Zambia) | 15-25S | 028-19E | 1280 m
################################################################################
201403310300 AAXX 31034 67666 NIL=
201403310000 AAXX 31004 67666 NIL=
201403302100 AAXX 30214 67666 NIL=
201403301800 AAXX 30184 67666 NIL=
201403301500 AAXX 30154 67666 NIL=
201403301200 AAXX 30124 67666 NIL=
201403300900 AAXX 30094 67666 NIL=
201403300600 AAXX 30064 67666 NIL=
201403300000 AAXX 30004 67666 NIL=
201403292100 AAXX 29214 67666 NIL=
201403291800 AAXX 29184 67666 NIL=
201403291500 AAXX 29154 67666 NIL=
201403291200 AAXX 29124 67666 NIL=
201403290900 AAXX 29094 67666 NIL=
201403290600 AAXX 29064 67666 NIL=
201403290000 AAXX 29004 67666 NIL=
201403282100 AAXX 28214 67666 NIL=
201403281800 AAXX 28184 67666 NIL=
201403281500 AAXX 28154 67666 NIL=
201403281200 AAXX 28124 67666 42580 61011 10250 20165 48519 86800
                   333 58014 84825 83630 91018=
201403280900 AAXX 28094 67666 NIL=
201403280600 AAXX 28064 67666 32980 10911 10196 20163 48523 80001
                   333 10275 20170 58005 81080 91019=
201403280300 AAXX 28034 67666 NIL=
201403280000 AAXX 28004 67666 NIL=
201403272100 AAXX 27214 67666 NIL=
201403271500 AAXX 27154 67666 NIL=
201403271200 AAXX 27124 67666 NIL=
201403270900 AAXX 27094 67666 42480 31208 10250 20164 48525 82101
                   333 59003 82815 81080 91019=
201403270600 AAXX 27064 67666 32980 20000 10206 20165 48519 80002
                   333 10270 20155 59006 82080 91018=
201403270300 AAXX 27034 67666 NIL=
201403270000 AAXX 27004 67666 NIL=
201403262100 AAXX 26214 67666 NIL=
201403261500 AAXX 26154 67666 NIL=
201403261200 AAXX 26124 67666 NIL=
201403260900 AAXX 26094 67666 NIL=
201403260600 AAXX 26064 67666 32480 40703 10185 20170 48523 81630
                   333 10275 20170 58020 81709 83360 91019=
201403260300 AAXX 26034 67666 NIL=
201403260000 AAXX 26004 67666 NIL=
201403252100 AAXX 25214 67666 NIL=
201403251800 AAXX 25184 67666 NIL=
201403251500 AAXX 25154 67666 NIL=
201403251200 AAXX 25124 67666 NIL=
201403250900 AAXX 25094 67666 42580 60910 10242 20179 48537 86200
                   333 59010 86820 91020=
201403250600 AAXX 25064 67666 32480 51207 10203 20175 48529 82230
                   333 10270 20157 59004 82315 84359 91020=
201403241800 AAXX 24184 67666 NIL=
201403241500 AAXX 24154 67666 NIL=
201403241200 AAXX 24124 67666 42580 51208 10255 20161 48533 85200
                   333 85825 91020=
201403240900 AAXX 24094 67666 42480 51010 10235 20165 48547 85200
                   333 5//// 85818 91021=
201403240600 AAXX 24064 67666 32480 20911 10195 20165 48536 82200
                   333 10265 20165 58000 82810 91021=
201403240300 AAXX 24034 67666 NIL=
201403240000 AAXX 24004 67666 NIL=
201403232100 AAXX 23214 67666 NIL=
201403231800 AAXX 23184 67666 NIL=
201403231500 AAXX 23154 67666 NIL=
201403231200 AAXX 23124 67666 NIL=
201403230600 AAXX 23064 67666 NIL=
201403230300 AAXX 23034 67666 NIL=
201403230000 AAXX 23004 67666 NIL=
201403222100 AAXX 22214 67666 NIL=
201403221800 AAXX 22184 67666 NIL=
201403221500 AAXX 22154 67666 NIL=
201403221200 AAXX 22124 67666 NIL=
201403220900 AAXX 22094 67666 NIL=
201403220600 AAXX 22064 67666 NIL=
201403220300 AAXX 22034 67666 NIL=
201403220000 AAXX 22004 67666 NIL=
201403212100 AAXX 21214 67666 NIL=
201403211800 AAXX 21184 67666 NIL=
201403211200 AAXX 21124 67666 NIL=
201403210900 AAXX 21094 67666 NIL=
201403210600 AAXX 21064 67666 32980 71005 10221 20185 48541 83031
                   333 10285 20163 58016 83359 84080 91021=
201403210300 AAXX 21034 67666 NIL=
201403210000 AAXX 21004 67666 NIL=
201403202100 AAXX 20214 67666 NIL=
201403201800 AAXX 20184 67666 NIL=
201403201500 AAXX 20154 67666 NIL=
201403201200 AAXX 20124 67666 NIL=
201403200900 AAXX 20094 67666 42480 71007 10257 20189 48534 84230
                   333 58002 84820 83359 91020=
201403200600 AAXX 20064 67666 32980 60905 10215 20181 48522 82031
                   333 10280 20161 59005 82359 83078 91019=
201403200300 AAXX 20034 67666 NIL=
201403200000 AAXX 20004 67666 NIL=
201403192100 AAXX 19214 67666 NIL=
201403191800 AAXX 19184 67666 NIL=
201403191200 AAXX 19124 67666 NIL=
201403190900 AAXX 19094 67666 42480 51005 10245 20186 48532 85201
                   333 59008 84818 82080 91020=
201403190600 AAXX 19064 67666 32480 40908 10210 20178 48531 82530
                   333 10280 20160 59004 82610 82358 91020=
201403181800 AAXX 18184 67666 NIL=
201403181500 AAXX 18154 67666 NIL=
201403181200 AAXX 18124 67666 NIL=
201403180900 AAXX 18094 67666 42480 50912 10245 20185 48540 85200
                   333 59002 85815 91021=
201403180600 AAXX 18064 67666 12980 20908 10210 20180 48535 60014 81032
                   333 10240 20175 58001 81359 82080 91020=
201403180000 AAXX 18004 67666 NIL=
201403172100 AAXX 17214 67666 NIL=
201403171800 AAXX 17184 67666 NIL=
201403171500 AAXX 17154 67666 NIL=
201403171200 AAXX 17124 67666 41580 51105 10255 20177 48519 71722 85201
                   333 59000 81930 84830 83080 91019=
201403170900 AAXX 17094 67666 NIL=
201403170600 AAXX 17064 67666 12480 30910 10208 20174 48534 60014 82501
                   333 10260 20181 59015 82610 81080 91020=
201403161200 AAXX 16124 67666 NIL=
201403160900 AAXX 16094 67666 NIL=
201403160600 AAXX 16064 67666 NIL=
201403160300 AAXX 16034 67666 NIL=
201403160000 AAXX 16004 67666 NIL=
201403152100 AAXX 15214 67666 NIL=
201403151800 AAXX 15184 67666 NIL=
201403151500 AAXX 15154 67666 NIL=
201403151200 AAXX 15124 67666 NIL=
201403150900 AAXX 15094 67666 NIL=
201403150600 AAXX 15064 67666 NIL=
201403150300 AAXX 15034 67666 NIL=
201403141800 AAXX 14184 67666 NIL=
201403141500 AAXX 14154 67666 NIL=
201403141200 AAXX 14124 67666 NIL=
201403140900 AAXX 14094 67666 42480 71007 10217 20184 48550 8583/
                   333 58012 86615 83820 81359 91022=
201403140600 AAXX 14064 67666 32380 81009 10193 20177 48538 887//
                   333 10280 20169 58001 88708 91021=
201403140300 AAXX 14034 67666 NIL=
201403140000 AAXX 14004 67666 NIL=
201403132100 AAXX 13214 67666 NIL=
201403131800 AAXX 13184 67666 NIL=
201403131200 AAXX 13124 67666 NIL=
201403130900 AAXX 13094 67666 42480 60000 10253 20179 48543 86200
                   333 58030 86815 91022=
201403130600 AAXX 13064 67666 32980 40305 10210 20172 48544 84030
                   333 10266 20160 58017 84359
                   555 00/// 20990 91021=
201403121800 AAXX 12184 67666 NIL=
201403121200 AAXX 12124 67666 NIL=
201403120900 AAXX 12094 67666 NIL=
201403120600 AAXX 12064 67666 NIL=
201403120300 AAXX 12034 67666 NIL=
201403120000 AAXX 12004 67666 NIL=
201403112100 AAXX 11214 67666 NIL=
201403111800 AAXX 11184 67666 NIL=
201403111500 AAXX 11154 67666 NIL=
201403111200 AAXX 11124 67666 NIL=
201403110600 AAXX 11064 67666 11380 81208 10185 20177 48521 60424 75022 887//
                   333 10265 20180 58015 88708 91019=
201403102100 AAXX 10214 67666 NIL=
201403101800 AAXX 10184 67666 NIL=
201403101500 AAXX 10154 67666 NIL=
201403101200 AAXX 10124 67666 NIL=
201403100900 AAXX 10094 67666 42580 70808 10251 20198 48517 85230
                   333 58001 85620 83360 91018=
201403100600 AAXX 10064 67666 32480 70905 10211 20199 48501 8753/
                   333 10282 20191 59011 87615 82360 91017=
201403100300 AAXX 10034 67666 NIL=
201403092100 AAXX 09214 67666 NIL=
201403091800 AAXX 09184 67666 NIL=
201403091500 AAXX 09154 67666 NIL=
201403091200 AAXX 09124 67666 NIL=
201403090900 AAXX 09094 67666 NIL=
201403090600 AAXX 09064 67666 NIL=
201403090300 AAXX 09034 67666 NIL=
201403090000 AAXX 09004 67666 NIL=
201403081800 AAXX 08184 67666 NIL=
201403081500 AAXX 08154 67666 NIL=
201403081200 AAXX 08124 67666 NIL=
201403080900 AAXX 08094 67666 NIL=
201403080600 AAXX 08064 67666 NIL=
201403080300 AAXX 08034 67666 NIL=
201403080000 AAXX 08004 67666 NIL=
201403072100 AAXX 07214 67666 NIL=
201403071500 AAXX 07154 67666 NIL=
201403071200 AAXX 07124 67666 42680 60705 10265 20174 48510 84202
                   333 58001 84830 82080 91017=
201403070900 AAXX 07094 67666 42580 60000 10235 20182 48531 85830
                   333 58003 82620 83830 81360 91020=
201403070600 AAXX 07064 67666 12480 73607 10200 20185 48526 69954 876//
                   333 10267 20181 59001 87710 91019=
201403061800 AAXX 06184 67666 NIL=
201403061500 AAXX 06154 67666 NIL=
201403061200 AAXX 06124 67666 NIL=
201403060900 AAXX 06094 67666 42480 70809 10233 20/// 48528 84230
                   333 59001 84820 83359 91019=
201403060600 AAXX 06064 67666 32980 71007 10209 20179 48521 83038
                   333 10285 20185 58003 83359 86280 91020=
201403052100 AAXX 05214 67666 NIL=
201403051800 AAXX 05184 67666 NIL=
201403051500 AAXX 05154 67666 NIL=
201403051200 AAXX 05124 67666 NIL=
201403050900 AAXX 05094 67666 NIL=
201403050600 AAXX 05064 67666 32480 30910 10216 20195 48528 83500
                   333 10279 20185 58005 83615 91019=
201403050300 AAXX 05034 67666 NIL=
201403050000 AAXX 05004 67666 NIL=
201403042100 AAXX 04214 67666 NIL=
201403041800 AAXX 04184 67666 NIL=
201403041500 AAXX 04154 67666 NIL=
201403041200 AAXX 04124 67666 NIL=
201403040900 AAXX 04094 67666 42580 80906 10239 20188 48532 81137
                   333 58003 81820 82359 88280 91020=
201403040600 AAXX 04064 67666 12480 81504 10192 20180 48529 60044 82177
                   333 10275 20195 58011 82815 85458 87280 91020=
201403040300 AAXX 04034 67666 NIL=
201403040000 AAXX 04004 67666 NIL=
201403031800 AAXX 03184 67666 NIL=
201403031500 AAXX 03154 67666 NIL=
201403031200 AAXX 03124 67666 42480 60406 10270 20198 48510 86200
                   333 58009 85815 91018=
201403030900 AAXX 03094 67666 41380 72806 10199 20189 48525 76121 87570
                   333 58005 85608 82359 91019=
201403030600 AAXX 03064 67666 32380 70000 10200 20185 48523 86530
                   333 10265 20190 58008 86608 82358 91019=
201403030300 AAXX 03034 67666 NIL=
201403030000 AAXX 03004 67666 NIL=
201403022100 AAXX 02214 67666 NIL=
201403021800 AAXX 02184 67666 NIL=
201403021500 AAXX 02154 67666 NIL=
201403021200 AAXX 02124 67666 NIL=
201403020900 AAXX 02094 67666 NIL=
201403020600 AAXX 02064 67666 NIL=
201403020300 AAXX 02034 67666 NIL=
201403020000 AAXX 02004 67666 NIL=
201403012100 AAXX 01214 67666 NIL=
201403011800 AAXX 01184 67666 NIL=
201403011500 AAXX 01154 67666 NIL=
201403011200 AAXX 01121 67666 NIL=
201403010900 AAXX 01094 67666 NIL=
201403010600 AAXX 01064 67666 NIL=

################################################################################
#  SYNOPS from 67667, Mount Makulu (Zambia) | 15-33S | 028-15E | 1213 m
################################################################################
201403310300 AAXX 31034 67667 NIL=
201403310000 AAXX 31004 67667 NIL=
201403302100 AAXX 30214 67667 NIL=
201403301800 AAXX 30184 67667 NIL=
201403301500 AAXX 30154 67667 NIL=
201403301200 AAXX 30124 67667 NIL=
201403300900 AAXX 30094 67667 NIL=
201403300600 AAXX 30064 67667 NIL=
201403300000 AAXX 30004 67667 NIL=
201403292100 AAXX 29214 67667 NIL=
201403291800 AAXX 29184 67667 NIL=
201403291500 AAXX 29154 67667 NIL=
201403291200 AAXX 29124 67667 NIL=
201403290900 AAXX 29094 67667 NIL=
201403290600 AAXX 29064 67667 NIL=
201403290000 AAXX 29004 67667 NIL=
201403282100 AAXX 28214 67667 NIL=
201403281800 AAXX 28184 67667 NIL=
201403281500 AAXX 28154 67667 NIL=
201403281200 AAXX 28124 67667 NIL=
201403280900 AAXX 28094 67667 NIL=
201403280600 AAXX 28064 67667 NIL=
201403280300 AAXX 28034 67667 NIL=
201403280000 AAXX 28004 67667 NIL=
201403272100 AAXX 27214 67667 NIL=
201403271500 AAXX 27154 67667 NIL=
201403271200 AAXX 27124 67667 NIL=
201403270900 AAXX 27094 67667 NIL=
201403270600 AAXX 27064 67667 NIL=
201403270300 AAXX 27034 67667 NIL=
201403270000 AAXX 27004 67667 NIL=
201403262100 AAXX 26214 67667 NIL=
201403261500 AAXX 26154 67667 NIL=
201403261200 AAXX 26124 67667 NIL=
201403260900 AAXX 26094 67667 NIL=
201403260600 AAXX 26064 67667 NIL=
201403260300 AAXX 26034 67667 NIL=
201403260000 AAXX 26004 67667 NIL=
201403252100 AAXX 25214 67667 NIL=
201403251800 AAXX 25184 67667 NIL=
201403251500 AAXX 25154 67667 NIL=
201403251200 AAXX 25124 67667 NIL=
201403250900 AAXX 25094 67667 NIL=
201403250600 AAXX 25064 67667 NIL=
201403241800 AAXX 24184 67667 NIL=
201403241500 AAXX 24154 67667 NIL=
201403241200 AAXX 24124 67667 NIL=
201403240900 AAXX 24094 67667 NIL=
201403240600 AAXX 24064 67667 NIL=
201403240300 AAXX 24034 67667 NIL=
201403240000 AAXX 24004 67667 NIL=
201403232100 AAXX 23214 67667 NIL=
201403231800 AAXX 23184 67667 NIL=
201403231500 AAXX 23154 67667 NIL=
201403231200 AAXX 23124 67667 NIL=
201403230600 AAXX 23064 67667 NIL=
201403230300 AAXX 23034 67667 NIL=
201403230000 AAXX 23004 67667 NIL=
201403222100 AAXX 22214 67667 NIL=
201403221800 AAXX 22184 67667 NIL=
201403221500 AAXX 22154 67667 NIL=
201403221200 AAXX 22124 67667 NIL=
201403220900 AAXX 22094 67667 NIL=
201403220600 AAXX 22064 67667 NIL=
201403220300 AAXX 22034 67667 NIL=
201403220000 AAXX 22004 67667 NIL=
201403212100 AAXX 21214 67667 NIL=
201403211800 AAXX 21184 67667 NIL=
201403211200 AAXX 21124 67667 NIL=
201403210900 AAXX 21094 67667 NIL=
201403210600 AAXX 21064 67667 NIL=
201403210300 AAXX 21034 67667 NIL=
201403210000 AAXX 21004 67667 NIL=
201403202100 AAXX 20214 67667 NIL=
201403201800 AAXX 20184 67667 NIL=
201403201500 AAXX 20154 67667 NIL=
201403201200 AAXX 20124 67667 NIL=
201403200900 AAXX 20094 67667 NIL=
201403200600 AAXX 20064 67667 NIL=
201403200300 AAXX 20034 67667 NIL=
201403200000 AAXX 20004 67667 NIL=
201403192100 AAXX 19214 67667 NIL=
201403191800 AAXX 19184 67667 NIL=
201403191200 AAXX 19124 67667 NIL=
201403190900 AAXX 19094 67667 NIL=
201403190600 AAXX 19064 67667 NIL=
201403181800 AAXX 18184 67667 NIL=
201403181500 AAXX 18154 67667 NIL=
201403181200 AAXX 18124 67667 NIL=
201403180900 AAXX 18094 67667 NIL=
201403180600 AAXX 18064 67667 NIL=
201403180000 AAXX 18004 67667 NIL=
201403172100 AAXX 17214 67667 NIL=
201403171800 AAXX 17184 67667 NIL=
201403171500 AAXX 17154 67667 NIL=
201403171200 AAXX 17124 67667 NIL=
201403170900 AAXX 17094 67667 NIL=
201403170600 AAXX 17064 67667 NIL=
201403161200 AAXX 16124 67667 NIL=
201403160900 AAXX 16094 67667 NIL=
201403160600 AAXX 16064 67667 NIL=
201403160300 AAXX 16034 67667 NIL=
201403160000 AAXX 16004 67667 NIL=
201403152100 AAXX 15214 67667 NIL=
201403151800 AAXX 15184 67667 NIL=
201403151500 AAXX 15154 67667 NIL=
201403151200 AAXX 15124 67667 NIL=
201403150900 AAXX 15094 67667 NIL=
201403150600 AAXX 15064 67667 NIL=
201403150300 AAXX 15034 67667 NIL=
201403141800 AAXX 14184 67667 NIL=
201403141500 AAXX 14154 67667 NIL=
201403141200 AAXX 14124 67667 NIL=
201403140900 AAXX 14094 67667 NIL=
201403140600 AAXX 14064 67667 NIL=
201403140300 AAXX 14034 67667 NIL=
201403140000 AAXX 14004 67667 NIL=
201403132100 AAXX 13214 67667 NIL=
201403131800 AAXX 13184 67667 NIL=
201403131200 AAXX 13124 67667 NIL=
201403130900 AAXX 13094 67667 NIL=
201403130600 AAXX 13064 67667 NIL=
201403121800 AAXX 12184 67667 NIL=
201403121200 AAXX 12124 67667 NIL=
201403120900 AAXX 12094 67667 NIL=
201403120600 AAXX 12064 67667 NIL=
201403120300 AAXX 12034 67667 NIL=
201403120000 AAXX 12004 67667 NIL=
201403112100 AAXX 11214 67667 NIL=
201403111800 AAXX 11184 67667 NIL=
201403111500 AAXX 11154 67667 NIL=
201403111200 AAXX 11124 67667 NIL=
201403110600 AAXX 11064 67667 NIL=
201403102100 AAXX 10214 67667 NIL=
201403101800 AAXX 10184 67667 NIL=
201403101500 AAXX 10154 67667 NIL=
201403101200 AAXX 10124 67667 NIL=
201403100900 AAXX 10094 67667 NIL=
201403100600 AAXX 10064 67667 NIL=
201403100300 AAXX 10034 67667 NIL=
201403092100 AAXX 09214 67667 NIL=
201403091800 AAXX 09184 67667 NIL=
201403091500 AAXX 09154 67667 NIL=
201403091200 AAXX 09124 67667 NIL=
201403090900 AAXX 09094 67667 NIL=
201403090600 AAXX 09064 67667 NIL=
201403090300 AAXX 09034 67667 NIL=
201403090000 AAXX 09004 67667 NIL=
201403081800 AAXX 08184 67667 NIL=
201403081500 AAXX 08154 67667 NIL=
201403081200 AAXX 08124 67667 NIL=
201403080900 AAXX 08094 67667 NIL=
201403080600 AAXX 08064 67667 NIL=
201403080300 AAXX 08034 67667 NIL=
201403080000 AAXX 08004 67667 NIL=
201403072100 AAXX 07214 67667 NIL=
201403071500 AAXX 07154 67667 NIL=
201403071200 AAXX 07124 67667 NIL=
201403070900 AAXX 07094 67667 NIL=
201403070600 AAXX 07064 67667 NIL=
201403061800 AAXX 06184 67667 NIL=
201403061500 AAXX 06154 67667 NIL=
201403061200 AAXX 06124 67667 NIL=
201403060900 AAXX 06094 67667 NIL=
201403060600 AAXX 06064 67667 NIL=
201403052100 AAXX 05214 67667 NIL=
201403051800 AAXX 05184 67667 NIL=
201403051500 AAXX 05154 67667 NIL=
201403051200 AAXX 05124 67667 NIL=
201403050900 AAXX 05094 67667 NIL=
201403050600 AAXX 05064 67667 NIL=
201403050300 AAXX 05034 67667 NIL=
201403050000 AAXX 05004 67667 NIL=
201403042100 AAXX 04214 67667 NIL=
201403041800 AAXX 04184 67667 NIL=
201403041500 AAXX 04154 67667 NIL=
201403041200 AAXX 04124 67667 NIL=
201403040900 AAXX 04094 67667 NIL=
201403040600 AAXX 04064 67667 NIL=
201403040300 AAXX 04034 67667 NIL=
201403040000 AAXX 04004 67667 NIL=
201403031800 AAXX 03184 67667 NIL=
201403031500 AAXX 03154 67667 NIL=
201403031200 AAXX 03124 67667 NIL=
201403030900 AAXX 03094 67667 NIL=
201403030600 AAXX 03064 67667 NIL=
201403030300 AAXX 03034 67667 NIL=
201403030000 AAXX 03004 67667 NIL=
201403022100 AAXX 02214 67667 NIL=
201403021800 AAXX 02184 67667 NIL=
201403021500 AAXX 02154 67667 NIL=
201403021200 AAXX 02124 67667 NIL=
201403020900 AAXX 02094 67667 NIL=
201403020600 AAXX 02064 67667 NIL=
201403020300 AAXX 02034 67667 NIL=
201403020000 AAXX 02004 67667 NIL=
201403012100 AAXX 01214 67667 NIL=
201403011800 AAXX 01184 67667 NIL=
201403011500 AAXX 01154 67667 NIL=
201403011200 AAXX 01121 67667 NIL=
201403010900 AAXX 01094 67667 NIL=
201403010600 AAXX 01064 67667 NIL=

################################################################################
#  SYNOPS from 67673, Petauke (Zambia) | 14-15S | 031-17E | 1035 m
################################################################################
201403310300 AAXX 31034 67673 NIL=
201403310000 AAXX 31004 67673 NIL=
201403302100 AAXX 30214 67673 NIL=
201403301800 AAXX 30184 67673 NIL=
201403301500 AAXX 30154 67673 NIL=
201403301200 AAXX 30124 67673 NIL=
201403300900 AAXX 30094 67673 NIL=
201403300600 AAXX 30064 67673 NIL=
201403300000 AAXX 30004 67673 NIL=
201403292100 AAXX 29214 67673 NIL=
201403291800 AAXX 29184 67673 NIL=
201403291500 AAXX 29154 67673 NIL=
201403291200 AAXX 29124 67673 NIL=
201403290900 AAXX 29094 67673 NIL=
201403290600 AAXX 29064 67673 NIL=
201403290000 AAXX 29004 67673 NIL=
201403282100 AAXX 28214 67673 NIL=
201403281800 AAXX 28184 67673 NIL=
201403281500 AAXX 28154 67673 NIL=
201403281200 AAXX 28124 67673 42680 50000 10270 20161 48537 84201
                   333 58013 84840 85080=
201403280900 AAXX 28094 67673 NIL=
201403280600 AAXX 28064 67673 32580 51503 10218 20168 48547 82101
                   333 10290 20172 58005 82825 85080=
201403280300 AAXX 28034 67673 NIL=
201403280000 AAXX 28004 67673 NIL=
201403272100 AAXX 27214 67673 NIL=
201403271500 AAXX 27154 67673 42680 50901 10260 20185 48512 84231
                   333 59001 84835 82360 85080=
201403271200 AAXX 27124 67673 42680 60201 10280 20183 48521 86200
                   333 59005 86835=
201403270900 AAXX 27094 67673 42680 50702 10270 20180 48544 85200
                   333 59004 85832=
201403270600 AAXX 27064 67673 NIL=
201403270300 AAXX 27034 67673 NIL=
201403270000 AAXX 27004 67673 NIL=
201403262100 AAXX 26214 67673 NIL=
201403261500 AAXX 26154 67673 NIL=
201403261200 AAXX 26124 67673 42680 61206 10269 20181 48521 86200
                   333 59014 81935 86835=
201403260900 AAXX 26094 67673 42680 61002 10250 20184 48543 86130
                   333 59010 86830 83360=
201403260600 AAXX 26064 67673 32580 61201 10220 20183 48541 84130
                   333 10275 20190 59004 84826 86360=
201403260300 AAXX 26034 67673 NIL=
201403260000 AAXX 26004 67673 NIL=
201403252100 AAXX 25214 67673 NIL=
201403251800 AAXX 25184 67673 NIL=
201403251500 AAXX 25154 67673 NIL=
201403251200 AAXX 25124 67673 42680 51001 10256 20175 48533 85231
                   333 59014 85835 83360 82080=
201403250900 AAXX 25094 67673 42680 61803 10250 20174 48554 86131
                   333 59011 86830 84360 83080=
201403250600 AAXX 25064 67673 32580 51004 10233 20172 48555 84131
                   333 10274 20188 59004 84825 85360 82080=
201403241800 AAXX 24184 67673 NIL=
201403241500 AAXX 24154 67673 NIL=
201403241200 AAXX 24124 67673 42680 61804 10250 20205 48545 86201
                   333 5//// 86837 82080=
201403240900 AAXX 24094 67673 42680 51503 10265 20190 48568 85200
                   333 5//// 85835=
201403240600 AAXX 24064 67673 32580 21002 10236 20190 48551 82100
                   333 10280 20175 59007 82825=
201403240300 AAXX 24034 67673 NIL=
201403240000 AAXX 24004 67673 NIL=
201403232100 AAXX 23214 67673 NIL=
201403231800 AAXX 23184 67673 NIL=
201403231500 AAXX 23154 67673 NIL=
201403231200 AAXX 23124 67673 NIL=
201403230600 AAXX 23064 67673 NIL=
201403230300 AAXX 23034 67673 NIL=
201403230000 AAXX 23004 67673 NIL=
201403222100 AAXX 22214 67673 NIL=
201403221800 AAXX 22184 67673 NIL=
201403221500 AAXX 22154 67673 NIL=
201403221200 AAXX 22124 67673 NIL=
201403220900 AAXX 22094 67673 NIL=
201403220600 AAXX 22064 67673 NIL=
201403220300 AAXX 22034 67673 NIL=
201403220000 AAXX 22004 67673 NIL=
201403212100 AAXX 21214 67673 NIL=
201403211800 AAXX 21184 67673 NIL=
201403211200 AAXX 21124 67673 NIL=
201403210900 AAXX 21094 67673 NIL=
201403210600 AAXX 21064 67673 12580 80000 10198 20187 48557 60314 8423/
                   333 10282 20194 58014 84822 88360=
201403210300 AAXX 21034 67673 NIL=
201403210000 AAXX 21004 67673 NIL=
201403202100 AAXX 20214 67673 NIL=
201403201800 AAXX 20184 67673 NIL=
201403201500 AAXX 20154 67673 NIL=
201403201200 AAXX 20124 67673 NIL=
201403200900 AAXX 20094 67673 42680 63602 10270 20200 48550 86231
                   333 59003 86835 84360 83080=
201403200600 AAXX 20064 67673 12580 51601 10230 20201 48549 60244 81131
                   333 10280 20200 58001 81825 85360 82080=
201403200300 AAXX 20034 67673 NIL=
201403200000 AAXX 20004 67673 NIL=
201403192100 AAXX 19214 67673 NIL=
201403191800 AAXX 19184 67673 NIL=
201403191200 AAXX 19124 67673 41680 63002 10275 20203 48520 86231
                   333 86231 86840 84360 85080=
201403190900 AAXX 19094 67673 42680 60902 10264 20198 48552 86201
                   333 86832 84080=
201403190600 AAXX 19064 67673 12580 60902 10230 20202 48548 60064 86531
                   333 10290 20194 86625 84360 81080=
201403181800 AAXX 18184 67673 NIL=
201403181500 AAXX 18154 67673 NIL=
201403181200 AAXX 18124 67673 41570 72701 10232 20214 48526 86237
                   333 81930 86830 84759=
201403180900 AAXX 18094 67673 42680 50801 10275 20199 48557 84231
                   333 84832 83360 84080=
201403180600 AAXX 18064 67673 12580 53601 10235 20203 48551 60034 82531
                   333 10236 20195 82628 82360 85080=
201403180000 AAXX 18004 67673 NIL=
201403172100 AAXX 17214 67673 NIL=
201403171800 AAXX 17184 67673 NIL=
201403171500 AAXX 17154 67673 NIL=
201403171200 AAXX 17124 67673 NIL=
201403170900 AAXX 17094 67673 NIL=
201403170600 AAXX 17064 67673 NIL=
201403161200 AAXX 16124 67673 NIL=
201403160900 AAXX 16094 67673 NIL=
201403160600 AAXX 16064 67673 NIL=
201403160300 AAXX 16034 67673 NIL=
201403160000 AAXX 16004 67673 NIL=
201403152100 AAXX 15214 67673 NIL=
201403151800 AAXX 15184 67673 NIL=
201403151500 AAXX 15154 67673 NIL=
201403151200 AAXX 15124 67673 NIL=
201403150900 AAXX 15094 67673 NIL=
201403150600 AAXX 15064 67673 NIL=
201403150300 AAXX 15034 67673 NIL=
201403141800 AAXX 14184 67673 NIL=
201403141500 AAXX 14154 67673 NIL=
201403141200 AAXX 14124 67673 NIL=
201403140900 AAXX 14094 67673 NIL=
201403140600 AAXX 14064 67673 NIL=
201403140300 AAXX 14034 67673 NIL=
201403140000 AAXX 14004 67673 NIL=
201403132100 AAXX 13214 67673 NIL=
201403131800 AAXX 13184 67673 NIL=
201403131200 AAXX 13124 67673 NIL=
201403130900 AAXX 13094 67673 NIL=
201403130600 AAXX 13064 67673 NIL=
201403121800 AAXX 12184 67673 NIL=
201403121200 AAXX 12124 67673 NIL=
201403120900 AAXX 12094 67673 NIL=
201403120600 AAXX 12064 67673 12580 30201 10235 20198 48555 60074 82131
                   333 10295 20188 58004 82825 83360 81080
                   555 00/// 20016=
201403120300 AAXX 12034 67673 NIL=
201403120000 AAXX 12004 67673 NIL=
201403112100 AAXX 11214 67673 NIL=
201403111800 AAXX 11184 67673 NIL=
201403111500 AAXX 11154 67673 NIL=
201403111200 AAXX 11124 67673 NIL=
201403110600 AAXX 11064 67673 12580 50000 10230 20193 48549 60164 81131
                   333 10287 20194 58020 81825 82360 85080=
201403102100 AAXX 10214 67673 NIL=
201403101800 AAXX 10184 67673 NIL=
201403101500 AAXX 10154 67673 NIL=
201403101200 AAXX 10124 67673 NIL=
201403100900 AAXX 10094 67673 NIL=
201403100600 AAXX 10064 67673 NIL=
201403100300 AAXX 10034 67673 NIL=
201403092100 AAXX 09214 67673 NIL=
201403091800 AAXX 09184 67673 NIL=
201403091500 AAXX 09154 67673 NIL=
201403091200 AAXX 09124 67673 NIL=
201403090900 AAXX 09094 67673 NIL=
201403090600 AAXX 09064 67673 NIL=
201403090300 AAXX 09034 67673 NIL=
201403090000 AAXX 09004 67673 NIL=
201403081800 AAXX 08184 67673 NIL=
201403081500 AAXX 08154 67673 NIL=
201403081200 AAXX 08124 67673 NIL=
201403080900 AAXX 08094 67673 NIL=
201403080600 AAXX 08064 67673 12580 40202 10230 20193 48547 69904 83131
                   333 10300 20192 59007 83828 84360 82080=
201403080300 AAXX 08034 67673 NIL=
201403080000 AAXX 08004 67673 NIL=
201403072100 AAXX 07214 67673 NIL=
201403071500 AAXX 07154 67673 NIL=
201403071200 AAXX 07124 67673 NIL=
201403070900 AAXX 07094 67673 42680 60502 10264 20191 48551 86200
                   333 58004 86832=
201403070600 AAXX 07064 67673 NIL=
201403061800 AAXX 06184 67673 NIL=
201403061500 AAXX 06154 67673 NIL=
201403061200 AAXX 06124 67673 NIL=
201403060900 AAXX 06094 67673 NIL=
201403060600 AAXX 06064 67673 12580 30901 10255 20196 48544 60024 82131
                   333 10292 20205 59011 82826 83360 81080
                   555 00/// 20007=
201403052100 AAXX 05214 67673 NIL=
201403051800 AAXX 05184 67673 NIL=
201403051500 AAXX 05154 67673 NIL=
201403051200 AAXX 05124 67673 NIL=
201403050900 AAXX 05094 67673 NIL=
201403050600 AAXX 05064 67673 NIL=
201403050300 AAXX 05034 67673 NIL=
201403050000 AAXX 05004 67673 NIL=
201403042100 AAXX 04214 67673 NIL=
201403041800 AAXX 04184 67673 NIL=
201403041500 AAXX 04154 67673 NIL=
201403041200 AAXX 04124 67673 NIL=
201403040900 AAXX 04094 67673 NIL=
201403040600 AAXX 04064 67673 NIL=
201403040300 AAXX 04034 67673 NIL=
201403040000 AAXX 04004 67673 NIL=
201403031800 AAXX 03184 67673 NIL=
201403031500 AAXX 03154 67673 NIL=
201403031200 AAXX 03124 67673 42680 63601 10300 20182 48526 86201
                   333 58006 86840 83080=
201403030900 AAXX 03094 67673 NIL=
201403030600 AAXX 03064 67673 NIL=
201403030300 AAXX 03034 67673 NIL=
201403030000 AAXX 03004 67673 NIL=
201403022100 AAXX 02214 67673 NIL=
201403021800 AAXX 02184 67673 NIL=
201403021500 AAXX 02154 67673 NIL=
201403021200 AAXX 02124 67673 NIL=
201403020900 AAXX 02094 67673 NIL=
201403020600 AAXX 02064 67673 NIL=
201403020300 AAXX 02034 67673 NIL=
201403020000 AAXX 02004 67673 NIL=
201403012100 AAXX 01214 67673 NIL=
201403011800 AAXX 01184 67673 NIL=
201403011500 AAXX 01154 67673 NIL=
201403011200 AAXX 01121 67673 NIL=
201403010900 AAXX 01094 67673 NIL=
201403010600 AAXX 01064 67673 NIL=

################################################################################
#  SYNOPS from 67731, Senanga (Zambia) | 16-06S | 023-16E | 1027 m
################################################################################
201403310300 AAXX 31034 67731 NIL=
201403310000 AAXX 31004 67731 NIL=
201403302100 AAXX 30214 67731 NIL=
201403301800 AAXX 30184 67731 NIL=
201403301500 AAXX 30154 67731 NIL=
201403301200 AAXX 30124 67731 NIL=
201403300900 AAXX 30094 67731 NIL=
201403300600 AAXX 30064 67731 NIL=
201403300000 AAXX 30004 67731 NIL=
201403292100 AAXX 29214 67731 NIL=
201403291800 AAXX 29184 67731 NIL=
201403291500 AAXX 29154 67731 NIL=
201403291200 AAXX 29124 67731 NIL=
201403290900 AAXX 29094 67731 NIL=
201403290600 AAXX 29064 67731 NIL=
201403290000 AAXX 29004 67731 NIL=
201403282100 AAXX 28214 67731 NIL=
201403281800 AAXX 28184 67731 NIL=
201403281500 AAXX 28154 67731 NIL=
201403281200 AAXX 28124 67731 NIL=
201403280900 AAXX 28094 67731 NIL=
201403280600 AAXX 28064 67731 NIL=
201403280300 AAXX 28034 67731 NIL=
201403280000 AAXX 28004 67731 NIL=
201403272100 AAXX 27214 67731 NIL=
201403271500 AAXX 27154 67731 NIL=
201403271200 AAXX 27124 67731 NIL=
201403270900 AAXX 27094 67731 NIL=
201403270600 AAXX 27064 67731 NIL=
201403270300 AAXX 27034 67731 NIL=
201403270000 AAXX 27004 67731 NIL=
201403262100 AAXX 26214 67731 NIL=
201403261500 AAXX 26154 67731 NIL=
201403261200 AAXX 26124 67731 NIL=
201403260900 AAXX 26094 67731 NIL=
201403260600 AAXX 26064 67731 NIL=
201403260300 AAXX 26034 67731 NIL=
201403260000 AAXX 26004 67731 NIL=
201403252100 AAXX 25214 67731 NIL=
201403251800 AAXX 25184 67731 NIL=
201403251500 AAXX 25154 67731 NIL=
201403251200 AAXX 25124 67731 NIL=
201403250900 AAXX 25094 67731 NIL=
201403250600 AAXX 25064 67731 NIL=
201403241800 AAXX 24184 67731 NIL=
201403241500 AAXX 24154 67731 NIL=
201403241200 AAXX 24124 67731 NIL=
201403240900 AAXX 24094 67731 NIL=
201403240600 AAXX 24064 67731 12980 010// 10243 20146 48/// 69954
                   333 10305 20186 5////=
201403240300 AAXX 24034 67731 NIL=
201403240000 AAXX 24004 67731 NIL=
201403232100 AAXX 23214 67731 NIL=
201403231800 AAXX 23184 67731 NIL=
201403231500 AAXX 23154 67731 NIL=
201403231200 AAXX 23124 67731 NIL=
201403230600 AAXX 23064 67731 NIL=
201403230300 AAXX 23034 67731 NIL=
201403230000 AAXX 23004 67731 NIL=
201403222100 AAXX 22214 67731 NIL=
201403221800 AAXX 22184 67731 NIL=
201403221500 AAXX 22154 67731 NIL=
201403221200 AAXX 22124 67731 NIL=
201403220900 AAXX 22094 67731 NIL=
201403220600 AAXX 22064 67731 NIL=
201403220300 AAXX 22034 67731 NIL=
201403220000 AAXX 22004 67731 NIL=
201403212100 AAXX 21214 67731 NIL=
201403211800 AAXX 21184 67731 NIL=
201403211200 AAXX 21124 67731 NIL=
201403210900 AAXX 21094 67731 NIL=
201403210600 AAXX 21064 67731 12880 506// 10240 20196 48/// 60074 83018
                   333 10307 20196 5//// 83460 82275=
201403210300 AAXX 21034 67731 NIL=
201403210000 AAXX 21004 67731 NIL=
201403202100 AAXX 20214 67731 NIL=
201403201800 AAXX 20184 67731 NIL=
201403201500 AAXX 20154 67731 NIL=
201403201200 AAXX 20124 67731 NIL=
201403200900 AAXX 20094 67731 NIL=
201403200600 AAXX 20064 67731 NIL=
201403200300 AAXX 20034 67731 NIL=
201403200000 AAXX 20004 67731 NIL=
201403192100 AAXX 19214 67731 NIL=
201403191800 AAXX 19184 67731 NIL=
201403191200 AAXX 19124 67731 NIL=
201403190900 AAXX 19094 67731 NIL=
201403190600 AAXX 19064 67731 NIL=
201403181800 AAXX 18184 67731 NIL=
201403181500 AAXX 18154 67731 NIL=
201403181200 AAXX 18124 67731 NIL=
201403180900 AAXX 18094 67731 NIL=
201403180600 AAXX 18064 67731 NIL=
201403180000 AAXX 18004 67731 NIL=
201403172100 AAXX 17214 67731 NIL=
201403171800 AAXX 17184 67731 NIL=
201403171500 AAXX 17154 67731 NIL=
201403171200 AAXX 17124 67731 NIL=
201403170900 AAXX 17094 67731 NIL=
201403170600 AAXX 17064 67731 NIL=
201403161200 AAXX 16124 67731 NIL=
201403160900 AAXX 16094 67731 NIL=
201403160600 AAXX 16064 67731 NIL=
201403160300 AAXX 16034 67731 NIL=
201403160000 AAXX 16004 67731 NIL=
201403152100 AAXX 15214 67731 NIL=
201403151800 AAXX 15184 67731 NIL=
201403151500 AAXX 15154 67731 NIL=
201403151200 AAXX 15124 67731 NIL=
201403150900 AAXX 15094 67731 NIL=
201403150600 AAXX 15064 67731 NIL=
201403150300 AAXX 15034 67731 NIL=
201403141800 AAXX 14184 67731 NIL=
201403141500 AAXX 14154 67731 NIL=
201403141200 AAXX 14124 67731 NIL=
201403140900 AAXX 14094 67731 NIL=
201403140600 AAXX 14064 67731 11/10 918// 10195 20190 48/// 60284 76366
                   333 10295 20195 5////=
201403140300 AAXX 14034 67731 NIL=
201403140000 AAXX 14004 67731 NIL=
201403132100 AAXX 13214 67731 NIL=
201403131800 AAXX 13184 67731 NIL=
201403131200 AAXX 13124 67731 NIL=
201403130900 AAXX 13094 67731 NIL=
201403130600 AAXX 13064 67731 12580 718// 10205 20192 48///
                   333 10232 20194 5//// 83625 83460 81075
                   555 00/// 20000=
201403121800 AAXX 12184 67731 NIL=
201403121200 AAXX 12124 67731 NIL=
201403120900 AAXX 12094 67731 NIL=
201403120600 AAXX 12064 67731 31450 818// 10209 20185 48/// 75022 8557/
                   333 10245 20205 5//// 85618 83460
                   555 00/// 20000=
201403120300 AAXX 12034 67731 NIL=
201403120000 AAXX 12004 67731 NIL=
201403112100 AAXX 11214 67731 NIL=
201403111800 AAXX 11184 67731 NIL=
201403111500 AAXX 11154 67731 NIL=
201403111200 AAXX 11124 67731 NIL=
201403110600 AAXX 11064 67731 32580 818// 10228 20197 48/// 8357/
                   333 10295 20215 5//// 83625 85460=
201403102100 AAXX 10214 67731 NIL=
201403101800 AAXX 10184 67731 NIL=
201403101500 AAXX 10154 67731 NIL=
201403101200 AAXX 10124 67731 NIL=
201403100900 AAXX 10094 67731 NIL=
201403100600 AAXX 10064 67731 12580 810// 10220 20203 48/// 69954 8357/
                   333 10292 20202 5//// 83623 85460=
201403100300 AAXX 10034 67731 NIL=
201403092100 AAXX 09214 67731 NIL=
201403091800 AAXX 09184 67731 NIL=
201403091500 AAXX 09154 67731 NIL=
201403091200 AAXX 09124 67731 NIL=
201403090900 AAXX 09094 67731 NIL=
201403090600 AAXX 09064 67731 NIL=
201403090300 AAXX 09034 67731 NIL=
201403090000 AAXX 09004 67731 NIL=
201403081800 AAXX 08184 67731 NIL=
201403081500 AAXX 08154 67731 NIL=
201403081200 AAXX 08124 67731 NIL=
201403080900 AAXX 08094 67731 NIL=
201403080600 AAXX 08064 67731 NIL=
201403080300 AAXX 08034 67731 NIL=
201403080000 AAXX 08004 67731 NIL=
201403072100 AAXX 07214 67731 NIL=
201403071500 AAXX 07154 67731 NIL=
201403071200 AAXX 07124 67731 NIL=
201403070900 AAXX 07094 67731 NIL=
201403070600 AAXX 07064 67731 12480 81211 10217 20194 48/// 60394 8457/
                   333 10295 20196 555 84612 88460=
201403061800 AAXX 06184 67731 NIL=
201403061500 AAXX 06154 67731 NIL=
201403061200 AAXX 06124 67731 NIL=
201403060900 AAXX 06094 67731 NIL=
201403060600 AAXX 06064 67731 42680 502// 10235 20193 48/// 8217/
                   333 10280 20205 5//// 82830 83460=
201403052100 AAXX 05214 67731 NIL=
201403051800 AAXX 05184 67731 NIL=
201403051500 AAXX 05154 67731 NIL=
201403051200 AAXX 05124 67731 NIL=
201403050900 AAXX 05094 67731 NIL=
201403050600 AAXX 05064 67731 12680 710// 10240 20197 48/// 69964 82511
                   333 10300 20213 5//// 82630 83460 82075=
201403050300 AAXX 05034 67731 NIL=
201403050000 AAXX 05004 67731 NIL=
201403042100 AAXX 04214 67731 NIL=
201403041800 AAXX 04184 67731 NIL=
201403041500 AAXX 04154 67731 NIL=
201403041200 AAXX 04124 67731 NIL=
201403040900 AAXX 04094 67731 NIL=
201403040600 AAXX 04064 67731 12880 708// 10221 20199 48/// 60084 85011
                   333 10251 20195 5//// 85460 82075=
201403040300 AAXX 04034 67731 NIL=
201403040000 AAXX 04004 67731 NIL=
201403031800 AAXX 03184 67731 NIL=
201403031500 AAXX 03154 67731 NIL=
201403031200 AAXX 03124 67731 NIL=
201403030900 AAXX 03094 67731 NIL=
201403030600 AAXX 03064 67731 11470 818// 10215 20191 48/// 69914 75055 8197/
                   333 10282 20215 5//// 81920 84622 84859=
201403030300 AAXX 03034 67731 NIL=
201403030000 AAXX 03004 67731 NIL=
201403022100 AAXX 02214 67731 NIL=
201403021800 AAXX 02184 67731 NIL=
201403021500 AAXX 02154 67731 NIL=
201403021200 AAXX 02124 67731 NIL=
201403020900 AAXX 02094 67731 NIL=
201403020600 AAXX 02064 67731 NIL=
201403020300 AAXX 02034 67731 NIL=
201403020000 AAXX 02004 67731 NIL=
201403012100 AAXX 01214 67731 NIL=
201403011800 AAXX 01184 67731 NIL=
201403011500 AAXX 01154 67731 NIL=
201403011200 AAXX 01121 67731 NIL=
201403010900 AAXX 01094 67731 NIL=
201403010600 AAXX 01064 67731 NIL=

################################################################################
#  SYNOPS from 67741, Sesheke (Zambia) | 17-28S | 024-18E | 949 m
################################################################################
201403310300 AAXX 31034 67741 NIL=
201403310000 AAXX 31004 67741 NIL=
201403302100 AAXX 30214 67741 NIL=
201403301800 AAXX 30184 67741 NIL=
201403301500 AAXX 30154 67741 NIL=
201403301200 AAXX 30124 67741 NIL=
201403300900 AAXX 30094 67741 NIL=
201403300600 AAXX 30064 67741 NIL=
201403300000 AAXX 30004 67741 NIL=
201403292100 AAXX 29214 67741 NIL=
201403291800 AAXX 29184 67741 NIL=
201403291500 AAXX 29154 67741 NIL=
201403291200 AAXX 29124 67741 NIL=
201403290900 AAXX 29094 67741 NIL=
201403290600 AAXX 29064 67741 NIL=
201403290000 AAXX 29004 67741 NIL=
201403282100 AAXX 28214 67741 NIL=
201403281800 AAXX 28184 67741 NIL=
201403281500 AAXX 28154 67741 NIL=
201403281200 AAXX 28124 67741 NIL=
201403280900 AAXX 28094 67741 NIL=
201403280600 AAXX 28064 67741 NIL=
201403280300 AAXX 28034 67741 NIL=
201403280000 AAXX 28004 67741 NIL=
201403272100 AAXX 27214 67741 NIL=
201403271500 AAXX 27154 67741 NIL=
201403271200 AAXX 27124 67741 NIL=
201403270900 AAXX 27094 67741 NIL=
201403270600 AAXX 27064 67741 NIL=
201403270300 AAXX 27034 67741 NIL=
201403270000 AAXX 27004 67741 NIL=
201403262100 AAXX 26214 67741 NIL=
201403261500 AAXX 26154 67741 NIL=
201403261200 AAXX 26124 67741 NIL=
201403260900 AAXX 26094 67741 NIL=
201403260600 AAXX 26064 67741 NIL=
201403260300 AAXX 26034 67741 NIL=
201403260000 AAXX 26004 67741 NIL=
201403252100 AAXX 25214 67741 NIL=
201403251800 AAXX 25184 67741 NIL=
201403251500 AAXX 25154 67741 NIL=
201403251200 AAXX 25124 67741 NIL=
201403250900 AAXX 25094 67741 NIL=
201403250600 AAXX 25064 67741 NIL=
201403241800 AAXX 24184 67741 NIL=
201403241500 AAXX 24154 67741 NIL=
201403241200 AAXX 24124 67741 NIL=
201403240900 AAXX 24094 67741 NIL=
201403240600 AAXX 24064 67741 NIL=
201403240300 AAXX 24034 67741 NIL=
201403240000 AAXX 24004 67741 NIL=
201403232100 AAXX 23214 67741 NIL=
201403231800 AAXX 23184 67741 NIL=
201403231500 AAXX 23154 67741 NIL=
201403231200 AAXX 23124 67741 NIL=
201403230600 AAXX 23064 67741 NIL=
201403230300 AAXX 23034 67741 NIL=
201403230000 AAXX 23004 67741 NIL=
201403222100 AAXX 22214 67741 NIL=
201403221800 AAXX 22184 67741 NIL=
201403221500 AAXX 22154 67741 NIL=
201403221200 AAXX 22124 67741 NIL=
201403220900 AAXX 22094 67741 NIL=
201403220600 AAXX 22064 67741 NIL=
201403220300 AAXX 22034 67741 NIL=
201403220000 AAXX 22004 67741 NIL=
201403212100 AAXX 21214 67741 NIL=
201403211800 AAXX 21184 67741 NIL=
201403211200 AAXX 21124 67741 NIL=
201403210900 AAXX 21094 67741 NIL=
201403210600 AAXX 21064 67741 NIL=
201403210300 AAXX 21034 67741 NIL=
201403210000 AAXX 21004 67741 NIL=
201403202100 AAXX 20214 67741 NIL=
201403201800 AAXX 20184 67741 NIL=
201403201500 AAXX 20154 67741 NIL=
201403201200 AAXX 20124 67741 NIL=
201403200900 AAXX 20094 67741 NIL=
201403200600 AAXX 20064 67741 NIL=
201403200300 AAXX 20034 67741 NIL=
201403200000 AAXX 20004 67741 NIL=
201403192100 AAXX 19214 67741 NIL=
201403191800 AAXX 19184 67741 NIL=
201403191200 AAXX 19124 67741 NIL=
201403190900 AAXX 19094 67741 NIL=
201403190600 AAXX 19064 67741 NIL=
201403181800 AAXX 18184 67741 NIL=
201403181500 AAXX 18154 67741 NIL=
201403181200 AAXX 18124 67741 NIL=
201403180900 AAXX 18094 67741 NIL=
201403180600 AAXX 18064 67741 NIL=
201403180000 AAXX 18004 67741 NIL=
201403172100 AAXX 17214 67741 NIL=
201403171800 AAXX 17184 67741 NIL=
201403171500 AAXX 17154 67741 NIL=
201403171200 AAXX 17124 67741 NIL=
201403170900 AAXX 17094 67741 NIL=
201403170600 AAXX 17064 67741 NIL=
201403161200 AAXX 16124 67741 NIL=
201403160900 AAXX 16094 67741 NIL=
201403160600 AAXX 16064 67741 NIL=
201403160300 AAXX 16034 67741 NIL=
201403160000 AAXX 16004 67741 NIL=
201403152100 AAXX 15214 67741 NIL=
201403151800 AAXX 15184 67741 NIL=
201403151500 AAXX 15154 67741 NIL=
201403151200 AAXX 15124 67741 NIL=
201403150900 AAXX 15094 67741 NIL=
201403150600 AAXX 15064 67741 NIL=
201403150300 AAXX 15034 67741 NIL=
201403141800 AAXX 14184 67741 NIL=
201403141500 AAXX 14154 67741 NIL=
201403141200 AAXX 14124 67741 NIL=
201403140900 AAXX 14094 67741 42680 50902 10272 20206 48558 84232
                   333 58012 84845 81361 82080=
201403140600 AAXX 14064 67741 11680 70401 10214 20201 48536 60134 72162 87072
                   333 10298 20199 58010 87460 81080=
201403140300 AAXX 14034 67741 NIL=
201403140000 AAXX 14004 67741 NIL=
201403132100 AAXX 13214 67741 NIL=
201403131800 AAXX 13184 67741 NIL=
201403131200 AAXX 13124 67741 NIL=
201403130900 AAXX 13094 67741 NIL=
201403130600 AAXX 13064 67741 NIL=
201403121800 AAXX 12184 67741 NIL=
201403121200 AAXX 12124 67741 42680 73001 10223 20206 48491 82872
                   333 10278 20202 58018 81840 82640 86460 84080=
201403120900 AAXX 12094 67741 42680 70602 10253 20211 48516 85502
                   333 58000 85640 87080=
201403120600 AAXX 12064 67741 12980 60000 10208 20205 48508 60144 84042
                   333 10304 20196 59005 84362 86080
                   555 00/// 20013=
201403120300 AAXX 12034 67741 NIL=
201403120000 AAXX 12004 67741 NIL=
201403112100 AAXX 11214 67741 NIL=
201403111800 AAXX 11184 67741 NIL=
201403111500 AAXX 11154 67741 NIL=
201403111200 AAXX 11124 67741 NIL=
201403110900 AAXX 11094 67741 42680 63602 10274 20220 48519 81132
                   333 58000 81840 82362 84080=
201403110600 AAXX 11064 67741 12980 70000 10211 20202 48517 60134 87070
                   333 10287 20206 58012 87361=
201403102100 AAXX 10214 67741 NIL=
201403101800 AAXX 10184 67741 NIL=
201403101500 AAXX 10154 67741 NIL=
201403101200 AAXX 10124 67741 42680 70000 10263 20219 48488 84872
                   333 58004 83840 82645 84362 86080=
201403100900 AAXX 10094 67741 42680 70000 10233 20210 48512 8357/
                   333 59005 83635 87362=
201403100600 AAXX 10064 67741 12980 70902 10203 20199 48497 60484 8707/
                   333 10307 20192 59011 87460=
201403100300 AAXX 10034 67741 NIL=
201403092100 AAXX 09214 67741 NIL=
201403091800 AAXX 09184 67741 NIL=
201403091500 AAXX 09154 67741 NIL=
201403091200 AAXX 09124 67741 NIL=
201403090900 AAXX 09094 67741 NIL=
201403090600 AAXX 09064 67741 NIL=
201403090300 AAXX 09034 67741 NIL=
201403090000 AAXX 09004 67741 NIL=
201403081800 AAXX 08184 67741 NIL=
201403081500 AAXX 08154 67741 NIL=
201403081200 AAXX 08124 67741 NIL=
201403080900 AAXX 08094 67741 NIL=
201403080600 AAXX 08064 67741 NIL=
201403080300 AAXX 08034 67741 NIL=
201403080000 AAXX 08004 67741 NIL=
201403072100 AAXX 07214 67741 NIL=
201403071500 AAXX 07154 67741 NIL=
201403071200 AAXX 07124 67741 NIL=
201403070900 AAXX 07094 67741 41680 70804 10222 20203 48529 72162 8227/
                   333 58010 82830 87460=
201403070600 AAXX 07064 67741 12680 70901 10196 20192 48515 60274 8357/
                   333 10320 20188 59009 83630 87460=
201403061800 AAXX 06184 67741 NIL=
201403061500 AAXX 06154 67741 NIL=
201403061200 AAXX 06124 67741 NIL=
201403060900 AAXX 06094 67741 42680 50901 10269 20228 48529 85870
                   333 58001 83835 84640 82362=
201403060600 AAXX 06064 67741 11680 70000 10209 20199 48527 60064 79596 8497/
                   333 10308 20207 58011 81935 84638 87460=
201403052100 AAXX 05214 67741 NIL=
201403051800 AAXX 05184 67741 NIL=
201403051500 AAXX 05154 67741 NIL=
201403051200 AAXX 05124 67741 NIL=
201403050900 AAXX 05094 67741 NIL=
201403050600 AAXX 05064 67741 12680 70000 10218 20209 48519 60064 81970
                   333 10286 20208 58004 81930 87460=
201403050300 AAXX 05034 67741 NIL=
201403050000 AAXX 05004 67741 NIL=
201403042100 AAXX 04214 67741 NIL=
201403041800 AAXX 04184 67741 NIL=
201403041500 AAXX 04154 67741 NIL=
201403041200 AAXX 04124 67741 41680 50802 10222 20205 48500 71762 82970
                   333 59001 81950 82850 85460=
201403040900 AAXX 04094 67741 42680 50000 10283 20214 48521 84841
                   333 58002 84850 81650 82362 82080=
201403040600 AAXX 04064 67741 12680 20000 10232 20205 48512 60024 81241
                   333 10241 20198 58009 81850 82362 82080=
201403040300 AAXX 04034 67741 NIL=
201403040000 AAXX 04004 67741 NIL=
201403031800 AAXX 03184 67741 NIL=
201403031500 AAXX 03154 67741 NIL=
201403031200 AAXX 03124 67741 12670 70000 10223 20217 48500 79596 8657/
                   333 58024 81930 86630 87460=
201403030900 AAXX 03094 67741 41680 70000 10233 20216 48521 72162 8557/
                   333 58005 81930 85630 87460=
201403030600 AAXX 03064 67741 11680 70402 10208 20204 48508 60134 72196 8657/
                   333 10310 20208 58004 81930 86630 87460=
201403030300 AAXX 03034 67741 NIL=
201403030000 AAXX 03004 67741 NIL=
201403022100 AAXX 02214 67741 NIL=
201403021800 AAXX 02184 67741 NIL=
201403021500 AAXX 02154 67741 NIL=
201403021200 AAXX 02124 67741 NIL=
201403020900 AAXX 02094 67741 NIL=
201403020600 AAXX 02064 67741 NIL=
201403020300 AAXX 02034 67741 NIL=
201403020000 AAXX 02004 67741 NIL=
201403012100 AAXX 01214 67741 NIL=
201403011800 AAXX 01184 67741 NIL=
201403011500 AAXX 01154 67741 NIL=
201403011200 AAXX 01121 67741 NIL=
201403010900 AAXX 01094 67741 NIL=
201403010600 AAXX 01064 67741 NIL=

################################################################################
#  SYNOPS from 67743, Livingstone (Zambia) | 17-49S | 025-49E | 985 m
################################################################################
201403310300 AAXX 31034 67743 NIL=
201403310000 AAXX 31004 67743 NIL=
201403302100 AAXX 30214 67743 NIL=
201403301800 AAXX 30184 67743 NIL=
201403301500 AAXX 30154 67743 NIL=
201403301200 AAXX 30124 67743 NIL=
201403300900 AAXX 30094 67743 NIL=
201403300600 AAXX 30064 67743 NIL=
201403300000 AAXX 30004 67743 NIL=
201403292100 AAXX 29214 67743 NIL=
201403291800 AAXX 29184 67743 NIL=
201403291500 AAXX 29154 67743 NIL=
201403291200 AAXX 29124 67743 42580 41702 10305 20158 48522 83101
                   333 58007 83835 81080 91017=
201403290900 AAXX 29094 67743 NIL=
201403290600 AAXX 29064 67743 32480 11102 10201 20162 48528 81130
                   333 10265 20171 58004 81825 81360
                   555 91021=
201403290000 AAXX 29004 67743 NIL=
201403282100 AAXX 28214 67743 NIL=
201403281800 AAXX 28184 67743 NIL=
201403281500 AAXX 28154 67743 NIL=
201403281200 AAXX 28124 67743 NIL=
201403280900 AAXX 28094 67743 42680 30905 10270 20189 48545 83101
                   333 58017 83830 81080 91019=
201403280600 AAXX 28064 67743 32980 21005 10213 20158 48526 81031
                   333 10326 20175 58006 81360 82080
                   555 91018=
201403280300 AAXX 28034 67743 NIL=
201403280000 AAXX 28004 67743 NIL=
201403272100 AAXX 27214 67743 NIL=
201403271500 AAXX 27154 67743 NIL=
201403271200 AAXX 27124 67743 NIL=
201403270900 AAXX 27094 67743 NIL=
201403270600 AAXX 27064 67743 NIL=
201403270300 AAXX 27034 67743 NIL=
201403270000 AAXX 27004 67743 NIL=
201403262100 AAXX 26214 67743 NIL=
201403261500 AAXX 26154 67743 NIL=
201403261200 AAXX 26124 67743 42680 31103 10315 20200 48507 83100
                   333 59018 83845 91014=
201403260900 AAXX 26094 67743 42680 20605 10279 20204 48527 82100
                   333 59019 91017=
201403260600 AAXX 26064 67743 32980 10804 10221 20194 48520 81030
                   333 10320 20162 59019 81360
                   555 00/// 91018=
201403260300 AAXX 26034 67743 NIL=
201403260000 AAXX 26004 67743 NIL=
201403252100 AAXX 25214 67743 NIL=
201403251800 AAXX 25184 67743 NIL=
201403251500 AAXX 25154 67743 NIL=
201403251200 AAXX 25124 67743 NIL=
201403250900 AAXX 25094 67743 42580 10707 10270 20198 48546 81100
                   333 59008 81830 91019=
201403250600 AAXX 25064 67743 32980 11306 10212 20165 48538 81080
                   333 10300 20160 59009 81360
                   555 91020=
201403241800 AAXX 24184 67743 NIL=
201403241500 AAXX 24154 67743 NIL=
201403241200 AAXX 24124 67743 NIL=
201403240900 AAXX 24094 67743 NIL=
201403240600 AAXX 24064 67743 NIL=
201403240300 AAXX 24034 67743 NIL=
201403240000 AAXX 24004 67743 NIL=
201403232100 AAXX 23214 67743 NIL=
201403231800 AAXX 23184 67743 NIL=
201403231500 AAXX 23154 67743 42680 20909 10301 20196 48521 82120
                   333 59001 82840=
201403231200 AAXX 23124 67743 42680 41210 10302 20201 48529 83100
                   333 59006 84835 91017=
201403230900 AAXX 23094 67743 41670 11205 10274 20200 48550 70500 83100
                   333 59004 83830 91020=
201403230600 AAXX 23064 67743 12959 11006 10204 20180 48532 70500 81030
                   333 10305 20216 59002 81359
                   555 00/// 91020=
201403230300 AAXX 23034 67743 NIL=
201403230000 AAXX 23004 67743 NIL=
201403222100 AAXX 22214 67743 NIL=
201403221800 AAXX 22184 67743 NIL=
201403221500 AAXX 22154 67743 NIL=
201403221200 AAXX 22124 67743 42680 51008 10280 20175 48533 85200
                   333 58005 85835 91018=
201403220900 AAXX 22094 67743 42580 60811 10256 20179 48552 85231
                   333 58001 85820 81359 81080 91020=
201403220600 AAXX 22064 67743 12480 41108 10210 48541 69904 81131
                   333 10310 20175 58004 81818 81359 84080
                   555 00/// 91020=
201403220300 AAXX 22034 67743 NIL=
201403220000 AAXX 22004 67743 NIL=
201403212100 AAXX 21214 67743 NIL=
201403211800 AAXX 21184 67743 NIL=
201403211500 AAXX 21154 67743 41759 50906 10300 20200 48515 79512 83331
                   333 58010 81950 83850 82360 81080=
201403211200 AAXX 21124 67743 42680 40909 10296 20174 48523 82131
                   333 58014 82845 84360 81080 91017=
201403210900 AAXX 21094 67743 42680 40810 10280 20180 48557 81131
                   333 58017 81840 82360 81080=
201403210600 AAXX 21064 67743 32980 21601 10231 20178 48539 82031
                   333 10334 20184 58012 82360 81080
                   555 91020=
201403210300 AAXX 21034 67743 NIL=
201403210000 AAXX 21004 67743 NIL=
201403202100 AAXX 20214 67743 NIL=
201403201800 AAXX 20184 67743 NIL=
201403201500 AAXX 20154 67743 42780 41103 10299 20167 48507 70300 81278
                   333 58005 81856 81360 83270=
201403201200 AAXX 20124 67743 42780 21202 10333 20162 48523 70300 82202
                   333 82856 81080 91015=
201403200900 AAXX 20094 67743 NIL=
201403200600 AAXX 20064 67743 67743 32980 20000 48532 80001
                   333 10324 20180 59002 82080
                   555 91018=
201403200300 AAXX 20034 67743 NIL=
201403200000 AAXX 20004 67743 NIL=
201403192100 AAXX 19214 67743 NIL=
201403191800 AAXX 19184 67743 NIL=
201403191500 AAXX 19154 67743 42780 31205 10315 20163 48494 81201
                   333 59023 81850 82080=
201403191200 AAXX 19124 67743 NIL=
201403190900 AAXX 19094 67743 42580 30905 10293 20195 48543 83201
                   333 59005 83835 81080 91019=
201403190600 AAXX 19064 67743 32980 20704 10235 20198 48532 80001
                   333 10325 20179 59005 82080
                   555 00/// 91019=
201403181800 AAXX 18184 67743 NIL=
201403181500 AAXX 18154 67743 NIL=
201403181200 AAXX 18124 67743 NIL=
201403180900 AAXX 18094 67743 NIL=
201403180600 AAXX 18064 67743 NIL=
201403180000 AAXX 18004 67743 NIL=
201403172100 AAXX 17214 67743 NIL=
201403171800 AAXX 17184 67743 NIL=
201403171500 AAXX 17154 67743 42680 41206 10301 20202 48506 82231
                   333 59020 82845 82360 81080=
201403171200 AAXX 17124 67743 42680 40805 10304 20195 48527 84200
                   333 59010 84835 91017=
201403170900 AAXX 17094 67743 NIL=
201403170600 AAXX 17064 67743 NIL=
201403161200 AAXX 16124 67743 NIL=
201403160900 AAXX 16094 67743 NIL=
201403160600 AAXX 16064 67743 NIL=
201403160300 AAXX 16034 67743 NIL=
201403160000 AAXX 16004 67743 NIL=
201403152100 AAXX 15214 67743 NIL=
201403151800 AAXX 15184 67743 NIL=
201403151500 AAXX 15154 67743 NIL=
201403151200 AAXX 15124 67743 NIL=
201403150900 AAXX 15094 67743 NIL=
201403150600 AAXX 15064 67743 NIL=
201403150300 AAXX 15034 67743 NIL=
201403141800 AAXX 14184 67743 NIL=
201403141500 AAXX 14154 67743 NIL=
201403141200 AAXX 14124 67743 NIL=
201403140900 AAXX 14094 67743 NIL=
201403140600 AAXX 14064 67743 NIL=
201403140300 AAXX 14034 67743 NIL=
201403140000 AAXX 14004 67743 NIL=
201403132100 AAXX 13214 67743 NIL=
201403131800 AAXX 13184 67743 NIL=
201403131200 AAXX 13124 67743 NIL=
201403130900 AAXX 13094 67743 NIL=
201403130600 AAXX 13064 67743 NIL=
201403121800 AAXX 12184 67743 NIL=
201403121200 AAXX 12124 67743 NIL=
201403120900 AAXX 12094 67743 NIL=
201403120600 AAXX 12064 67743 NIL=
201403120300 AAXX 12034 67743 NIL=
201403120000 AAXX 12004 67743 NIL=
201403112100 AAXX 11214 67743 NIL=
201403111800 AAXX 11184 67743 NIL=
201403111500 AAXX 11154 67743 41459 61113 10252 20221 48484 72992 81301
                   333 59002 81920 83820 85080=
201403111200 AAXX 11124 67743 42680 60608 10293 20194 48499 70122 84101
                   333 58007 84840 84080 91014=
201403110900 AAXX 11094 67743 42580 63610 10260 20203 48525 70122 83631
                   333 58005 83725 84359 81080 91017=
201403110600 AAXX 11064 67743 12380 71102 10209 20204 48519 69914 70222 8166/
                   333 10251 70194 81706 87359
                   555 00/// 91018=
201403102100 AAXX 10214 67743 NIL=
201403101800 AAXX 10184 67743 NIL=
201403101500 AAXX 10154 67743 41980 71205 10226 20203 48481 72999 81268
                   333 59012 81850 81360 87279=
201403101200 AAXX 10124 67743 41680 62907 10290 20212 71722 83231
                   333 59010 81930 83830 84359 83080 91013=
201403100900 AAXX 10094 67743 42580 10265 20208 48523 83831
                   333 59005 83620 81825 84359 86080 91017=
201403100600 AAXX 10064 67743 12980 60904 10205 20197 48509 60404 85031
                   333 10300 20185 59014 85359 83080
                   555 00/// 91017=
201403100300 AAXX 10034 67743 NIL=
201403092100 AAXX 09214 67743 NIL=
201403091800 AAXX 09184 67743 NIL=
201403091500 AAXX 09154 67743 42780 61202 10285 20222 48479 83231
                   333 58023 83856 85360 82080=
201403091200 AAXX 09124 67743 42680 50905 10280 20206 48500 82230
                   333 59009 82835 85360
                   555 91014=
201403090900 AAXX 09094 67743 42680 70806 10236 20205 48520 8114/
                   333 59009 81830 86459=
201403090600 AAXX 09064 67743 12480 80405 10194 20186 48519 60554 76063 8123/
                   333 10314 20184 59002 81815 87615 81360
                   555 00/// 91018=
201403090300 AAXX 09034 67743 NIL=
201403090000 AAXX 09004 67743 NIL=
201403081800 AAXX 08184 67743 NIL=
201403081500 AAXX 08154 67743 41680 71203 10218 20204 48490 72992 81931
                   333 58000 81940 87840 81360=
201403081200 AAXX 08124 67743 42680 50806 10300 20206 48510 85230
                   333 59015 85840 81360 91015=
201403080900 AAXX 08094 67743 42580 40709 10282 20204 48536 84130
                   333 59009 84825 81360 91018=
201403080600 AAXX 08064 67743 12480 50906 10214 20207 48524 60084 70222 81530
                   333 10310 20189 59006 81610 85359
                   555 91018=
201403080300 AAXX 08034 67743 NIL=
201403080000 AAXX 08004 67743 NIL=
201403072100 AAXX 07214 67743 NIL=
201403071500 AAXX 07154 67743 42480 61206 10248 20204 48497 70222 83831
                   333 58010 83618 82825 84359 85080=
201403071200 AAXX 07124 67743 NIL=
201403070900 AAXX 07094 67743 41459 80000 10195 20192 48530 76062 8457/
                   333 58012 84615=
201403070600 AAXX 07064 67743 11470 81504 10185 20177 48526 60144 76166 8157/
                   333 10310 20180 59003 81615 88359
                   555 00/// 91019=
201403061800 AAXX 06184 67743 NIL=
201403061500 AAXX 06154 67743 42680 21007 10296 20201 48494 81101
                   333 59014 81840 81080=
201403061200 AAXX 06124 67743 42680 41104 10274 20214 48513 83130
                   333 58003 83840 81360
                   555 91015=
201403060900 AAXX 06094 67743 NIL=
201403060600 AAXX 06064 67743 12580 70807 10205 20197 48533 8653/
                   333 10296 20184 58013 86618 83360
                   555 91019=
201403052100 AAXX 05214 67743 NIL=
201403051800 AAXX 05184 67743 NIL=
201403051500 AAXX 05154 67743 41680 70503 10248 20204 48501 75052 81292
                   333 58004 81840 81359 86070=
201403051200 AAXX 05124 67743 41460 51205 10209 20204 48499 72962 81371
                   333 58007 81920 83820 81358 82080 91015=
201403050900 AAXX 05094 67743 NIL=
201403050600 AAXX 05064 67743 12980 51303 10234 20205 48524 69914 70200 82071
                   333 10252 20188 58004 82360 84080
                   555 91018=
201403050300 AAXX 05034 67743 NIL=
201403050000 AAXX 05004 67743 NIL=
201403042100 AAXX 04214 67743 NIL=
201403041800 AAXX 04184 67743 NIL=
201403041500 AAXX 04154 67743 41780 71007 10220 20205 48492 72196 822//
                   333 59014 82850 81360 87279=
201403041200 AAXX 04124 67743 42480 61805 10280 20216 48505 72582 82331
                   333 58004 81925 82825 82389 84080 91014=
201403040900 AAXX 04094 67743 42480 50202 10280 20224 48527 83231
                   333 58002 83825 84359 81080 91017=
201403040600 AAXX 04064 67743 11910 52002 10197 20170 48515 60144 74222 83631
                   333 10290 20180 58012 83705 83359 82080
                   555 91017=
201403040300 AAXX 04034 67743 NIL=
201403040000 AAXX 04004 67743 NIL=
201403031800 AAXX 03184 67743 NIL=
201403031500 AAXX 03154 67743 NIL=
201403031200 AAXX 03124 67743 41580 81806 10265 20230 48497 71722 819//
                   333 58002 81920 87460
                   555 91014=
201403030900 AAXX 03094 67743 42480 82603 10235 20213 48520 885//
                   333 58002 88618=
201403030600 AAXX 03064 67743 12580 81504 10215 20207 48507 60024 70242 8753/
                   333 10294 20200 59005 87620 84360
                   555 00/// 910165=
201403030300 AAXX 03034 67743 NIL=
201403030000 AAXX 03004 67743 NIL=
201403022100 AAXX 02214 67743 NIL=
201403021800 AAXX 02184 67743 NIL=
201403021500 AAXX 02154 67743 42680 70000 10248 20216 48486 8113/
                   333 58011 81830 87360=
201403021200 AAXX 02124 67743 NIL=
201403020900 AAXX 02094 67743 42480 62703 10251 20227 48518 8153/
                   333 58009 81618 86359 91017=
201403020600 AAXX 02064 67743 12480 82702 10211 20206 48510 60074 8457/
                   333 10300 20197 58008 84615 88459
                   555 00/// 91017=
201403020300 AAXX 02034 67743 NIL=
201403020000 AAXX 02004 67743 NIL=
201403012100 AAXX 01214 67743 NIL=
201403011800 AAXX 01184 67743 NIL=
201403011500 AAXX 01154 67743 42580 62009 10290 20195 48494 70222 83831
                   333 58008 82630 81835 82359 85080=
201403011200 AAXX 01124 67743 42580 63606 10275 20194 70222
                   333 59001 83830 81359 85080 91013=
201403010900 AAXX 01094 67743 42580 73106 10264 20194 70222 83832
                   333 59003 83620 81359 86080 91016=
201403010600 AAXX 01064 67743 NIL=

################################################################################
#  SYNOPS from 67751, Magoye (Zambia) | 16-00S | 027-36E | 1018 m
################################################################################
201403310300 AAXX 31034 67751 NIL=
201403310000 AAXX 31004 67751 NIL=
201403302100 AAXX 30214 67751 NIL=
201403301800 AAXX 30184 67751 NIL=
201403301500 AAXX 30154 67751 NIL=
201403301200 AAXX 30124 67751 NIL=
201403300900 AAXX 30094 67751 NIL=
201403300600 AAXX 30064 67751 NIL=
201403300000 AAXX 30004 67751 NIL=
201403292100 AAXX 29214 67751 NIL=
201403291800 AAXX 29184 67751 NIL=
201403291500 AAXX 29154 67751 NIL=
201403291200 AAXX 29124 67751 NIL=
201403290900 AAXX 29094 67751 NIL=
201403290600 AAXX 29064 67751 NIL=
201403290000 AAXX 29004 67751 NIL=
201403282100 AAXX 28214 67751 NIL=
201403281800 AAXX 28184 67751 NIL=
201403281500 AAXX 28154 67751 NIL=
201403281200 AAXX 28124 67751 NIL=
201403280900 AAXX 28094 67751 NIL=
201403280600 AAXX 28064 67751 NIL=
201403280300 AAXX 28034 67751 NIL=
201403280000 AAXX 28004 67751 NIL=
201403272100 AAXX 27214 67751 NIL=
201403271500 AAXX 27154 67751 NIL=
201403271200 AAXX 27124 67751 NIL=
201403270900 AAXX 27094 67751 NIL=
201403270600 AAXX 27064 67751 NIL=
201403270300 AAXX 27034 67751 NIL=
201403270000 AAXX 27004 67751 NIL=
201403262100 AAXX 26214 67751 NIL=
201403261500 AAXX 26154 67751 NIL=
201403261200 AAXX 26124 67751 NIL=
201403260900 AAXX 26094 67751 NIL=
201403260600 AAXX 26064 67751 NIL=
201403260300 AAXX 26034 67751 NIL=
201403260000 AAXX 26004 67751 NIL=
201403252100 AAXX 25214 67751 NIL=
201403251800 AAXX 25184 67751 NIL=
201403251500 AAXX 25154 67751 NIL=
201403251200 AAXX 25124 67751 NIL=
201403250900 AAXX 25094 67751 NIL=
201403250600 AAXX 25064 67751 NIL=
201403241800 AAXX 24184 67751 NIL=
201403241500 AAXX 24154 67751 NIL=
201403241200 AAXX 24124 67751 NIL=
201403240900 AAXX 24094 67751 NIL=
201403240600 AAXX 24064 67751 NIL=
201403240300 AAXX 24034 67751 NIL=
201403240000 AAXX 24004 67751 NIL=
201403232100 AAXX 23214 67751 NIL=
201403231800 AAXX 23184 67751 NIL=
201403231500 AAXX 23154 67751 NIL=
201403231200 AAXX 23124 67751 NIL=
201403230600 AAXX 23064 67751 NIL=
201403230300 AAXX 23034 67751 NIL=
201403230000 AAXX 23004 67751 NIL=
201403222100 AAXX 22214 67751 NIL=
201403221800 AAXX 22184 67751 NIL=
201403221500 AAXX 22154 67751 NIL=
201403221200 AAXX 22124 67751 NIL=
201403220900 AAXX 22094 67751 NIL=
201403220600 AAXX 22064 67751 NIL=
201403220300 AAXX 22034 67751 NIL=
201403220000 AAXX 22004 67751 NIL=
201403212100 AAXX 21214 67751 NIL=
201403211800 AAXX 21184 67751 NIL=
201403211200 AAXX 21124 67751 NIL=
201403210900 AAXX 21094 67751 NIL=
201403210600 AAXX 21064 67751 NIL=
201403210300 AAXX 21034 67751 NIL=
201403210000 AAXX 21004 67751 NIL=
201403202100 AAXX 20214 67751 NIL=
201403201800 AAXX 20184 67751 NIL=
201403201500 AAXX 20154 67751 NIL=
201403201200 AAXX 20124 67751 NIL=
201403200900 AAXX 20094 67751 NIL=
201403200600 AAXX 20064 67751 NIL=
201403200300 AAXX 20034 67751 NIL=
201403200000 AAXX 20004 67751 NIL=
201403192100 AAXX 19214 67751 NIL=
201403191800 AAXX 19184 67751 NIL=
201403191200 AAXX 19124 67751 NIL=
201403190900 AAXX 19094 67751 NIL=
201403190600 AAXX 19064 67751 NIL=
201403181800 AAXX 18184 67751 NIL=
201403181500 AAXX 18154 67751 NIL=
201403181200 AAXX 18124 67751 NIL=
201403180900 AAXX 18094 67751 NIL=
201403180600 AAXX 18064 67751 NIL=
201403180000 AAXX 18004 67751 NIL=
201403172100 AAXX 17214 67751 NIL=
201403171800 AAXX 17184 67751 NIL=
201403171500 AAXX 17154 67751 NIL=
201403171200 AAXX 17124 67751 NIL=
201403170900 AAXX 17094 67751 NIL=
201403170600 AAXX 17064 67751 NIL=
201403161200 AAXX 16124 67751 NIL=
201403160900 AAXX 16094 67751 NIL=
201403160600 AAXX 16064 67751 NIL=
201403160300 AAXX 16034 67751 NIL=
201403160000 AAXX 16004 67751 NIL=
201403152100 AAXX 15214 67751 NIL=
201403151800 AAXX 15184 67751 NIL=
201403151500 AAXX 15154 67751 NIL=
201403151200 AAXX 15124 67751 NIL=
201403150900 AAXX 15094 67751 NIL=
201403150600 AAXX 15064 67751 NIL=
201403150300 AAXX 15034 67751 NIL=
201403141800 AAXX 14184 67751 NIL=
201403141500 AAXX 14154 67751 NIL=
201403141200 AAXX 14124 67751 NIL=
201403140900 AAXX 14094 67751 NIL=
201403140600 AAXX 14064 67751 NIL=
201403140300 AAXX 14034 67751 NIL=
201403140000 AAXX 14004 67751 NIL=
201403132100 AAXX 13214 67751 NIL=
201403131800 AAXX 13184 67751 NIL=
201403131200 AAXX 13124 67751 NIL=
201403130900 AAXX 13094 67751 NIL=
201403130600 AAXX 13064 67751 NIL=
201403121800 AAXX 12184 67751 NIL=
201403121200 AAXX 12124 67751 NIL=
201403120900 AAXX 12094 67751 NIL=
201403120600 AAXX 12064 67751 NIL=
201403120300 AAXX 12034 67751 NIL=
201403120000 AAXX 12004 67751 NIL=
201403112100 AAXX 11214 67751 NIL=
201403111800 AAXX 11184 67751 NIL=
201403111500 AAXX 11154 67751 NIL=
201403111200 AAXX 11124 67751 NIL=
201403110600 AAXX 11064 67751 NIL=
201403102100 AAXX 10214 67751 NIL=
201403101800 AAXX 10184 67751 NIL=
201403101500 AAXX 10154 67751 NIL=
201403101200 AAXX 10124 67751 NIL=
201403100900 AAXX 10094 67751 NIL=
201403100600 AAXX 10064 67751 NIL=
201403100300 AAXX 10034 67751 NIL=
201403092100 AAXX 09214 67751 NIL=
201403091800 AAXX 09184 67751 NIL=
201403091500 AAXX 09154 67751 NIL=
201403091200 AAXX 09124 67751 NIL=
201403090900 AAXX 09094 67751 NIL=
201403090600 AAXX 09064 67751 NIL=
201403090300 AAXX 09034 67751 NIL=
201403090000 AAXX 09004 67751 NIL=
201403081800 AAXX 08184 67751 NIL=
201403081500 AAXX 08154 67751 NIL=
201403081200 AAXX 08124 67751 NIL=
201403080900 AAXX 08094 67751 NIL=
201403080600 AAXX 08064 67751 NIL=
201403080300 AAXX 08034 67751 NIL=
201403080000 AAXX 08004 67751 NIL=
201403072100 AAXX 07214 67751 NIL=
201403071500 AAXX 07154 67751 NIL=
201403071200 AAXX 07124 67751 NIL=
201403070900 AAXX 07094 67751 NIL=
201403070600 AAXX 07064 67751 NIL=
201403061800 AAXX 06184 67751 NIL=
201403061500 AAXX 06154 67751 NIL=
201403061200 AAXX 06124 67751 NIL=
201403060900 AAXX 06094 67751 NIL=
201403060600 AAXX 06064 67751 NIL=
201403052100 AAXX 05214 67751 NIL=
201403051800 AAXX 05184 67751 NIL=
201403051500 AAXX 05154 67751 NIL=
201403051200 AAXX 05124 67751 NIL=
201403050900 AAXX 05094 67751 NIL=
201403050600 AAXX 05064 67751 NIL=
201403050300 AAXX 05034 67751 NIL=
201403050000 AAXX 05004 67751 NIL=
201403042100 AAXX 04214 67751 NIL=
201403041800 AAXX 04184 67751 NIL=
201403041500 AAXX 04154 67751 NIL=
201403041200 AAXX 04124 67751 NIL=
201403040900 AAXX 04094 67751 NIL=
201403040600 AAXX 04064 67751 NIL=
201403040300 AAXX 04034 67751 NIL=
201403040000 AAXX 04004 67751 NIL=
201403031800 AAXX 03184 67751 NIL=
201403031500 AAXX 03154 67751 NIL=
201403031200 AAXX 03124 67751 NIL=
201403030900 AAXX 03094 67751 NIL=
201403030600 AAXX 03064 67751 NIL=
201403030300 AAXX 03034 67751 NIL=
201403030000 AAXX 03004 67751 NIL=
201403022100 AAXX 02214 67751 NIL=
201403021800 AAXX 02184 67751 NIL=
201403021500 AAXX 02154 67751 NIL=
201403021200 AAXX 02124 67751 NIL=
201403020900 AAXX 02094 67751 NIL=
201403020600 AAXX 02064 67751 NIL=
201403020300 AAXX 02034 67751 NIL=
201403020000 AAXX 02004 67751 NIL=
201403012100 AAXX 01214 67751 NIL=
201403011800 AAXX 01184 67751 NIL=
201403011500 AAXX 01154 67751 NIL=
201403011200 AAXX 01121 67751 NIL=
201403010900 AAXX 01094 67751 NIL=
201403010600 AAXX 01064 67751 NIL=

################################################################################
#  SYNOPS from 67753, Choma (Zambia) | 16-50S | 027-04E | 1213 m
################################################################################
201403310300 AAXX 31034 67753 NIL=
201403310000 AAXX 31004 67753 NIL=
201403302100 AAXX 30214 67753 NIL=
201403301800 AAXX 30184 67753 NIL=
201403301500 AAXX 30154 67753 NIL=
201403301200 AAXX 30124 67753 NIL=
201403300900 AAXX 30094 67753 NIL=
201403300600 AAXX 30064 67753 NIL=
201403300000 AAXX 30004 67753 NIL=
201403292100 AAXX 29214 67753 NIL=
201403291800 AAXX 29184 67753 NIL=
201403291500 AAXX 29154 67753 NIL=
201403291200 AAXX 29124 67753 NIL=
201403290900 AAXX 29094 67753 NIL=
201403290600 AAXX 29064 67753 NIL=
201403290000 AAXX 29004 67753 NIL=
201403282100 AAXX 28214 67753 NIL=
201403281800 AAXX 28184 67753 NIL=
201403281500 AAXX 28154 67753 NIL=
201403281200 AAXX 28124 67753 NIL=
201403280900 AAXX 28094 67753 NIL=
201403280600 AAXX 28064 67753 32560 60614 10209 20197 48530 84832
                   333 10291 20163 58/// 83620 81825 81360 81080=
201403280300 AAXX 28034 67753 NIL=
201403280000 AAXX 28004 67753 NIL=
201403272100 AAXX 27214 67753 NIL=
201403271500 AAXX 27154 67753 NIL=
201403271200 AAXX 27124 67753 NIL=
201403270900 AAXX 27094 67753 NIL=
201403270600 AAXX 27064 67753 12560 13510 10220 20195 48522 60114 81170
                   333 10285 20210 58054 81820 81360=
201403270300 AAXX 27034 67753 NIL=
201403270000 AAXX 27004 67753 NIL=
201403262100 AAXX 26214 67753 NIL=
201403261500 AAXX 26154 67753 NIL=
201403261200 AAXX 26124 67753 NIL=
201403260900 AAXX 26094 67753 NIL=
201403260600 AAXX 26064 67753 32560 30910 10209 20196 48521 82830
                   333 10285 20159 59/// 81620 81825 81360=
201403260300 AAXX 26034 67753 NIL=
201403260000 AAXX 26004 67753 NIL=
201403252100 AAXX 25214 67753 NIL=
201403251800 AAXX 25184 67753 NIL=
201403251500 AAXX 25154 67753 NIL=
201403251200 AAXX 25124 67753 NIL=
201403250900 AAXX 25094 67753 NIL=
201403250600 AAXX 25064 67753 32560 31010 10214 20175 48540 83800
                   333 10275 20155 58052 81620 82825=
201403241800 AAXX 24184 67753 NIL=
201403241500 AAXX 24154 67753 NIL=
201403241200 AAXX 24124 67753 NIL=
201403240900 AAXX 24094 67753 NIL=
201403240600 AAXX 24064 67753 32560 10908 10211 20192 48540 81100
                   333 10286 20155 58073 81825=
201403240300 AAXX 24034 67753 NIL=
201403240000 AAXX 24004 67753 NIL=
201403232100 AAXX 23214 67753 NIL=
201403231800 AAXX 23184 67753 NIL=
201403231500 AAXX 23154 67753 NIL=
201403231200 AAXX 23124 67753 NIL=
201403230600 AAXX 23064 67753 NIL=
201403230300 AAXX 23034 67753 NIL=
201403230000 AAXX 23004 67753 NIL=
201403222100 AAXX 22214 67753 NIL=
201403221800 AAXX 22184 67753 NIL=
201403221500 AAXX 22154 67753 NIL=
201403221200 AAXX 22124 67753 NIL=
201403220900 AAXX 22094 67753 NIL=
201403220600 AAXX 22064 67753 NIL=
201403220300 AAXX 22034 67753 NIL=
201403220000 AAXX 22004 67753 NIL=
201403212100 AAXX 21214 67753 NIL=
201403211800 AAXX 21184 67753 NIL=
201403211200 AAXX 21124 67753 NIL=
201403210900 AAXX 21094 67753 NIL=
201403210600 AAXX 21064 67753 11560 70000 10172 20171 48/// 60054 76096 8453/
                   333 10302 20164 5//// 84620 83360=
201403210300 AAXX 21034 67753 NIL=
201403210000 AAXX 21004 67753 NIL=
201403202100 AAXX 20214 67753 NIL=
201403201800 AAXX 20184 67753 NIL=
201403201500 AAXX 20154 67753 NIL=
201403201200 AAXX 20124 67753 NIL=
201403200900 AAXX 20094 67753 NIL=
201403200600 AAXX 20064 67753 32960 10906 10228 20194 48/// 81041
                   333 10298 20146 59057 81360 81080=
201403200300 AAXX 20034 67753 NIL=
201403200000 AAXX 20004 67753 NIL=
201403192100 AAXX 19214 67753 NIL=
201403191800 AAXX 19184 67753 NIL=
201403191200 AAXX 19124 67753 NIL=
201403190900 AAXX 19094 67753 NIL=
201403190600 AAXX 19064 67753 32560 20607 10229 20192 48/// 81130
                   333 10295 20154 59023 81825 81360=
201403181800 AAXX 18184 67753 NIL=
201403181500 AAXX 18154 67753 NIL=
201403181200 AAXX 18124 67753 NIL=
201403180900 AAXX 18094 67753 NIL=
201403180600 AAXX 18064 67753 32560 10813 10214 20195 48/// 81140
                   333 10290 20154 59043 81820 81360=
201403180000 AAXX 18004 67753 NIL=
201403172100 AAXX 17214 67753 NIL=
201403171800 AAXX 17184 67753 NIL=
201403171500 AAXX 17154 67753 NIL=
201403171200 AAXX 17124 67753 NIL=
201403170900 AAXX 17094 67753 NIL=
201403170600 AAXX 17064 67753 32560 40610 10216 20201 48/// 84500
                   333 10284 20161 58093 84620=
201403161200 AAXX 16124 67753 NIL=
201403160900 AAXX 16094 67753 NIL=
201403160600 AAXX 16064 67753 NIL=
201403160300 AAXX 16034 67753 NIL=
201403160000 AAXX 16004 67753 NIL=
201403152100 AAXX 15214 67753 NIL=
201403151800 AAXX 15184 67753 NIL=
201403151500 AAXX 15154 67753 NIL=
201403151200 AAXX 15124 67753 NIL=
201403150900 AAXX 15094 67753 NIL=
201403150600 AAXX 15064 67753 NIL=
201403150300 AAXX 15034 67753 NIL=
201403141800 AAXX 14184 67753 NIL=
201403141500 AAXX 14154 67753 NIL=
201403141200 AAXX 14124 67753 NIL=
201403140900 AAXX 14094 67753 NIL=
201403140600 AAXX 14064 67753 32560 80713 10193 20175 48/// 8557/
                   333 10284 20173 58020 84620 81825 82360
                   555 00///=
201403140300 AAXX 14034 67753 NIL=
201403140000 AAXX 14004 67753 NIL=
201403132100 AAXX 13214 67753 NIL=
201403131800 AAXX 13184 67753 NIL=
201403131200 AAXX 13124 67753 NIL=
201403130900 AAXX 13094 67753 NIL=
201403130600 AAXX 13064 67753 12560 12814 10214 20185 48/// 69904 81102
                   333 10274 20170 58035 81825 81080
                   555 00///=
201403121800 AAXX 12184 67753 NIL=
201403121200 AAXX 12124 67753 NIL=
201403120900 AAXX 12094 67753 NIL=
201403120600 AAXX 12064 67753 NIL=
201403120300 AAXX 12034 67753 NIL=
201403120000 AAXX 12004 67753 NIL=
201403112100 AAXX 11214 67753 NIL=
201403111800 AAXX 11184 67753 NIL=
201403111500 AAXX 11154 67753 NIL=
201403111200 AAXX 11124 67753 NIL=
201403110600 AAXX 11064 67753 12560 53624 10210 20186 48/// 60064 83832
                   333 10266 20174 5//// 82620 81825 81360 81080=
201403102100 AAXX 10214 67753 NIL=
201403101800 AAXX 10184 67753 NIL=
201403101500 AAXX 10154 67753 NIL=
201403101200 AAXX 10124 67753 NIL=
201403100900 AAXX 10094 67753 NIL=
201403100600 AAXX 10064 67753 12560 40916 10223 20204 48/// 60054 82830
                   333 10273 20175 5//// 82620 81825 82360=
201403100300 AAXX 10034 67753 NIL=
201403092100 AAXX 09214 67753 NIL=
201403091800 AAXX 09184 67753 NIL=
201403091500 AAXX 09154 67753 NIL=
201403091200 AAXX 09124 67753 NIL=
201403090900 AAXX 09094 67753 NIL=
201403090600 AAXX 09064 67753 NIL=
201403090300 AAXX 09034 67753 NIL=
201403090000 AAXX 09004 67753 NIL=
201403081800 AAXX 08184 67753 NIL=
201403081500 AAXX 08154 67753 NIL=
201403081200 AAXX 08124 67753 NIL=
201403080900 AAXX 08094 67753 NIL=
201403080600 AAXX 08064 67753 NIL=
201403080300 AAXX 08034 67753 NIL=
201403080000 AAXX 08004 67753 NIL=
201403072100 AAXX 07214 67753 NIL=
201403071500 AAXX 07154 67753 NIL=
201403071200 AAXX 07124 67753 NIL=
201403070900 AAXX 07094 67753 NIL=
201403070600 AAXX 07064 67753 32560 70611 10204 20194 48/// 84808
                   333 10274 20180 5//// 83620 81825 83280=
201403061800 AAXX 06184 67753 NIL=
201403061500 AAXX 06154 67753 NIL=
201403061200 AAXX 06124 67753 NIL=
201403060900 AAXX 06094 67753 NIL=
201403060600 AAXX 06064 67753 11560 82501 10181 20181 48/// 60054 76062 8287/
                   333 10290 20178 5//// 81620 81825 86360=
201403052100 AAXX 05214 67753 NIL=
201403051800 AAXX 05184 67753 NIL=
201403051500 AAXX 05154 67753 NIL=
201403051200 AAXX 05124 67753 NIL=
201403050900 AAXX 05094 67753 NIL=
201403050600 AAXX 05064 67753 32560 40603 10219 20204 48/// 82831
                   333 10295 20170 58017 81620 81825 81360 81080=
201403050300 AAXX 05034 67753 NIL=
201403050000 AAXX 05004 67753 NIL=
201403042100 AAXX 04214 67753 NIL=
201403041800 AAXX 04184 67753 NIL=
201403041500 AAXX 04154 67753 NIL=
201403041200 AAXX 04124 67753 NIL=
201403040900 AAXX 04094 67753 NIL=
201403040600 AAXX 04064 67753 12560 60407 10202 20194 48/// 69904 81132
                   333 10268 20186 58032 81825 83360 82080=
201403040300 AAXX 04034 67753 NIL=
201403040000 AAXX 04004 67753 NIL=
201403031800 AAXX 03184 67753 NIL=
201403031500 AAXX 03154 67753 NIL=
201403031200 AAXX 03124 67753 NIL=
201403030900 AAXX 03094 67753 NIL=
201403030600 AAXX 03064 67753 11560 83513 10195 20185 48/// 60024 76022 8783/
                   333 10285 20188 5//// 86620 81825 81360=
201403030300 AAXX 03034 67753 NIL=
201403030000 AAXX 03004 67753 NIL=
201403022100 AAXX 02214 67753 NIL=
201403021800 AAXX 02184 67753 NIL=
201403021500 AAXX 02154 67753 NIL=
201403021200 AAXX 02124 67753 NIL=
201403020900 AAXX 02094 67753 NIL=
201403020600 AAXX 02064 67753 NIL=
201403020300 AAXX 02034 67753 NIL=
201403020000 AAXX 02004 67753 NIL=
201403012100 AAXX 01214 67753 NIL=
201403011800 AAXX 01184 67753 NIL=
201403011500 AAXX 01154 67753 NIL=
201403011200 AAXX 01121 67753 NIL=
201403010900 AAXX 01094 67753 NIL=
201403010600 AAXX 01064 67753 NIL=

################################################################################
#  SYNOPS from 67855, Lupaki (Zambia) | 17-03-00S | 024-46-00E | 1000 m
################################################################################
201403301200 AAXX 30124 67855 NIL=
201403300600 AAXX 30064 67855 NIL=
201403290600 AAXX 29064 67855 12975 21303 10190 20155 3//// 4//// 69904 82080
                   333 20160 5//// 82360=
201403281800 AAXX 28184 67855 NIL=
201403280600 AAXX 28064 67855 31670 10105 10204 20159 3//// 48/// 70500 81531
                   333 20163 5//// 81630=
201403271800 AAXX 27184 67855 NIL=
201403271200 AAXX 27124 67855 41770 31802 10308 20170 3//// 48/// 70500 83200
                   333 5//// 83850=
201403270600 AAXX 27064 67855 31970 00000 10182 20151 3//// 48/// 70500
                   333 20143 5////=
201403261200 AAXX 26124 67855 42775 51902 10302 20161 3//// 48/// 85200
                   333 5//// 85850=
201403260600 AAXX 26064 67855 NIL=
201403251200 AAXX 25124 67855 NIL=
201403250600 AAXX 25064 67855 32975 00704 10200 20170 3//// 48///
                   333 20165 5////=
201403241200 AAXX 24124 67855 42775 41101 10286 20184 3//// 48/// 84130
                   333 5//// 84850=
201403240600 AAXX 24064 67855 31970 01402 10190 20170 3//// 48/// 70500
                   333 20160 5////=
201403231200 AAXX 23124 67855 NIL=
201403230600 AAXX 23064 67855 32975 20901 10194 20164 3//// 48/// 82030
                   333 20166 5//// 82360=
201403221800 AAXX 22184 67855 NIL=
201403221200 AAXX 22124 67855 NIL=
201403220600 AAXX 22064 67855 12975 30603 10198 20174 38/// 48/// 60074 81031
                   333 20175 5//// 81360 83080=
201403211200 AAXX 21124 67855 42675 70801 10290 20193 3//// 48/// 81232
                   333 5//// 81845 87080=
201403210600 AAXX 21064 67855 31370 60602 10208 20198 38/// 48/// 70522 86532
                   333 20178 5//// 86630=
201403201200 AAXX 20124 67855 42775 30101 10338 20158 38/// 48/// 83131
                   333 5//// 83850=
201403200600 AAXX 20064 67855 31970 10000 10198 20188 3//// 48/// 70500 81031
                   333 20173 5//// 81360=
201403191200 AAXX 19124 67855 42775 32701 10310 20164 3//// 48/// 83100
                   333 5//// 83850=
201403190600 AAXX 19064 67855 31970 11401 10190 20166 38/// 48/// 70500 80001
                   333 20152 5//// 81080=
201403181800 AAXX 18184 67855 NIL=
201403181200 AAXX 18124 67855 NIL=
201403180600 AAXX 18064 67855 12975 10301 10204 20190 3//// 48/// 69904 80001
                   333 20174 5//// 81080=
201403171200 AAXX 17124 67855 42675 50301 10308 20126 3//// 48/// 85200
                   333 5//// 85850=
201403170600 AAXX 17064 67855 11975 10301 10195 20190 38/// 48/// 60184 70140 81030
                   333 20172 5//// 81360=
201403161800 AAXX 16184 67855 NIL=
201403161200 AAXX 16124 67855 NIL=
201403160600 AAXX 16064 67855 11975 60302 10224 20200 3//// 48/// 69904 70162 85070
                   333 20200 5//// 85459=
201403151800 AAXX 15184 67855 NIL=
201403151200 AAXX 15124 67855 NIL=
201403150600 AAXX 15064 67855 32375 10602 10190 20168 38/// 48/// 81630
                   333 20163 5//// 81707=
201403141200 AAXX 14124 67855 42775 53302 10282 20218 38/// 48/// 85231
                   333 5//// 85850=
201403140600 AAXX 14064 67855 12375 70302 10182 20176 3//// 48/// 60044 876//
                   333 20165 5//// 87707=
201403131200 AAXX 13124 67855 41670 73601 10232 20221 3//// 48/// 78098 85233
                   333 5//// 81925 84830 87080=
201403130600 AAXX 13064 67855 32975 50000 10212 20198 3//// 48/// 69904 80002
                   333 20185 5//// 85080=
201403121800 AAXX 12184 67855 NIL=
201403121200 AAXX 12124 67855 42775 63605 10308 20216 3//// 48/// 86201
                   333 5//// 86850=
201403120600 AAXX 12064 67855 12975 53401 10212 20206 3//// 48/// 60084 80001
                   333 20186 5//// 85080=
201403111200 AAXX 11124 67855 42675 63602 10280 20203 3//// 48/// 84231
                   333 5//// 84845 86080=
201403110600 AAXX 11064 67855 12375 70601 10224 20211 38/// 48/// 60114 81631
                   333 20183 5//// 81707 83360 87080=
201403101200 AAXX 10124 67855 41775 50601 10298 20195 38/// 48/// 70182 85231
                   333 5//// 85850=
201403100600 AAXX 10064 67855 11570 73601 10216 20210 3//// 48/// 60074 78098 8427/
                   333 20205 5//// 84825 87458=
201403091200 AAXX 09124 67855 NIL=
201403090600 AAXX 09064 67855 32575 60603 10226 20189 38/// 48/// 81581
                   333 20195 5//// 81625 86080=
201403081200 AAXX 08124 67855 42775 53602 10310 20193 38/// 48/// 85231
                   333 5//// 85850=
201403080600 AAXX 08064 67855 12975 20603 10218 20195 3//// 48/// 69904 82031
                   333 20192 5//// 82360=
201403071200 AAXX 07124 67855 41670 63305 10292 20195 3//// 48/// 71798 84233
                   333 5//// 81925 83830 86080=
201403070600 AAXX 07064 67855 NIL=
201403061800 AAXX 06184 67855 NIL=
201403061200 AAXX 06124 67855 41670 70603 10290 20204 3//// 48/// 71792 84273
                   333 5//// 81925 83830=
201403060600 AAXX 06064 67855 11670 60000 10206 20200 38/// 48/// 60584 75095 83531
                   333 20190 5//// 83630 86360=
201403051200 AAXX 05124 67855 42775 53104 10316 20211 3//// 48/// 85201
                   333 5//// 85850=
201403050600 AAXX 05064 67855 12975 33303 10216 20201 3//// 48/// 60014 83031
                   333 20189 5//// 83360=
201403041800 AAXX 04184 67855 NIL=
201403041200 AAXX 04124 67855 41670 73603 10274 20203 3//// 48/// 71798 85233
                   333 5//// 81925 84830 87080=
201403040600 AAXX 04064 67855 12975 30901 10208 20203 3//// 48/// 60064 83031
                   333 20194 5//// 83360=
201403031200 AAXX 03124 67855 42675 73502 10276 20204 38/// 48/// 8557/
                   333 5//// 85640 87459=
201403030600 AAXX 03064 67855 12575 70303 10222 20205 3//// 48/// 60354 8153/
                   333 20208 5//// 81625 87360=
201403021800 AAXX 02184 67855 NIL=
201403021200 AAXX 02124 67855 NIL=
201403020600 AAXX 02064 67855 12975 70000 10210 20203 3//// 48/// 69904 8707/
                   333 20203 5//// 87459=
201403011800 AAXX 01184 67855 NIL=
201403011200 AAXX 01124 67855 41670 73102 10254 20214 3//// 48/// 71798 84273
                   333 5//// 81925 83830 87459=
201403010600 AAXX 01064 67855 12675 63602 10224 20210 3//// 48/// 69904 84532
                   333 20202 5//// 84630 86080=
