################################################################################
# Query made at 04/10/2022 06:19:53 UTC
# Country like Zamb*
# Time interval: from 11/30/2021 23:30  to 12/31/2021 23:30  UTC
################################################################################

################################################################################
#  SYNOPS from 67403, Kawambwa (Zambia) | 09-48S | 029-05E | 1323 m
################################################################################
202112311200 AAXX 31124 67403 NIL=
202112300900 AAXX 30094 67403 NIL=
202112300600 AAXX 30064 67403 NIL=
202112291200 AAXX 29124 67403 NIL=
202112290600 AAXX 29064 67403 NIL=
202112281500 AAXX 28154 67403 NIL=
202112281200 AAXX 28124 67403 NIL=
202112271200 AAXX 27124 67403 NIL=
202112270900 AAXX 27094 67403 NIL=
202112260900 AAXX 26094 67403 NIL=
202112240900 AAXX 24094 67403 NIL=
202112231500 AAXX 23154 67403 NIL=
202112230900 AAXX 23094 67403 NIL=
202112220900 AAXX 22094 67403 NIL=
202112211500 AAXX 21154 67403 NIL=
202112211200 AAXX 21124 67403 NIL=
202112171500 AAXX 17154 67403 NIL=
202112171200 AAXX 17124 67403 NIL=
202112141200 AAXX 14124 67403 NIL=
202112131200 AAXX 13124 67403 NIL=
202112130900 AAXX 13094 67403 NIL=
202112120900 AAXX 12094 67403 NIL=
202112101500 AAXX 10154 67403 NIL=
202112100600 AAXX 10064 67403 31975 30901 10227 20187 48514 70520 82081
                   333 10300 20177 59008 82360 82080=
202112091500 AAXX 09154 67403 41975 62701 10266 20163 48488 70522 82031
                   333 5//// 82360 86080
                   555 10300=
202112091200 AAXX 09124 67403 NIL=
202112090900 AAXX 09094 67403 NIL=
202112090600 AAXX 09064 67403 11975 62701 10215 20185 48521 60014 70522 86030
                   333 10328 20183 58002 86360
                   555 00/// 20000=
202112061200 AAXX 06124 67403 NIL=
202112060900 AAXX 06094 67403 NIL=
202112050900 AAXX 05094 67403 NIL=
202112050600 AAXX 05064 67403 31975 40901 10236 20182 48512 70522 84030
                   333 10324 20186 5//// 84360
                   555 00/// 20000=
202112031500 AAXX 03154 67403 NIL=
202112031200 AAXX 03124 67403 NIL=
202112020900 AAXX 02094 67403 NIL=
202112010900 AAXX 01094 67403 41675 52701 10243 20203 48511 70522 85201
                   333 58004 85840 83080=

################################################################################
#  SYNOPS from 67413, Mbala (Zambia) | 08-51S | 031-20E | 1673 m
################################################################################
202112311200 AAXX 31124 67413 NIL=
202112300900 AAXX 30094 67413 NIL=
202112300600 AAXX 30064 67413 31980 33605 10228 20144 48522 70222 80001
                   333 10276 20154 59017 83080
                   555 00274 10224=
202112291200 AAXX 29124 67413 NIL=
202112290600 AAXX 29064 67413 31980 33606 10220 20119 48540 70222 80001
                   333 10304 20156 59003 83080
                   555 00260 10245=
202112281500 AAXX 28154 67413 NIL=
202112281200 AAXX 28124 67413 NIL=
202112271200 AAXX 27124 67413 NIL=
202112270900 AAXX 27094 67413 NIL=
202112260900 AAXX 26094 67413 NIL=
202112240900 AAXX 24094 67413 NIL=
202112231500 AAXX 23154 67413 NIL=
202112230900 AAXX 23094 67413 NIL=
202112220900 AAXX 22094 67413 NIL=
202112220600 AAXX 22064 67413 11980 70206 10202 20159 48540 60014 70222 8707/
                   333 10262 20161 59001 87359
                   555 00208 91024=
202112211500 AAXX 21154 67413 NIL=
202112211200 AAXX 21124 67413 NIL=
202112171500 AAXX 17154 67413 NIL=
202112171200 AAXX 17124 67413 NIL=
202112150600 AAXX 15064 67413 12980 30000 10212 20148 48520 60184 70200 80011
                   333 10254 20154 59005 84080
                   555 00245 10220=
202112141200 AAXX 14124 67413 NIL=
202112131200 AAXX 13124 67413 NIL=
202112130900 AAXX 13094 67413 NIL=
202112120900 AAXX 12094 67413 NIL=
202112101500 AAXX 10154 67413 NIL=
202112100600 AAXX 10064 67413 31880 43602 10210 20149 48531 8403/
                   333 10260 20180 59010 84358=
202112091500 AAXX 09154 67413 NIL=
202112091200 AAXX 09124 67413 NIL=
202112090900 AAXX 09094 67413 NIL=
202112090600 AAXX 09064 67413 11880 70704 10205 20156 48541 60054 70222 8703/
                   333 10302 20162 58003 87357
                   555 00220 91024=
202112080600 AAXX 08064 67413 32980 70906 10214 48538 70222 82031
                   333 10281 20170 58000 82359 85080
                   555 00224 91024=
202112061200 AAXX 06124 67413 NIL=
202112060900 AAXX 06094 67413 NIL=
202112050900 AAXX 05094 67413 NIL=
202112031500 AAXX 03154 67413 NIL=
202112031200 AAXX 03124 67413 NIL=
202112020900 AAXX 02094 67413 NIL=
202112010900 AAXX 01094 67413 NIL=

################################################################################
#  SYNOPS from 67441, Mwinilunga (Zambia) | 11-45S | 024-26E | 1361 m
################################################################################
202112311200 AAXX 31124 67441 41580 80000 10215 20098 48555 72166 885//
                   333 58000 86730=
202112310900 AAXX 31094 67441 41380 60000 10195 20170 48575 70522 86700
                   333 58026 86710=
202112310600 AAXX 31064 67441 11375 70000 10175 20170 48509 60244 70522 877//
                   333 10300 20151 58019 87710
                   555 00/// 20024=
202112300900 AAXX 30094 67441 41680 51103 10260 20183 48542 70533 83130
                   333 59011 83850 83360=
202112300600 AAXX 30064 67441 NIL=
202112291200 AAXX 29124 67441 42680 50903 10300 20170 48526 84230
                   333 5//// 84850 83360=
202112290600 AAXX 29064 67441 11980 50903 10184 20161 48549 60264 70522 85030
                   333 10310 20150 58011 86360
                   555 00/// 20000=
202112281500 AAXX 28154 67441 NIL=
202112281200 AAXX 28124 67441 NIL=
202112280600 AAXX 28064 67441 32980 40000 10210 20175 48557 80001
                   333 10305 20153 5//// 84080
                   555 00///=
202112271200 AAXX 27124 67441 NIL=
202112270900 AAXX 27094 67441 NIL=
202112260900 AAXX 26094 67441 NIL=
202112240900 AAXX 24094 67441 NIL=
202112231500 AAXX 23154 67441 NIL=
202112230900 AAXX 23094 67441 NIL=
202112220900 AAXX 22094 67441 NIL=
202112211500 AAXX 21154 67441 NIL=
202112211200 AAXX 21124 67441 41680 60000 10201 20181 48537 71796 83230
                   333 58017 81950 83850 86360=
202112171500 AAXX 17154 67441 NIL=
202112171200 AAXX 17124 67441 NIL=
202112160600 AAXX 16064 67441 12980 70000 10194 20184 48526 60094 8703/
                   333 10295 20141 59006 87360
                   555 00/// 20006=
202112141200 AAXX 14124 67441 NIL=
202112131200 AAXX 13124 67441 NIL=
202112130900 AAXX 13094 67441 NIL=
202112120900 AAXX 12094 67441 NIL=
202112101500 AAXX 10154 67441 NIL=
202112091500 AAXX 09154 67441 NIL=
202112091200 AAXX 09124 67441 NIL=
202112090900 AAXX 09094 67441 NIL=
202112090600 AAXX 09064 67441 NIL=
202112070900 AAXX 07094 67441 41680 50902 10250 20172 48556 70533 84101
                   333 58009 84850 83080=
202112061200 AAXX 06124 67441 NIL=
202112060900 AAXX 06094 67441 NIL=
202112060600 AAXX 06064 67441 12980 30000 10200 48557 60114 83030
                   333 10235 20152 58010 83360
                   555 00/// 20000=
202112050900 AAXX 05094 67441 42680 50000 10264 20181 48552 85201
                   333 58004 85850 81080=
202112050600 AAXX 05064 67441 31980 43003 10230 20179 48553 70511 80007
                   333 10311 20158 58008 84275
                   555 00/// 20032=
202112031500 AAXX 03154 67441 NIL=
202112031200 AAXX 03124 67441 NIL=
202112020900 AAXX 02094 67441 41680 40000 10295 20179 48/// 70500 81102
                   333 5//// 81835 82080=
202112020600 AAXX 02064 67441 11980 60000 10200 20165 48/// 60074 70522 86030
                   333 10267 20152 5//// 86360
                   555 00/// 20003=
202112010900 AAXX 01094 67441 NIL=
202112010600 AAXX 01064 67441 11480 50903 10185 20179 48545 60034 70522 82730
                   333 10310 20150 59007 83715 84360
                   555 00/// 200012=

################################################################################
#  SYNOPS from 67461, Mansa (Zambia) | 11-06S | 028-51E | 1382 m
################################################################################
202112311200 AAXX 31124 67461 NIL=
202112310600 AAXX 31064 67461 12980 72703 10195 20188 48508 60114 8703/
                   333 10322 20168 58017 87360
                   555 00/// 20998 91017=
202112300900 AAXX 30094 67461 42780 10810 10290 20152 48510 81231
                   333 5//// 81850 81360 91017=
202112300600 AAXX 30064 67461 12580 31311 10230 20169 48490 69984 81130
                   333 10334 20172 59017 81812 83360
                   555 00/// 20000 91015=
202112291200 AAXX 29124 67461 NIL=
202112290600 AAXX 29064 67461 32980 22605 10230 20185 48508 80001
                   333 10328 20159 58000 82080
                   555 00/// 20000 91017=
202112281500 AAXX 28154 67461 NIL=
202112281200 AAXX 28124 67461 NIL=
202112271200 AAXX 27124 67461 NIL=
202112270900 AAXX 27094 67461 NIL=
202112260900 AAXX 26094 67461 42780 70812 10285 20163 48496 81138
                   333 59002 81850 81360 86280 91016=
202112260600 AAXX 26064 67461 32980 71306 10225 20179 48497 81038
                   333 10295 20159 59002 81360 87280
                   555 00/// 20017 91016=
202112240900 AAXX 24094 67461 NIL=
202112231500 AAXX 23154 67461 42680 71009 10290 20169 48456 81208
                   333 59012 81845 87280
                   555 10300 91011=
202112230900 AAXX 23094 67461 42680 71510 10270 20189 48497 83131
                   333 59013 81830 84360 82080 91016=
202112230600 AAXX 23064 67461 12380 71306 10205 20190 48510 69974 8467/
                   333 10290 20165 59006 84706 87360
                   555 00/// 20012 91017=
202112220900 AAXX 22094 67461 NIL=
202112220600 AAXX 22064 67461 12370 81206 10185 20178 48517 60124 76122 8667/
                   333 10300 20162 59018 86703 88460 91018=
202112211500 AAXX 21154 67461 NIL=
202112211200 AAXX 21124 67461 42680 60805 10284 20194 48498 81330
                   333 58001 81940 84840 83360 91015=
202112210900 AAXX 21094 67461 42580 71506 10253 20197 48532 8423/
                   333 58002 84822 85360 91019=
202112171500 AAXX 17154 67461 42580 71602 10240 20185 48498 8197/
                   333 58035 81935 83835 87460
                   555 10254 91016=
202112171200 AAXX 17124 67461 41580 70202 10227 20197 48509 79196 8197/
                   333 58035 81935 84835 87460 91017=
202112161200 AAXX 16124 67461 42780 52903 10313 20169 48481 85200
                   333 58010 85850 91013=
202112160600 AAXX 16064 67461 32980 40802 10248 20172 48505 80001
                   333 10321 20160 59001 84080
                   555 00/// 91016=
202112151200 AAXX 15124 67461 42780 53004 10318 20149 48471 81300
                   333 59007 81956 85856 91012=
202112141200 AAXX 14124 67461 42780 72802 10308 20152 48477 8130/
                   333 59003 81950 86850 91013=
202112131200 AAXX 13124 67461 41780 70410 10330 20155 48478 81930
                   333 58020 81956 85856 81360 91013=
202112130900 AAXX 13094 67461 42780 20211 10295 20150 48477 82101
                   333 59001 81856 81080 91013=
202112121200 AAXX 12124 67461 42880 50810 10330 20134 48458 81330
                   333 58002 81957 84857 81360 91011=
202112120900 AAXX 12094 67461 42780 11311 10300 20154 48485 81100
                   333 58000 81856 91013=
202112120600 AAXX 12064 67461 32680 10813 10249 20148 48479 81130
                   333 10339 20179 58000 81838 81360
                   555 00/// 91014=
202112101500 AAXX 10154 67461 NIL=
202112100900 AAXX 10094 67461 42680 31005 10296 20174 48478 82201
                   333 59041 82848 81080 91014=
202112100600 AAXX 10064 67461 12980 12203 10240 20171 48497 69904 80001
                   333 10310 20152 59027 81080 91016=
202112091500 AAXX 09154 67461 42780 52206 10284 20184 48491 81930
                   333 59002 81956 82856 83360
                   555 10310 91015=
202112091200 AAXX 09124 67461 41780 71305 10308 20142 48496 71799 8193/
                   333 59005 81956 85856 83360 91015=
202112090900 AAXX 09094 67461 42780 51805 10298 20160 48527 85200
                   333 59003 85856 91019=
202112090600 AAXX 09064 67461 32980 23002 10252 20184 48520 81031
                   333 10332 20174 58003 81360 82080
                   555 00/// 91019=
202112080900 AAXX 08094 67461 42780 11305 10293 20140 48530 81201
                   333 58000 81850 81080 91019=
202112070900 AAXX 07094 67461 42780 70803 10289 20166 48529 87200
                   333 58033 87850 91019=
202112061200 AAXX 06124 67461 42880 71608 10317 20160 48498 87200
                   333 58006 87857 91015=
202112060900 AAXX 06094 67461 42780 42212 10299 20160 48522 84200
                   333 58001 84850 91018=
202112051200 AAXX 05124 67461 42780 71313 10310 20150 48492 87200
                   333 58009 87856 91015=
202112050900 AAXX 05094 67461 42780 12305 10304 20163 48522 81100
                   333 58018 81850 91018=
202112050600 AAXX 05064 67461 32980 01505 10260 20155 48510
                   333 10330 20169 59009
                   555 00/// 91017=
202112031500 AAXX 03154 67461 42780 21211 10300 20144 48469 81201
                   333 58009 81858 81080
                   555 10321 91012=
202112031200 AAXX 03124 67461 42780 41211 10315 20137 48490 84200
                   333 59011 84858 91013=
202112030600 AAXX 03064 67461 12480 11204 10230 20188 48509 69904 81101
                   333 10320 20158 58000 81816 81080
                   555 00/// 91017=
202112020900 AAXX 02094 67461 41680 61203 10285 20171 48495 71792 81931
                   333 59014 81945 84848 83360 81080 91016=
202112020600 AAXX 02064 67461 32980 42002 10232 20171 48509 81031
                   333 10302 20155 58001 81360 83080
                   555 00/// 91017=
202112010900 AAXX 01094 67461 42680 71705 10286 20175 48526 86201
                   333 58030 86847 83080 91017=

################################################################################
#  SYNOPS from 67469, Samfya (Zambia) | 11-22S | 029-54E | 1171 m
################################################################################
202112311200 AAXX 31124 67469 NIL=
202112300900 AAXX 30094 67469 NIL=
202112300600 AAXX 30064 67469 32980 10804 10255 20180 48/// 81030
                   333 10307 20209 5//// 81360
                   555 00/// 20990=
202112291200 AAXX 29124 67469 42680 41003 10287 20200 48/// 84202
                   333 5//// 84830 81280=
202112290600 AAXX 29064 67469 32980 10603 10261 20200 48/// 81030
                   333 10302 20198 5//// 81360
                   555 00/// 20990=
202112281500 AAXX 28154 67469 42980 20303 10299 20160 48/// 82030
                   333 5//// 82360 555 10302=
202112281200 AAXX 28124 67469 42680 41104 10295 20180 48/// 84231
                   333 5//// 84841 82360 81080=
202112280600 AAXX 28064 67469 32980 21008 10258 20200 48/// 82030
                   333 10306 20210 5//// 82360
                   555 00/// 20990=
202112271200 AAXX 27124 67469 NIL=
202112270900 AAXX 27094 67469 42680 20805 10282 20200 48///
                   333 5//// 82830=
202112270600 AAXX 27064 67469 32980 00901 10264 20190 48///
                   333 10317 20180 5////
                   555 00/// 20990=
202112260900 AAXX 26094 67469 NIL=
202112240900 AAXX 24094 67469 42680 82703 10277 20230 48/// 83238
                   333 5//// 83840 81362 84280=
202112240600 AAXX 24064 67469 32980 82705 10227 20210 48/// 82038
                   333 10279 20211 5//// 82362 86280
                   555 00/// 20014=
202112231500 AAXX 23154 67469 42680 80502 10267 20230 48/// 82208
                   333 5//// 82830 86280
                   555 10279=
202112231200 AAXX 23124 67469 42680 4//// 10272 20200 48/// 84201
                   333 5//// 84830 82080=
202112230900 AAXX 23094 67469 42480 70903 10245 20220 48/// 83231
                   333 5//// 83820 82361 82080=
202112230600 AAXX 23064 67469 12980 70905 10227 20210 48/// 60144 82038
                   333 10266 20185 5//// 82361 85280
                   555 20087=
202112220900 AAXX 22094 67469 41480 82705 10197 20200 48/// 78082 8197/
                   333 5//// 81920 81820 88460=
202112211500 AAXX 21154 67469 NIL=
202112211200 AAXX 21124 67469 42680 60302 10273 20220 48/// 85201
                   333 5//// 85830 81080=
202112210900 AAXX 21094 67469 42580 50503 10256 20230 48/// 85200
                   333 5//// 85825=
202112171500 AAXX 17154 67469 42980 80000 10213 20210 48/// 8807/
                   333 5//// 88460=
202112171200 AAXX 17124 67469 NIL=
202112170900 AAXX 17094 67469 41680 83610 10200 20200 48/// 79792 8197/
                   333 5//// 81930 82330 88460=
202112160900 AAXX 16094 67469 42680 60902 10284 20210 48/// 84201
                   333 5//// 84830 82080=
202112160600 AAXX 16064 67469 32980 50902 10247 20200 48/// 80008
                   333 10279 20191 5//// 85280
                   555 00/// 20000=
202112141200 AAXX 14124 67469 NIL=
202112131200 AAXX 13124 67469 42680 51106 10307 20200 48/// 81930
                   333 5//// 81940 85840 81360=
202112130900 AAXX 13094 67469 42680 21006 10290 20220 48/// 82230
                   333 5//// 82836 81360=
202112120900 AAXX 12094 67469 NIL=
202112101500 AAXX 10154 67469 42680 20503 10303 20210 48/// 82200
                   333 5//// 82842=
202112101200 AAXX 10124 67469 42780 30604 10312 20210 48/// 81930
                   333 5//// 81950 83850 81360=
202112100900 AAXX 10094 67469 42680 41006 10284 20220 48/// 84230
                   333 5//// 84830 82360=
202112100600 AAXX 10064 67469 32980 11208 10256 20190 48/// 80002
                   333 10323 20201 5//// 81280=
202112091500 AAXX 09154 67469 42680 40402 10300 20200 48/// 81932
                   333 5//// 81942 84842 82360 81280
                   555 10323=
202112091200 AAXX 09124 67469 42680 40705 10305 20200 48/// 81932
                   333 5//// 81942 84842 82360 81280=
202112090900 AAXX 09094 67469 42680 41107 10292 20200 48/// 81932
                   333 5//// 81942 84842 81360 81280=
202112090600 AAXX 09064 67469 NIL=
202112080900 AAXX 08094 67469 42580 30806 10288 20230 48/// 83232
                   333 5//// 83820 81360 81280=
202112080600 AAXX 08064 67469 32980 60910 10262 20210 48/// 80008
                   333 10310 20231 5//// 82680=
202112061200 AAXX 06124 67469 NIL=
202112060900 AAXX 06094 67469 NIL=
202112050900 AAXX 05094 67469 NIL=
202112031500 AAXX 03154 67469 NIL=
202112031200 AAXX 03124 67469 NIL=
202112020900 AAXX 02094 67469 NIL=
202112010900 AAXX 01094 67469 NIL=

################################################################################
#  SYNOPS from 67475, Kasama (Zambia) | 10-13S | 031-08E | 1382 m
################################################################################
202112311200 AAXX 31124 67475 NIL=
202112310900 AAXX 31094 67475 42660 73005 10256 20171 48521 8327/
                   333 58013 83830 87280
                   555 91020=
202112300900 AAXX 30094 67475 42660 40704 10311 20137 48511 83201
                   333 59007 83840 82080
                   555 91018=
202112300600 AAXX 30064 67475 32960 00304 10266 20129 48511
                   333 10/// 20173 59017
                   555 00/// 20000 91018=
202112291200 AAXX 29124 67475 NIL=
202112290600 AAXX 29064 67475 NIL=
202112281500 AAXX 28154 67475 NIL=
202112281200 AAXX 28124 67475 42760 50104 10324 20081 48502 70122 83238
                   333 58001 83850 82360 85280 91017=
202112280900 AAXX 28094 67475 42960 70907 10299 20109 48528 70322 8605/
                   333 58001 86360 91020=
202112271200 AAXX 27124 67475 NIL=
202112270900 AAXX 27094 67475 42960 41605 10296 20113 48527 70322 80001
                   333 59005 84280 91020=
202112260900 AAXX 26094 67475 NIL=
202112240900 AAXX 24094 67475 42760 83504 10288 20172 48/// 70322 84207
                   333 5//// 84850 88280 9////=
202112231500 AAXX 23154 67475 NIL=
202112230900 AAXX 23094 67475 42660 70507 10261 20187 48516 82208
                   333 59001 82825 87280
                   555 91019=
202112230600 AAXX 23064 67475 12460 70405 10201 20173 48521 60084 81578
                   333 10//0 20163 59006 81615 83460 87280
                   555 00/// 20009 91020=
202112221200 AAXX 22124 67475 42660 60607 10310 20163 48490 82208
                   333 59022 82840 85280 91016=
202112220900 AAXX 22094 67475 42660 60806 10280 20173 48517 83208
                   333 59015 83830 84280
                   555 91019=
202112220600 AAXX 22064 67475 12460 70502 10231 20189 48528 60094 85508
                   333 1//// 20184 59013 85618 87280 91021=
202112211500 AAXX 21154 67475 NIL=
202112211200 AAXX 21124 67475 41650 80704 10254 20183 48511 76322 8577/
                   333 58002 85830 87460
                   555 91018=
202112171500 AAXX 17154 67475 NIL=
202112171200 AAXX 17124 67475 41560 82707 10211 20176 48507 71792 8427/
                   333 58029 81920 84820 88460 91018=
202112161200 AAXX 16124 67475 41760 40506 10322 20124 48481 70522 84201
                   333 58007 81956 84856 82080 91015=
202112160600 AAXX 16064 67475 31560 33403 10223 20186 48510 70500 82201
                   333 10//0 20161 58005 82820 82080
                   555 00/// 20003 91018=
202112141200 AAXX 14124 67475 NIL=
202112131200 AAXX 13124 67475 41660 50913 10296 20133 48488 71622 85200
                   333 58013 81845 84845
                   555 91016=
202112130900 AAXX 13094 67475 42660 31007 10304 20150 48511 81101
                   333 58010 81830 82080
                   555 91018=
202112120900 AAXX 12094 67475 41760 21006 10292 20132 48500 70500 82200
                   333 59003 82856 91017=
202112101500 AAXX 10154 67475 41760 51406 10299 20109 48474 70522 82260
                   333 59010 81956 82856 85360
                   555 10/// 91014=
202112101200 AAXX 10124 67475 41760 40907 10310 20130 48490 70522 84200
                   333 59009 81956 84856 91016=
202112100900 AAXX 10094 67475 41760 50808 10292 20149 48514 70522 85200
                   333 59009 81956 85856 91019=
202112100600 AAXX 10064 67475 31960 00804 10255 20151 48520 70500
                   333 10//0 20184 59012 91020=
202112091500 AAXX 09154 67475 41760 41311 10313 20108 48485 70522 82261
                   333 59005 81956 82856 83360 83080
                   555 10/// 91015=
202112091200 AAXX 09124 67475 41760 41203 10316 20112 48500 70522 84260
                   333 59004 81956 84856 82360 91017=
202112090900 AAXX 09094 67475 41760 30502 10296 20134 48524 70500 83200
                   333 59003 83856 91020=
202112090600 AAXX 09064 67475 11960 20207 10256 20148 48532 69904 70500 82031
                   333 10//0 20171 58003 82360 81080
                   555 00/// 20000 91021=
202112080900 AAXX 08094 67475 41760 40306 10299 20148 48527 70522 83201
                   333 59001 83850 82080 91030=
202112070900 AAXX 07094 67475 42680 30803 10290 20160 48528 83200
                   333 58004 83830 91020=
202112061200 AAXX 06124 67475 41680 50803 10315 20134 48502 84201
                   333 59001 84830 82080 91017=
202112060900 AAXX 06094 67475 41980 30803 10284 20144 48523 83030
                   333 59001 83360 91020=
202112050900 AAXX 05094 67475 41660 40805 10296 20150 48525 70522 82230
                   333 5//// 82840 83360 91020=
202112050600 AAXX 05064 67475 31960 60513 10241 20147 48528 70510 8605/
                   333 10//0 20181 58000 86360
                   555 00/// 20000 91020=
202112031500 AAXX 03154 67475 NIL=
202112031200 AAXX 03124 67475 41660 41604 10302 20144 48499 70500 83201
                   333 58010 81945 82845 82080 91017=
202112020900 AAXX 02094 67475 41660 41405 10280 20157 48518 70500 84201
                   333 58008 84230 81080 91019=
202112010900 AAXX 01094 67475 41660 40902 10287 20149 48506 70522 83201
                   333 59004 83845 82080 91019=

################################################################################
#  SYNOPS from 67476, Misamfu (Zambia) | 10-06S | 031-15E | 1536 m
################################################################################
202112311200 AAXX 31124 67476 NIL=
202112300900 AAXX 30094 67476 NIL=
202112300600 AAXX 30064 67476 NIL=
202112291200 AAXX 29124 67476 NIL=
202112290600 AAXX 29064 67476 NIL=
202112281500 AAXX 28154 67476 NIL=
202112281200 AAXX 28124 67476 NIL=
202112271200 AAXX 27124 67476 NIL=
202112270900 AAXX 27094 67476 NIL=
202112260900 AAXX 26094 67476 NIL=
202112240900 AAXX 24094 67476 NIL=
202112231500 AAXX 23154 67476 NIL=
202112230900 AAXX 23094 67476 42680 60903 10247 20184 48/// 85230
                   333 58004 84835 81935 83360=
202112230600 AAXX 23064 67476 12580 40903 10210 20164 48/// 60374 81130
                   333 10274 20137 58005 81823 84359
                   555 00/// 20990=
202112220900 AAXX 22094 67476 NIL=
202112211500 AAXX 21154 67476 NIL=
202112211200 AAXX 21124 67476 NIL=
202112171500 AAXX 17154 67476 NIL=
202112171200 AAXX 17124 67476 NIL=
202112160600 AAXX 16064 67476 32980 01002 10238 20174 48///
                   333 10315 20147 58003
                   555 00/// 20001=
202112141200 AAXX 14124 67476 42580 41204 10289 20200 48/// 84200
                   333 58009 81950 84850=
202112131200 AAXX 13124 67476 NIL=
202112130900 AAXX 13094 67476 NIL=
202112120900 AAXX 12094 67476 NIL=
202112101500 AAXX 10154 67476 NIL=
202112101200 AAXX 10124 67476 42680 30902 10299 20201 48/// 83200
                   333 59001 83850=
202112091500 AAXX 09154 67476 NIL=
202112091200 AAXX 09124 67476 NIL=
202112090900 AAXX 09094 67476 NIL=
202112090600 AAXX 09064 67476 12980 10903 10234 20172 48/// 69904 81030
                   333 10318 20168 58004 81360
                   555 00/// 20000=
202112080900 AAXX 08094 67476 42680 30903 10289 20190 48/// 83231
                   333 58004 83850 81950 81360 81080=
202112061200 AAXX 06124 67476 NIL=
202112060900 AAXX 06094 67476 NIL=
202112050900 AAXX 05094 67476 NIL=
202112031500 AAXX 03154 67476 NIL=
202112031200 AAXX 03124 67476 NIL=
202112020900 AAXX 02094 67476 32680 30703 10288 20180 48/// 83230
                   333 59006 83840 81360=
202112020600 AAXX 02064 67476 12580 20903 10221 20162 48/// 69904 82130
                   333 10296 20120 58001 82826 81360
                   555 00/// 20990=
202112010900 AAXX 01094 67476 32680 40903 10285 20182 48/// 84230
                   333 84833 82360=

################################################################################
#  SYNOPS from 67477, Mpika (Zambia) | 11-54S | 031-26E | 1400 m
################################################################################
202112311200 AAXX 31124 67477 41680 52201 10302 20164 48595 71799 84231
                   333 58009 81936 84836 82364 82080=
202112310600 AAXX 31064 67477 12980 42201 10223 20164 48526 69904 84030
                   333 10313 20168 58006 84359
                   555 00/// 20000=
202112300900 AAXX 30094 67477 42580 41802 10259 20162 48511 81131
                   333 59009 81822 82362 82080=
202112300600 AAXX 30064 67477 32980 10902 10252 20170 48520 81031
                   333 10335 20163 59005 81359 81080
                   555 00/// 20000=
202112291200 AAXX 29124 67477 42680 21203 10322 20146 48489 82131
                   333 59020 82835 81364 81080=
202112290600 AAXX 29064 67477 32980 11202 10259 20150 48525 80001
                   333 10324 20138 59010 81080
                   555 00/// 20000=
202112281500 AAXX 28154 67477 NIL=
202112281200 AAXX 28124 67477 42680 21202 10309 20148 48510 82131
                   333 5//// 82835 81360 81080=
202112271200 AAXX 27124 67477 42680 20906 10298 20174 48/// 82101
                   333 5//// 82836 81080=
202112270900 AAXX 27094 67477 42580 20907 10271 20163 48/// 81101
                   333 5//// 81828 82080=
202112260900 AAXX 26094 67477 42580 20904 10274 20154 48530 81101
                   333 5//// 81826 82080=
202112240900 AAXX 24094 67477 42780 41502 10300 20179 48513 83201
                   333 59008 83850 82080=
202112240600 AAXX 24064 67477 32980 42402 10247 20180 48517 80001
                   333 10302 20186 59011 84080
                   555 00/// 20001=
202112231500 AAXX 23154 67477 41780 70904 10274 20183 48483 71799 82208
                   333 59007 81950 82850 87280
                   555 10302=
202112231200 AAXX 23124 67477 41780 70603 10290 20173 48497 71799 83208
                   333 59010 81950 83850 87280=
202112230900 AAXX 23094 67477 42680 61502 10267 20170 48520 85808
                   333 59001 82836 84628 86280=
202112230600 AAXX 23064 67477 12980 72102 10216 20165 48527 60014 84038
                   333 10286 20179 59003 84360 87280
                   555 00/// 20000=
202112220900 AAXX 22094 67477 41680 63306 10265 20170 48521 71722 86500
                   333 59020 81937 86737=
202112220600 AAXX 22064 67477 32980 73304 10206 20188 48529 87070
                   333 10287 20192 59014 87359
                   555 00/// 20000=
202112211500 AAXX 21154 67477 NIL=
202112211200 AAXX 21124 67477 42680 61203 10270 20181 48518 83230
                   333 58003 83835 86361=
202112210900 AAXX 21094 67477 42680 61203 10255 20175 48530 84530
                   333 5//// 84630 86360=
202112171500 AAXX 17154 67477 NIL=
202112171200 AAXX 17124 67477 42680 62708 10268 20171 48497 71799 84231
                   333 58017 81936 84836 82364 82080=
202112161200 AAXX 16124 67477 42680 32101 10329 20113 48580 83100
                   333 59003 83836=
202112160600 AAXX 16064 67477 31980 01201 10256 20136 48514
                   333 10331 20164 59002
                   555 00/// 20000=
202112141200 AAXX 14124 67477 42680 30903 10321 20108 48479 83201
                   333 59003 83835 81080=
202112131200 AAXX 13124 67477 42680 21203 10327 20128 48488 82201
                   333 58005 82835 81080=
202112130900 AAXX 13094 67477 42580 10905 10291 20150 48512 81100
                   333 58004 81824=
202112120900 AAXX 12094 67477 42580 10902 10281 20123 48508 81100
                   333 5//// 81828=
202112101500 AAXX 10154 67477 42680 50904 10302 20142 48481 83231
                   333 59010 83830 82362 82080
                   555 10326=
202112101200 AAXX 10124 67477 42680 31208 10308 20128 48491 83101
                   333 59013 83836 81080=
202112100900 AAXX 10094 67477 42580 30907 10291 20124 48514 83100
                   333 59012 83825=
202112100600 AAXX 10064 67477 31978 01204 10252 20143 48520 70500
                   333 10334 20181 59015=
202112091500 AAXX 09154 67477 41775 21505 10315 20130 48495 70500 82200
                   333 59005 82856 555 10334=
202112091200 AAXX 09124 67477 41775 31505 10322 20135 48508 70500 83200
                   333 59003 83856=
202112090900 AAXX 09094 67477 41675 11205 10300 20130 48530 70510 81100
                   333 59002 81847=
202112090600 AAXX 09064 67477 31975 41207 10257 20130 48537 70522 84030
                   333 10328 20173 58001 84360
                   555 00/// 20000=
202112080900 AAXX 08094 67477 41675 21207 10295 20143 48532 70500 82100
                   333 59002 82845=
202112061200 AAXX 06124 67477 41775 31205 10319 20140 48506 70500 83200
                   333 58000 83850=
202112060900 AAXX 06094 67477 41675 10910 10290 20145 48527 70500 81100
                   333 59004 81846=
202112050900 AAXX 05094 67477 42580 20908 10285 20142 48527 83100
                   333 5//// 83825=
202112050600 AAXX 05064 67477 31980 00908 10231 20154 48528 70500
                   333 10332 20172 5////
                   555 00/// 20000=
202112031500 AAXX 03154 67477 NIL=
202112031200 AAXX 03124 67477 42680 30910 10306 20121 48507 83101
                   333 58011 83834 81080=
202112020900 AAXX 02094 67477 41675 30609 10287 20160 48525 70500 83200
                   333 58002 83845=
202112010900 AAXX 01094 67477 41675 40905 10288 20160 48522 70500 84200
                   333 58005 84247=

################################################################################
#  SYNOPS from 67481, Isoka (Zambia) | 10-07S | 032-38E | 1360 m
################################################################################
202112311200 AAXX 31124 67481 NIL=
202112300900 AAXX 30094 67481 42780 63002 10299 20132 48/// 86200
                   333 5//// 86857=
202112300600 AAXX 30064 67481 32980 03001 10254 20164 48///
                   333 10362 20167 5////
                   555 00/// 20000=
202112291200 AAXX 29124 67481 NIL=
202112290600 AAXX 29064 67481 32980 43002 10250 20126 48/// 80001
                   333 10302 20163 5//// 84080
                   555 00/// 20000=
202112281500 AAXX 28154 67481 NIL=
202112281200 AAXX 28124 67481 NIL=
202112280600 AAXX 28064 67481 32980 33002 10253 20170 48/// 83030
                   333 10342 20172 5//// 83360
                   555 00/// 20000=
202112271200 AAXX 27124 67481 NIL=
202112270900 AAXX 27094 67481 NIL=
202112260900 AAXX 26094 67481 NIL=
202112240900 AAXX 24094 67481 NIL=
202112240600 AAXX 24064 67481 32980 33002 10248 20195 48/// 80001
                   333 10320 20188 5//// 83080
                   555 00/// 20000=
202112231500 AAXX 23154 67481 NIL=
202112231200 AAXX 23124 67481 42680 53002 10302 20162 48/// 85200
                   333 59006 85840=
202112230900 AAXX 23094 67481 42580 31202 10262 20185 48/// 83101
                   333 5//// 83825 82080=
202112230600 AAXX 23064 67481 32480 51202 10241 20180 48/// 81101
                   333 10321 20188 59003 81810 85080
                   555 00/// 20004=
202112220900 AAXX 22094 67481 42580 50302 10270 20166 48/// 85201
                   333 5//// 85825 83080=
202112220600 AAXX 22064 67481 12480 50302 10230 20185 48/// 60044 83101
                   333 10258 20190 59019 83810 85080
                   555 00/// 20012=
202112211500 AAXX 21154 67481 NIL=
202112211200 AAXX 21124 67481 42680 50301 10278 20192 48/// 85200
                   333 59001 85840=
202112210900 AAXX 21094 67481 42580 72002 10228 20188 48/// 8457/
                   333 58007 84620 87361=
202112171500 AAXX 17154 67481 NIL=
202112171200 AAXX 17124 67481 42780 72002 10292 20148 48/// 83272
                   333 58011 81950 83850 86360 86080=
202112161200 AAXX 16124 67481 42780 30902 10336 20107 48/// 83100
                   333 5//// 83856=
202112160600 AAXX 16064 67481 32980 03002 10240 20135 48///
                   333 10342 20182 58008
                   555 00/// 20000=
202112141200 AAXX 14124 67481 42780 31002 10322 20104 48/// 83200
                   333 59002 83850=
202112140600 AAXX 14064 67481 12980 13602 10240 20162 48/// 69904 80001
                   333 10328 20170 59002 81080
                   555 00/// 20000=
202112131200 AAXX 13124 67481 42780 60302 10321 20096 48/// 86200
                   333 5//// 86850=
202112130900 AAXX 13094 67481 42680 13602 10298 20173 48/// 81101
                   333 5//// 81835 81080=
202112120900 AAXX 12094 67481 NIL=
202112101500 AAXX 10154 67481 NIL=
202112101200 AAXX 10124 67481 42780 50302 10318 20093 48/// 85200
                   333 5//// 85850=
202112100600 AAXX 10064 67481 32980 13602 10238 20165 48/// 81030
                   333 10350 20180 5//// 81360=
202112091500 AAXX 09154 67481 NIL=
202112091200 AAXX 09124 67481 NIL=
202112090900 AAXX 09094 67481 NIL=
202112090600 AAXX 09064 67481 32980 10302 10261 20156 48/// 81030
                   333 10338 20176 5//// 81360
                   555 00/// 20000=
202112080900 AAXX 08094 67481 42680 32002 10292 20138 48/// 83101
                   333 59001 83840 81080=
202112080600 AAXX 08064 67481 32980 11002 10258 20150 48/// 80001
                   333 10332 20170 5//// 81080
                   555 00/// 20000=
202112070900 AAXX 07094 67481 42680 10302 10290 20142 48/// 81100
                   333 58002 81835=
202112061200 AAXX 06124 67481 42780 50302 10300 20130 48/// 85200
                   333 5//// 85850=
202112060900 AAXX 06094 67481 42680 50303 10272 20160 48/// 81180
                   333 5//// 81840 85360=
202112060600 AAXX 06064 67481 12980 73002 10225 20171 48/// 60054 8707/
                   333 10340 20160 5//// 87360
                   555 00/// 20000=
202112050900 AAXX 05094 67481 NIL=
202112031500 AAXX 03154 67481 NIL=
202112031200 AAXX 03124 67481 NIL=
202112020900 AAXX 02094 67481 42680 50302 10292 20156 48/// 85200
                   333 5//// 85845=
202112010900 AAXX 01094 67481 NIL=
202112010600 AAXX 01064 67481 12480 13602 10238 20172 48/// 60044 81100
                   333 10333 20180 58000 81810
                   555 00/// 20000=

################################################################################
#  SYNOPS from 67531, Zambezi (Zambia) | 13-32S | 023-07E | 1077 m
################################################################################
202112311200 AAXX 31124 67531 41580 70603 10260 20196 48/// 71792 83208
                   333 58040 81928 83828 85280=
202112310900 AAXX 31094 67531 42580 70603 10251 20186 48/// 8117/
                   333 58028 81828 87360=
202112310600 AAXX 31064 67531 32380 80000 10191 20176 48/// 8167/
                   333 10331 20185 58012 81707 88460
                   555 00/// 20993=
202112300900 AAXX 30094 67531 42980 10000 10291 20206 48/// 81034
                   333 59010 81362 81082=
202112300600 AAXX 30064 67531 12980 70000 10223 20199 48/// 69934 83038
                   333 10344 20192 58001 83361 85281
                   555 00/// 20022=
202112291200 AAXX 29124 67531 42780 10000 10316 20188 48/// 81101
                   333 58001 81850 81082=
202112290600 AAXX 29064 67531 12380 23003 10199 20189 48/// 60224 81602
                   333 10353 20183 59011 81707 82081
                   555 00/// 20990=
202112281500 AAXX 28154 67531 41780 20000 10345 20190 48/// 71790
                   333 59035 81956 82856 81080
                   555 10350=
202112281200 AAXX 28124 67531 42780 22102 10320 20193 48/// 82104
                   333 59012 82850 81080=
202112271200 AAXX 27124 67531 42680 32902 10305 20200 48/// 83101
                   333 58019 83845 81081=
202112270900 AAXX 27094 67531 42580 70000 10260 20204 48/// 81131
                   333 58003 81824 84361 83081=
202112270600 AAXX 27064 67531 12480 70000 10225 20198 48/// 60014 8113/
                   333 10315 20180 58013 81813 87361
                   555 00/// 20990=
202112261200 AAXX 26124 67531 42680 40000 10303 20202 48/// 84202
                   333 59018 84842 81080=
202112260900 AAXX 26094 67531 42980 70000 10236 20206 48/// 8707/
                   333 59001 87360=
202112241200 AAXX 24124 67531 42680 60000 10287 20208 48/// 85130
                   333 5//// 85835 82361=
202112240900 AAXX 24094 67531 42480 70303 10240 20200 48/// 8687/
                   333 5//// 85818 81618 87360=
202112231500 AAXX 23154 67531 NIL=
202112230900 AAXX 23094 67531 NIL=
202112230600 AAXX 23064 67531 32980 13303 10222 20190 48/// 81030
                   333 10249 20179 59001 81361
                   555 00/// 20000=
202112221200 AAXX 22124 67531 41580 73304 10232 20185 48/// 70262 8282/
                   333 58001 81825 81625 87460=
202112220900 AAXX 22094 67531 41480 70305 10226 20191 48/// 70262 8157/
                   333 59011 81615 87460=
202112220600 AAXX 22064 67531 32380 70303 10206 20191 48/// 8157/
                   333 10266 20182 59016 81608 87360
                   555 00///=
202112211500 AAXX 21154 67531 42580 73603 10255 20190 48/// 82808
                   333 59004 81826 81626 87280
                   555 10265=
202112211200 AAXX 21124 67531 42580 73603 10255 20192 48/// 82807
                   333 58010 81826 81626 87280=
202112210900 AAXX 21094 67531 42580 73604 10246 20194 48/// 82807
                   333 58011 81824 81624 87280=
202112171500 AAXX 17154 67531 41380 70000 10206 20202 48/// 76096 8377/
                   333 5//// 82708 87460
                   555 10265=
202112171200 AAXX 17124 67531 41480 70000 10195 20188 48/// 79599 8587/
                   333 58041 81916 83816 82616 87460=
202112161200 AAXX 16124 67531 42680 33104 10302 20206 48/// 83102
                   333 58004 83841 81081=
202112160600 AAXX 16064 67531 12980 73302 10220 20198 48/// 60014 8707/
                   333 10333 20195 59001 87360
                   555 00/// 20990=
202112141200 AAXX 14124 67531 41980 70902 10245 20189 48/// 70262 8707/
                   333 58015 87460=
202112131200 AAXX 13124 67531 NIL=
202112130900 AAXX 13094 67531 42680 23603 10280 20203 48/// 81101
                   333 58011 81833 82081=
202112120900 AAXX 12094 67531 42680 71203 10285 20205 48/// 81108
                   333 58010 81835 87281=
202112101500 AAXX 10154 67531 42680 20903 10290 20190 48/// 81130
                   333 59016 81835 82362
                   555 10305=
202112101200 AAXX 10124 67531 42680 70000 10294 20212 48/// 8113/
                   333 59004 81835 87362=
202112100900 AAXX 10094 67531 42980 70000 10254 20194 48/// 8707/
                   333 59011 87360=
202112100600 AAXX 10064 67531 32980 70000 10216 20191 48/// 8707/
                   333 10336 20183 59011 87360=
202112091500 AAXX 09154 67531 NIL=
202112091200 AAXX 09124 67531 42680 20000 10295 20196 48/// 82104
                   333 59026 82840 81081=
202112090900 AAXX 09094 67531 42680 63003 10275 20205 48/// 81178
                   333 59011 81830 81361 86281=
202112090600 AAXX 09064 67531 12380 73602 10211 20195 48/// 69924 8117/
                   333 10286 20178 59015 81809 87360
                   555 00/// 20990=
202112080900 AAXX 08094 67531 42980 73605 10241 20175 48/// 8707/
                   333 5//// 87362=
202112070900 AAXX 07094 67531 41980 72706 10222 20184 48/// 76062 8707/
                   333 5//// 87362=
202112061200 AAXX 06124 67531 42780 52804 10318 20187 48/// 85200
                   333 59007 85856=
202112060900 AAXX 06094 67531 42980 33004 10282 20191 48/// 82031
                   333 59008 82362 82081=
202112050900 AAXX 05094 67531 41580 72204 10252 20207 48/// 70298 8317/
                   333 5//// 83820 87360=
202112050600 AAXX 05064 67531 11780 72703 10192 20182 48/// 60274 79599 8197/
                   333 10340 20190 58014 81950 87460
                   555 00/// 20000=
202112031500 AAXX 03154 67531 NIL=
202112031200 AAXX 03124 67531 NIL=
202112020900 AAXX 02094 67531 NIL=
202112010900 AAXX 01094 67531 42980 62704 10271 20200 48/// 86031
                   333 58007 86362 81081=

################################################################################
#  SYNOPS from 67541, Kasempa (Zambia) | 13-32S | 025-51E | 1234 m
################################################################################
202112311200 AAXX 31124 67541 NIL=
202112310600 AAXX 31064 67541 12980 70000 10195 20188 48499 60014 8703/
                   333 10310 20160 5//// 87360
                   555 00/// 20000=
202112300900 AAXX 30094 67541 42980 705// 10245 20176 48490 87030
                   333 58000 87360=
202112300600 AAXX 30064 67541 32980 70000 10193 20180 48/// 8703/
                   333 10328 20166 5//// 87360
                   555 00/// 20000=
202112291200 AAXX 29124 67541 42680 60000 10291 20186 48464 82204
                   333 59009 82840 84080=
202112290600 AAXX 29064 67541 32980 20000 10207 20164 48490 81031
                   333 10320 20148 58000 81360 81080
                   555 00/// 20000=
202112281500 AAXX 28154 67541 42780 20000 10300 20181 48446 82200
                   333 59009 82856 555 10320=
202112281200 AAXX 28124 67541 42780 30000 10318 20171 48473 83200
                   333 59009 83856=
202112271200 AAXX 27124 67541 NIL=
202112270900 AAXX 27094 67541 NIL=
202112260900 AAXX 26094 67541 NIL=
202112240900 AAXX 24094 67541 42480 70000 10245 20206 48482 82130
                   333 58000 82818 87360=
202112231500 AAXX 23154 67541 42580 70000 10280 20192 48/// 84230
                   333 5//// 84827 83360
                   555 10299=
202112231200 AAXX 23124 67541 42580 70000 10265 20207 48455 82230
                   333 59018 82825 85360=
202112230900 AAXX 23094 67541 42980 70000 10235 20198 48482 87030
                   333 59008 87360=
202112230600 AAXX 23064 67541 12980 70000 10200 20189 48482 60194 8703/
                   333 10260 20160 58000 87360
                   555 00/// 20009=
202112220900 AAXX 22094 67541 42480 70000 10220 20205 48490 8223/
                   333 5//// 82812 87360=
202112220600 AAXX 22064 67541 12980 70000 10200 20193 48482 60094 87030
                   333 10280 20161 5//// 87360
                   555 00/// 20007=
202112211500 AAXX 21154 67541 41560 70000 10190 20190 48464 8423/
                   333 5//// 81915 83825 87360
                   555 10280=
202112211200 AAXX 21124 67541 NIL=
202112210900 AAXX 21094 67541 42580 70000 10255 20198 48/// 81130
                   333 5//// 81825 87360=
202112171500 AAXX 17154 67541 NIL=
202112171200 AAXX 17124 67541 42580 704// 10245 20177 48482 8323/
                   333 58027 83828 87360=
202112161200 AAXX 16124 67541 42680 70000 10280 20175 48455 82201
                   333 58000 82842 85080=
202112160900 AAXX 16094 67541 42980 70000 10250 20174 48/// 8703/
                   333 5//// 87360=
202112160600 AAXX 16064 67541 32980 70000 10220 20174 48473 8703/
                   333 10298 20162 59009 87360
                   555 00/// 20000=
202112141200 AAXX 14124 67541 42680 70000 10280 20192 48464 82101
                   333 58018 82835 85080=
202112131200 AAXX 13124 67541 42880 504// 10338 20159 48446 85200
                   333 5//// 85857=
202112130900 AAXX 13094 67541 32980 204// 10310 20157 48473 80001
                   333 5//// 82080=
202112120900 AAXX 12094 67541 NIL=
202112101500 AAXX 10154 67541 42780 204// 10290 20169 48438 82200
                   333 59008 82856 555 10320=
202112101200 AAXX 10124 67541 42780 304// 10310 20175 48455 83200
                   333 59009 83856=
202112100900 AAXX 10094 67541 42680 305// 10280 20191 48482 81101
                   333 59008 81835 82080=
202112100600 AAXX 10064 67541 12980 70000 10220 20182 48490 60024 87030
                   333 10320 20163 59009 87360=
202112091500 AAXX 09154 67541 42780 30000 10302 20153 48446 83200
                   333 5//// 83856 555 10320=
202112091200 AAXX 09124 67541 42780 409// 10310 20166 48464 84200
                   333 59018 84856=
202112090900 AAXX 09094 67541 42980 50000 10280 20183 48490 80001
                   333 59018 85080=
202112090600 AAXX 09064 67541 12980 70000 10210 20181 48499 60024 80001
                   333 10306 20152 59009 87080
                   555 00/// 20018=
202112080900 AAXX 08094 67541 42980 70000 10230 20182 48508 86031
                   333 58009 86360 81080=
202112070900 AAXX 07094 67541 42980 50000 10285 20172 48499 85030
                   333 58009 85360=
202112061200 AAXX 06124 67541 42780 50000 10313 20174 48464 84201
                   333 5//// 84856 81080=
202112060900 AAXX 06094 67541 42980 70000 10280 20175 48490 80001
                   333 5//// 87080=
202112050900 AAXX 05094 67541 NIL=
202112050600 AAXX 05064 67541 32980 30000 10230 20176 48482 80001
                   333 10334 20140 59008 83080
                   555 00/// 20000=
202112031500 AAXX 03154 67541 42780 20000 10310 20165 48446 82200
                   333 5//// 82856 555 10330=
202112031200 AAXX 03124 67541 42780 20000 10320 20179 48464 82200
                   333 5//// 82856=
202112030900 AAXX 03094 67541 42980 207// 10295 20165 48490 80001
                   333 5//// 82080=
202112020900 AAXX 02094 67541 42980 104// 10295 20156 48/// 80001
                   333 5//// 81080=
202112010900 AAXX 01094 67541 42980 504// 10290 20169 48482 80001
                   333 58000 85080=

################################################################################
#  SYNOPS from 67543, Kabompo (Zambia) | 13-36S | 024-12E | 1075 m
################################################################################
202112311200 AAXX 31124 67543 NIL=
202112310900 AAXX 31094 67543 42480 80000 10242 20192 48/// 885//
                   333 5//// 88615=
202112310600 AAXX 31064 67543 12380 70000 10198 20182 48/// 60024 8267/
                   333 10324 20188 5//// 82707 87360
                   555 00///=
202112300900 AAXX 30094 67543 42980 70000 10282 20186 48/// 83035
                   333 5//// 83362 85282=
202112300600 AAXX 30064 67543 NIL=
202112291200 AAXX 29124 67543 42680 60000 10324 20186 48/// 86201
                   333 5//// 86850 81085=
202112290600 AAXX 29064 67543 12980 50000 10208 20187 48/// 60014 82035
                   333 10338 20168 5//// 82361 84280
                   555 00/// 20004=
202112281500 AAXX 28154 67543 42780 40000 10320 20184 48/// 83235
                   333 5//// 83856 81362 83285
                   555 10338=
202112281200 AAXX 28124 67543 42680 50000 10322 20188 48/// 84230
                   333 5//// 84835 82362=
202112271200 AAXX 27124 67543 42680 60000 10306 20195 48/// 85230
                   333 5//// 85838 82361=
202112270900 AAXX 27094 67543 42580 70000 10268 20196 48/// 82130
                   333 5//// 82820 86361=
202112260900 AAXX 26094 67543 NIL=
202112240900 AAXX 24094 67543 42480 70000 10250 20198 48/// 8455/
                   333 84616 87360=
202112231500 AAXX 23154 67543 42680 70000 10252 20211 48/// 70269 82330
                   333 5//// 81945 82845 86362
                   555 10326=
202112231200 AAXX 23124 67543 41675 70000 10290 20186 48/// 76022 8532/
                   333 5//// 81940 85840 86461=
202112230900 AAXX 23094 67543 41680 30000 10282 20180 48/// 81130
                   333 5//// 81830 83361=
202112230600 AAXX 23064 67543 12980 30000 10216 20184 48/// 69904 70144 82035
                   333 10286 20178 5//// 82360 82280
                   555 00/// 20020=
202112220900 AAXX 22094 67543 42480 70000 10244 20201 48/// 8467/
                   333 5//// 84618 87360=
202112220600 AAXX 22064 67543 11378 8//// 10200 20197 48/// 60204 72166 8367/
                   333 10266 20184 5//// 83707 88460=
202112211500 AAXX 21154 67543 42580 70000 10240 20197 48/// 82130
                   333 5//// 82828 86361
                   555 10290=
202112211200 AAXX 21124 67543 NIL=
202112171500 AAXX 17154 67543 42680 70000 10242 20182 48/// 82277
                   333 5//// 82840 83362 86280
                   555 10312=
202112171200 AAXX 17124 67543 NIL=
202112161200 AAXX 16124 67543 72680 60000 10298 20199 48/// 84205
                   333 5//// 84835 83281=
202112160600 AAXX 16064 67543 11975 80000 10208 20189 48/// 69904 75022 8807/
                   333 10320 20195 5//// 88459
                   555 00/// 20990=
202112151200 AAXX 15124 67543 42680 70000 10296 20192 48/// 83235
                   333 5//// 83842 84362 83285=
202112141200 AAXX 14124 67543 NIL=
202112131200 AAXX 13124 67543 42780 70000 10334 20174 48/// 85205
                   333 5//// 85856 83285=
202112130900 AAXX 13094 67543 42680 50000 10296 20208 48/// 82135
                   333 5//// 82850 82361 83282=
202112120900 AAXX 12094 67543 NIL=
202112120600 AAXX 12064 67543 32980 70000 10224 20196 48/// 8707/
                   333 10338 20190 5//// 87360
                   555 00///=
202112101500 AAXX 10154 67543 42782 30000 10312 20207 48/// 82230
                   333 5//// 82856 82362
                   555 10342=
202112101200 AAXX 10124 67543 42682 70000 10270 20202 48/// 82330
                   333 5//// 82830 86361=
202112100900 AAXX 10094 67543 42580 70000 10228 20194 48/// 8117/
                   333 5//// 81825 87360=
202112100600 AAXX 10064 67543 11975 80000 10198 20191 48/// 60024 75026 8801/
                   333 10340 20184 5//// 88459=
202112091500 AAXX 09154 67543 42782 70000 10326 20179 48/// 85205
                   333 5//// 85857 83285
                   555 10340=
202112091200 AAXX 09124 67543 42780 60000 10320 20178 48/// 85202
                   333 5//// 85856 82085=
202112090900 AAXX 09094 67543 42680 60000 10262 20188 48/// 82131
                   333 5//// 82850 84361 81080=
202112090600 AAXX 09064 67543 32980 70000 10208 20182 48/// 8705/
                   333 10302 20188 5//// 87359
                   555 00/// 20001=
202112081200 AAXX 08124 67543 42680 70000 10270 20191 48/// 8217/
                   333 5//// 82845 87361=
202112080900 AAXX 08094 67543 42980 70000 10228 20187 48/// 8707/
                   333 5//// 87360=
202112070600 AAXX 07064 67543 11375 82402 10184 20181 48/// 60114 79599 8472/
                   333 10288 20178 5//// 84707 81950 87460
                   555 00///=
202112061200 AAXX 06124 67543 42780 70000 10332 20167 48/// 86231
                   333 5//// 86856 81362 81082=
202112060900 AAXX 06094 67543 42980 60000 10276 20183 48/// 82037
                   333 5//// 82362 85281=
202112050900 AAXX 05094 67543 NIL=
202112031500 AAXX 03154 67543 NIL=
202112031200 AAXX 03124 67543 NIL=
202112020900 AAXX 02094 67543 42680 40000 10280 20174 48/// 81135
                   333 5//// 81830 82361 83281=
202112010900 AAXX 01094 67543 NIL=

################################################################################
#  SYNOPS from 67551, Solwezi (Zambia) | 12-11S | 026-23E | 1386 m
################################################################################
202112311200 AAXX 31124 67551 42480 82505 10201 20173 48520 8157/
                   333 58031 81615 82820 88460
                   555 91020=
202112310600 AAXX 31064 67551 12980 83403 10181 20178 48524 60014 72162 8807/
                   333 10291 20176 58022 88460
                   555 00/// 20000 91021=
202112300900 AAXX 30094 67551 42680 71207 10248 20164 48524 81107
                   333 58004 81830 87280
                   555 91019=
202112300600 AAXX 30064 67551 12980 63405 10189 20168 48511 69904 84036
                   333 10306 20173 59012 84362 86280
                   555 00/// 20000 91018=
202112291200 AAXX 29124 67551 42680 70904 10296 20157 48493 84130
                   333 59011 84835 86362
                   555 91015=
202112290600 AAXX 29064 67551 32980 73004 10189 20165 48516 87030
                   333 10308 20166 59007 87362
                   555 00/// 20000 91020=
202112281500 AAXX 28154 67551 42680 41705 10300 20140 48482 84200
                   333 59004 84845 555 91015=
202112281200 AAXX 28124 67551 42680 60906 10296 20163 48505 86200
                   333 58001 86835 555 910177=
202112271200 AAXX 27124 67551 42680 50905 10296 20156 48500 85200
                   333 58007 85845=
202112270900 AAXX 27094 67551 42580 31205 10272 20171 48526 83100
                   333 58002 83830=
202112260900 AAXX 26094 67551 42580 61505 10245 20181 48522 82230
                   333 59007 82825 87362=
202112240900 AAXX 24094 67551 42580 63005 10252 20197 48515 83130
                   333 59003 83820 86362=
202112231500 AAXX 23154 67551 NIL=
202112231200 AAXX 23124 67551 41680 70000 10271 20176 48477 71792 81930
                   333 59013 81930 86835 83362
                   555 91015=
202112230900 AAXX 23094 67551 42480 72703 10254 20185 48507 83130
                   333 59010 84815 87362
                   555 91018=
202112230600 AAXX 23064 67551 12980 70000 10191 20178 48510 60084 8707/
                   333 10232 20179 59007 87362
                   555 00/// 20001 91018=
202112220900 AAXX 22094 67551 41480 70304 10230 20186 48517 76062 84130
                   333 59007 84818 86362
                   555 91019=
202112220600 AAXX 22064 67551 12380 70903 10193 20182 48517 60014 84630
                   333 10258 20183 59010 84608 86362
                   555 00/// 20004 91019=
202112211500 AAXX 21154 67551 41680 71806 10205 20182 48481 71796 81936
                   333 58000 81930 82830 84362 86280
                   555 10269 91017=
202112211200 AAXX 21124 67551 41680 83406 10218 20171 48502 79596 819//
                   333 58000 81930 88830
                   555 91017=
202112210900 AAXX 21094 67551 42580 61205 10252 20193 48523 83230
                   333 58004 83825 84362
                   555 91020=
202112171500 AAXX 17154 67551 42580 31805 10254 20178 48491 83231
                   333 58002 83825 81362 82080
                   555 10280 91016=
202112171200 AAXX 17124 67551 42580 52005 10239 20187 48501 85201
                   333 58034 85825 83080 91018=
202112161200 AAXX 16124 67551 42780 50303 10296 20165 48474 85202
                   333 59006 85850 82080
                   555 91014=
202112160600 AAXX 16064 67551 12980 51505 10219 20157 48506 60994 85030
                   333 10282 20194 59012 85362
                   555 00/// 20000 91017=
202112141200 AAXX 14124 67551 41680 73105 10273 20181 48487 71792 81930
                   333 58007 81930 85835 85362
                   555 91015=
202112131200 AAXX 13124 67551 42680 53005 10310 20161 48496 85200
                   333 59001 85850=
202112130900 AAXX 13094 67551 42680 43005 10278 20191 48500 84200
                   333 58005 84845=
202112120900 AAXX 12094 67551 42980 43606 10290 20154 48510 81106
                   333 58001 81820 84280=
202112101500 AAXX 10154 67551 42680 40905 10300 20154 48468 84200
                   333 59017 84850 555 91013=
202112100900 AAXX 10094 67551 42580 61504 10266 20175 48509 85130
                   333 59012 85820 81362
                   555 91018=
202112100600 AAXX 10064 67551 12980 40000 10241 20163 48514 60054 84030
                   333 10300 20180 59011 84362 91019=
202112091500 AAXX 09154 67551 41680 63606 10286 20158 48478 71799 81930
                   333 59008 81940 86840 83362
                   555 91015=
202112091200 AAXX 09124 67551 42680 61205 10300 20163 48492 86206
                   333 59021 86840=
202112090900 AAXX 09094 67551 42580 61905 10265 20181 48518 83106
                   333 59012 83825 86280=
202112090600 AAXX 09064 67551 32980 52705 10214 20182 48507 84036
                   333 10290 20178 59020 84362 83280
                   555 91020=
202112080900 AAXX 08094 67551 42580 61805 10239 20183 48527 84130
                   333 58001 84825 86362=
202112070900 AAXX 07094 67551 42680 51505 10251 20178 48527 85200
                   333 58016 83830 85362=
202112061500 AAXX 06154 67551 41680 73307 10275 20171 48487 71799 81900
                   333 58017 81940 87840
                   555 10319 91016=
202112061200 AAXX 06124 67551 42680 41205 10293 20168 48493 84100
                   333 58003 84840=
202112060900 AAXX 06094 67551 42580 71705 10249 20176 48508 82130
                   333 58000 82825 87362=
202112051200 AAXX 05124 67551 42680 40503 10315 20141 48493 84200
                   333 59003 84835 91016=
202112050900 AAXX 05094 67551 NIL=
202112050600 AAXX 05064 67551 32980 43006 10230 20168 48515 84030
                   333 10314 20181 58000 84362
                   555 00/// 20000 91019=
202112031500 AAXX 03154 67551 42680 31205 10296 20151 48452 83200
                   333 58008 83845 91014=
202112031200 AAXX 03124 67551 42680 50806 10312 20148 48491 85200
                   333 58004 85845=
202112020900 AAXX 02094 67551 42680 21203 10272 20159 48510 82101
                   333 59001 82840 82080
                   555 91018=
202112010900 AAXX 01094 67551 42680 72905 10262 20172 48507 83230
                   333 58007 83830 87362=

################################################################################
#  SYNOPS from 67561, Ndola (Zambia) | 13-00S | 028-39E | 1269 m
################################################################################
202112311200 AAXX 31124 67561 NIL=
202112300900 AAXX 30094 67561 NIL=
202112300600 AAXX 30064 67561 NIL=
202112291200 AAXX 29124 67561 NIL=
202112290600 AAXX 29064 67561 NIL=
202112281500 AAXX 28154 67561 NIL=
202112281200 AAXX 28124 67561 NIL=
202112271200 AAXX 27124 67561 NIL=
202112270900 AAXX 27094 67561 NIL=
202112260900 AAXX 26094 67561 NIL=
202112240900 AAXX 24094 67561 NIL=
202112231500 AAXX 23154 67561 NIL=
202112230900 AAXX 23094 67561 NIL=
202112220900 AAXX 22094 67561 NIL=
202112211500 AAXX 21154 67561 NIL=
202112211200 AAXX 21124 67561 NIL=
202112171500 AAXX 17154 67561 NIL=
202112171200 AAXX 17124 67561 NIL=
202112141200 AAXX 14124 67561 NIL=
202112131200 AAXX 13124 67561 NIL=
202112130900 AAXX 13094 67561 NIL=
202112120900 AAXX 12094 67561 NIL=
202112101500 AAXX 10154 67561 NIL=
202112091500 AAXX 09154 67561 NIL=
202112091200 AAXX 09124 67561 NIL=
202112090900 AAXX 09094 67561 NIL=
202112090600 AAXX 09064 67561 NIL=
202112061200 AAXX 06124 67561 NIL=
202112060900 AAXX 06094 67561 NIL=
202112050900 AAXX 05094 67561 NIL=
202112031500 AAXX 03154 67561 NIL=
202112031200 AAXX 03124 67561 NIL=
202112020900 AAXX 02094 67561 NIL=
202112010900 AAXX 01094 67561 NIL=

################################################################################
#  SYNOPS from 67563, Kafironda (Zambia) | 12-36S | 028-07E | 1243 m
################################################################################
202112311200 AAXX 31124 67563 NIL=
202112300900 AAXX 30094 67563 NIL=
202112300600 AAXX 30064 67563 NIL=
202112291200 AAXX 29124 67563 NIL=
202112290600 AAXX 29064 67563 NIL=
202112281500 AAXX 28154 67563 NIL=
202112281200 AAXX 28124 67563 NIL=
202112271200 AAXX 27124 67563 NIL=
202112270900 AAXX 27094 67563 42980 41003 10298 20200 48/// 80000
                   333 5//// 84080=
202112270600 AAXX 27064 67563 12980 00803 10242 20200 48/// 60024
                   333 10310 20168 5////
                   555 00162 20003=
202112261200 AAXX 26124 67563 42680 20602 10287 20170 48/// 82300
                   333 5//// 82945=
202112260900 AAXX 26094 67563 42980 60403 10264 20180 48/// 86020
                   333 5//// 86461=
202112240900 AAXX 24094 67563 NIL=
202112240600 AAXX 24064 67563 31980 71102 10210 20202 48/// 70522 81038
                   333 10300 20173 59005 81360 86270
                   555 00166 20000=
202112231500 AAXX 23154 67563 NIL=
202112230900 AAXX 23094 67563 NIL=
202112230600 AAXX 23064 67563 31980 70502 10215 20193 48/// 70522 81038
                   333 10290 20168 59005 81360 86270
                   555 00160 20002=
202112220900 AAXX 22094 67563 NIL=
202112211500 AAXX 21154 67563 NIL=
202112211200 AAXX 21124 67563 NIL=
202112171500 AAXX 17154 67563 NIL=
202112171200 AAXX 17124 67563 NIL=
202112160600 AAXX 16064 67563 11980 71202 10225 20195 48/// 60244 70562 86032
                   333 10337 20176 59007 86360 81080
                   555 00163 20001=
202112150600 AAXX 15064 67563 11580 71602 10225 20172 48/// 60014 70522 81238
                   333 10317 20172 5//// 81820 83360 83270
                   555 00154 20003=
202112141200 AAXX 14124 67563 NIL=
202112140600 AAXX 14064 67563 11980 71302 10240 20188 48/// 60034 70522 80008
                   333 5//// 87270 555 00165 20000=
202112131200 AAXX 13124 67563 42680 50504 10317 20140 48/// 85200
                   333 59002 85842=
202112130900 AAXX 13094 67563 NIL=
202112120900 AAXX 12094 67563 41578 60202 10300 20160 48/// 70522 83530
                   333 58003 83625 84361=
202112101500 AAXX 10154 67563 NIL=
202112101200 AAXX 10124 67563 41680 72106 10316 20181 48/// 70511 85200
                   333 59008 85842=
202112100900 AAXX 10094 67563 41980 72806 10285 20186 48/// 70522 80008
                   333 59008 81830 86270=
202112100600 AAXX 10064 67563 31980 71302 10250 20191 48/// 70500 80008
                   333 10320 20162 59011 87070
                   555 00149=
202112091500 AAXX 09154 67563 NIL=
202112091200 AAXX 09124 67563 41640 71402 10320 20170 48/// 70522 86200
                   333 59001 85840 81940=
202112090900 AAXX 09094 67563 41980 70702 10280 20178 48/// 70522 87200
                   333 59004 87830=
202112090600 AAXX 09064 67563 31980 20702 10250 20183 48/// 70500 80002
                   333 10324 20155 59005 82080
                   555 00140 20003=
202112080900 AAXX 08094 67563 41980 71506 10280 20174 48/// 70522 81038
                   333 59004 81362 86270=
202112061200 AAXX 06124 67563 41678 50502 10318 20170 48/// 70520 85200
                   333 58001 85845=
202112060900 AAXX 06094 67563 NIL=
202112060600 AAXX 06064 67563 31978 30402 10252 20170 48/// 70500 80002
                   333 10344 20181 58009 83080
                   555 00164 20000=
202112050900 AAXX 05094 67563 41978 00605 10293 20140 48/// 70500
                   333 5////=
202112050600 AAXX 05064 67563 31978 00402 10242 20140 48/// 70500
                   333 10341 20136 59005
                   555 00127 20000=
202112031500 AAXX 03154 67563 NIL=
202112031200 AAXX 03124 67563 NIL=
202112020900 AAXX 02094 67563 NIL=
202112010900 AAXX 01094 67563 NIL=

################################################################################
#  SYNOPS from 67571, Serenje (Zambia) | 13-14S | 030-13E | 1384 m
################################################################################
202112311200 AAXX 31124 67571 NIL=
202112310900 AAXX 31094 67571 42582 70000 10271 20174 48474 70222 86238
                   333 58003 81928 86828 82360 87280=
202112300900 AAXX 30094 67571 NIL=
202112300600 AAXX 30064 67571 12482 51205 10225 20178 48473 60104 81530
                   333 10328 20171 58007 81618 85360
                   555 00/// 20000=
202112291200 AAXX 29124 67571 42682 50602 10319 20135 48444 85200
                   333 81948 85848=
202112290600 AAXX 29064 67571 32982 00602 10266 20146 48474
                   333 10323 20205 59013
                   555 00/// 20000=
202112281500 AAXX 28154 67571 42782 11202 10297 20101 48444 81201
                   333 59007 81850 81080
                   555 10323=
202112281200 AAXX 28124 67571 42682 50902 10293 20124 48454 85200
                   333 59001 81940 85840=
202112280600 AAXX 28064 67571 32982 10902 10265 20137 48484 81030
                   333 10318 20189 59002 81360
                   555 00/// 20000=
202112271200 AAXX 27124 67571 42682 60304 10305 20129 48465 86200
                   333 59001 81945 86845=
202112270900 AAXX 27094 67571 42682 10902 10288 20136 48485 81200
                   333 58009 81830=
202112270600 AAXX 27064 67571 32582 10000 10238 20182 48483 81500
                   333 10288 20194 58019 81620
                   555 00/// 20992=
202112260900 AAXX 26094 67571 NIL=
202112240900 AAXX 24094 67571 NIL=
202112231500 AAXX 23154 67571 41680 71205 10229 20161 48422 72992 81908
                   333 59017 81943 87280
                   555 10300=
202112231200 AAXX 23124 67571 42682 63602 10282 20166 48443 84208
                   333 59015 81940 84840 86280=
202112230900 AAXX 23094 67571 42582 40902 10256 20171 48463 82231
                   333 59007 82828 81360 82080=
202112230600 AAXX 23064 67571 11982 72702 10200 20189 48482 60184 72162 8707/
                   333 10255 20181 59002 87360
                   555 00/// 20990=
202112221200 AAXX 22124 67571 42482 73304 10206 20170 48452 79196 81738
                   333 59009 81710 83360 87280=
202112220900 AAXX 22094 67571 42482 73605 10234 20178 48473 872//
                   333 59014 81918 87818=
202112220600 AAXX 22064 67571 11381 83305 10185 20169 48481 69904 72842 886//
                   333 10280 20182 59012 88708
                   555 00/// 20001=
202112211500 AAXX 21154 67571 42682 70903 10222 20174 48452 81338
                   333 59005 81938 83360 87280
                   555 10280=
202112211200 AAXX 21124 67571 NIL=
202112210900 AAXX 21094 67571 42582 50902 10247 20175 48483 84231
                   333 59004 81927 84827 81360 81080=
202112171500 AAXX 17154 67571 NIL=
202112171200 AAXX 17124 67571 NIL=
202112141200 AAXX 14124 67571 41680 70602 10292 20155 48433 79596
                   333 59003 81940 84842 86280=
202112131200 AAXX 13124 67571 42682 71203 10329 20123 48444 872//
                   333 58001 81948 87848=
202112130900 AAXX 13094 67571 42682 50303 10300 20133 48464 85200
                   333 58000 81934 85834=
202112130600 AAXX 13064 67571 32982 00604 10260 20138 48474
                   333 10332 20190 58002
                   555 00/// 20000=
202112121200 AAXX 12124 67571 42682 52703 10309 20104 48433 85200
                   333 58004 81945 85845=
202112120900 AAXX 12094 67571 NIL=
202112101500 AAXX 10154 67571 NIL=
202112091500 AAXX 09154 67571 NIL=
202112091200 AAXX 09124 67571 NIL=
202112090900 AAXX 09094 67571 42682 70602 10294 20132 48474 70322 84288
                   333 59002 81931 84831 81360 87280=
202112090600 AAXX 09064 67571 32982 73602 10253 20141 48483 70222 85088
                   333 10327 20208 58001 85360 87280
                   555 00/// 20000=
202112080900 AAXX 08094 67571 42682 41205 10296 20099 48475 84200
                   333 59005 84830=
202112080600 AAXX 08064 67571 32982 00905 10263 20115 48484
                   333 10334 20204 59001
                   555 00/// 20004=
202112070900 AAXX 07094 67571 42682 70603 10283 20141 48484 872//
                   333 58009 81933 87833=
202112070600 AAXX 07064 67571 12982 00302 10255 20146 48484 60044
                   333 10310 20199 58003
                   555 00///=
202112061200 AAXX 06124 67571 41670 72702 10265 20162 48453 71666 872//
                   333 58014 81940 87840=
202112060900 AAXX 06094 67571 42682 73604 10280 20141 48474 872//
                   333 58016 81935 87835=
202112050900 AAXX 05094 67571 NIL=
202112031500 AAXX 03154 67571 NIL=
202112031200 AAXX 03124 67571 42782 61203 10304 20111 48454 70122 84101
                   333 58009 84850 83080=
202112020900 AAXX 02094 67571 42682 50605 10276 20131 48474 85200
                   333 58002 81935 85832=
202112010900 AAXX 01094 67571 42681 60605 10283 20136 48474 86200
                   333 58006 81943 86843=

################################################################################
#  SYNOPS from 67575, Mkushi (Zambia) | 13-38-00S | 029-26-00E | 1237 m
################################################################################
202112311200 AAXX 31124 67575 NIL=
202112310900 AAXX 31094 67575 41560 72604 10232 20192 48/// 71782 83273
                   333 5//// 81925 83825 84360 81080=
202112300900 AAXX 30094 67575 42680 11602 10272 20187 48/// 81130
                   333 5//// 81830 81361=
202112300600 AAXX 30064 67575 12980 61801 10209 20172 48/// 60104 86070
                   333 10345 20173 5//// 86360
                   555 00184=
202112291200 AAXX 29124 67575 42680 20901 10330 20158 48/// 82201
                   333 5//// 82838 81080=
202112290600 AAXX 29064 67575 32980 13501 10230 20158 48/// 80001
                   333 10330 20155 5//// 81080
                   555 00144=
202112281500 AAXX 28154 67575 42680 41203 10314 20123 48/// 81202
                   333 5//// 81842 84080
                   555 10330=
202112281200 AAXX 28124 67575 42680 21403 10322 20149 48/// 82200
                   333 5//// 82838=
202112280900 AAXX 28094 67575 42680 13603 10298 20155 48/// 81101
                   333 5//// 81830 81080=
202112271200 AAXX 27124 67575 42680 20402 10310 20141 48/// 82202
                   333 5//// 82838 81080=
202112270900 AAXX 27094 67575 42680 10803 10296 20154 48/// 81101
                   333 5//// 81830 81080=
202112260900 AAXX 26094 67575 42680 70903 10268 20196 48/// 81208
                   333 5//// 81830 87280=
202112240900 AAXX 24094 67575 42580 72002 10234 20200 48/// 83278
                   333 5//// 81925 83825 82361 83280=
202112231500 AAXX 23154 67575 42680 41802 10274 20196 48/// 83233
                   333 5//// 83840 81361 81080
                   555 10305=
202112231200 AAXX 23124 67575 41680 50901 10286 20183 48/// 71792 84273
                   333 5//// 81938 84838 81361 81080=
202112230900 AAXX 23094 67575 42680 41202 10272 20196 48/// 83231
                   333 5//// 83830 81360 81080=
202112230600 AAXX 23064 67575 32480 71202 10216 20184 48/// 85531
                   333 10248 20188 5//// 85615 81360 83078
                   555 00183=
202112220900 AAXX 22094 67575 42480 83401 10225 20187 48/// 83578
                   333 5//// 83618 84360 82278=
202112220600 AAXX 22064 67575 12380 80301 10206 20190 48/// 69924 8767/
                   333 10285 20193 5//// 87708 82360
                   555 00190=
202112211500 AAXX 21154 67575 41670 61302 10244 20191 48/// 76198 81278
                   333 5//// 81843 82363 84280
                   555 10285=
202112211200 AAXX 21124 67575 42680 61402 10272 20180 48/// 84273
                   333 5//// 81937 84837 82363 81080=
202112210900 AAXX 21094 67575 42580 60901 10265 20184 48/// 82271
                   333 5//// 82825 84361 81080=
202112171500 AAXX 17154 67575 41550 71103 10242 20177 48/// 71792 87273
                   333 5//// 81920 87820 81360 81080
                   555 10310=
202112171200 AAXX 17124 67575 42680 62502 10292 20169 48/// 83231
                   333 5//// 83838 82363 82080=
202112161200 AAXX 16124 67575 41675 23404 10332 20104 48/// 70521 82231
                   333 5//// 82840 81363 81080=
202112160600 AAXX 16064 67575 31975 62302 10229 20178 48/// 70522 80008
                   333 10327 20178 5//// 86278
                   555 00///=
202112141200 AAXX 14124 67575 41660 60605 10258 20188 48/// 78082 84273
                   333 5//// 81938 84838 81362 82080=
202112131200 AAXX 13124 67575 NIL=
202112130900 AAXX 13094 67575 42680 10404 10302 20133 48/// 81201
                   333 5//// 81830 81080=
202112120900 AAXX 12094 67575 NIL=
202112120600 AAXX 12064 67575 32980 50905 10259 20141 48/// 85070
                   333 10337 20215 5//// 85360
                   555 00180=
202112101500 AAXX 10154 67575 41875 11303 10317 20133 48/// 70500 81260
                   333 5//// 81857 81358
                   555 10334=
202112101200 AAXX 10124 67575 41775 33001 10312 20135 48/// 70500 83200
                   333 5//// 83256=
202112100900 AAXX 10094 67575 41675 30906 10298 20137 48/// 70500 83200
                   333 5//// 83835=
202112100600 AAXX 10064 67575 31475 10903 10254 20163 48/// 70500 81171
                   333 10343 20203 5//// 81815 81360 81080=
202112091500 AAXX 09154 67575 42780 11202 10318 20118 48/// 81200
                   333 5//// 81850 555 10343=
202112091200 AAXX 09124 67575 42680 23603 10322 20137 48/// 82200
                   333 5//// 82840=
202112090900 AAXX 09094 67575 42680 13602 10299 20136 48/// 81230
                   333 5//// 81832 81362=
202112090600 AAXX 09064 67575 12980 20705 10260 20128 48/// 69934 82030
                   333 10340 20215 5//// 82361
                   555 00184=
202112080900 AAXX 08094 67575 41675 31002 10310 20119 48/// 70521 81101
                   333 5//// 81830 83080=
202112070900 AAXX 07094 67575 42680 20301 10292 20148 48/// 82201
                   333 5//// 82830 81080=
202112061200 AAXX 06124 67575 42680 20903 10332 20152 48/// 82200
                   333 5//// 82840=
202112060900 AAXX 06094 67575 42680 10302 10294 20158 48/// 81130
                   333 5//// 81830 81361=
202112050900 AAXX 05094 67575 42680 10302 10310 20145 48/// 81200
                   333 5//// 81830=
202112050600 AAXX 05064 67575 32980 00301 10237 20137 48///
                   333 10335 20156 5////
                   555 00141=
202112031500 AAXX 03154 67575 42980 10903 10307 20126 48/// 81200
                   333 5//// 81840 555 10328=
202112031200 AAXX 03124 67575 NIL=
202112020900 AAXX 02094 67575 42680 20804 10288 20151 48/// 82200
                   333 5//// 82832=
202112010900 AAXX 01094 67575 42680 20905 10302 20154 48/// 82200
                   333 5//// 82833=

################################################################################
#  SYNOPS from 67580, Msekera (Zambia) | 13-39S | 032-34E | 1025 m
################################################################################
202112311200 AAXX 31124 67580 NIL=
202112300900 AAXX 30094 67580 42680 52405 10283 20206 48/// 82232
                   333 59004 82844 82361 82080=
202112300600 AAXX 30064 67580 32680 72203 10258 20203 48/// 81131
                   333 10336 20209 5//// 81830 87360 81080
                   555 00/// 20000=
202112291200 AAXX 29124 67580 NIL=
202112290600 AAXX 29064 67580 NIL=
202112281500 AAXX 28154 67580 NIL=
202112281200 AAXX 28124 67580 NIL=
202112280600 AAXX 28064 67580 32980 73002 10276 20186 48/// 83038
                   333 10364 20199 59006 83361 86280
                   555 00/// 20000=
202112271200 AAXX 27124 67580 42780 71504 10346 20181 48/// 86201
                   333 5//// 86857 84080=
202112270900 AAXX 27094 67580 42680 60906 10328 20186 48/// 85201
                   333 5//// 85842 82080=
202112270600 AAXX 27064 67580 32680 71504 10256 20209 48/// 81135
                   333 10359 20209 59007 81832 81360 87280
                   555 00/// 20000=
202112260900 AAXX 26094 67580 NIL=
202112240900 AAXX 24094 67580 42680 70603 10317 20199 48/// 81108
                   333 59003 81846 87280=
202112231500 AAXX 23154 67580 42780 72602 10290 20205 48/// 82208
                   333 59022 82850 87280
                   555 10335=
202112231200 AAXX 23124 67580 42780 72802 10297 20208 48/// 84208
                   333 59005 84850 87280=
202112230900 AAXX 23094 67580 42680 70602 10285 20204 48/// 87208
                   333 59004 87842 87280=
202112230600 AAXX 23064 67580 12980 70000 10235 20206 48/// 60024 83038
                   333 10304 20205 58010 83360 87280
                   555 00/// 20003=
202112220900 AAXX 22094 67580 42680 70303 10284 20206 48/// 87232
                   333 59025 87840 82361 84080=
202112220600 AAXX 22064 67580 31580 70802 10264 20213 48/// 60034 81131
                   333 59030 81828 87360 82080
                   555 00/// 20005=
202112211500 AAXX 21154 67580 41680 71102 10232 20207 48/// 72992 81978
                   333 59008 81938 82838 84360 87280
                   555 10289=
202112211200 AAXX 21124 67580 41680 71204 10260 20204 48/// 71792 81938
                   333 59003 81940 86840 82360 85280=
202112210900 AAXX 21094 67580 42680 72102 10266 20217 48/// 87232
                   333 58000 87838 82361 83080=
202112171500 AAXX 17154 67580 NIL=
202112171200 AAXX 17124 67580 NIL=
202112160600 AAXX 16064 67580 32980 00904 10292 20171 48///
                   333 10377 20215 5////
                   555 00/// 20000=
202112141200 AAXX 14124 67580 NIL=
202112131200 AAXX 13124 67580 42780 61102 10359 20153 48/// 86100
                   333 5//// 86856=
202112130900 AAXX 13094 67580 42680 21204 10328 20167 48/// 82101
                   333 5//// 82838 81080=
202112120900 AAXX 12094 67580 NIL=
202112101500 AAXX 10154 67580 NIL=
202112101200 AAXX 10124 67580 41778 71203 10357 20168 48/// 87202
                   333 5//// 87856 82080=
202112100900 AAXX 10094 67580 41678 70603 10322 20170 48/// 70500 87100
                   333 5//// 87840=
202112100600 AAXX 10064 67580 31978 21104 10288 20167 48/// 70511 82030
                   333 10370 20205 5//// 82360=
202112091500 AAXX 09154 67580 42680 71203 10324 20157 48/// 84230
                   333 59010 84846 83360
                   555 10370=
202112091200 AAXX 09124 67580 42780 61003 10344 20156 48/// 86200
                   333 59015 86856=
202112090900 AAXX 09094 67580 42680 30802 10332 20163 48/// 83100
                   333 59007 83838=
202112090600 AAXX 09064 67580 32980 00000 10292 20156 48///
                   333 10359 20213 59001
                   555 00/// 20000=
202112080900 AAXX 08094 67580 42680 71003 10323 20175 48/// 87200
                   333 5//// 87844=
202112061200 AAXX 06124 67580 NIL=
202112060900 AAXX 06094 67580 NIL=
202112050900 AAXX 05094 67580 NIL=
202112050600 AAXX 05064 67580 32980 00904 10290 20166 48///
                   333 10370 20227 58001
                   555 00/// 20000=
202112031500 AAXX 03154 67580 41778 40903 10326 20135 48/// 70522 84100
                   333 58011 84850 555 10362=
202112031200 AAXX 03124 67580 41778 61203 10340 20149 48/// 70522 86200
                   333 58014 86856=
202112020900 AAXX 02094 67580 41680 70805 10314 20180 48/// 70522 87200
                   333 58005 87838=
202112010900 AAXX 01094 67580 41676 50903 10325 20174 48/// 70500 85100
                   333 58005 85838=

################################################################################
#  SYNOPS from 67581, Chipata (Zambia) | 13-33S | 032-35E | 1028 m
################################################################################
202112311200 AAXX 31124 67581 41680 71606 10315 20182 48506 71792 82932
                   333 59002 82945 85850 83360 84080 91014=
202112310600 AAXX 31064 67581 12980 60903 10269 20194 48/// 60344 81038
                   333 10//0 20187 5//// 81360 86280
                   555 00/// 20001=
202112300900 AAXX 30094 67581 42680 62003 10294 20200 48529 84138
                   333 58003 84830 85360 85280 91017=
202112300600 AAXX 30064 67581 12580 71805 10262 20199 48528 60024 8113/
                   333 10/// 20226 59004 81820 86360
                   555 00/// 20000 91017=
202112291200 AAXX 29124 67581 42780 62101 10357 20144 48512 86202
                   333 59018 86850 81080 91013=
202112290600 AAXX 29064 67581 32980 50604 10291 20179 48537 81038
                   333 10//0 20212 59014 81360 85280
                   555 00/// 20000 91018=
202112281500 AAXX 28154 67581 NIL=
202112281200 AAXX 28124 67581 42680 60000 10345 20148 48557 84238
                   333 59006 84848 81360 87280 91016=
202112280600 AAXX 28064 67581 42980 61405 10290 20172 48559 84032
                   333 10//0 20184 59005 84360 83080
                   555 00/// 20000 91019=
202112271200 AAXX 27124 67581 42780 70906 10339 20150 48531 83207
                   333 59001 83850 87280 91016=
202112270900 AAXX 27094 67581 42680 70608 10322 20184 48552 85208
                   333 58000 85840 86280 91019=
202112260900 AAXX 26094 67581 42680 73606 10300 20190 48549 84208
                   333 58010 84835 87280 91019=
202112240900 AAXX 24094 67581 NIL=
202112231500 AAXX 23154 67581 41680 71204 10221 20200 48491 71722 83238
                   333 59019 81945 83845 82360 86280
                   555 10/// 91012=
202112231200 AAXX 23124 67581 42680 72006 10305 20207 48508 83238
                   333 59006 83835 81360 87280 91014=
202112230900 AAXX 23094 67581 42580 70903 10290 20200 48529 84238
                   333 59018 84828 81360 87280 91017=
202112230600 AAXX 23064 67581 12980 71206 10242 20209 48538 60044 81038
                   333 10//0 20192 58008 81360 87280
                   555 00/// 20000 91018=
202112220900 AAXX 22094 67581 42780 70606 10290 20212 48547 872//
                   333 59010 87850 91019=
202112220600 AAXX 22064 67581 32580 70606 10254 20205 48531 84132
                   333 10//0 20216 59028 84825 86360 84080
                   555 00/// 20008 91018=
202112211500 AAXX 21154 67581 NIL=
202112211200 AAXX 21124 67581 42680 70904 10270 20209 48532 71722 872//
                   333 59006 82935 86835 91017=
202112210900 AAXX 21094 67581 42680 70804 10270 20201 48553 8427/
                   333 58000 84825 87460 91020=
202112171500 AAXX 17154 67581 42680 60906 10335 20154 48493 84138
                   333 58012 84835 86360 86280
                   555 10/// 91012=
202112171200 AAXX 17124 67581 42680 60903 10341 20129 48505 85138
                   333 58006 85840 83360 86280 91013=
202112161200 AAXX 16124 67581 42680 60905 10351 20154 48499 84202
                   333 58001 84850 82080 91012=
202112160600 AAXX 16064 67581 32980 50904 10285 20158 48537 82038
                   333 10//0 20219 59002 82360 85280
                   555 00/// 20000 91017=
202112141200 AAXX 14124 67581 NIL=
202112131200 AAXX 13124 67581 NIL=
202112130900 AAXX 13094 67581 42680 20812 10330 20165 48539 82102
                   333 58006 82845 82080 91017=
202112120900 AAXX 12094 67581 41680 40608 10331 20142 48533 70500 84100
                   333 58005 84830 91016=
202112101500 AAXX 10154 67581 NIL=
202112100900 AAXX 10094 67581 42680 31003 10320 20152 48/// 83130
                   333 5//// 83838 81360=
202112100600 AAXX 10064 67581 32980 21806 10290 20162 48537 82030
                   333 10//0 20222 59016 82360 91018=
202112091500 AAXX 09154 67581 42780 61005 10324 20138 48510 82230
                   333 59010 82858 83360 91014=
202112091200 AAXX 09124 67581 42780 41508 10354 20148 48537 84200
                   333 59012 84850 91015=
202112090900 AAXX 09094 67581 42680 30905 10330 20154 48548 83100
                   333 59010 83840 91018=
202112090600 AAXX 09064 67581 32980 31604 10291 20152 48553 80002
                   333 10//0 20221 59003 83080
                   555 00/// 20000 91019=
202112080900 AAXX 08094 67581 42680 60412 10320 20181 48556 86200
                   333 59001 86845 91019=
202112070900 AAXX 07094 67581 42780 50814 10320 20153 48556 85100
                   333 58012 85850 91019=
202112061200 AAXX 06124 67581 42780 60404 10340 20148 48536 86200
                   333 58000 86850 91016=
202112060900 AAXX 06094 67581 42680 40608 10325 20169 48545 84102
                   333 59002 84830 81080 91018=
202112050900 AAXX 05094 67581 41580 10605 10325 20171 48547 70500 81100
                   333 59003 81825 91018=
202112050600 AAXX 05064 67581 41980 00609 10275 20163 48546 70500
                   333 10//0 20247 59001
                   555 00/// 20000 91019=
202112031500 AAXX 03154 67581 42980 60910 10325 20126 48520 86032
                   333 58013 86360 83080 91015=
202112031200 AAXX 03124 67581 42780 30812 10320 20151 48553 70322 83102
                   333 58008 83850 82080 91019=
202112020900 AAXX 02094 67581 NIL=
202112010900 AAXX 01094 67581 42680 40804 10310 20159 48538 84102
                   333 58003 84835 82080 91017=

################################################################################
#  SYNOPS from 67583, Lundazi (Zambia) | 12-17S | 033-12E | 1143 m
################################################################################
202112311200 AAXX 31124 67583 NIL=
202112300900 AAXX 30094 67583 42980 60902 10342 20180 48/// 86030
                   333 5//// 86360=
202112300600 AAXX 30064 67583 11980 70000 10248 20187 48/// 69904 75022 8707/
                   333 10360 2//// 5//// 87460
                   555 00/// 20000=
202112291200 AAXX 29124 67583 NIL=
202112290600 AAXX 29064 67583 32980 60902 10296 20163 48/// 81038
                   333 10370 2//// 5//// 81360 85280
                   555 00/// 20000=
202112281500 AAXX 28154 67583 42780 71203 10324 20159 48/// 81908
                   333 5//// 81950 81856 87280
                   555 10370=
202112281200 AAXX 28124 67583 42780 70000 10354 20160 48/// 84208
                   333 5//// 84850 87280=
202112271200 AAXX 27124 67583 42780 51206 10342 20132 48/// 84201
                   333 5//// 84850 81080=
202112270900 AAXX 27094 67583 42680 31302 10322 20153 48/// 82201
                   333 5//// 82846 81080=
202112260900 AAXX 26094 67583 42780 70903 10322 20159 48/// 84208
                   333 5//// 84850 87280=
202112240900 AAXX 24094 67583 42780 63402 10332 20153 48/// 83208
                   333 5//// 83850 86380=
202112231500 AAXX 23154 67583 42780 70000 10330 20161 48/// 82208
                   333 82856 87280 555 10338=
202112231200 AAXX 23124 67583 42780 70000 10330 20161 48/// 83208
                   333 5//// 83850 87280=
202112230900 AAXX 23094 67583 NIL=
202112230600 AAXX 23064 67583 32980 70000 10240 20188 48/// 81038
                   333 10324 2//// 5//// 81360 87280
                   555 00/// 20000=
202112220900 AAXX 22094 67583 42680 70901 10294 20202 48/// 86201
                   333 5//// 86835 81080=
202112220600 AAXX 22064 67583 12580 70905 10256 20197 48/// 69904 82238
                   333 10285 2//// 5//// 82824 81359 87280
                   555 00/// 20010=
202112211500 AAXX 21154 67583 NIL=
202112211200 AAXX 21124 67583 NIL=
202112171500 AAXX 17154 67583 NIL=
202112171200 AAXX 17124 67583 NIL=
202112160600 AAXX 16064 67583 32980 10000 10285 20165 48/// 80001
                   333 10352 20//0 5//// 81080
                   555 00/// 20000=
202112150900 AAXX 15094 67583 42680 71202 10340 20125 48/// 83102
                   333 5//// 83830 84080=
202112141200 AAXX 14124 67583 42780 51502 10354 20120 48/// 85200
                   333 5//// 85856=
202112131200 AAXX 13124 67583 42780 30603 10348 20153 48/// 83200
                   333 5//// 83856=
202112130900 AAXX 13094 67583 42780 11203 10328 20156 48/// 81200
                   333 5//// 81850=
202112120900 AAXX 12094 67583 42780 41502 10328 20146 48/// 70300 84200
                   333 5//// 84850=
202112101500 AAXX 10154 67583 42980 11206 10310 20126 48/// 80001
                   333 5//// 81080 555 10346=
202112100900 AAXX 10094 67583 42780 30904 10328 20166 48/// 70300 83201
                   333 5//// 83850 81080=
202112100600 AAXX 10064 67583 32680 21203 10276 20176 48/// 81201
                   333 10350 2//// 5//// 81840 81080=
202112091500 AAXX 09154 67583 42980 11302 10316 20132 48/// 81030
                   333 5//// 81359 555 10350=
202112091200 AAXX 09124 67583 42780 40803 10338 20135 48/// 70100 84260
                   333 5//// 84850 81358=
202112090900 AAXX 09094 67583 42780 21202 10336 20144 48/// 82200
                   333 5//// 82850=
202112090600 AAXX 09064 67583 31980 00902 10284 20154 48///
                   333 10346 2//// 5////
                   555 00///=
202112080900 AAXX 08094 67583 42780 21205 10328 20145 48/// 82201
                   333 5//// 82850 81080=
202112061200 AAXX 06124 67583 42680 30902 10339 20169 48/// 82101
                   333 5//// 82830 81080=
202112060900 AAXX 06094 67583 NIL=
202112050900 AAXX 05094 67583 NIL=
202112031500 AAXX 03154 67583 NIL=
202112031200 AAXX 03124 67583 NIL=
202112020900 AAXX 02094 67583 NIL=
202112010900 AAXX 01094 67583 NIL=
202112010600 AAXX 01064 67583 31960 01502 10284 20178 48/// 70500
                   333 10350 20//0 5////
                   555 00/// 20000=

################################################################################
#  SYNOPS from 67599, Mfuwe (Zambia) | 13-16S | 031-56E | 568 m
################################################################################
202112311200 AAXX 31124 67599 41680 63307 10300 20214 48501 71799 85970
                   333 58012 81940 84845 85459 91011=
202112310900 AAXX 31094 67599 42780 53208 10340 20205 48537 85202
                   333 58005 85850 84080 91014=
202112300900 AAXX 30094 67599 NIL=
202112300600 AAXX 30064 67599 12980 41505 10308 20219 48532 69934 84030
                   333 10425 20250 59004 84360
                   555 00/// 91014=
202112291200 AAXX 29124 67599 42880 50304 10380 20175 48508 85100
                   333 59022 85857 555 91009=
202112290600 AAXX 29064 67599 12980 40000 10300 20206 48564 60014 84030
                   333 10415 20230 59013 84360
                   555 00/// 91015=
202112281500 AAXX 28154 67599 NIL=
202112281200 AAXX 28124 67599 NIL=
202112271200 AAXX 27124 67599 NIL=
202112270900 AAXX 27094 67599 NIL=
202112260900 AAXX 26094 67599 NIL=
202112240900 AAXX 24094 67599 NIL=
202112231500 AAXX 23154 67599 NIL=
202112230900 AAXX 23094 67599 NIL=
202112230600 AAXX 23064 67599 32980 51407 10278 20217 48539 86030
                   333 10365 20228 58009 86360
                   555 00/// 91016=
202112220900 AAXX 22094 67599 NIL=
202112211500 AAXX 21154 67599 NIL=
202112211200 AAXX 21124 67599 NIL=
202112171500 AAXX 17154 67599 NIL=
202112171200 AAXX 17124 67599 NIL=
202112160600 AAXX 16064 67599 31975 10504 10314 20176 48526 70500 80001
                   333 10415 20224 58000 81080
                   555 00/// 91013=
202112141200 AAXX 14124 67599 NIL=
202112131200 AAXX 13124 67599 42680 53607 10400 20165 48511 85100
                   333 59001 85845 91009=
202112130900 AAXX 13094 67599 42680 33507 10362 20176 48537 83101
                   333 58009 83841 81080 91013=
202112120900 AAXX 12094 67599 42680 50704 10362 20174 48529 85100
                   333 58000 85843 91012=
202112101500 AAXX 10154 67599 42680 60910 10384 20161 48498 83138
                   333 59007 83848 82360 86280
                   555 10402 91008=
202112101200 AAXX 10124 67599 42680 60406 10378 20159 48513 86100
                   333 59009 86845 91010=
202112100900 AAXX 10094 67599 42680 40208 10362 20164 48536 83100
                   333 59012 83843 91013=
202112100600 AAXX 10064 67599 32980 10712 10334 20162 48539 81030
                   333 10420 20268 59019 81360 91014=
202112091500 AAXX 09154 67599 42680 61005 10380 20154 48505 84130
                   333 59016 84848 84359
                   555 10420 91009=
202112091200 AAXX 09124 67599 42680 50805 10400 20184 48527 85100
                   333 59009 85847 91011=
202112090900 AAXX 09094 67599 42680 21303 10368 20164 48552 82100
                   333 59005 82842 91014=
202112090600 AAXX 09064 67599 32980 00807 10327 20166 48559
                   333 10403 20230 59003
                   555 00/// 91016=
202112080900 AAXX 08094 67599 42680 50712 10363 20174 48554 85100
                   333 59003 85843 91015=
202112070900 AAXX 07094 67599 42780 50814 10371 20164 48559 85100
                   333 58010 85850 91015=
202112061200 AAXX 06124 67599 NIL=
202112060900 AAXX 06094 67599 42680 20213 10360 20191 48547 82100
                   333 59007 82845 91014=
202112050900 AAXX 05094 67599 NIL=
202112031500 AAXX 03154 67599 NIL=
202112031200 AAXX 03124 67599 NIL=
202112020900 AAXX 02094 67599 NIL=
202112010900 AAXX 01094 67599 NIL=

################################################################################
#  SYNOPS from 67625, Kalabo (Zambia) | 14-51S | 022-42E | 1033 m
################################################################################
202112311200 AAXX 31124 67625 42682 63610 10295 20184 48/// 81133
                   333 58032 81844 84361 86075=
202112310900 AAXX 31094 67625 42582 71414 10243 20186 48/// 8113/
                   333 5//// 81822 87360=
202112300900 AAXX 30094 67625 42982 73612 10289 20199 48/// 81033
                   333 5//// 81360 87075=
202112300600 AAXX 30064 67625 12982 73605 10235 20197 48/// 69924 83033
                   333 10343 20175 59015 83360 87075
                   555 00/// 20993=
202112291200 AAXX 29124 67625 NIL=
202112290600 AAXX 29064 67625 12982 72409 10222 20176 48/// 69934 81033
                   333 10346 20180 58013 81360 87075
                   555 00/// 20000=
202112281500 AAXX 28154 67625 42782 60000 10315 20208 48/// 81163
                   333 59036 81850 82360 86075
                   555 10346=
202112281200 AAXX 28124 67625 42682 33007 10315 20182 48/// 81333
                   333 59009 81948 81850 83361 83075=
202112280900 AAXX 28094 67625 42982 12707 10290 20203 48/// 81031
                   333 59011 81361 81075=
202112271200 AAXX 27124 67625 NIL=
202112270900 AAXX 27094 67625 41982 73109 10245 20193 48/// 72052 8702/
                   333 87460=
202112260900 AAXX 26094 67625 NIL=
202112240900 AAXX 24094 67625 41582 73410 10265 20199 48/// 71522 81333
                   333 5//// 81925 82827 87360 87075=
202112231500 AAXX 23154 67625 42782 13005 10323 20175 48/// 81163
                   333 59014 81850 81360 81075
                   555 10329=
202112231200 AAXX 23124 67625 42782 4//// 10310 20181 48/// 82103
                   333 59024 82850 83075=
202112230900 AAXX 23094 67625 42582 53612 10270 20199 48/// 81103
                   333 59027 81828 85075=
202112230600 AAXX 23064 67625 12482 73315 10218 20197 48/// 69914 81633
                   333 10285 20185 58001 81710 81360 87075
                   555 00/// 20015=
202112220900 AAXX 22094 67625 42582 72811 10253 20197 48/// 83133
                   333 58019 83823 83360 87075=
202112220600 AAXX 22064 67625 12982 73106 10199 20188 48/// 60154 8703/
                   333 10307 20184 59003 87360=
202112211500 AAXX 21154 67625 42682 70310 10290 20195 48/// 81103
                   333 59006 81838 87075
                   555 10307=
202112211200 AAXX 21124 67625 41682 53008 10281 20212 48/// 72982 82333
                   333 59008 82935 82837 82360 85075=
202112210900 AAXX 21094 67625 42682 73312 10278 20201 48/// 82133
                   333 58006 82832 83360 87075=
202112171500 AAXX 17154 67625 41582 73612 10205 20197 48/// 78082 82333
                   333 58037 82922 81824 85360 87075
                   555 10265=
202112171200 AAXX 17124 67625 42582 73012 10250 20198 48/// 82333
                   333 58015 82920 81822 83360 87075=
202112161200 AAXX 16124 67625 42682 42108 10285 20192 48/// 81133
                   333 58019 81836 83360 84075=
202112160600 AAXX 16064 67625 11482 72404 10200 20198 48/// 60074 79196 8132/
                   333 10333 20200 58012 81915 87460
                   555 00/// 20000=
202112141200 AAXX 14124 67625 42682 70912 10275 20194 48/// 81133
                   333 58046 81834 83360 87075=
202112131200 AAXX 13124 67625 42782 71506 10345 20181 48/// 82103
                   333 82856 87075=
202112130900 AAXX 13094 67625 42682 71510 10309 20185 48/// 81103
                   333 81846 87075=
202112120900 AAXX 12094 67625 NIL=
202112101500 AAXX 10154 67625 42782 50814 10315 20160 48/// 81133
                   333 59007 81856 81360 85075
                   555 10323=
202112101200 AAXX 10124 67625 42682 71209 10289 20169 48/// 8113/
                   333 58006 81846 87360=
202112100900 AAXX 10094 67625 42982 73106 10255 20182 48/// 8703/
                   333 5//// 87360=
202112100600 AAXX 10064 67625 32980 70811 10240 20188 48/// 87030
                   333 10335 20195 59017 87360=
202112091500 AAXX 09154 67625 42782 20914 10322 20161 48/// 81133
                   333 59013 81856 81360 82075
                   555 10335=
202112091200 AAXX 09124 67625 42782 41808 10319 20153 48/// 81133
                   333 59024 81856 81360 84075=
202112090900 AAXX 09094 67625 42982 70807 10290 20168 48/// 83033
                   333 5//// 83360 87075=
202112090600 AAXX 09064 67625 32982 70923 10240 20179 48/// 82033
                   333 10310 20180 59010 82360 87075
                   555 00/// 20990=
202112080900 AAXX 08094 67625 42982 50119 10265 20172 48/// 81033
                   333 5//// 81360 85075=
202112061200 AAXX 06124 67625 42782 32006 10305 20160 48/// 81103
                   333 81850 83075=
202112060900 AAXX 06094 67625 42982 50621 10280 20174 48/// 81033
                   333 81360 85075=
202112050900 AAXX 05094 67625 NIL=
202112031500 AAXX 03154 67625 42882 70811 10340 20158 48/// 81163
                   333 59018 81857 81360 87075
                   555 10360=
202112031200 AAXX 03124 67625 42882 73611 10345 20155 48/// 81103
                   333 59008 81857 87075=
202112020900 AAXX 02094 67625 42782 73111 10294 20166 48/// 81103
                   333 58000 81850 87075=
202112010900 AAXX 01094 67625 42982 53310 10300 20181 48/// 80003
                   333 58002 85075=

################################################################################
#  SYNOPS from 67633, Mongu (Zambia) | 15-15S | 023-09E | 1052 m
################################################################################
202112311200 AAXX 31124 67633 42680 63604 10290 20194 48517 83232
                   333 58032 81945 83845 84080
                   555 91016=
202112310900 AAXX 31094 67633 42680 60302 10265 20186 48537 81138
                   333 58023 81830 84360 86280
                   555 91019=
202112310600 AAXX 31064 67633 32980 60910 10226 20182 48524 84038
                   333 10333 20185 58018 84360 86280
                   555 00195 20016 91018=
202112300900 AAXX 30094 67633 42980 40602 10296 20196 48520 83032
                   333 59013 83360 83080 91016=
202112300600 AAXX 30064 67633 12980 30603 10245 20195 48509 60164 82032
                   333 10340 20180 59015 82360 83080
                   555 00187 20000 91016=
202112291200 AAXX 29124 67633 NIL=
202112290600 AAXX 29064 67633 NIL=
202112281500 AAXX 28154 67633 NIL=
202112281200 AAXX 28124 67633 42680 23403 10320 20201 48524 70200 82100
                   333 59012 82840 91015=
202112280900 AAXX 28094 67633 42680 23603 10295 20204 48533 70300 81130
                   333 59004 81830 81830 91018=
202112271200 AAXX 27124 67633 42680 63201 10290 20211 48521 70322 84232
                   333 58019 84835 82360 81080
                   555 91017=
202112270900 AAXX 27094 67633 42680 63301 10257 20199 48532 70322 81132
                   333 58010 81830 84360 83080
                   555 91090=
202112260900 AAXX 26094 67633 42980 70203 10279 20209 48526 8707/
                   333 58002 87460 91018=
202112240900 AAXX 24094 67633 42680 73302 10260 20210 48524 70222 83238
                   333 58023 83830 83360 86280
                   555 91018=
202112231500 AAXX 23154 67633 42780 33603 10317 20190 48463 83202
                   333 59023 81957 82857 81080
                   555 10324 91010=
202112231200 AAXX 23124 67633 42780 32906 10312 20203 48483 83102
                   333 59026 83857 81080 91012=
202112230900 AAXX 23094 67633 42580 53610 10271 20211 48503 82108
                   333 59006 82825 85280 91015=
202112230600 AAXX 23064 67633 12980 53613 10226 20194 48504 60394 82038
                   333 10289 20187 59003 82360 85280
                   555 00178 20053 91016 20053=
202112221200 AAXX 22124 67633 42580 70202 10200 20193 48493 79599 862//
                   333 58006 81920 86825 91015=
202112220900 AAXX 22094 67633 42480 73404 10252 20211 48514 85838
                   333 59010 82616 83816 83360 86280 91017=
202112220600 AAXX 22064 67633 12380 73601 10213 20202 48505 60534 83638
                   333 10309 20184 59007 83706 86360 86280
                   555 00190 20017 91016=
202112211500 AAXX 21154 67633 42780 60603 10290 20198 48474 82208
                   333 59014 81950 82850 86280
                   555 10309 91011=
202112211200 AAXX 21124 67633 42680 63604 10287 20208 48499 84208
                   333 59002 81940 84840 86280
                   555 91014=
202112210900 AAXX 21094 67633 42680 73608 10275 20200 48527 84238
                   333 58006 84835 83360 86280
                   555 91018=
202112171500 AAXX 17154 67633 NIL=
202112171200 AAXX 17124 67633 41680 70901 10193 20183 48511 70260 8427/
                   333 58037 84830 86460
                   555 91018=
202112161200 AAXX 16124 67633 42680 63603 10310 20184 48492 70222 82132
                   333 58008 82840 83360 83080
                   555 91014=
202112160600 AAXX 16064 67633 31580 80405 10217 20201 48504 71760 8193/
                   333 10335 20210 58004 81925 87360
                   555 00200 20000 91017=
202112141200 AAXX 14124 67633 42680 70101 10234 20192 48500 83272
                   333 58033 83840 86460 82080
                   555 91015=
202112131200 AAXX 13124 67633 42680 41802 10355 20166 48486 71722 81902
                   333 59053 81945 83856 83080
                   555 91012=
202112130900 AAXX 13094 67633 NIL=
202112120900 AAXX 12094 67633 42980 72306 10264 20197 48513 84037
                   333 58025 84360 87280 91016=
202112101500 AAXX 10154 67633 NIL=
202112101200 AAXX 10124 67633 42780 31202 10330 20180 48504 82102
                   333 59006 82840 83080 91014=
202112100900 AAXX 10094 67633 42680 60304 10310 20163 48524 81108
                   333 59019 81830 86280
                   555 91017=
202112100600 AAXX 10064 67633 12980 70903 10250 20193 48520 69904 80008
                   333 10340 20205 59020 87280
                   555 00180 91017=
202112091500 AAXX 09154 67633 42780 41803 10337 20156 48501 70321 81930
                   333 59014 81950 83360
                   555 10340 91014=
202112091200 AAXX 09124 67633 42780 50504 10325 20157 48509 70222 84230
                   333 59027 84850 81360 91015=
202112090900 AAXX 09094 67633 42680 61803 10278 20186 48538 70322 83132
                   333 59006 83330 82360 81080 91019=
202112090600 AAXX 09064 67633 32980 60904 10221 20167 48535 70222 84032
                   333 10314 20219 59007 84360 82080
                   555 00200 91020=
202112080900 AAXX 08094 67633 42580 50904 10295 20171 48546 82132
                   333 59016 82830 82360 81080 91020=
202112070600 AAXX 07064 67633 32980 70506 10205 20183 48553 60056 70222 87070
                   333 10330 20190 58034 87461
                   555 00185 91022=
202112061200 AAXX 06124 67633 42680 52704 10335 20177 48517 70322 84232
                   333 59008 84850 81360 81080
                   555 91016=
202112060900 AAXX 06094 67633 42680 51205 10300 20179 48542 70222 82132
                   333 58005 82845 82360 81080
                   555 91019=
202112060600 AAXX 06064 67633 32680 60805 10245 20182 48534 70322 81132
                   333 10330 20173 58008 81830 83360 82080
                   555 00160 20000 91019=
202112050900 AAXX 05094 67633 42680 72602 10285 20188 48535 81133
                   333 58019 81840 83360 85080
                   555 91019=
202112050600 AAXX 05064 67633 32980 72503 10225 20190 48522 8707/
                   333 10363 20203 58016 87460
                   555 00188 20000 91018=
202112031500 AAXX 03154 67633 41680 60611 10323 20156 48482 71799 83208
                   333 59001 81950 82850 86280
                   555 10358 91011=
202112031200 AAXX 03124 67633 42680 63303 10346 20174 48504 70222 85202
                   333 59002 85850 82080
                   555 91014=
202112030600 AAXX 03064 67633 32980 62501 1//// 20180 48521 81038
                   333 10338 20201 58006 81360 86280
                   555 00187 20000 91017=
202112021200 AAXX 02124 67633 42680 43604 10330 20180 48503 70222 84200
                   333 58012 84200 555 91014=
202112020900 AAXX 02094 67633 42980 63606 10300 20186 48520 70222 80008
                   333 58009 86280 555 91017=
202112010900 AAXX 01094 67633 42980 23604 10306 20183 48511 80002
                   333 58000 82080 555 91015=
202112010600 AAXX 01064 67633 32980 21502 10250 20186 48506 80002
                   333 10356 20190 59003 82080
                   555 00174 20000 91016=

################################################################################
#  SYNOPS from 67641, Kaoma (Zambia) | 14-48S | 024-48E | 1213 m
################################################################################
202112311200 AAXX 31124 67641 42680 70201 10276 20198 48515 8423/
                   333 58020 84845 82360 91016=
202112310600 AAXX 31064 67641 12980 73602 10200 20179 48513 60144 83038
                   333 10340 20179 58030 83360 87280
                   555 00/// 20000 91018=
202112300900 AAXX 30094 67641 42680 43403 10301 20185 48503 81131
                   333 59018 81845 81360 83080 91015=
202112300600 AAXX 30064 67641 32980 40401 10227 20188 48498 82081
                   333 10328 20178 59016 82360 82080
                   555 00/// 20006 91015=
202112291200 AAXX 29124 67641 NIL=
202112290600 AAXX 29064 67641 12980 23601 10213 20187 48511 60064 81031
                   333 10352 20178 58001 81360 82080
                   555 00/// 20000 91017=
202112281500 AAXX 28154 67641 NIL=
202112281200 AAXX 28124 67641 42780 62801 10315 20192 48499 84231
                   333 5//// 81956 83856 81360 81080 91014=
202112271200 AAXX 27124 67641 NIL=
202112270900 AAXX 27094 67641 NIL=
202112260900 AAXX 26094 67641 NIL=
202112240900 AAXX 24094 67641 NIL=
202112240600 AAXX 24064 67641 12980 73602 10207 20197 48499 60104 87030
                   333 10329 20194 58003 87360
                   555 00/// 20000 91016=
202112231500 AAXX 23154 67641 NIL=
202112230900 AAXX 23094 67641 42580 32604 10277 20180 48503 82130
                   333 59004 82825 91015=
202112230600 AAXX 23064 67641 32980 43501 10217 20188 48497 84030
                   333 10300 20189 59005 84360
                   555 00/// 20001 91015=
202112220900 AAXX 22094 67641 42580 73204 10255 20198 48505 82230
                   333 59019 82820 86360 91016=
202112220600 AAXX 22064 67641 12580 70000 10206 20199 48503 60014 84530
                   333 10290 20200 59013 84620 87360 91016=
202112211500 AAXX 21154 67641 42680 42604 10280 20196 48504 83231
                   333 59004 83840 81360 81080 91015=
202112211200 AAXX 21124 67641 42680 42604 10280 20196 48504 83231
                   333 59004 83840 81360 81080 91015=
202112210900 AAXX 21094 67641 42580 70202 10251 20194 48523 81138
                   333 58008 81820 83360 86280 91017=
202112171500 AAXX 17154 67641 NIL=
202112171200 AAXX 17124 67641 42680 72902 10256 20187 48513 84030
                   333 58036 84845 86360 91016=
202112161200 AAXX 16124 67641 42680 63602 10300 20186 48481 84231
                   333 59008 81948 84848 81360 82080 91013=
202112160600 AAXX 16064 67641 32980 72802 10231 20195 48494 86030
                   333 10305 20207 58002 87360
                   555 00/// 20000 91015=
202112141200 AAXX 14124 67641 42680 32706 10290 20180 48497 81131
                   333 58018 81848 81360 82080 91014=
202112140600 AAXX 14064 67641 12580 70902 10216 20182 48503 81530
                   333 10355 20195 58012 81630 87360
                   555 00/// 20000 91016=
202112131200 AAXX 13124 67641 42780 60604 10338 20178 48483 84201
                   333 5//// 84856 82080 91013=
202112130900 AAXX 13094 67641 42980 20903 10310 20188 48497 82031
                   333 5//// 82360 81080 91014=
202112120900 AAXX 12094 67641 NIL=
202112101500 AAXX 10154 67641 NIL=
202112101200 AAXX 10124 67641 42680 51406 10318 20204 48507 83231
                   333 59001 83842 81360 82080 91015=
202112100900 AAXX 10094 67641 42680 21503 10285 20208 48514 81131
                   333 59014 81830 81360 82080 91016=
202112100600 AAXX 10064 67641 12980 60000 10210 20182 48509 60054 86030
                   333 10330 20185 59011 86360 91017=
202112091500 AAXX 09154 67641 NIL=
202112091200 AAXX 09124 67641 42680 30000 10300 20204 48506 82201
                   333 59019 82842 81080 91015=
202112090900 AAXX 09094 67641 42980 60000 10250 20200 48524 86030
                   333 59014 86360 91018=
202112090600 AAXX 09064 67641 12980 70000 10195 20188 48518 60124 87030
                   333 10320 20175 59013 87360
                   555 00/// 20005 91018=
202112080900 AAXX 08094 67641 41680 70000 10221 20189 48534 72166 81530
                   333 59001 81630 87360 91020=
202112070900 AAXX 07094 67641 42980 72704 10256 20188 48539 87030
                   333 58021 87360 91020=
202112061200 AAXX 06124 67641 42880 32802 10340 20177 48508 82231
                   333 5//// 82857 81361 81080 91015=
202112060900 AAXX 06094 67641 42680 31204 10302 20185 48525 81131
                   333 5//// 81849 82360 81080 91017=
202112050900 AAXX 05094 67641 NIL=
202112050600 AAXX 05064 67641 32980 72702 10237 20183 48502 80008
                   333 10630 20183 59001 87280
                   555 00/// 20000 91015=
202112031500 AAXX 03154 67641 NIL=
202112031200 AAXX 03124 67641 42880 40602 10335 20168 48508 84200
                   333 58009 84857 91015=
202112021200 AAXX 02124 67641 42780 42602 10330 20171 48498 84201
                   333 58000 84856 81080 91014=
202112020900 AAXX 02094 67641 42680 42803 10290 20184 48514 82101
                   333 58008 82848 82080 91016=
202112010900 AAXX 01094 67641 42980 33501 10310 20144 48508 80001
                   333 59010 83080 91015=

################################################################################
#  SYNOPS from 67655, Mumbwa (Zambia) | 15-04S | 027-11E | 1216 m
################################################################################
202112311200 AAXX 31124 67655 NIL=
202112300900 AAXX 30094 67655 NIL=
202112300600 AAXX 30064 67655 NIL=
202112291200 AAXX 29124 67655 NIL=
202112290600 AAXX 29064 67655 NIL=
202112281500 AAXX 28154 67655 NIL=
202112281200 AAXX 28124 67655 NIL=
202112271200 AAXX 27124 67655 NIL=
202112270900 AAXX 27094 67655 NIL=
202112260900 AAXX 26094 67655 NIL=
202112240900 AAXX 24094 67655 NIL=
202112231500 AAXX 23154 67655 NIL=
202112230900 AAXX 23094 67655 NIL=
202112220900 AAXX 22094 67655 NIL=
202112220600 AAXX 22064 67655 12480 70906 10214 20195 48517 60094 8367/
                   333 10286 20182 59024 83720 85458
                   555 00/// 910182=
202112211500 AAXX 21154 67655 42680 40807 10283 20185 48504 84200
                   333 59006 84850 91015=
202112211200 AAXX 21124 67655 NIL=
202112210900 AAXX 21094 67655 42580 60604 10238 20185 48552 84270
                   333 58001 84825 84359 91020=
202112171500 AAXX 17154 67655 NIL=
202112171200 AAXX 17124 67655 NIL=
202112160900 AAXX 16094 67655 42580 50906 10267 20182 48506 84230
                   333 59004 84820 83359 91016=
202112160600 AAXX 16064 67655 32880 71004 10223 20173 48506 8707/
                   333 10289 20202 58005 87458
                   555 00/// 91016=
202112141200 AAXX 14124 67655 NIL=
202112131200 AAXX 13124 67655 NIL=
202112130900 AAXX 13094 67655 NIL=
202112121200 AAXX 12124 67655 42680 40807 10337 20113 48507 84200
                   333 58004 84840 91014=
202112120900 AAXX 12094 67655 42680 20812 10311 20128 48520 82104
                   333 59002 82830 81080 91016=
202112101500 AAXX 10154 67655 42680 40604 10327 20138 48491 84200
                   333 59014 84850 91012=
202112101200 AAXX 10124 67655 42680 50705 10312 20122 48498 85200
                   333 59010 85850 91014=
202112100900 AAXX 10094 67655 42680 30509 10295 20138 48531 83200
                   333 59010 83840 555 91017=
202112100600 AAXX 10064 67655 32980 32005 10233 20174 48537 82081
                   333 10347 20142 59009 82359 81080 91019=
202112091500 AAXX 09154 67655 NIL=
202112091200 AAXX 09124 67655 NIL=
202112090900 AAXX 09094 67655 NIL=
202112090600 AAXX 09064 67655 NIL=
202112070900 AAXX 07094 67655 12980 62006 10237 20197 48545 60084 82084
                   333 10340 20144 59017 82860 83080
                   555 00/// 91020=
202112061200 AAXX 06124 67655 NIL=
202112060900 AAXX 06094 67655 NIL=
202112050900 AAXX 05094 67655 NIL=
202112031500 AAXX 03154 67655 NIL=
202112031200 AAXX 03124 67655 NIL=
202112020900 AAXX 02094 67655 NIL=
202112010900 AAXX 01094 67655 NIL=

################################################################################
#  SYNOPS from 67659, Kafue Polder (Zambia) | 15-46S | 027-55E | 978 m
################################################################################
202112311200 AAXX 31124 67659 NIL=
202112300900 AAXX 30094 67659 NIL=
202112300600 AAXX 30064 67659 NIL=
202112291200 AAXX 29124 67659 NIL=
202112290600 AAXX 29064 67659 NIL=
202112281500 AAXX 28154 67659 NIL=
202112281200 AAXX 28124 67659 NIL=
202112271200 AAXX 27124 67659 NIL=
202112270900 AAXX 27094 67659 NIL=
202112260900 AAXX 26094 67659 NIL=
202112240900 AAXX 24094 67659 NIL=
202112231500 AAXX 23154 67659 NIL=
202112230900 AAXX 23094 67659 NIL=
202112220900 AAXX 22094 67659 NIL=
202112211500 AAXX 21154 67659 NIL=
202112211200 AAXX 21124 67659 NIL=
202112171500 AAXX 17154 67659 NIL=
202112171200 AAXX 17124 67659 NIL=
202112160600 AAXX 16064 67659 32980 40503 10237 20148 48/// 84030
                   333 10328 20137 59001 84360
                   555 00/// 20045=
202112141200 AAXX 14124 67659 NIL=
202112131200 AAXX 13124 67659 NIL=
202112130900 AAXX 13094 67659 NIL=
202112120900 AAXX 12094 67659 NIL=
202112101500 AAXX 10154 67659 NIL=
202112091500 AAXX 09154 67659 NIL=
202112091200 AAXX 09124 67659 NIL=
202112090900 AAXX 09094 67659 NIL=
202112090600 AAXX 09064 67659 NIL=
202112061200 AAXX 06124 67659 NIL=
202112060900 AAXX 06094 67659 NIL=
202112050900 AAXX 05094 67659 NIL=
202112031500 AAXX 03154 67659 NIL=
202112031200 AAXX 03124 67659 NIL=
202112020900 AAXX 02094 67659 NIL=
202112010900 AAXX 01094 67659 NIL=

################################################################################
#  SYNOPS from 67662, Kabwe Agric (Zambia) | 14-24S | 028-30E | 1165 m
################################################################################
202112311200 AAXX 31124 67662 NIL=
202112310600 AAXX 31064 67662 11360 80000 10195 20187 48/// 60054 76366 887//
                   333 10302 20150 5//// 88708
                   555 00///=
202112300900 AAXX 30094 67662 42980 60000 10245 20201 48/// 70222 83072
                   333 5//// 83360 82080=
202112300600 AAXX 30064 67662 11980 80000 10197 20196 48/// 72160 87072
                   333 10310 20146 5//// 87360 81080
                   555 00///=
202112291200 AAXX 29124 67662 41680 40000 10318 20171 48/// 70222 83202
                   333 5//// 83840 82080=
202112290900 AAXX 29094 67662 41680 30000 10300 20163 48/// 70320 82202
                   333 5//// 82832 82080=
202112290600 AAXX 29064 67662 NIL=
202112281500 AAXX 28154 67662 42680 30000 10320 20270 48/// 82202
                   333 5//// 82842 81080
                   555 10326=
202112281200 AAXX 28124 67662 41680 40000 10308 20167 48/// 70322 83202
                   333 5//// 83830 81080=
202112271200 AAXX 27124 67662 41680 50901 10305 20160 48/// 85200
                   333 5//// 85848=
202112270900 AAXX 27094 67662 41680 20603 10290 20195 48/// 70300 82200
                   333 5//// 82838=
202112260900 AAXX 26094 67662 NIL=
202112240900 AAXX 24094 67662 NIL=
202112231500 AAXX 23154 67662 NIL=
202112230900 AAXX 23094 67662 NIL=
202112220900 AAXX 22094 67662 NIL=
202112211500 AAXX 21154 67662 NIL=
202112211200 AAXX 21124 67662 NIL=
202112171500 AAXX 17154 67662 NIL=
202112171200 AAXX 17124 67662 NIL=
202112141200 AAXX 14124 67662 NIL=
202112131200 AAXX 13124 67662 NIL=
202112130900 AAXX 13094 67662 NIL=
202112120900 AAXX 12094 67662 NIL=
202112101500 AAXX 10154 67662 NIL=
202112091500 AAXX 09154 67662 NIL=
202112091200 AAXX 09124 67662 NIL=
202112090900 AAXX 09094 67662 NIL=
202112090600 AAXX 09064 67662 NIL=
202112061200 AAXX 06124 67662 NIL=
202112060900 AAXX 06094 67662 NIL=
202112050900 AAXX 05094 67662 NIL=
202112031500 AAXX 03154 67662 NIL=
202112031200 AAXX 03124 67662 NIL=
202112020900 AAXX 02094 67662 NIL=
202112010900 AAXX 01094 67662 NIL=

################################################################################
#  SYNOPS from 67663, Kabwe (Zambia) | 14-27S | 028-28E | 1206 m
################################################################################
202112311200 AAXX 31124 67663 NIL=
202112310900 AAXX 31094 67663 41670 82709 10208 20196 48522 76196 8357/
                   333 58013 83630 88460=
202112300900 AAXX 30094 67663 41980 70905 10250 20186 48513 70262 87080
                   333 58003 87460=
202112300600 AAXX 30064 67663 32380 83607 10199 20182 48524 8168/
                   333 10331 20188 58014 81708 88460
                   555 00///=
202112291500 AAXX 29154 67663 42680 21207 10285 20164 48483 82202
                   333 59007 81930 82830 81080
                   555 10331=
202112291200 AAXX 29124 67663 42580 43603 10323 20174 48492 83202
                   333 59015 83829 82080=
202112290600 AAXX 29064 67663 32980 33606 10248 20174 48515 82032
                   333 10335 20179 59006 81360 83080
                   555 00///=
202112281500 AAXX 28154 67663 42680 20903 10323 20169 48492 82202
                   333 59005 82838 81080
                   555 10335=
202112281200 AAXX 28124 67663 42680 30903 10315 20163 48506 79599 83200
                   333 58005 83830=
202112280900 AAXX 28094 67663 42580 10807 10298 20154 48530 81100
                   333 59002 81825=
202112271200 AAXX 27124 67663 42680 50607 10322 20171 48502 85202
                   333 59007 85830 83080=
202112270900 AAXX 27094 67663 42580 40608 10281 20186 48530 82102
                   333 58010 82824 83080=
202112260900 AAXX 26094 67663 NIL=
202112240900 AAXX 24094 67663 NIL=
202112240600 AAXX 24064 67663 32480 60606 10220 20188 48506 82538
                   333 10309 20203 59003 82619 81360 86280
                   555 00///=
202112231500 AAXX 23154 67663 24680 62705 10299 20176 48499 71799 85202
                   333 58007 81930 85830 83080
                   555 10309=
202112231200 AAXX 23124 67663 42580 63006 10284 20194 48505 85260
                   333 58003 81928 85828 86360=
202112230900 AAXX 23094 67663 42580 61007 10259 20196 48525 83560
                   333 58002 83622 86360=
202112230600 AAXX 23064 67663 12480 70607 10202 20191 48507 8157/
                   333 10274 20190 59024 81619 87460
                   555 00///=
202112220900 AAXX 22094 67663 41580 80904 10189 20165 48513 76166 8547/
                   333 58032 81926 85626 87460=
202112220600 AAXX 22064 67663 11480 83605 10180 20172 48523 60064 79599 8447/
                   333 10292 20176 59005 81926 84626 87460=
202112211500 AAXX 21154 67663 NIL=
202112211200 AAXX 21124 67663 42580 60305 10256 20191 48508 70322 81230
                   333 59011 81924 81824 84360=
202112210900 AAXX 21094 67663 42580 50906 10244 20191 48489 70322 81130
                   333 59039 81822 85360=
202112171500 AAXX 17154 67663 42580 63604 10265 20199 48490 82230
                   333 58011 83823 85360=
202112171200 AAXX 17124 67663 41480 70000 10230 20193 48505 70362 82870
                   333 58034 81818 81620 86468=
202112170900 AAXX 17094 67663 41380 81804 10198 20189 48521 76066 8477/
                   333 58027 84708 88468=
202112161200 AAXX 16124 67663 41675 52709 10324 20156 48480 70522 84232
                   333 58003 84832 82360 82080=
202112160600 AAXX 16064 67663 31975 50904 10250 20181 48496 70522 85030
                   333 10302 20199 85360
                   555 00///=
202112141200 AAXX 14124 67663 41675 50905 10325 20156 48477 70522 84202
                   333 59014 84838 83080=
202112131200 AAXX 13124 67663 NIL=
202112130900 AAXX 13094 67663 NIL=
202112121200 AAXX 12124 67663 41575 33605 10337 20138 48487 70500 83200
                   333 58002 83830=
202112120900 AAXX 12094 67663 NIL=
202112101500 AAXX 10154 67663 NIL=
202112101200 AAXX 10124 67663 41675 70907 10332 20147 48497 70500 84230
                   333 59011 84835 81360=
202112100900 AAXX 10094 67663 41575 30608 10308 20159 48515 70500 83232
                   333 59011 83829 81360 81080=
202112100600 AAXX 10064 67663 31975 10801 10272 20150 48518 70500 81082
                   333 10343 20219 59015 81360 81080=
202112091500 AAXX 09154 67663 NIL=
202112091200 AAXX 09124 67663 41675 30812 10330 20146 48508 70500 83200
                   333 59006 83835=
202112090900 AAXX 09094 67663 41575 10715 10308 20144 48526 70500 81100
                   333 59007 81827=
202112090600 AAXX 09064 67663 31975 10407 10256 20149 48532 70500 81032
                   333 10342 20217 59003 81360 81080
                   555 00///=
202112081200 AAXX 08124 67663 41675 40707 10328 20148 48525 70511 84232
                   333 58003 84830 81360 81080=
202112080900 AAXX 08094 67663 41575 50805 10312 20150 48533 70511 82232
                   333 58006 82828 81360 82080=
202112080600 AAXX 08064 67663 31975 52703 10256 20174 48524 70522 84082
                   333 10347 20211 58026 84360 82080
                   555 00///=
202112070900 AAXX 07094 67663 41675 51607 10304 20159 48526 82108
                   333 58005 82830 82830 85280=
202112061500 AAXX 06154 67663 41675 60505 10321 20150 48478 70522 85202
                   333 59006 81935 85835 81080
                   555 10348=
202112061200 AAXX 06124 67663 41675 40610 10324 20152 48497 84200
                   333 59009 84830=
202112060900 AAXX 06094 67663 41575 20613 10318 20169 48523 81100
                   333 59006 82827=
202112051200 AAXX 05124 67663 14675 50705 10342 20151 48510 70522 85200
                   333 58006 85832=
202112050900 AAXX 05094 67663 41575 10607 10326 20156 48532 70500 81100
                   333 58008 81826=
202112050600 AAXX 05064 67663 31975 00905 10266 20131 48523 70500
                   333 10340 20208 59002
                   555 00///=
202112031500 AAXX 03154 67663 41575 21004 10326 20158 48493 70500 82200
                   333 59002 82830 555 10332=
202112031200 AAXX 03124 67663 41575 40907 10321 20166 48515 70500 84200
                   333 58018 84828=
202112020900 AAXX 02094 67663 41575 10906 10295 20161 48517 70500 81100
                   333 59009 81825=
202112010900 AAXX 01094 67663 41575 10813 10295 20151 48507 70500 81100
                   333 59010 81825=

################################################################################
#  SYNOPS from 67665, Lusaka Internationalairport (Zambia) | 15-19S | 028-27E | 1152 m
################################################################################
202112311200 AAXX 31124 67665 42680 70104 10278 20163 48523 84207
                   333 58003 84835 87280 91018=
202112310900 AAXX 31094 67665 42580 79903 10257 20164 48544 84102
                   333 58012 84825 87080=
202112310600 AAXX 31064 67665 12/80 72008 10216 20169 48536 69904 72999 81932
                   333 10301 20//0 59002 819// 81708 84360 86080
                   555 00///=
202112310300 AAXX 31034 67665 41/80 71504 10219 20175 48506 71322 8193/
                   333 59003 87360=
202112310000 AAXX 31004 67665 42980 51503 10232 20186 48500 85030
                   333 59003 85360=
202112302100 AAXX 30214 67665 42980 61702 10245 20185 48524 86030
                   333 58009 86360=
202112301800 AAXX 30184 67665 42980 00305 10262 20162 48503
                   333 59002=
202112301500 AAXX 30154 67665 42680 20706 1//// 2//// 48489 81130
                   333 59003 81850 81360
                   555 10301 91014=
202112301200 AAXX 30124 67665 42680 60408 10287 20174 48521 81831
                   333 58013 81835 85360 82080=
202112300900 AAXX 30094 67665 42580 60405 10273 20165 48535 81132
                   333 58003 81820 85360 82080 91019=
202112300600 AAXX 30064 67665 32980 60304 10243 20174 48540 86032
                   333 10335 20/// 58012 85360 82080 91020=
202112291800 AAXX 29184 67665 42780 51805 10243 20174 48503 81932
                   333 10335 59010 81956 83360 81080=
202112291200 AAXX 29124 67665 42680 42803 10325 20148 48513 83201
                   333 59012 83840 81080 91016=
202112290900 AAXX 29094 67665 42580 33207 10303 20147 48534 70300 82101
                   333 59012 82825 82080=
202112290600 AAXX 29064 67665 32980 21902 10272 20174 48532 80001
                   333 10320 20//0 59012 82360 91019=
202112281500 AAXX 28154 67665 NIL=
202112281200 AAXX 28124 67665 42580 30504 10320 20130 48524 83200
                   333 59008 83838 91017=
202112280900 AAXX 28094 67665 42580 30607 10305 20194 48547 82230
                   333 58000 82825 81360=
202112280300 AAXX 28034 67665 42980 01802 10199 20183 48514
                   333 59008 555 91018=
202112280000 AAXX 28004 67665 42980 01104 10210 20195 48509
                   333 59013 555 91017=
202112272100 AAXX 27214 67665 42980 01303 10228 20198 48528
                   333 59001 555 91019=
202112271200 AAXX 27124 67665 42680 30411 10305 20154 48530 83200
                   333 59002 83835 91018=
202112270900 AAXX 27094 67665 42680 30411 10288 20152 48545 82101
                   333 59017 82830 82080 91020=
202112270300 AAXX 27034 67665 42980 01103 10191 20187 48520
                   333 59015=
202112261800 AAXX 26184 67665 42980 31004 10225 20179 48518 80002
                   333 59001 83080 555 91018=
202112261500 AAXX 26154 67665 42780 70710 10276 20170 48513
                   333 58002 82850 84080
                   555 91017=
202112261200 AAXX 26124 67665 42680 60708 10273 20184 48527 85830
                   333 58000 83635 84835 83360
                   555 91018=
202112260900 AAXX 26094 67665 42580 60811 10233 20187 48554 70322 865//
                   333 58016 86625 91022=
202112260600 AAXX 26064 67665 12480 71008 10203 20182 60014 8457/
                   333 10285 20//0 58015 84615 87459
                   555 00/// 91022=
202112251800 AAXX 25184 67665 41/80 51402 10237 20199 48520 71392 81902
                   333 58009 819// 85080=
202112251500 AAXX 25154 67665 42680 61502 10275 20168 48511 81902
                   333 58005 81940 82845 85080=
202112240900 AAXX 24094 67665 42580 69902 10260 20163 48532 81132
                   333 58012 81825 85360 86080
                   555 91019=
202112240600 AAXX 24064 67665 32/80 62210 10207 20159 48526 81932
                   333 10290 20//0 58004 819// 86360 86080=
202112240300 AAXX 24034 67665 42380 62610 10216 20188 48510 81730
                   333 59011 81706 86360=
202112240000 AAXX 24004 67665 42/80 62705 10225 20204 48503 86030
                   333 59012 819// 86360=
202112232100 AAXX 23214 67665 42/80 53203 10238 20194 48511 85030
                   333 59016 819// 85360=
202112231800 AAXX 23184 67665 42980 43604 10249 20189 48504 83032
                   333 59011 83360 84080=
202112231500 AAXX 23154 67665 42680 60207 10279 20164 48485 83232
                   333 59019 83845 84360 85080
                   555 10287 91013=
202112231200 AAXX 23124 67665 42680 73304 10277 20154 48508 85532
                   333 59015 85635 86360 83080=
202112230900 AAXX 23094 67665 42580 70206 10257 20173 48522 83532
                   333 59020 84620 86360 83080 91018=
202112230600 AAXX 23064 67665 32980 70000 10206 20193 48526 8703/
                   333 10258 20//0 59008 87360
                   555 00/// 91019=
202112221500 AAXX 22154 67665 42680 63305 10254 20162 48500 81132
                   333 59003 81840 83360 83080
                   555 10258=
202112221200 AAXX 22124 67665 42560 70304 10214 20176 48514 83832
                   333 59009 81825 82625 85360 86280=
202112220900 AAXX 22094 67665 42460 80604 10203 20180 48532 8577/
                   333 59012 85712 88459 91020=
202112220600 AAXX 22064 67665 11359 70804 10180 20180 48527 60414 76199 8367/
                   333 10284 20//0 59023 83707 87459 91020=
202112211500 AAXX 21154 67665 NIL=
202112211200 AAXX 21124 67665 NIL=
202112210900 AAXX 21094 67665 42560 60707 10224 20203 48547 85870
                   333 58000 84616 82818 84360=
202112210300 AAXX 21034 67665 41259 80303 10206 20193 48538 76022 8377/
                   333 58014 83705 87459
                   555 91021=
202112210000 AAXX 21004 67665 42980 70805 10207 20192 48536 87030
                   333 58014 87360 555 91020=
202112202100 AAXX 20214 67665 42980 20909 10215 20193 48544 82030
                   333 58005 82360 555 91021=
202112192100 AAXX 19214 67665 42/80 71203 10198 20191 48536 70292 8197/
                   333 59004 819// 86460=
202112191800 AAXX 19184 67665 41/59 81205 10202 20202 48527 79599 8197/
                   333 59004 819// 87459
                   555 91019=
202112191500 AAXX 19154 67665 41680 71405 10213 20196 48512 71799 82932
                   333 58000 81945 84850 85360 83080
                   555 91018=
202112191200 AAXX 19124 67665 42680 60810 10269 20179 48511 85202
                   333 59016 85835 83080 91017=
202112172100 AAXX 17214 67665 42960 79902 10222 20192 48533 70222 8193/
                   333 58025 819// 87360=
202112171500 AAXX 17154 67665 42680 53204 10265 20146 48503 82231
                   333 58030 82840 83360 82080
                   555 10278 91016=
202112171200 AAXX 17124 67665 42580 72203 10243 20183 48521 82138
                   333 58035 82825 84360 87280 91018=
202112170900 AAXX 17094 67665 41460 89901 10209 20170 48543 76166 8217/
                   333 58033 82815 88460=
202112170600 AAXX 17064 67665 11459 81504 10189 20189 48544 60454 8277/
                   333 10330 20//0 58032 82710 88459=
202112170300 AAXX 17034 67665 41/57 83604 10184 20184 48526 79596 8577/
                   333 59032 819// 85706 88459=
202112170000 AAXX 17004 67665 41759 81305 10193 20193 48501 79596 8137/
                   333 58009 81950 88459=
202112162100 AAXX 16214 67665 41780 71806 10249 20136 48512 8193/
                   333 58002 81956 87360=
202112161500 AAXX 16154 67665 42680 60604 10322 20122 48493 83230
                   333 58018 84835 84360=
202112161200 AAXX 16124 67665 42680 60604 10322 20122 48493 70322 84230
                   333 58018 84835 84360 91014=
202112160900 AAXX 16094 67665 42680 30412 10299 20124 48522 81130
                   333 59006 81830 83360=
202112160600 AAXX 16064 67665 32980 30401 10236 20167 48520 70322 80001
                   333 10274 20//0 59013 83080 91018=
202112151800 AAXX 15184 67665 42/80 41203 10241 20156 48495 83031
                   333 10274 59003 819// 83360 81080=
202112151500 AAXX 15154 67665 42/80 61304 10271 20155 48483 84032
                   333 58016 819// 84360 83080=
202112151200 AAXX 15124 67665 42680 71004 10250 20156 48503 8223/
                   333 58020 82830 87359=
202112150900 AAXX 15094 67665 42480 70611 10244 20167 48521 82132
                   333 10330 58007 81820 86060 87080=
202112150600 AAXX 15064 67665 12980 71004 10204 20183 48516 60044 85072
                   333 10330 20//0 58006 85360 87080=
202112142100 AAXX 14214 67665 42/80 60000 10241 20154 48522 72999 81932
                   333 58024 819// 84360 85080=
202112141200 AAXX 14124 67665 42680 60303 10312 20117 48490 85230
                   333 59014 85842 81360 91014=
202112140900 AAXX 14094 67665 42680 43005 10312 20128 48522 84100
                   333 58000 84835=
202112140300 AAXX 14034 67665 42980 02705 10219 20147 48491
                   333 59010 555 91015=
202112140000 AAXX 14004 67665 42980 01702 10218 20115 48484
                   333 59014 555 91014=
202112132100 AAXX 13214 67665 42980 01603 10249 20105 48499
                   333 59011 555 91016=
202112131200 AAXX 13124 67665 NIL=
202112130900 AAXX 13094 67665 42580 20410 10312 20117 48534 70122 82200
                   333 58000 82825 91017=
202112130600 AAXX 13064 67665 32980 10409 10275 20119 48527 80001
                   333 10345 20//0 58001 81080=
202112130300 AAXX 13034 67665 42980 01503 10204 20098 48498
                   333 58002=
202112121500 AAXX 12154 67665 42780 40405 10338 20055 48487 83230
                   333 58005 83856 82360
                   555 91013=
202112121200 AAXX 12124 67665 42680 40808 10342 20080 48502 84100
                   333 58004 84840 555 91015=
202112120900 AAXX 12094 67665 42680 20415 10318 20127 48524 82100
                   333 58005 82835 91017=
202112111800 AAXX 11184 67665 42980 01206 10279 20079 48490
                   333 10351 59010=
202112111500 AAXX 11154 67665 42680 31309 10341 20062 48482 83100
                   333 59007 83848 555 10351=
202112111200 AAXX 11124 67665 42680 30707 10338 20063 48498 83100
                   333 59011 83335=
202112110900 AAXX 11094 67665 42580 20712 10311 20104 48517 82102
                   333 59010 82825 81080
                   555 91017=
202112101500 AAXX 10154 67665 41680 69902 10316 20112 48491 72582 85230
                   333 59011 85850 83360
                   555 10340 91013=
202112101200 AAXX 10124 67665 42680 60807 10335 20106 48509 85230
                   333 59014 85840 83360 91015=
202112100900 AAXX 10094 67665 42680 50609 10315 20111 48524 85200
                   333 59012 85830=
202112100600 AAXX 10064 67665 32980 10911 10272 20136 48532 81030
                   333 10345 20//0 59011 81360=
202112100000 AAXX 10004 67665 42980 01602 10209 20105 48506 70200
                   333 59014=
202112092100 AAXX 09214 67665 42980 01206 10238 20101 48519 70200
                   333 59011=
202112091500 AAXX 09154 67665 42780 51108 10330 20085 48499 85230
                   333 59009 85850 81360
                   555 10343 91015=
202112091200 AAXX 09124 67665 42680 50206 10321 20109 48520 85200
                   333 59004 85840 91017=
202112090900 AAXX 09094 67665 42680 40512 10317 20102 48541 84100
                   333 59008 84830 555 91019=
202112090600 AAXX 09064 67665 32980 00708 10265 20115 48543
                   333 10342 20//0 59004
                   555 00/// 91020=
202112081800 AAXX 08184 67665 42980 01303 10276 20098 48517
                   333 10352 59004=
202112081500 AAXX 08154 67665 42780 50811 10331 20074 48509 84230
                   333 58002 83850 82360
                   555 10352=
202112081200 AAXX 08124 67665 42680 60806 10327 20078 48526 85230
                   333 59005 85840 81360=
202112080900 AAXX 08094 67665 42680 60709 10308 20100 48547 83131
                   333 59003 83835 81360 83080=
202112071500 AAXX 07154 67665 42780 51608 10335 20094 48526 85200
                   333 58015 85850 91015=
202112070900 AAXX 07094 67665 42680 50305 10304 20128 48548 83232
                   333 58015 83830 81360 82080=
202112070600 AAXX 07064 67665 32480 40606 10273 20125 48547 81102
                   333 10356 20//0 58005 81818 84080
                   555 00/// 91021=
202112070300 AAXX 07034 67665 42980 51003 10222 20132 48530 85030
                   333 58012 85360 555 91019=
202112070000 AAXX 07004 67665 42980 09902 10211 20131 48516
                   333 58013 555 91018=
202112062100 AAXX 06214 67665 42980 01204 10250 20116 48525
                   333 58007 555 91018=
202112061200 AAXX 06124 67665 NIL=
202112060900 AAXX 06094 67665 NIL=
202112060600 AAXX 06064 67665 32980 11008 10275 20137 48542 81030
                   333 10350 20//0 58010 81360=
202112051800 AAXX 05184 67665 42980 21403 10285 20100 48507 70200 82030
                   333 59006 82360 555 91016=
202112051500 AAXX 05154 67665 42780 20303 10345 20056 48497 82100
                   333 59009 82850 555 91014=
202112051200 AAXX 05124 67665 42680 32904 10343 20066 48515 83100
                   333 59004 83840 555 91016=
202112050900 AAXX 05094 67665 42680 10311 10325 20103 48538 81100
                   333 59004 81830 91019=
202112050600 AAXX 05064 67665 32980 00507 10277 20112 48534
                   333 10340 20//0 59007
                   555 00/// 91019=
202112041800 AAXX 04184 67665 42980 00804 10273 20102 48511
                   333 10340 59001=
202112041500 AAXX 04154 67665 42680 30507 10334 20072 48505 83100
                   333 59001 83845 555 10340=
202112041200 AAXX 04124 67665 42680 50307 10335 20066 48519 85100
                   333 58000 85840=
202112040900 AAXX 04094 67665 42580 30611 10314 20114 48539 83500
                   333 59004 83625 555 91019=
202112040600 AAXX 04064 67665 32980 01103 10274 20111 48539
                   333 10342 20//0 59001=
202112032100 AAXX 03214 67665 42980 01105 10236 20098 48516
                   333 58000=
202112031500 AAXX 03154 67665 42780 50911 10321 20082 48505 85201
                   333 58010 85856 81080
                   555 10342 91015=
202112031200 AAXX 03124 67665 42680 50912 10341 20116 48520 85200
                   333 58007 85845 91017=
202112030900 AAXX 03094 67665 42680 30509 10300 20141 48542 83100
                   333 58011 83830=
202112030600 AAXX 03064 67665 32980 00708 10270 20143 48540
                   333 10334 20//0 58007=
202112022100 AAXX 02214 67665 42980 01303 10237 20110 48516 70200
                   333 59008=
202112021800 AAXX 02184 67665 42980 21208 10269 20072 48506 82030
                   333 58004 82360=
202112021500 AAXX 02154 67665 42980 30807 10323 20100 48493 81230
                   333 58001 81856 83360=
202112021200 AAXX 02124 67665 42680 50407 10318 20103 48509 85200
                   333 59001 85850=
202112020900 AAXX 02094 67665 42680 30513 10301 20124 48532 83101
                   333 58000 83850 81080 91018=
202112011800 AAXX 01184 67665 42980 01206 10262 20076 48500 70200
                   333 10345 58005=
202112011500 AAXX 01154 67665 42980 20910 10334 20056 48493 82030
                   333 59010 82360 555 10345=
202112011200 AAXX 01124 67665 42680 30408 10319 20050 48510 83200
                   333 58007 83845=
202112010900 AAXX 01094 67665 42980 00310 10312 20093 48532
                   333 58000 91018=

################################################################################
#  SYNOPS from 67666, Lusaka City Airport (Zambia) | 15-25-00S | 028-28-00E | 1280 m
################################################################################
202112311200 AAXX 31124 67666 42680 71210 10272 20178 48514 86202
                   333 58003 86832 81080 91017=
202112310600 AAXX 31064 67666 12480 82712 10210 20163 48530 69904 8357/
                   333 10307 20200 58000 83612 85459 91020=
202112300900 AAXX 30094 67666 NIL=
202112300600 AAXX 30064 67666 32980 70910 10215 20162 48522 84032
                   333 10335 20205 58012 84359 82080
                   555 00/// 91020=
202112291200 AAXX 29124 67666 NIL=
202112290600 AAXX 29064 67666 32980 20907 10285 20151 48517 80002
                   333 10321 20189 59013 82080
                   555 00/// 91018=
202112281500 AAXX 28154 67666 NIL=
202112281200 AAXX 28124 67666 42680 50807 10310 20146 48515 84252
                   333 59005 84845 81359 82080 91017=
202112280900 AAXX 28094 67666 42680 31008 10291 20133 48534 83200
                   333 59001 83840 91019=
202112271200 AAXX 27124 67666 42680 50808 10296 20150 48519 83202
                   333 59005 83830 83080 91017=
202112270900 AAXX 27094 67666 42580 70907 10271 20186 48533 83108
                   333 59012 83828 87280 91019=
202112260900 AAXX 26094 67666 42580 81411 10235 20183 48542 878//
                   333 58011 86625 84828 91021=
202112240900 AAXX 24094 67666 42980 70000 10248 20160 48515 8707/
                   333 10189 58012=
202112231500 AAXX 23154 67666 NIL=
202112230900 AAXX 23094 67666 NIL=
202112230600 AAXX 23064 67666 12980 70000 10190 20174 48509 69914 8707/
                   333 10250 20188 59004 87459 91018=
202112220900 AAXX 22094 67666 41380 70906 10195 20180 48519 75022 877//
                   333 59011 87708 91019=
202112220600 AAXX 22064 67666 12380 81006 10180 20168 48519 60444 887//
                   333 10271 20189 5//// 88707
                   555 00/// 20990 91019=
202112211500 AAXX 21154 67666 NIL=
202112211200 AAXX 21124 67666 42580 60912 10260 20186 48523 86800
                   333 5//// 83825 84628 91018=
202112210900 AAXX 21094 67666 42580 60809 10230 20185 48532 85870
                   333 5//// 82819 84360 91020=
202112171500 AAXX 17154 67666 NIL=
202112171200 AAXX 17124 67666 NIL=
202112160600 AAXX 16064 67666 32980 70906 10235 20174 48503 83038
                   333 10275 20197 59001 83359 87280
                   555 00/// 91017=
202112141200 AAXX 14124 67666 NIL=
202112131200 AAXX 13124 67666 NIL=
202112130900 AAXX 13094 67666 42580 30912 10319 20121 48510 82101
                   333 58005 82820 81080=
202112120900 AAXX 12094 67666 42680 10807 10314 20105 48513 81100
                   333 58002 81840 91017=
202112101500 AAXX 10154 67666 NIL=
202112101200 AAXX 10124 67666 42680 70906 10310 20120 48500 85237
                   333 59013 85848 83360 87280 91015=
202112100900 AAXX 10094 67666 42680 70916 10300 20126 48522 84257
                   333 59010 84840 81360 86280 91018=
202112100600 AAXX 10064 67666 32980 11112 10268 20141 48526 81081
                   333 10333 20222 59010 81358 81078 91019=
202112091500 AAXX 09154 67666 NIL=
202112091200 AAXX 09124 67666 42680 60907 10318 20108 48514 84237
                   333 59003 84845 82360 86280 91017=
202112090900 AAXX 09094 67666 42680 20913 10300 20121 48531 82100
                   333 59008 82830 91019=
202112090600 AAXX 09064 67666 32980 01014 10254 20132 48534
                   333 10336 20223 59006
                   555 00/// 20000 91020=
202112080900 AAXX 08094 67666 42680 70908 10304 20//0 48539 83138
                   333 59002 83835 81360 86280 91020=
202112070900 AAXX 07094 67666 42680 50907 10310 20120 48539 83232
                   333 58013 83830 81360 82080 91020=
202112061200 AAXX 06124 67666 42780 30000 10324 20109 48501 83201
                   333 58001 83852 81080 91016=
202112060900 AAXX 06094 67666 42680 30807 10310 20194 48529
                   333 58004 81848 81080 91019=
202112060600 AAXX 06064 67666 32980 01008 10280 20192 48526
                   333 10360 20234 58009 91022=
202112050900 AAXX 05094 67666 42780 10907 10320 20130 48521 81100
                   333 59006 81850 91018=
202112050600 AAXX 05064 67666 32980 00805 10270 20144 48525
                   333 10335 20220 59007 91019=
202112031500 AAXX 03154 67666 42680 40909 10321 20131 48492 84200
                   333 58005 84840 555 10336=
202112031200 AAXX 03124 67666 NIL=
202112030600 AAXX 03064 67666 32980 00813 10250 20168 48524
                   333 10337 20212 58005
                   555 00/// 91019=
202112020900 AAXX 02094 67666 42580 30411 10300 20144 48519 83200
                   333 59002 83825=
202112020600 AAXX 02064 67666 32980 10913 10261 20131 48524 80001
                   333 10333 20221 58003 81080
                   555 00/// 91019=
202112010900 AAXX 01094 67666 42680 11013 10290 20107 48525 81100
                   333 58001 81840 91018=

################################################################################
#  SYNOPS from 67667, Mount Makulu (Zambia) | 15-33S | 028-15E | 1213 m
################################################################################
202112311200 AAXX 31124 67667 NIL=
202112300900 AAXX 30094 67667 42680 50912 10292 20171 48584 81102
                   333 58007 81835 85080=
202112300600 AAXX 30064 67667 32980 50306 10245 20162 48583 80002
                   333 10348 20190 58003 85080
                   555 00/// 20000=
202112291200 AAXX 29124 67667 NIL=
202112290600 AAXX 29064 67667 32980 42703 10260 20189 48583 80002
                   333 10362 20188 59009 84080
                   555 00/// 20000=
202112281500 AAXX 28154 67667 NIL=
202112281200 AAXX 28124 67667 42680 40903 10328 20150 48/// 84102
                   333 5//// 84835 82080=
202112280600 AAXX 28064 67667 32980 40605 10280 20185 48592 80002
                   333 10352 20190 59002 84080
                   555 00/// 20000=
202112271200 AAXX 27124 67667 42680 50901 10322 20161 48571 85101
                   333 5//// 85830 81080=
202112270900 AAXX 27094 67667 NIL=
202112270600 AAXX 27064 67667 32980 20902 10260 20192 48592 80001
                   333 10320 20182 58012 82080
                   555 00/// 20000=
202112260900 AAXX 26094 67667 NIL=
202112240900 AAXX 24094 67667 42980 70901 10260 20191 48578 86031
                   333 58010 86360 82080=
202112240600 AAXX 24064 67667 12580 70902 10186 20176 48575 60014 87500
                   333 10327 20170 58002 87625
                   555 00/// 20000=
202112231500 AAXX 23154 67667 NIL=
202112230900 AAXX 23094 67667 42980 60902 10268 20181 48568 84031
                   333 58010 84360 82080=
202112230600 AAXX 23064 67667 32980 50901 10230 20189 43573 80001
                   333 10279 20172 58009 85080
                   555 00/// 20285=
202112220900 AAXX 22094 67667 NIL=
202112220600 AAXX 22064 67667 11580 81201 10194 20190 48582 60284 76162 86508
                   333 10299 20170 5//// 86625 88280
                   555 00/// 20000=
202112211500 AAXX 21154 67667 NIL=
202112211200 AAXX 21124 67667 41670 70901 10282 20196 48577 70500 87100
                   333 58004 87830=
202112210900 AAXX 21094 67667 41570 70902 10242 20199 48/// 70500 87500
                   333 87625=
202112171500 AAXX 17154 67667 NIL=
202112171200 AAXX 17124 67667 NIL=
202112151200 AAXX 15124 67667 42680 71207 10278 20155 48/// 81908
                   333 5//// 81950 82845 87283=
202112150600 AAXX 15064 67667 12980 60905 10230 20172 48565 60034 80002
                   333 10360 20180 58001 86083
                   555 00/// 20000=
202112141200 AAXX 14124 67667 41670 71701 10230 20210 48544 79562 86208
                   333 58011 81950 86840 87283=
202112140900 AAXX 14094 67667 41670 61202 10311 20179 48567 70500 86202
                   333 59001 86835 82083=
202112140600 AAXX 14064 67667 31970 32707 10273 20161 48568 70500 80002
                   333 10382 20230 59003 83083
                   555 00/// 20000=
202112131200 AAXX 13124 67667 NIL=
202112130900 AAXX 13094 67667 NIL=
202112130600 AAXX 13064 67667 31970 20915 10282 20141 48572 70500 80001
                   333 10375 20238 58002 82083
                   555 00/// 20000=
202112120900 AAXX 12094 67667 NIL=
202112101500 AAXX 10154 67667 NIL=
202112101200 AAXX 10124 67667 41670 60901 10322 20158 48564 70500 86100
                   333 59003 86830=
202112100900 AAXX 10094 67667 41670 20904 10320 20158 48581 70500 82100
                   333 59005 82830=
202112100600 AAXX 10064 67667 31970 10901 10278 20162 48584 70500 80001
                   333 10352 20218 59017 81080=
202112091500 AAXX 09154 67667 NIL=
202112091200 AAXX 09124 67667 41670 60906 10332 20152 48567 70500 86100
                   333 58008 86830=
202112090900 AAXX 09094 67667 41670 20902 10324 20158 48586 70500 82100
                   333 58008 82830=
202112090600 AAXX 09064 67667 11970 10908 10292 20162 48601 69904 70500 80001
                   333 10361 20220 58001 81080
                   555 00/// 20000=
202112080900 AAXX 08094 67667 41670 60904 10312 20142 48594 70500 84101
                   333 58002 84830 82080=
202112080600 AAXX 08064 67667 31970 40902 10282 20182 48602 70500 80001
                   333 10368 20224 58009 81080
                   555 00/// 20000=
202112070900 AAXX 07094 67667 41970 53610 10316 20159 48596 70522 84132
                   333 58014 84835 81362 84082=
202112061200 AAXX 06124 67667 41670 40807 10344 20162 48563 70500 84101
                   333 5//// 84840 82082=
202112060900 AAXX 06094 67667 NIL=
202112060600 AAXX 06064 67667 31970 21402 10290 20162 48589 70500 80001
                   333 10382 20223 58006
                   555 00/// 20000=
202112050900 AAXX 05094 67667 NIL=
202112050600 AAXX 05064 67667 31970 11206 10276 20161 48584 70500 80001
                   333 10350 20204 58002 81080
                   555 00/// 20000=
202112031500 AAXX 03154 67667 NIL=
202112031200 AAXX 03124 67667 41670 40902 10334 20169 48566 70500 84100
                   333 58001 84830=
202112020900 AAXX 02094 67667 41670 10906 10314 20162 48/// 70500 81101
                   333 5//// 81830 81080=
202112010900 AAXX 01094 67667 41670 10904 10316 20139 48582 70500 81100
                   333 58000 81080=
202112010600 AAXX 01064 67667 31970 11508 10286 20142 48582 70500 80001
                   333 10334 20156 58002 81080
                   555 00/// 20000=

################################################################################
#  SYNOPS from 67673, Petauke (Zambia) | 14-15S | 031-17E | 1035 m
################################################################################
202112311200 AAXX 31124 67673 41680 70901 10328 20202 48/// 72662 84231
                   333 5//// 84837 82360 82080=
202112310600 AAXX 31064 67673 32980 71201 10278 20195 48/// 83037
                   333 10252 20//0 5//// 83360 87280
                   555 00/// 20000=
202112300900 AAXX 30094 67673 42680 31802 10290 20188 48/// 81130
                   333 5//// 81833 82360=
202112300600 AAXX 30064 67673 32580 43601 10250 20192 48/// 83431
                   333 10370 20/// 5//// 82825 81627 81360 81080
                   555 00/// 20000=
202112291200 AAXX 29124 67673 NIL=
202112290600 AAXX 29064 67673 32980 61601 19286 20172 48/// 81035
                   333 10370 20//0 5//// 81360 85280
                   555 00/// 20006=
202112281500 AAXX 28154 67673 42684 30501 10348 20113 48/// 83201
                   333 5//// 83850 82080
                   555 10370=
202112281200 AAXX 28124 67673 42684 43602 10348 20130 48/// 84201
                   333 5//// 84845 82080=
202112280600 AAXX 28064 67673 12984 40902 10280 20170 48/// 60064 80001
                   333 10354 20//0 5//// 84080
                   555 00/// 20000=
202112271200 AAXX 27124 67673 NIL=
202112270900 AAXX 27094 67673 NIL=
202112270600 AAXX 27064 67673 32584 30902 10274 20210 48/// 83101
                   333 10310 20//0 5//// 83830 83360 82080
                   555 00/// 20011=
202112260900 AAXX 26094 67673 NIL=
202112240900 AAXX 24094 67673 42680 72701 10308 20161 48/// 81135
                   333 5//// 81835 81360 85280=
202112231500 AAXX 23154 67673 NIL=
202112231200 AAXX 23124 67673 42680 40000 10318 20191 48/// 82231
                   333 5//// 82833 82360 81080=
202112230900 AAXX 23094 67673 NIL=
202112230600 AAXX 23064 67673 12675 73601 10216 20200 48/// 8327/
                   333 10300 20//0 83825 85360
                   555 00/// 20001=
202112220900 AAXX 22094 67673 42684 63602 10274 20195 48/// 86231
                   333 5//// 86832 84360 84080=
202112211500 AAXX 21154 67673 NIL=
202112211200 AAXX 21124 67673 NIL=
202112171500 AAXX 17154 67673 41670 83603 10292 20189 48/// 70522 94235
                   333 5//// 84840 82360 85280
                   555 10378=
202112171200 AAXX 17124 67673 41670 73303 10294 20188 48/// 70522
                   333 5//// 84833 72360 81080=
202112141200 AAXX 14124 67673 NIL=
202112131200 AAXX 13124 67673 NIL=
202112130900 AAXX 13094 67673 42684 43602 10324 20130 48/// 83101
                   333 5//// 83840 84080=
202112130600 AAXX 13064 67673 32984 40904 10286 20152 48/// 82031
                   333 10368 20/// 5//// 82360 84080
                   555 00/// 20000=
202112120900 AAXX 12094 67673 42684 33602 10320 20130 48/// 83100
                   333 5//// 83840=
202112101500 AAXX 10154 67673 NIL=
202112101200 AAXX 10124 67673 42685 60902 10360 20130 48/// 86200
                   333 5//// 86845=
202112100900 AAXX 10094 67673 42684 50903 10330 20130 48/// 85200
                   333 5//// 85840=
202112100600 AAXX 10064 67673 32584 30503 10290 20130 48/// 83100
                   333 10374 20//0 5//// 83830=
202112091500 AAXX 09154 67673 42684 50802 10346 20120 48/// 85231
                   333 5//// 85850 83360 82080
                   555 10374=
202112091200 AAXX 09124 67673 41670 63603 10357 20100 48/// 86200
                   333 5//// 86845=
202112090900 AAXX 09094 67673 42684 53602 10330 20125 48/// 85100
                   333 5//// 85840=
202112090600 AAXX 09064 67673 32984 03602 10292 20135 48///
                   333 10366 20//0 5////
                   555 00/// 20000=
202112080900 AAXX 08094 67673 42684 53602 10330 20150 48/// 85100
                   333 5//// 85840=
202112080600 AAXX 08064 67673 32684 23602 10300 20190 48/// 81101
                   333 10364 20//0 5//// 81832 82360
                   555 00/// 20000=
202112070900 AAXX 07094 67673 41670 21204 10332 20137 48/// 70500 82100
                   333 5//// 82837=
202112061200 AAXX 06124 67673 41670 60902 10348 20155 48/// 70522 85230
                   333 5//// 85842 81360=
202112060900 AAXX 06094 67673 41670 20902 10328 20150 48/// 70500 82100
                   333 5//// 82837=
202112051200 AAXX 05124 67673 41670 40901 10356 20130 48/// 70522 84200
                   333 5//// 84845=
202112050900 AAXX 05094 67673 NIL=
202112050600 AAXX 05064 67673 31970 00912 10278 20141 48/// 70500
                   333 10362 20//0 5////
                   555 00/// 20000=
202112031500 AAXX 03154 67673 NIL=
202112031200 AAXX 03124 67673 NIL=
202112020900 AAXX 02094 67673 41670 51203 10318 20165 48/// 70522 85200
                   333 5//// 85837=
202112010900 AAXX 01094 67673 41670 50902 10324 20151 48/// 70522 85200
                   333 5//// 85835=

################################################################################
#  SYNOPS from 67731, Senanga (Zambia) | 16-06S | 023-16E | 1027 m
################################################################################
202112311200 AAXX 31124 67731 42680 329// 10325 20163 48/// 83200
                   333 5//// 83832=
202112310600 AAXX 31064 67731 32980 709// 10218 20186 48/// 87030
                   333 10349 20192 5//// 87360
                   555 00052 20027=
202112300900 AAXX 30094 67731 42580 602// 10302 20185 48/// 84132
                   333 5//// 84825 84362 85080=
202112300600 AAXX 30064 67731 12480 701// 10229 20183 48/// 60034 83538
                   333 10346 20201 5//// 83613 86360 87280
                   555 00041 20000=
202112291200 AAXX 29124 67731 42580 326// 10331 20174 48/// 81301
                   333 5//// 81925 82827 81080=
202112290600 AAXX 29064 67731 32980 127// 10240 20183 48/// 80008
                   333 10342 20189 5//// 81080
                   555 00057 20000=
202112281500 AAXX 28154 67731 41680 809// 10283 20206 48/// 71799 81902
                   333 5//// 81925 85830 88280=
202112281200 AAXX 28124 67731 42680 528// 10336 20197 48/// 85102
                   333 5//// 85835 84080=
202112271200 AAXX 27124 67731 NIL=
202112270900 AAXX 27094 67731 42580 718// 10278 20208 48/// 81130
                   333 5//// 81820 87365=
202112270600 AAXX 27064 67731 12680 818// 10236 20191 48/// 69944 82230
                   333 10314 20204 5//// 82835 88360
                   555 00049 20035=
202112260900 AAXX 26094 67731 42480 718// 10259 20181 48/// 83578
                   333 5//// 83618 85461 87280=
202112240900 AAXX 24094 67731 42480 520// 10260 20183 48/// 84102
                   333 5//// 84820 84080=
202112240600 AAXX 24064 67731 12380 824// 10210 20190 48/// 60024 83728
                   333 10346 20196 5//// 83709 86460 88280
                   555 00039 20000=
202112231500 AAXX 23154 67731 42680 119// 10336 20198 48/// 81200
                   333 5//// 81840=
202112230900 AAXX 23094 67731 NIL=
202112230600 AAXX 23064 67731 32980 128// 10234 20194 48/// 80008
                   333 10319 20192 5//// 81080
                   555 00048 20652=
202112220900 AAXX 22094 67731 42480 609// 10260 20196 48/// 84132
                   333 5//// 84823 81362 84080=
202112220600 AAXX 22064 67731 12480 820// 10216 20192 48/// 60654 83578
                   333 10341 20189 5//// 83613 86460 88280
                   555 00031 20000=
202112211500 AAXX 21154 67731 41580 709// 10262 20201 48/// 71729 82932
                   333 5//// 82926 83830 83362 84080=
202112211200 AAXX 21124 67731 41580 727// 10335 20197 48/// 71722 82901
                   333 5//// 82923 87830 82080=
202112210900 AAXX 21094 67731 42580 427// 10310 20204 48/// 82301
                   333 5//// 82925 81827 81080=
202112171500 AAXX 17154 67731 42580 827// 10265 20194 48/// 82372
                   333 5//// 82925 83827 86365 88080=
202112171200 AAXX 17124 67731 42580 527// 10278 20200 48/// 83230
                   333 5//// 83827 82365=
202112161200 AAXX 16124 67731 42680 633// 10342 20172 48/// 84132
                   333 5//// 84830 83363 86080=
202112160600 AAXX 16064 67731 32980 412// 10231 20175 48/// 84030
                   333 10351 20204 5//// 84360
                   555 00041 20000=
202112141200 AAXX 14124 67731 42580 602// 10296 20210 48/// 84202
                   333 5//// 81925 84830 86080=
202112140600 AAXX 14064 67731 12980 733// 10234 20199 48/// 60054 86038
                   333 10371 20199 5//// 86360 87280
                   555 00031 20000=
202112131200 AAXX 13124 67731 42680 405// 10358 20175 48/// 83201
                   333 5//// 83835 81080=
202112130900 AAXX 13094 67731 42580 109// 10331 20169 48/// 81200
                   333 5//// 81825=
202112120900 AAXX 12094 67731 NIL=
202112101500 AAXX 10154 67731 42680 601// 10331 20197 48/// 84102
                   333 5//// 84835 85080=
202112101200 AAXX 10124 67731 42680 503// 10340 20173 48/// 84102
                   333 5//// 84840 83080=
202112100900 AAXX 10094 67731 42680 703// 10288 20183 48/// 84202
                   333 5//// 81925 84830 86080=
202112100600 AAXX 10064 67731 12980 509// 10227 20162 48/// 69904 85038
                   333 10355 20191 5//// 85360 84280
                   555 00031=
202112091500 AAXX 09154 67731 42680 318// 10340 20177 48/// 81230
                   333 5//// 81832 82365=
202112091200 AAXX 09124 67731 42580 118// 10341 20152 48/// 81200
                   333 5//// 81825=
202112090900 AAXX 09094 67731 42680 732// 10238 20184 48/// 83230
                   333 5//// 83835 87365=
202112090600 AAXX 09064 67731 11468 810// 10188 20173 48/// 60024 78022 82939
                   333 10378 20187 5//// 82915 83620 87360 88180
                   555 00037 20000=
202112080900 AAXX 08094 67731 42580 518// 10321 20187 48/// 83130
                   333 5//// 83825 84360=
202112070900 AAXX 07094 67731 42580 818// 10265 20181 48/// 81230
                   333 5//// 81825 88365=
202112061200 AAXX 06124 67731 42680 634// 10355 20198 48/// 84202
                   333 5//// 84840 86080=
202112060900 AAXX 06094 67731 42680 618// 10335 20179 48/// 84130
                   333 5//// 84830 85363=
202112050900 AAXX 05094 67731 NIL=
202112050600 AAXX 05064 67731 12580 712// 10227 20182 48/// 69904 83539
                   333 10394 20212 5//// 83627 85360 87180
                   555 00048 20009=
202112031500 AAXX 03154 67731 41580 618// 10336 20177 48/// 71789 82931
                   333 5//// 82927 82835 84362 82080=
202112031200 AAXX 03124 67731 42680 318// 10380 20160 48/// 82201
                   333 5//// 82835 81080=
202112020900 AAXX 02094 67731 42980 231// 10336 20199 48/// 80002
                   333 5//// 82080=
202112010900 AAXX 01094 67731 42980 120// 10337 20148 48/// 81030
                   333 5//// 81365=

################################################################################
#  SYNOPS from 67741, Sesheke (Zambia) | 17-28S | 024-18E | 949 m
################################################################################
202112311200 AAXX 31124 67741 NIL=
202112310600 AAXX 31064 67741 12980 50000 10241 20//0 48/// 60504 85030
                   333 10334 20//0 5//// 85362
                   555 00/// 20000=
202112300900 AAXX 30094 67741 NIL=
202112300600 AAXX 30064 67741 32980 60901 10256 20195 48517 86030
                   333 10301 20/// 59004 86362
                   555 00/// 20003=
202112291200 AAXX 29124 67741 42680 22701 10328 20191 48521 82130
                   333 5//// 82850 81362=
202112290600 AAXX 29064 67741 12980 52902 10247 20180 48535 60034 85030
                   333 10350 20//0 85362
                   555 00/// 20006=
202112281500 AAXX 28154 67741 NIL=
202112281200 AAXX 28124 67741 NIL=
202112271200 AAXX 27124 67741 42680 53302 10324 20181 48519 83130
                   333 5//// 83850 83362=
202112270900 AAXX 27094 67741 42980 51901 10286 20211 48533 85030
                   333 5//// 85362=
202112260900 AAXX 26094 67741 NIL=
202112240900 AAXX 24094 67741 NIL=
202112231500 AAXX 23154 67741 41680 51902 10226 20194 48455 79522 85900
                   333 59019 81930 85630
                   555 10290=
202112231200 AAXX 23124 67741 42680 50000 10312 20195 48488 85100
                   333 5//// 85850=
202112230900 AAXX 23094 67741 42680 12701 10294 20203 48504 81101
                   333 5//// 81850 81080=
202112230600 AAXX 23064 67741 12980 13302 10239 20196 48504 60014 80001
                   333 10274 20//0 59013 81080
                   555 00/// 20000=
202112220900 AAXX 22094 67741 NIL=
202112220600 AAXX 22064 67741 32680 70801 10231 20205 48512 875//
                   333 10292 20//0 59024 87645
                   555 00/// 20000=
202112211500 AAXX 21154 67741 42980 60000 10258 20206 48498 86030
                   333 58001 86362 555 10292=
202112211200 AAXX 21124 67741 NIL=
202112210900 AAXX 21094 67741 42680 60902 10266 20213 48541 86530
                   333 5//// 86645 81362=
202112171500 AAXX 17154 67741 41680 70901 10224 20216 48500 76022 875//
                   333 5//// 87430 555 10288=
202112171200 AAXX 17124 67741 42680 73403 10266 20187 48519 8657/
                   333 5//// 86645 82362=
202112160600 AAXX 16064 67741 32980 73501 10232 20184 48493 8707/
                   333 10348 20//0 59014 87460
                   555 00/// 20990=
202112151200 AAXX 15124 67741 42680 30000 10332 20163 48481 82130
                   333 5//// 82850 82362=
202112150900 AAXX 15094 67741 42980 33601 10294 20177 48513 83030
                   333 5//// 83362=
202112141200 AAXX 14124 67741 NIL=
202112131200 AAXX 13124 67741 42680 23501 10351 20177 48505 82130
                   333 5//// 82850 81362=
202112130900 AAXX 13094 67741 NIL=
202112120900 AAXX 12094 67741 NIL=
202112101500 AAXX 10154 67741 NIL=
202112100600 AAXX 10064 67741 12980 60000 10238 20195 48523 60024 86030
                   333 10333 20//0 59017 86362=
202112091500 AAXX 09154 67741 41980 70000 10226 20209 48540 76062 8704/
                   333 58000 87460 555 10333=
202112091200 AAXX 09124 67741 42680 51901 10317 20188 48519 81130
                   333 59007 81850 85362=
202112090900 AAXX 09094 67741 42680 62601 10268 20194 48548 81130
                   333 58003 81850 86362=
202112090600 AAXX 09064 67741 31680 62901 10246 20188 48544 71792 81970
                   333 10340 20//0 59009 81940 86461
                   555 00/// 20000=
202112080900 AAXX 08094 67741 42980 60000 10286 20182 48552 86070
                   333 59008 86362=
202112070900 AAXX 07094 67741 42980 50602 10304 20170 48554 85030
                   333 58020 85362=
202112061200 AAXX 06124 67741 42680 21901 10336 20153 48523 82130
                   333 5//// 82850 81362=
202112060900 AAXX 06094 67741 42980 51001 10294 20188 48533 85030
                   333 5//// 85362=
202112050900 AAXX 05094 67741 NIL=
202112050600 AAXX 05064 67741 12980 62601 10256 20193 48527 60044 86030
                   333 10381 20//0 58011 86362
                   555 00/// 20000=
202112031500 AAXX 03154 67741 NIL=
202112031200 AAXX 03124 67741 NIL=
202112020900 AAXX 02094 67741 42680 10202 10354 20138 48525 81100
                   333 59007 81850=
202112010900 AAXX 01094 67741 42980 50000 10338 20128 48523 85030
                   333 59004 85362=

################################################################################
#  SYNOPS from 67743, Livingstone (Zambia) | 17-49S | 025-49E | 985 m
################################################################################
202112311200 AAXX 31124 67743 42780 62909 10300 20181 48515 81231
                   333 58015 81845 86360 83080 91015=
202112310900 AAXX 31094 67743 42980 52505 10259 20192 48512 85031
                   333 58001 85360 83080 91017=
202112310600 AAXX 31064 67743 12980 60000 10235 20183 48518 60044 86031
                   333 10338 20199 58003 86360 83080
                   555 00/// 20000 91017=
202112300900 AAXX 30094 67743 42680 60410 10307 20180 48532 70322 81108
                   333 59002 81840 86280 91017=
202112300600 AAXX 30064 67743 41458 80205 10215 20208 48537 76162 887//
                   333 58010 88710 555 910191=
202112291200 AAXX 29124 67743 NIL=
202112290600 AAXX 29064 67743 11980 62906 10222 20199 48519 60034 76062 86070
                   333 10350 20214 58003 84458 83359
                   555 00/// 20000 91018=
202112281500 AAXX 28154 67743 NIL=
202112281200 AAXX 28124 67743 NIL=
202112271200 AAXX 27124 67743 NIL=
202112270900 AAXX 27094 67743 NIL=
202112270600 AAXX 27064 67743 12980 30108 10259 20196 48531 60304 70200 80001
                   333 10314 20213 59015 81080
                   555 20004 91018=
202112260900 AAXX 26094 67743 NIL=
202112240900 AAXX 24094 67743 42980 73309 10294 20185 48521 70222 81131
                   333 59018 81849 83360 82080
                   555 91016=
202112240600 AAXX 24064 67743 32980 70603 10233 20193 48514 70222 84031
                   333 10319 20198 58018 84360 83080
                   555 91017=
202112231500 AAXX 23154 67743 NIL=
202112230900 AAXX 23094 67743 42680 33107 10284 20205 48502 70200 83101
                   333 59016 83830 82080 91014=
202112230600 AAXX 23064 67743 12980 33309 10240 20194 48499 60174 70200 81031
                   333 10294 20185 59019 81360 82080
                   555 00/// 20003 91015=
202112220900 AAXX 22094 67743 NIL=
202112211500 AAXX 21154 67743 NIL=
202112211200 AAXX 21124 67743 NIL=
202112171500 AAXX 17154 67743 42680 72805 10255 20196 48495 81271
                   333 58018 81845 87360 83080
                   555 10300 91014=
202112171200 AAXX 17124 67743 42680 73511 10265 20175 48512 84271
                   333 58038 84840 87360 83080 91016=
202112160600 AAXX 16064 67743 32980 50204 10252 20181 48504 70222 85031
                   333 10342 20213 59008 85360 82080
                   555 91015=
202112141200 AAXX 14124 67743 NIL=
202112131200 AAXX 13124 67743 42780 53409 10360 20156 48496 70200 84201
                   333 59007 84856 82080 91012=
202112130900 AAXX 13094 67743 42780 20408 10325 20176 48516 70300 81131
                   333 58000 81856 81360 82080 91015=
202112120900 AAXX 12094 67743 42680 72910 10310 20190 48513 70322 81131
                   333 59002 81850 85360 83080 91015=
202112101500 AAXX 10154 67743 41780 82505 10258 20186 48490 72992 8197/
                   333 59010 81950 83850 88459
                   555 10351 91013=
202112101200 AAXX 10124 67743 41759 73109 10279 20199 48492 78020 87230
                   333 59026 87850 81360 91013=
202112100900 AAXX 10094 67743 42680 40507 10330 20162 48528 81130
                   333 59020 81845 84360 91016=
202112091500 AAXX 09154 67743 42680 61708 10300 20163 48506 70222 8117/
                   333 59005 81845 85359 91014=
202112091200 AAXX 09124 67743 41680 72005 10305 20170 48523 71722 8137/
                   333 59012 81945 83845 84359 91016=
202112090900 AAXX 09094 67743 42680 62207 10305 20179 48544 70222 8387/
                   333 59004 82840 81640 85359 91019=
202112090600 AAXX 09064 67743 32680 60606 10258 20174 48537 70222 8227/
                   333 10345 20210 59006 82835 86359
                   555 00/// 91019=
202112080900 AAXX 08094 67743 42680 71309 10293 20176 48543 81131
                   333 59004 81840 87360 81080 91019=
202112061200 AAXX 06124 67743 42680 61204 10340 20149 48525 70222 84230
                   333 58019 84840 83360 91015=
202112060900 AAXX 06094 67743 NIL=
202112060600 AAXX 06064 67743 12980 70908 10245 20193 48532 60054 8707/
                   333 10397 20210 59020 87360
                   555 00/// 20000 91018=
202112050900 AAXX 05094 67743 41775 53407 10350 20130 48524 70500 82131
                   333 58008 82856 83360 81080
                   555 91015=
202112050600 AAXX 05064 67743 31775 60806 10264 20174 48514 69904 70500 82132
                   333 10405 20226 58002 82850 83360 82080
                   555 91016=
202112031500 AAXX 03154 67743 NIL=
202112031200 AAXX 03124 67743 NIL=
202112020900 AAXX 02094 67743 41775 10113 10346 20107 48525 70500 81101
                   333 59001 81856 81080 91015=
202112020600 AAXX 02064 67743 31975 10213 10289 20124 48519 70500 80001
                   333 10401 20215 59004 81080
                   555 00/// 20000 91016=
202112010900 AAXX 01094 67743 NIL=

################################################################################
#  SYNOPS from 67751, Magoye (Zambia) | 16-00S | 027-36E | 1018 m
################################################################################
202112311200 AAXX 31124 67751 NIL=
202112310900 AAXX 31094 67751 42980 70108 10251 20191 48/// 84077
                   333 5//// 84360 83260=
202112300900 AAXX 30094 67751 NIL=
202112300600 AAXX 30064 67751 12980 60711 10262 20185 48/// 69934 86030
                   333 10/// 20211 5//// 86360
                   555 20997=
202112291200 AAXX 29124 67751 42880 30703 10338 20202 48/// 82202
                   333 5//// 82857 82080=
202112290600 AAXX 29064 67751 NIL=
202112281500 AAXX 28154 67751 NIL=
202112281200 AAXX 28124 67751 NIL=
202112280600 AAXX 28064 67751 32980 10000 10269 20219 80001
                   333 20190 81080 555 20000=
202112271200 AAXX 27124 67751 NIL=
202112270900 AAXX 27094 67751 NIL=
202112260900 AAXX 26094 67751 NIL=
202112240900 AAXX 24094 67751 NIL=
202112231500 AAXX 23154 67751 NIL=
202112230900 AAXX 23094 67751 NIL=
202112230600 AAXX 23064 67751 12980 53601 10224 20198 60034 70222 85030
                   333 10//0 20150 85360
                   555 00/// 20061=
202112221200 AAXX 22124 67751 42980 70403 10281 20214 70222 8707/
                   333 5//// 87360=
202112220900 AAXX 22094 67751 42980 70403 10244 20198 70222 8707/
                   333 5//// 87360=
202112220600 AAXX 22064 67751 12980 70401 10216 20186 48/// 60614 70222 8707/
                   333 1//// 20142 5//// 87360=
202112211500 AAXX 21154 67751 42980 50403 10284 20192 70222 85070
                   333 5//// 85060=
202112211200 AAXX 21124 67751 42980 60403 10275 20196 48/// 70222 86060
                   333 5//// 86360=
202112210900 AAXX 21094 67751 42980 70405 10244 20194 70222 86070
                   333 5//// 86360=
202112171500 AAXX 17154 67751 NIL=
202112171200 AAXX 17124 67751 42480 73602 10259 20188 48/// 8227/
                   333 5//// 82815 87360=
202112161200 AAXX 16124 67751 42880 43507 10333 20169 83260
                   333 5//// 83857 82360=
202112160600 AAXX 16064 67751 32980 70104 10250 20184 87030
                   333 10//0 20206 5//// 87360
                   555 00/// 20180=
202112141200 AAXX 14124 67751 42880 60503 10349 20153 48/// 83268
                   333 5//// 83857 81360 85280=
202112131200 AAXX 13124 67751 NIL=
202112130900 AAXX 13094 67751 NIL=
202112130600 AAXX 13064 67751 32980 20302 10295 20177 82030
                   333 10//0 20217 5//// 82360
                   555 00/// 20000=
202112120900 AAXX 12094 67751 NIL=
202112101500 AAXX 10154 67751 41980 61602 10281 20195 72599 86060
                   333 5//// 86360 555 10///=
202112101200 AAXX 10124 67751 42980 50402 10366 20148 85060
                   333 5//// 85360=
202112100900 AAXX 10094 67751 42980 20103 10322 20160 70200 82100
                   333 5//// 82865=
202112100600 AAXX 10064 67751 12980 21701 10274 20174 60024 82030
                   333 10//0 20186 5//// 82360=
202112091500 AAXX 09154 67751 42980 42003 10297 20170 70222 84060
                   333 5//// 84360 555 10///=
202112091200 AAXX 09124 67751 NIL=
202112090900 AAXX 09094 67751 42980 20408 10324 20151 70200 82100
                   333 5//// 82865=
202112090600 AAXX 09064 67751 32980 14002 10280 20176 70222 81040
                   333 10//0 20192 5//// 81360
                   555 00///=
202112081200 AAXX 08124 67751 42980 40402 10340 20156 70222 84060
                   333 5//// 84360=
202112080600 AAXX 08064 67751 31978 61801 10281 20174 70222 86070
                   333 10//0 20192 5//// 86360
                   555 00///=
202112070900 AAXX 07094 67751 42980 40402 10327 20155 70222 84070
                   333 20155 5//// 84360=
202112070600 AAXX 07064 67751 31976 40000 10278 20185 70522 84001
                   333 20186 5//// 84080=
202112061200 AAXX 06124 67751 42980 43602 10354 20164 70222 84200
                   333 5//// 84865=
202112060900 AAXX 06094 67751 NIL=
202112060600 AAXX 06064 67751 31976 21702 10286 20189 70500 82001
                   333 10//0 20186 5//// 82080
                   555 00///=
202112050900 AAXX 05094 67751 NIL=
202112050600 AAXX 05064 67751 31975 10310 10300 20136 70500
                   333 20187 81080=
202112031500 AAXX 03154 67751 NIL=
202112031200 AAXX 03124 67751 42880 33611 10355 20184 48/// 83200
                   333 5//// 83857=
202112020900 AAXX 02094 67751 42780 10706 10329 20170 48/// 51100
                   333 5//// 81856=
202112010900 AAXX 01094 67751 NIL=
202112010600 AAXX 01064 67751 32980 00907 10295 20120 48///
                   333 10//0 20179 5////
                   555 00/// 20000=

################################################################################
#  SYNOPS from 67753, Choma (Zambia) | 16-50S | 027-04E | 1213 m
################################################################################
202112311200 AAXX 31124 67753 42680 40000 10259 20189 48515 81230
                   333 58014 81830 83360=
202112310600 AAXX 31064 67753 12580 80000 10196 20184 48/// 60444 8125/
                   333 10310 20184 5//// 81820 88360
                   555 00///=
202112300900 AAXX 30094 67753 42680 10613 10281 20183 48526 81131
                   333 58007 81835 81360 81080=
202112300600 AAXX 30064 67753 32580 32505 10236 20184 48523 81130
                   333 10331 20196 58004 81820 82360
                   555 00///=
202112291200 AAXX 29124 67753 42680 61703 10316 20170 48501 86200
                   333 59006 86850=
202112290600 AAXX 29064 67753 12980 30000 10261 20199 48515 69904 80002
                   333 10321 20182 59010 83080
                   555 00///=
202112281500 AAXX 28154 67753 42680 70000 10279 20210 48497 72052 83201
                   333 59003 83850 84080
                   555 10321=
202112281200 AAXX 28124 67753 42680 61805 10301 20174 48509 86200
                   333 59008 86848=
202112271200 AAXX 27124 67753 42680 61710 10290 20179 48508 86200
                   333 59006 86845=
202112270900 AAXX 27094 67753 42680 61808 10274 20196 48525 86200
                   333 59004 86830=
202112260900 AAXX 26094 67753 42980 2//// 10247 20184 48533 82031
                   333 58009 82360 84080=
202112240900 AAXX 24094 67753 42980 80000 10229 20179 48523 8803/
                   333 58019 88360=
202112231500 AAXX 23154 67753 42680 60105 10283 20192 48479 86200
                   333 5//// 86848 555 10294=
202112231200 AAXX 23124 67753 42680 50000 10285 20199 48488 85200
                   333 59007 85835=
202112230900 AAXX 23094 67753 42680 30000 10254 20196 48505 82130
                   333 59015 82825 81360=
202112230600 AAXX 23064 67753 12980 70000 10213 20184 48501 60044 8703/
                   333 10264 20172 59014 87360
                   555 00///=
202112220900 AAXX 22094 67753 42580 73605 10233 20187 48513 8255/
                   333 59026 82620 87360=
202112220600 AAXX 22064 67753 12480 80000 10200 20189 48520 60064 8155/
                   333 10259 20180 59024 81618 88360
                   555 00///=
202112211500 AAXX 21154 67753 41570 70000 10250 20200 48514 78082 82900
                   333 5//// 82924 85830=
202112211200 AAXX 21124 67753 41570 70000 10250 20200 48514 78082 82900
                   333 5//// 82924 85830=
202112210900 AAXX 21094 67753 41475 80000 10201 20198 48539 75056 8453/
                   333 58006 84618 84360=
202112171500 AAXX 17154 67753 NIL=
202112171200 AAXX 17124 67753 41580 73604 10224 20179 48512 72065 8385/
                   333 58035 81620 82830 87360=
202112161200 AAXX 16124 67753 41680 70313 10250 20198 48476 71792 8535/
                   333 59003 81935 84840 82360=
202112160600 AAXX 16064 67753 12980 70000 10216 20158 48512 60114 8705/
                   333 10315 20180 58000 87360
                   555 00///=
202112141200 AAXX 14124 67753 41680 60000 10267 20157 48/// 72992 83350
                   333 5//// 81935 82840 83360=
202112131200 AAXX 13124 67753 42780 61905 10346 20135 48/// 86100
                   333 5//// 86856=
202112130900 AAXX 13094 67753 42980 31708 10325 20139 48/// 83100
                   333 5//// 83856=
202112120900 AAXX 12094 67753 42780 61820 10326 20139 48512 83101
                   333 59006 83856 83080=
202112101500 AAXX 10154 67753 42780 52703 10309 20160 48481 81930
                   333 59014 81956 82857 82360
                   555 10341=
202112101200 AAXX 10124 67753 42680 60000 10324 20159 48501 86200
                   333 59013 86850=
202112100900 AAXX 10094 67753 42980 42705 10301 20145 48519 84100
                   333 59013 84835=
202112100600 AAXX 10064 67753 32980 50000 10242 20170 48523 82031
                   333 10332 20214 59009 82360 83080=
202112091500 AAXX 09154 67753 42780 42703 10319 20163 48501 82130
                   333 59012 82856 82360
                   555 10332=
202112091200 AAXX 09124 67753 42780 72608 10325 20149 48512 85130
                   333 59012 85856 82360=
202112090900 AAXX 09094 67753 42680 71810 10295 20149 48528 83130
                   333 59008 83840 84360=
202112090600 AAXX 09064 67753 12980 52703 10246 20170 48533 69904 85030
                   333 10332 20194 58009 85360
                   555 00///=
202112080900 AAXX 08094 67753 42680 72705 10266 20175 48530 82130
                   333 59008 82830 85360=
202112070900 AAXX 07094 67753 42680 52605 10280 20167 48547 81131
                   333 58020 81850 81360 83080=
202112061200 AAXX 06124 67753 42680 50000 10335 20151 48503 85200
                   333 58002 85845=
202112060900 AAXX 06094 67753 42680 10000 10311 20156 48529 81130
                   333 58008 81830 81360=
202112050900 AAXX 05094 67753 42680 13611 10334 20146 48522 81100
                   333 5//// 81835=
202112050600 AAXX 05064 67753 32980 00000 10284 20154 48517
                   333 10355 20196 59005=
202112031500 AAXX 03154 67753 42680 10000 10335 20141 48493 81200
                   333 58010 81850 555 10357=
202112031200 AAXX 03124 67753 NIL=
202112030600 AAXX 03064 67753 32980 00000 10270 20162 48525
                   333 10351 20180 58008
                   555 00///=
202112021200 AAXX 02124 67753 42680 40000 10336 20140 48503 84100
                   333 59005 84845=
202112020900 AAXX 02094 67753 42680 10207 10317 20145 48521 81100
                   333 59003 81835=
202112010900 AAXX 01094 67753 42980 12703 10315 20111 48520 80001
                   333 59001 81080=

################################################################################
#  SYNOPS from 67855, Lupaki (Zambia) | 17-03-00S | 024-46-00E | 1000 m
################################################################################
202112310900 AAXX 31094 67855 42580 71102 10270 20184 3//// 48/// 875//
                   333 5//// 87625=
202112230900 AAXX 23094 67855 42680 31702 10278 20192 3//// 48/// 83100
                   333 5//// 83840=
202112201500 AAXX 20154 67855 42680 82701 10252 20185 3//// 48/// 885//
                   333 5//// 88640=
202112181500 AAXX 18154 67855 41670 83102 10248 20161 3//// 48/// 70252 885//
                   333 5//// 88630=
202112180900 AAXX 18094 67855 41565 81302 10220 20148 3//// 48/// 70252 885//
                   333 5//// 88620=
202112150900 AAXX 15094 67855 42780 42105 10324 20149 3//// 48/// 84200
                   333 5//// 84856=
202112141500 AAXX 14154 67855 41975 60905 10287 20161 3//// 48/// 70262 86030
                   333 5//// 86360=
202112140900 AAXX 14094 67855 41975 63204 10261 20168 3//// 48/// 76098 86070
                   333 5//// 86460=
202112131500 AAXX 13154 67855 42675 41902 10372 20108 3//// 48/// 82203
                   333 5//// 81950 82857 83080=
202112130900 AAXX 13094 67855 42780 13104 10356 20113 3//// 48/// 81100
                   333 5//// 81856=
202112110900 AAXX 11094 67855 42980 41302 10340 20124 3//// 48/// 84030
                   333 5//// 84360=
202112100900 AAXX 10094 67855 42780 41904 10342 20148 3//// 48/// 82130
                   333 5//// 82850 83360=
202112090900 AAXX 09094 67855 42980 61903 10278 20157 3//// 48/// 86030
                   333 5//// 86360=
202112070900 AAXX 07094 67855 41775 43102 10280 20134 3//// 48/// 78082 84230
                   333 5//// 84850=
202112060900 AAXX 06094 67855 42680 53102 10336 20148 3//// 48/// 81130
                   333 5//// 81850 85360=
202112041500 AAXX 04154 67855 42875 10904 10372 20111 3//// 48/// 81100
                   333 5//// 81857=
202112040900 AAXX 04094 67855 42780 23505 10356 20088 3//// 48///
                   333 5//// 82856=
202112010900 AAXX 01094 67855 42980 43504 10344 20104 3//// 48/// 84030
                   333 5//// 84360=
