################################################################################
# Query made at 04/18/2022 00:42:38 UTC
# Country like Zamb*
# Time interval: from 05/01/2006 05:30  to 05/31/2006 05:30  UTC
################################################################################

################################################################################
#  SYNOPS from 67413, Mbala (Zambia) | 08-51S | 031-20E | 1673 m
################################################################################
200605301200 AAXX 30124 67413 42580 50000 10235 20119 48528 82101
                   333 58002 82825 83880 91024=
200605300600 AAXX 30064 67413 32480 71010 10155 20121 48572 875//
                   333 10250 20126 58013 87612=

################################################################################
#  SYNOPS from 67441, Mwinilunga (Zambia) | 11-45S | 024-26E | 1361 m
################################################################################
200605290600 AAXX 29064 67441 32980 31405 10128 20118 48779 83030
                   333 10275 20099 83300=
200605250600 AAXX 25064 67441 32480 71502 10155 20150 48574 875//
                   333 10270 20125 59006 87618=
200605240600 AAXX 24064 67441 32980 11502 10136 20106 48580 81030
                   333 10255 20090 59010 81360=
200605230900 AAXX 23094 67441 42582 21508 10194 20085 48595 82030
                   333 5//// 82362=
200605230600 AAXX 23064 67441 32980 11506 10127 20089 48595 81030
                   333 10230 20082 58015 81360=
200605170900 AAXX 17094 67441 42680 32104 10260 20120 48568 83100
                   333 58004 83835=
200605091200 AAXX 09124 67441 42682 21506 10253 20125 48527 82100
                   333 59001 82840=
200605040600 AAXX 04064 67441 32980 10000 10142 20139 48564 80001
                   333 10295 20107 59010 81080=

################################################################################
#  SYNOPS from 67461, Mansa (Zambia) | 11-06S | 028-51E | 1382 m
################################################################################
200605301200 AAXX 30124 67461 41975 31210 10258 20102 48546 70510 80001
                   333 83080 91021=
200605290600 AAXX 29064 67461 32980 21020 10162 20134 48544 80001
                   333 10285 20119 59007 82080=
200605250600 AAXX 25064 67461 31480 70905 10170 20108 48551 70522 875//
                   333 10230 20121 59001 87612=
200605240600 AAXX 24064 67461 31375 80905 10169 20155 48551 70522 885//
                   333 10206 20154 58007 88606=
200605230600 AAXX 23064 67461 11475 70904 10170 20154 48535 69904 70522 83538
                   333 10245 20145 58009 83618 83362 86280=
200605220600 AAXX 22064 67461 31975 71902 10188 20169 48541 70522 85038
                   333 10299 20159 58023 85362 87280=
200605171200 AAXX 17124 67461 42780 51801 10276 20135 48513 85200
                   333 58009 85856 91018=
200605170900 AAXX 17094 67461 42680 40808 10249 20155 48580 84100
                   333 58018 84840=
200605150600 AAXX 15064 67461 32480 50901 10179 20155 48532 81530
                   333 10271 20154 81610 85362=
200605091200 AAXX 09124 67461 42780 30905 10264 20097 48501
                   333 59003 82850 81080=
200605080900 AAXX 08094 67461 42780 20907 10204 20136 48521 82110
                   333 58000 82850=
200605040600 AAXX 04064 67461 32480 30901 10198 20170 48515 81501
                   333 10285 20126 59018 81610 82080=

################################################################################
#  SYNOPS from 67475, Kasama (Zambia) | 10-13S | 031-08E | 1382 m
################################################################################
200605290600 AAXX 29064 67475 32480 71012 10195 20132 48559 81506
                   333 10276 20119 59001 81618 87280=
200605240600 AAXX 24064 67475 32480 70610 10168 20138 48558 875//
                   333 10256 20150 58001 87610=
200605230600 AAXX 23064 67475 11475 60908 10189 20167 48558 60024 72842 82532
                   333 10296 20147 58025 82612 81360 86080=
200605220600 AAXX 22064 67475 32980 60207 10219 20172 48535 81032
                   333 10290 20145 58016 81361 86080=
200605150600 AAXX 15064 67475 12475 71307 10195 20167 48539 60014 8557/
                   333 10240 20154 59008 85615 87360=
200605040600 AAXX 04064 67475 32480 71008 10196 20156 48529 81108
                   333 10270 20129 59014 81818 87280=

################################################################################
#  SYNOPS from 67477, Mpika (Zambia) | 11-54S | 031-26E | 1400 m
################################################################################
200605301200 AAXX 30124 67477 42980 11506 10206 20090 48550 80001
                   333 58004 81080=
200605300600 AAXX 30064 67477 32980 01010 10155 20068 48566
                   333 10241 20112 58005=
200605290600 AAXX 29064 67477 32580 50806 10188 20135 48563 81001
                   333 10255 20130 59001 81820 85080=
200605250600 AAXX 25064 67477 32380 71503 10156 20130 48564 875//
                   333 10224 20127 58000 87608=
200605240600 AAXX 24064 67477 32280 70905 10165 20148 48565 82600
                   333 10224 20137 59002 82706=
200605230900 AAXX 23094 67477 42980 01805 10206 20087 48///
                   333 58011=
200605220600 AAXX 22064 67477 11480 71602 10210 20177 48539 60054 76022 8151/
                   333 10285 20165 58024 81612 87360=
200605171200 AAXX 17124 67477 42780 21003 10255 20124 48521 82100
                   333 58005 82850=
200605150600 AAXX 15064 67477 32980 71304 10185 20153 48543 8707/
                   333 10241 20129 59008 87360=
200605091200 AAXX 09124 67477 42680 51106 10219 20139 48507 84101
                   333 58003 84830 81080=
200605081200 AAXX 08124 67477 42680 20705 10250 20176 48505 82100
                   333 58003 82848=
200605040600 AAXX 04064 67477 32480 61205 10188 20153 48535 81108
                   333 10240 20126 59011 81817 86280=
200605021200 AAXX 02124 67477 42680 71207 10217 20141 48540 87100
                   333 5//// 87835=

################################################################################
#  SYNOPS from 67531, Zambezi (Zambia) | 13-32S | 023-07E | 1077 m
################################################################################
200605301200 AAXX 30124 67531 42780 11708 10266 20106 81101
                   333 58007 81856 81080=
200605300600 AAXX 30064 67531 32980 11408 10161 20116 48/// 80001
                   333 10290 20102 58006 81082=
200605290600 AAXX 29064 67531 32980 11408 10140 20109 80001
                   333 10285 20094 59004 81082=
200605250600 AAXX 25064 67531 31980 01406 10155 20136 48/// 72840
                   333 10278 20095 59015=
200605240600 AAXX 24064 67531 32980 01606 10121 20062 48///
                   333 10256 20048 59017=
200605230900 AAXX 23094 67531 42980 01805 10206 20087 48///
                   333 58011=
200605230600 AAXX 23064 67531 32980 12104 10108 20054 48/// 80001
                   333 10241 20036 58012 81082=
200605220900 AAXX 22094 67531 42980 11815 10194 20099 48/// 80002
                   333 58044 81082=
200605220600 AAXX 22064 67531 32980 31809 10135 20052 48/// 80005
                   333 10296 20095 58058 83082=
200605171200 AAXX 17124 67531 42880 31206 10205 20106 83100
                   333 58008 83857=
200605170900 AAXX 17094 67531 42980 01307 10280 20136=
200605151200 AAXX 15124 67531 42880 21306 10301 20089 48/// 82100
                   333 5//// 82852=
200605150600 AAXX 15064 67531 32980 11207 10195 20120 48/// 81330
                   333 10289 20100 59016 81365=
200605091200 AAXX 09124 67531 42780 21805 10280 20136 48/// 82101
                   333 58000 82850 81082=
200605081200 AAXX 08124 67531 42880 11608 10291 20150 48/// 81100
                   333 5//// 81857 81082=
200605080900 AAXX 08094 67531 42980 11307 10269 20148 80005
                   333 5//// 81082=
200605040900 AAXX 04094 67531 42980 11608 10279 20156 48/// 80001
                   333 59012 81082=
200605040600 AAXX 04064 67531 31975 11405 10175 20150 48/// 70500 80001
                   333 10305 20115 59010 81082=
200605021200 AAXX 02124 67531 42680 71209 10285 20165 48/// 81107
                   333 5//// 81847 87282=

################################################################################
#  SYNOPS from 67551, Solwezi (Zambia) | 12-11S | 026-23E | 1386 m
################################################################################
200605300600 AAXX 30064 67551 31970 31405 10138 20109 48561 70511 82031
                   333 10270 20110 58008 82362 82080=
200605171200 AAXX 17124 67551 42680 50000 10261 20123 48530 85230
                   333 58006 85840 81362 91020=
200605170900 AAXX 17094 67551 42580 50706 10250 20154 48548 81130
                   333 58008 71725 85362=
200605110600 AAXX 11064 67551 32980 21104 10162 20121 48528 81032
                   333 10286 20102 58002 81362 82080=

################################################################################
#  SYNOPS from 67561, Ndola (Zambia) | 13-00S | 028-39E | 1269 m
################################################################################
200605300600 AAXX 30064 67561 32980 11211 10167 20074 48554 81030
                   333 10281 20126 59005 81361=
200605290600 AAXX 29064 67561 32980 50000 10179 20128 48556 80008
                   333 10280 20122 59004 85820=
200605220600 AAXX 22064 67561 12780 71603 10175 20152 48550 69904 85538
                   333 10200 20170 58004 85650 83360 87280=
200605171200 AAXX 17124 67561 41778 50000 10270 20116 48525 70511 85200
                   333 58007 85856 91019=
200605150600 AAXX 15064 67561 31970 10000 10178 20134 48536 70500 81030
                   333 10276 20142 5////=
200605040900 AAXX 04094 67561 42680 41502 10263 20147 48538 83201
                   333 59014 83835 81080=
200605021200 AAXX 02124 67561 42680 60000 10250 20155 48536 85208
                   333 58012 85845 85280=

################################################################################
#  SYNOPS from 67571, Serenje (Zambia) | 13-14S | 030-13E | 1384 m
################################################################################
200605300600 AAXX 30064 67571 32984 01516 10153 20101 48568
                   333 10250 20112 58008=

################################################################################
#  SYNOPS from 67581, Chipata (Zambia) | 13-33S | 032-35E | 1028 m
################################################################################
200605301200 AAXX 30124 67581 42884 11104 10249 20116 48573 81100
                   333 58011 81858 91022=
200605300600 AAXX 30064 67581 32984 01320 10182 20062 48578
                   333 10284 20139 58007=
200605240600 AAXX 24064 67581 31580 61201 10169 20152 48569 72842 81108
                   333 10321 20130 59001 81824 86280=
200605170900 AAXX 17094 67581 42784 11105 10269 20134 48555 81130
                   333 58000 81850 81360=
200605151200 AAXX 15124 67581 42684 42405 10271 20138 48531 84100
                   333 59008 84840=
200605150600 AAXX 15064 67581 32984 10705 10218 20131 48554 81030
                   333 10280 20170 59004 81360=
200605110600 AAXX 11064 67581 32984 52103 10196 20139 48522 85030
                   333 10252 20142 58000 85360=
200605101200 AAXX 10124 67581 42684 60902 10245 20144 48518 86100
                   333 59010 86845=
200605100600 AAXX 10064 67581 32484 11215 10177 20141 48534 81801
                   333 10252 20145 59005 81815 81619 81081=
200605091200 AAXX 09124 67581 42680 71406 10225 20145 48524 878//
                   333 58012 82840 87645=
200605081200 AAXX 08124 67581 42684 51005 10279 20142 48523 85102
                   333 58008 85845 81080=
200605041200 AAXX 04124 67581 42784 52703 10281 20135 48528 85102
                   333 58013 85850 81080=
200605040900 AAXX 04094 67581 42784 10206 10265 20147 48548 81102
                   333 58010 81850 81080=
200605040600 AAXX 04064 67581 32984 11202 10202 20168 48543 80002
                   333 10272 20140 58013 81080=
200605021200 AAXX 02124 67581 42684 51004 10265 20148 48551 85102
                   333 58005 85850 81080=

################################################################################
#  SYNOPS from 67599, Mfuwe (Zambia) | 13-16S | 031-56E | 568 m
################################################################################
200605230900 AAXX 23094 67599 42580 70000 10239 20172 48612 82138
                   333 58037 82820 85360 86280=
200605230600 AAXX 23064 67599 32980 81906 10200 20160 48586 8803/
                   333 10240 20/// 58044 88360=
200605221200 AAXX 22124 67599 42680 72208 10262 20191 48557 8223/
                   333 5//// 82840 86360=
200605210600 AAXX 21064 67599 32980 00000 10200 20169 48514
                   333 10344 20/// 58003=
200605170900 AAXX 17094 67599 42580 10000 10290 20178 48572 81130
                   333 59003 81820 81360=
200605151200 AAXX 15124 67599 42780 20000 10320 20170 48555 81130
                   333 5//// 81850 82080=
200605150600 AAXX 15064 67599 32980 20000 10195 20149 48553 82030
                   333 10289 20//0 59006 82360=
200605110600 AAXX 11064 67599 32980 40000 10210 20156 48542 83032
                   333 10280 20/// 59006 83360 83080=
200605100900 AAXX 10094 67599 42580 40000 10261 20168 48559 83130=
200605041200 AAXX 04124 67599 42768 40000 10305 20179 48543 83101
                   333 59019 83850 81080=

################################################################################
#  SYNOPS from 67633, Mongu (Zambia) | 15-15S | 023-09E | 1052 m
################################################################################
200605301200 AAXX 30124 67633 42982 00608 10275 20098 48567
                   333 58014 91022=
200605300600 AAXX 30064 67633 32982 00909 10168 20108 48556
                   333 10299 20117 58005=
200605290600 AAXX 29064 67633 32982 00608 10172 20103 48587
                   333 10298 20123 59005=
200605250600 AAXX 25064 67633 32982 00905 10158 20129 48552
                   333 10246 20114 59012=
200605240600 AAXX 24064 67633 32980 01301 10106 20009 48552
                   333 10226 20043 59021=
200605230900 AAXX 23094 67633 42982 01306 10199 20042 48593
                   333 58012=
200605230600 AAXX 23064 67633 32980 13604 10180 20018 48547 81030
                   333 10218 20073 58016 81361=
200605220600 AAXX 22064 67633 32982 30908 10129 20014 48561 80001
                   333 10239 20099 59056 83080=
200605171200 AAXX 17124 67633 42882 23308 10316 20114 48529 82100
                   333 58006 82857 91017=
200605151200 AAXX 15124 67633 42782 22606 10294 20092 48527 82100
                   333 59001 82856=
200605150600 AAXX 15064 67633 32982 00407 10180 20089 48527
                   333 10//0 20142 5////=
200605091200 AAXX 09124 67633 42682 23608 10272 20142 48521 82101
                   333 59001 82840 81080=
200605081200 AAXX 08124 67633 42682 42308 10280 20146 48524 84200
                   333 58001 84850=
200605080900 AAXX 08094 67633 42982 31507 10275 20211 82300
                   333 58005 82361=
200605040900 AAXX 04094 67633 42782 10702 10292 20150 48549 81100
                   333 59008 81850=
200605040600 AAXX 04064 67633 32982 01101 10199 20166 48522
                   333 10302 20145 59012=
200605021200 AAXX 02124 67633 42982 40907 10314 20134 48540 82101
                   333 58007 82856 83080=

################################################################################
#  SYNOPS from 67641, Kaoma (Zambia) | 14-48S | 024-48E | 1213 m
################################################################################
200605201800 AAXX 20184 67641 32570 23307 10206 20079 40046 52032 82500
                   333 10254=

################################################################################
#  SYNOPS from 67655, Mumbwa (Zambia) | 15-04S | 027-11E | 1216 m
################################################################################
200605171200 AAXX 17124 67655 42580 50105 10282 20088 48537 85200
                   333 58001 85820 91020=

################################################################################
#  SYNOPS from 67659, Kafue Polder (Zambia) | 15-46S | 027-55E | 978 m
################################################################################
200605301200 AAXX 30124 67659 42680 10911 10248 20107 48/// 81100
                   333 5//// 81840=
200605171200 AAXX 17124 67659 42680 33010 10294 20104 83100
                   333 83856=

################################################################################
#  SYNOPS from 67663, Kabwe (Zambia) | 14-27S | 028-28E | 1206 m
################################################################################
200605301200 AAXX 30124 67663 42580 10809 10222 20080 48563 81100
                   333 58004 81828=
200605220600 AAXX 22064 67663 32980 51901 10167 20090 48550 84082
                   333 10302 20142 58050 84360 82080=
200605151200 AAXX 15124 67663 42680 50901 10263 20117 48513 85202
                   333 59012 85845 81080=
200605150600 AAXX 15064 67663 32980 10801 10194 20115 48533 81030
                   333 10252 20161 59013 81360=

################################################################################
#  SYNOPS from 67665, Lusaka Internationalairport (Zambia) | 15-19S | 028-27E | 1152 m
################################################################################
200605310000 AAXX 31004 67665 42980 11404 10101 48562 80002
                   333 58006 81078=
200605301200 AAXX 30124 67665 42680 10909 10229 20132 48580 81101
                   333 58015 81830 81080 91025=
200605300600 AAXX 30064 67665 32380 31107 10136 20136 48586 83501
                   333 10210 20102 58015 83615 81080=
200605291500 AAXX 29154 67665 42680 11010 10231 20145 48571 81130
                   333 58012 81850 81357=
200605290900 AAXX 29094 67665 42680 11015 10244 20145 48591 81100
                   333 59004 81830 555 91026=
200605290600 AAXX 29064 67665 32980 01102 10152 20144 48573
                   333 10271 20106 59003=
200605290400 AAXX 29044 67665 42980 11403 10115 20115 48556 80001
                   333 5//// 81080=
200605281800 AAXX 28184 67665 42980 10902 10161 20145 48570 80001
                   333 58004 81080=
200605281500 AAXX 28154 67665 42980 31506 10247 20152 48553 80001
                   333 58011 83080=
200605280900 AAXX 28094 67665 42980 11205 10235 20128 48595 80001
                   333 58008 81080=
200605270900 AAXX 27094 67665 42580 10504 10216 20161 48583 81101
                   333 59003 81820 81080=
200605270600 AAXX 27064 67665 32980 01203 10142 20142 48472
                   333 10235 20090 58003=
200605261200 AAXX 26124 67665 42580 20603 10220 20157 48561 81100
                   333 59002 81825 91023=
200605260600 AAXX 26064 67665 32380 80910 10144 20144 48567 8763/
                   333 10223 20102 59001 87705 88359=
200605251800 AAXX 25184 67665 42980 11304 10145 20145 48562 81030
                   333 59004 81359 555 10228=
200605250600 AAXX 25064 67665 32375 71008 10161 20161 48573 8553/
                   333 10182 20135 59004 85509 87359=
200605250300 AAXX 25034 67665 42370 80904 10150 20150 48562 8753/
                   333 87508 87359 555 91024=
200605240900 AAXX 24094 67665 41360 80809 10172 20172 48583 72055 885//
                   333 59007 84708 88612=
200605240600 AAXX 24064 67665 31360 81106 10153 20153 48515 71044 887//
                   333 10236 20145 59008 88709=
200605231500 AAXX 23154 67665 42680 40910 10195 20172 48566 83132
                   333 58007 83845 82360 82080=
200605230900 AAXX 23094 67665 42980 41010 10197 20121 48594 83031
                   333 58014 83360 84080=
200605230600 AAXX 23064 67665 32980 31303 10114 20114 48577 83031
                   333 10221 20098 58020 83360 81080=
200605221500 AAXX 22154 67665 42980 11406 10215 20142 48562 81031
                   333 58052 81360 81080=
200605221200 AAXX 22124 67665 42680 51009 10211 20128 48562 82132
                   333 59060 82840 83360 84280=
200605220900 AAXX 22094 67665 42580 61109 10202 20116 48581 81132
                   333 59056 81825 85360 82080=
200605220600 AAXX 22064 67665 32580 61507 10161 20118 48561 85530
                   333 10291 20147 58055 85620 82360=
200605220000 AAXX 22004 67665 42980 10801 10159 20114 48539 81030
                   333 58043 81360=
200605211200 AAXX 21124 67665 42780 21407 10273 20156 48514 81130
                   333 58021 81840 81360 91017=
200605210900 AAXX 21094 67665 42980 10807 10246 20142 48531 81030
                   333 58018 81360=
200605210600 AAXX 21064 67665 32980 21104 10172 20139 48504 81031
                   333 10315 20124 58005 81360 82080=
200605201500 AAXX 20154 67665 42780 12705 10279 20146 48486 81130
                   333 59021 81858 81360=
200605201200 AAXX 20124 67665 42780 13009 10293 20154 48495 81100
                   333 59019 81860=
200605200900 AAXX 20094 67665 42680 12613 10281 20148 48519 81100
                   333 59017 81840=
200605200600 AAXX 20064 67665 31975 13003 10188 20168 48512 70400 81030 59021 81360
                   555 Q1018.2=
200605192100 AAXX 19214 67665 41980 02803 10154 20154 48506 70400
                   333 59015 555 91018=
200605191800 AAXX 19184 67665 41975 00000 10195 20163 48510 70400
                   333 10309 59011=
200605191500 AAXX 19154 67665 42980 32203 10278 20154 48507 83030
                   333 59011 83360=
200605191200 AAXX 19124 67665 42780 42909 10295 20147 48514 84100
                   333 59012 84857=
200605190600 AAXX 19064 67665 32980 12902 10183 20165 48531 81030
                   333 10293 20123 59013 81360=
200605190556 AAXX 19064 67665 32980 12902 10183 20165 48531 81030
                   333 10293 20123 59013 81360=
200605190400 AAXX 19044 67665 42980 10000 20123 48511 81030
                   333 59014 81359=
200605190300 AAXX 19034 67665 42980 10000 10131 20131 48508
                   333 81030=
200605181500 AAXX 18154 67665 42980 33304 10274 20130 48518 83030
                   333 59017 83360 Q1017.8=
200605181200 AAXX 18124 67665 42580 30202 10271 20102 48524 83200
                   333 59015 83835=
200605171800 AAXX 17184 67665 42980 31403 10174 20164 48533 83032
                   333 58001 83360 81080=
200605171200 AAXX 17124 67665 42680 30502 10261 20139 48537 83200
                   333 58000 83840=
200605170900 AAXX 17094 67665 42980 00604 10251 20159 48536
                   333 58000=
200605170600 AAXX 17064 67665 32980 10000 10152 20152 48545 81030
                   333 10289 20119 58005 81360=
200605160900 AAXX 16094 67665 42980 10809 10252 20139 48553 59009 81360
                   555 91022=
200605151800 AAXX 15184 67665 42980 11503 10169 20154 48531 81030
                   333 59009 81360=
200605151500 AAXX 15154 67665 42780 31406 10233 20180 48524 83100
                   333 59009 83856=
200605151200 AAXX 15124 67665 42680 52303 10261 20122 48534 85100
                   333 59008 85845=
200605150600 AAXX 15064 67665 32980 31101 10178 20154 48552 83030
                   333 10272 20134 59003 83360=
200605150400 AAXX 15044 67665 42980 70000 10143 20143 48536 87030
                   333 59007 87359=
200605140900 AAXX 14094 67665 42580 20904 10234 20140 48565 81102
                   333 59006 81820 82080=
200605131800 AAXX 13184 67665 42980 20304 10157 20142 48547 82030=
200605131500 AAXX 13154 67665 42780 61307 10222 20141 48542 81230
                   333 58003 81850 86360=
200605131200 AAXX 13124 67665 42680 51202 10256 20105 48549 85202
                   333 58004 85835 81080=
200605130900 AAXX 13094 67665 42481 11108 10233 20136 48571 81102
                   333 58031 81820 81080=
200605130600 AAXX 13064 67665 32980 11602 10155 20155 48560 80001
                   333 10264 20105 58004 81080=
200605121200 AAXX 12124 67665 42680 31108 10253 20121 48544 83100
                   333 58017 83830=
200605120600 AAXX 12064 67665 42980 31201 10137 20137 48546 83032
                   333 10231 20094 58021 83360 81080 91024=
200605111500 AAXX 11154 67665 42780 41510 10223 20142 48525 85100
                   333 59007 85850 555 10255=
200605111200 AAXX 11124 67665 42680 30402 10238 20132 48524 83100
                   333 59002 83835=
200605110900 AAXX 11094 67665 42580 10506 10211 20155 48546 81100
                   333 59004 81820=
200605110600 AAXX 11064 67665 32980 10806 10153 20153 48530 81030
                   333 10242 20094 59002 81360=
200605110400 AAXX 11044 67665 42980 11602 10094 20094 48516 81030
                   333 59005 81360 555 91020=
200605110300 AAXX 11034 67665 42980 11702 10097 20097 48512 81030
                   333 59009 81360 555 91019=
200605101200 AAXX 10124 67665 42680 41005 10226 20154 48524 84130
                   333 59013 84830 81360=
200605100900 AAXX 10094 67665 42480 50708 10202 20160 48549 85500
                   333 59006 85618=
200605100600 AAXX 10064 67665 31365 11007 10137 20137 48535 71044 81600
                   333 10228 20094 59005 81706=
200605100000 AAXX 10004 67665 42980 01302 10117 20117 48533
                   333 59001=
200605091800 AAXX 09184 67665 42980 01302 10146 20146 48535
                   333 10226 58006=
200605091500 AAXX 09154 67665 42780 30810 10208 20169 48533 83130
                   333 58008 83850 81360=
200605091200 AAXX 09124 67665 42680 70712 10210 20171 48537 87500
                   333 58009 87630=
200605090900 AAXX 09094 67665 42480 70912 10204 20173 48555 87500
                   333 58002 87615=
200605090600 AAXX 09064 67665 32380 70811 10164 20164 48544 85631
                   333 10258 20125 58003 85708 81360 81080=
200605090400 AAXX 09044 67665 42380 31306 10143 20143 48531 84630
                   333 58009 84706 81360=
200605090300 AAXX 09034 67665 42980 21105 10135 20135 48522 82030
                   333 58003 82360=
200605082100 AAXX 08214 67665 42980 10802 10150 20150 48532 81030
                   333 58006 81360=
200605081200 AAXX 08124 67665 42480 71107 10241 20196 48532 83532
                   333 58008 83618 86825 82360 86280=
200605080900 AAXX 08094 67665 42480 60914 10221 20206 48555 86532
                   333 58001 86615 82820 82360 81080 91022=
200605071800 AAXX 07184 67665 42980 11101 10184 20184 48529 81030
                   333 58000 81360=
200605071200 AAXX 07124 67665 42681 31007 10281 20173 48529 83100
                   333 59003 83845=
200605070900 AAXX 07094 67665 42681 10606 10266 20157 48550 81100
                   333 59005=
200605051500 AAXX 05154 67665 42780 21105 10264 20164 48524 82100
                   333 58002 82856=
200605051200 AAXX 05124 67665 42680 30404 10272 20155 48529 83100
                   333 59001 83840=
200605050900 AAXX 05094 67665 42580 10610 10256 20198 48553 81100
                   333 58009 81820=
200605050600 AAXX 05064 67665 32980 11203 10180 20180 48543 80001
                   333 10285 20114 58000 81080=
200605050400 AAXX 05044 67665 42980 00000 10112 20112 48521
                   333 5////=
200605042100 AAXX 04214 67665 42980 11602 10158 20158 48527 81030
                   333 5//// 81360=
200605041800 AAXX 04184 67665 42780 10000 10190 20185 48526 81130
                   333 59014 81856 81360=
200605041500 AAXX 04154 67665 42780 11106 10264 20164 48522 81100
                   333 59015 81850=
200605041200 AAXX 04124 67665 42680 31206 10275 20145 48530 83100
                   333 59015 83835=
200605040900 AAXX 04094 67665 42480 10803 10239 20195 48552 81100
                   333 59028 81818=
200605040600 AAXX 04064 67665 32980 01202 10170 20170 48541
                   333 10272 20123 59020=
200605031800 AAXX 03184 67665 42980 31404 10173 20173 48536 80002
                   333 59016 83080=
200605030600 AAXX 03064 67665 32380 31107 10152 20152 48549 81102
                   333 10248 20134 81810 83080 91024=
200605021200 AAXX 02124 67665 42580 21010 10244 20161 48560 81102
                   333 58010 81825 82080=
200605011800 AAXX 01184 67665 42980 31206 10176 20176 48555 83003
                   333 58016 83080 91023=
200605011200 AAXX 01124 67665 42580 41014 10258 20183 48553 83102
                   333 58013 83825 81080 91021=
200605010900 AAXX 01094 67665 42480 20915 10234 20189 48571 82102
                   333 58011 82815 81080=

################################################################################
#  SYNOPS from 67743, Livingstone (Zambia) | 17-49S | 025-49E | 985 m
################################################################################
200605300600 AAXX 30064 67743 32980 01004 10140 20099 48580
                   333 10285 20110 58018=
200605250600 AAXX 25064 67743 32980 00904 10133 20086 48557
                   333 10255 20086 59012=
200605230900 AAXX 23094 67743 42980 01406 10191 20024 48599
                   333 58009=
200605221200 AAXX 22124 67743 42980 12705 10214 20005 48573 80001
                   333 58052 81080=
200605220900 AAXX 22094 67743 42980 11704 10183 20024 48507 80001
                   333 58054 81080=
200605220600 AAXX 22064 67743 32980 11404 10111 20021 48491 80001
                   333 10240 20082 58056 81080=
200605210900 AAXX 21094 67743 42980 01308 10184 20046 48541 70200
                   333 58049=
200605210600 AAXX 21064 67743 32980 01306 10125 20046 48512
                   333 10295 20096 59023=
200605191500 AAXX 19154 67743 42880 12812 10287 20078 48503 81100
                   333 58003 81857=
200605181200 AAXX 18124 67743 42780 32908 10299 20085 48511 83100
                   333 59016 83856=
200605170900 AAXX 17094 67743 42980 20308 10276 20096 48552 82030
                   333 59004 82360=
200605151200 AAXX 15124 67743 42880 23402 10290 20056 48533 82100
                   333 59014 82857=
200605150600 AAXX 15064 67743 32980 00000 10148 20111 48533
                   333 10290 20090 59005=
200605110600 AAXX 11064 67743 32980 00000 10145 20114 48533
                   333 10260 20092 59003=
200605101200 AAXX 10124 67743 42880 50402 10246 20101 48530 85100
                   333 59002 85857=
200605100900 AAXX 10094 67743 42680 40906 10219 20125 48553 84100
                   333 58000 84847=
200605091500 AAXX 09154 67743 42780 21205 10240 20149 48525 82100
                   333 59001 82856=
200605071200 AAXX 07124 67743 42780 30206 10315 20099 48529 83100
                   333 58000 83850=
200605070900 AAXX 07094 67743 42980 71306 10236 20156 48549 87070
                   333 58010 87360 555 58010 87360=
200605041200 AAXX 04124 67743 42980 41605 10309 20113 48525 84100
                   333 59018 84856=
200605040900 AAXX 04094 67743 42980 11008 10275 20148 48535 81100
                   333 59018 81850=
200605040600 AAXX 04064 67743 32980 30508 10184 20164 48519 83031
                   333 10280 20148 59023 83360 82080=
200605010900 AAXX 01094 67743 42680 21008 10256 20153 48566 82100
                   333 58012 82832=

################################################################################
#  SYNOPS from 67751, Magoye (Zambia) | 16-00S | 027-36E | 1018 m
################################################################################
200605301200 AAXX 30124 67751 42780 11204 10244 20109 48/// 81100
                   333 5//// 81850=

################################################################################
#  SYNOPS from 67753, Choma (Zambia) | 16-50S | 027-04E | 1213 m
################################################################################
200605301200 AAXX 30124 67753 42680 11080 10229 20104 48/// 81100
                   333 5//// 81835=
200605300600 AAXX 30064 67753 32980 01004 10142 20113 48///
                   333 10262 20107 5////=
200605290600 AAXX 29064 67753 32980 00802 10166 20102
                   333 10263 20168=
200605240600 AAXX 24064 67753 32480 40804 10135 20116 48/// 84500
                   333 10241 20053 5//// 84610=
200605230600 AAXX 23064 67753 32980 11005 10129 20014 48/// 80002
                   333 10225 20059 5//// 81080=
200605220900 AAXX 22094 67753 42580 21005 10186 20133 48/// 81102
                   333 5//// 81820 82080=
200605220600 AAXX 22064 67753 32980 11007 10116 20002 48/// 80002
                   333 10244 20073 5//// 81080=
200605151200 AAXX 15124 67753 42680 41803 10266 20089 48/// 84100
                   333 5//// 84845=
200605150600 AAXX 15064 67753 32980 00000 10175 20104
                   333 10276 20078=
200605091200 AAXX 09124 67753 42680 40805 10220 20122 48/// 84200
                   333 5//// 84840=
200605081200 AAXX 08124 67753 42580 70905 10223 20144 48/// 82138
                   333 5//// 82825 83360=
200605080900 AAXX 08094 67753 42980 70804 10220 20142 86038
                   333 86360 87280=
200605040900 AAXX 04094 67753 42680 12703 10262 20131 48/// 81100
                   333 5//// 81840=
200605040600 AAXX 04064 67753 32980 03602 10183 20144 48///
                   333 10291 20106 5////=
200605021200 AAXX 02124 67753 42980 00308 10244 20124 48///
                   333 5////=

################################################################################
#  SYNOPS from 67855, Lupaki (Zambia) | 17-03-00S | 024-46-00E | 1000 m
################################################################################
200605310000 AAXX 31004 67855 NIL=
200605301800 AAXX 30184 67855 NIL=
200605301200 AAXX 30124 67855 NIL=
200605300600 AAXX 30064 67855 NIL=
200605300000 AAXX 30004 67855 NIL=
200605291200 AAXX 29124 67855 NIL=
200605290600 AAXX 29064 67855 NIL=
200605290000 AAXX 29004 67855 NIL=
200605281800 AAXX 28184 67855 NIL=
200605281200 AAXX 28124 67855 NIL=
200605280600 AAXX 28064 67855 NIL=
200605280000 AAXX 28004 67855 NIL=
200605271800 AAXX 27184 67855 NIL=
200605271200 AAXX 27124 67855 NIL=
200605270600 AAXX 27064 67855 NIL=
200605270000 AAXX 27004 67855 NIL=
200605261800 AAXX 26184 67855 NIL=
200605261200 AAXX 26124 67855 NIL=
200605260600 AAXX 26064 67855 NIL=
200605260000 AAXX 26004 67855 NIL=
200605251800 AAXX 25184 67855 NIL=
200605251200 AAXX 25124 67855 NIL=
200605250600 AAXX 25064 67855 NIL=
200605250000 AAXX 25004 67855 NIL=
200605241800 AAXX 24184 67855 NIL=
200605241200 AAXX 24124 67855 NIL=
200605240600 AAXX 24064 67855 NIL=
200605240000 AAXX 24004 67855 NIL=
200605231800 AAXX 23184 67855 NIL=
200605231200 AAXX 23124 67855 NIL=
200605230600 AAXX 23064 67855 32980 00000 10042 20014 3//// 48///
                   333 21002 5////=
200605230000 AAXX 23004 67855 NIL=
200605221800 AAXX 22184 67855 NIL=
200605221200 AAXX 22124 67855 NIL=
200605220600 AAXX 22064 67855 32980 70000 10082 20030 3//// 48/// 87030
                   333 20060 5//// 87360=
200605220000 AAXX 22004 67855 NIL=
200605211800 AAXX 21184 67855 NIL=
200605211200 AAXX 21124 67855 NIL=
200605210600 AAXX 21064 67855 NIL=
200605210000 AAXX 21004 67855 NIL=
200605201800 AAXX 20184 67855 NIL=
200605201200 AAXX 20124 67855 NIL=
200605200600 AAXX 20064 67855 NIL=
200605200000 AAXX 20004 67855 NIL=
200605191800 AAXX 19184 67855 NIL=
200605191200 AAXX 19124 67855 NIL=
200605190600 AAXX 19064 67855 31970 10101 10180 20131 3//// 48/// 70500 81031
                   333 20120 5//// 81360=
200605190000 AAXX 19004 67855 NIL=
200605181800 AAXX 18184 67855 NIL=
200605180600 AAXX 18064 67855 31970 10000 10124 20103 3//// 48/// 70500 81030
                   333 20086 5//// 81360=
200605180000 AAXX 18004 67855 NIL=
200605171800 AAXX 17184 67855 NIL=
200605171200 AAXX 17124 67855 NIL=
200605170600 AAXX 17064 67855 31970 00000 10116 20071 3//// 48/// 70500
                   333 20085 5////=
200605170000 AAXX 17004 67855 NIL=
200605161800 AAXX 16184 67855 NIL=
200605161200 AAXX 16124 67855 NIL=
200605160600 AAXX 16064 67855 32980 20000 10094 20078 3//// 48/// 82030
                   333 20056 5//// 82360=
200605160000 AAXX 16004 67855 NIL=
200605151800 AAXX 15184 67855 NIL=
200605150600 AAXX 15064 67855 NIL=
200605150000 AAXX 15004 67855 NIL=
200605141800 AAXX 14184 67855 NIL=
200605141200 AAXX 14124 67855 NIL=
200605140600 AAXX 14064 67855 NIL=
200605140000 AAXX 14004 67855 NIL=
200605131800 AAXX 13184 67855 NIL=
200605131200 AAXX 13124 67855 NIL=
200605130600 AAXX 13064 67855 NIL=
200605130000 AAXX 13004 67855 NIL=
200605121800 AAXX 12184 67855 NIL=
200605121200 AAXX 12124 67855 NIL=
200605120600 AAXX 12064 67855 NIL=
200605120000 AAXX 12004 67855 NIL=
200605111800 AAXX 11184 67855 NIL=
200605111200 AAXX 11124 67855 NIL=
200605110600 AAXX 11064 67855 31970 00000 10080 20064 3//// 48/// 70500
                   333 20043 5////=
200605110000 AAXX 11004 67855 NIL=
200605101800 AAXX 10184 67855 NIL=
200605101200 AAXX 10124 67855 NIL=
200605100600 AAXX 10064 67855 NIL=
200605100000 AAXX 10004 67855 NIL=
200605091800 AAXX 09184 67855 NIL=
200605091200 AAXX 09124 67855 NIL=
200605090600 AAXX 09064 67855 NIL=
200605090000 AAXX 09004 67855 NIL=
200605081800 AAXX 08184 67855 NIL=
200605081200 AAXX 08124 67855 NIL=
200605080600 AAXX 08064 67855 12980 21601 10162 20134 3//// 48/// 69904 82030
                   333 20134 5//// 82360=
200605080000 AAXX 08004 67855 NIL=
200605071800 AAXX 07184 67855 NIL=
200605071200 AAXX 07124 67855 NIL=
200605070600 AAXX 07064 67855 NIL=
200605070000 AAXX 07004 67855 NIL=
200605061800 AAXX 06184 67855 NIL=
200605061200 AAXX 06124 67855 NIL=
200605060600 AAXX 06064 67855 NIL=
200605060000 AAXX 06004 67855 NIL=
200605051800 AAXX 05184 67855 NIL=
200605051200 AAXX 05124 67855 NIL=
200605050600 AAXX 05064 67855 32980 10000 10168 20142 3//// 48/// 81030
                   333 20120 5//// 81360=
200605050000 AAXX 05004 67855 NIL=
200605041800 AAXX 04184 67855 NIL=
200605041200 AAXX 04124 67855 NIL=
200605040600 AAXX 04064 67855 NIL=
200605040000 AAXX 04004 67855 NIL=
200605031800 AAXX 03184 67855 NIL=
200605030600 AAXX 03064 67855 32980 40701 10163 20128 3//// 48/// 82032
                   333 20111 5//// 82360=
200605030000 AAXX 03004 67855 NIL=
200605021200 AAXX 02124 67855 NIL=
200605020600 AAXX 02064 67855 32980 00902 10168 20126 3//// 48///
                   333 20108 5////=
200605020000 AAXX 02004 67855 NIL=
200605011800 AAXX 01184 67855 NIL=
200605011200 AAXX 01124 67855 NIL=
200605010600 AAXX 01064 67855 NIL=
