################################################################################
# Query made at 04/10/2022 06:43:58 UTC
# Country like Zamb*
# Time interval: from 09/01/2020 05:30  to 10/01/2020 06:30  UTC
################################################################################

################################################################################
#  SYNOPS from 67403, Kawambwa (Zambia) | 09-48S | 029-05E | 1323 m
################################################################################
202009071200 AAXX 07124 67403 NIL=
202009070600 AAXX 07064 67403 31975 31201 10170 20078 48518 70500 80001
                   333 10280 20140 5//// 83080=
202009010600 AAXX 01064 67403 11975 30903 10187 20135 48512 69964 70500 81031
                   333 10282 20160 59001 81360 83030=

################################################################################
#  SYNOPS from 67413, Mbala (Zambia) | 08-51S | 031-20E | 1673 m
################################################################################
202009071200 AAXX 07124 67413 NIL=

################################################################################
#  SYNOPS from 67441, Mwinilunga (Zambia) | 11-45S | 024-26E | 1361 m
################################################################################
202009071200 AAXX 07124 67441 NIL=
202009070900 AAXX 07094 67441 41980 30000 10245 20083 48559 70500 80001
                   333 5//// 83075=
202009070600 AAXX 07064 67441 31970 00000 10155 20070 48555 70500
                   333 10280 2//// 58009=
202009040900 AAXX 04094 67441 41980 00904 10260 20073 48589 70500
                   333 58010=
202009040600 AAXX 04064 67441 31975 00000 10185 20168 48580 70500
                   333 10300 2//// 58012=
202009031200 AAXX 03124 67441 41980 80000 10295 20082 48551 70500
                   333 58021=
202009030900 AAXX 03094 67441 41980 00000 10265 20087 48578 70500
                   333 58012=
202009010600 AAXX 01064 67441 31975 60000 10160 20149 48538 70522 86030
                   333 10280 2//// 59014 86360=

################################################################################
#  SYNOPS from 67461, Mansa (Zambia) | 11-06S | 028-51E | 1382 m
################################################################################
202009071200 AAXX 07124 67461 41970 11208 10270 20089 48485 70500 80001
                   333 58002 81080 91015=
202009070900 AAXX 07094 67461 41970 00811 10240 20091 48520 70500
                   333 58017 91019=
202009030900 AAXX 03094 67461 41770 41015 10254 20104 48540 70530 84800
                   333 59007 81650 83852 91021=
202009021200 AAXX 02124 67461 41930 01421 10280 20104 48523 70500
                   333 58013 91018=

################################################################################
#  SYNOPS from 67469, Samfya (Zambia) | 11-22S | 029-54E | 1171 m
################################################################################
202009071200 AAXX 07124 67469 NIL=
202009070900 AAXX 07094 67469 42980 01005 10215 20120 48///
                   333 5////=
202009070600 AAXX 07064 67469 32980 01309 10173 20110 48///
                   333 10256 20146 5////=
202009040900 AAXX 04094 67469 42680 01006 10239 20130 48/// 82200
                   333 5//// 82837=
202009040600 AAXX 04064 67469 32980 01508 10191 20140 48///
                   333 10260 20191 5////=
202009031200 AAXX 03124 67469 42780 51105 10295 20090 48/// 85200
                   333 85859=
202009030900 AAXX 03094 67469 42680 21410 10231 20160 48/// 82200
                   333 5//// 82831=
202009021200 AAXX 02124 67469 42780 21110 10263 20140 48/// 82100
                   333 5//// 82850=
202009020900 AAXX 02094 67469 42980 01210 10235 20130 48///
                   333 5////=
202009011200 AAXX 01124 67469 42980 00703 10268 20170 48///
                   333 5////=
202009010600 AAXX 01064 67469 32980 11010 10220 20150 48/// 81030
                   333 10290 20197 5//// 81360=

################################################################################
#  SYNOPS from 67475, Kasama (Zambia) | 10-13S | 031-08E | 1382 m
################################################################################
202009071200 AAXX 07124 67475 NIL=
202009070600 AAXX 07064 67475 31960 01409 10173 20059 48534 70500
                   333 10284 20124 58013=
202009040600 AAXX 04064 67475 31970 31003 10178 20096 48559 70510 80001
                   333 10286 20115 58004 83080 91024=
202009031200 AAXX 03124 67475 41760 41109 10265 20090 48531 70522 84200
                   333 58010 84850 91021=
202009030900 AAXX 03094 67475 41660 31211 10234 20106 48558 70500 83200
                   333 58009 83835 91024=
202009021200 AAXX 02124 67475 41660 21217 10274 20054 48521 70500 82100
                   333 58008 91020=
202009020900 AAXX 02094 67475 41660 21217 10252 20069 48550 70500 82100
                   333 58010 82835 91023=
202009011200 AAXX 01124 67475 41660 20914 10299 20055 48513 70500 82100
                   333 58013 82840 91019=
202009010600 AAXX 01064 67475 31960 00511 10196 20105 48536 70500
                   333 10332 20121 58013 91022=

################################################################################
#  SYNOPS from 67476, Misamfu (Zambia) | 10-06S | 031-15E | 1536 m
################################################################################
202009071200 AAXX 07124 67476 NIL=

################################################################################
#  SYNOPS from 67477, Mpika (Zambia) | 11-54S | 031-26E | 1400 m
################################################################################
202009071200 AAXX 07124 67477 NIL=
202009070600 AAXX 07064 67477 31975 01212 10170 20121 48///
                   333 10252 20110 5////=
202009040600 AAXX 04064 67477 31978 01204 10163 20100 48/// 70500
                   333 10225 20092 5////=
202009021200 AAXX 02124 67477 41678 31504 10252 20090 48/// 70500 83100
                   333 5//// 83830=
202009011200 AAXX 01124 67477 41978 01208 10279 20100 48/// 70500
                   333 5////=
202009010600 AAXX 01064 67477 31970 01210 10207 20120 48/// 70500
                   333 10299 20144 5////=

################################################################################
#  SYNOPS from 67481, Isoka (Zambia) | 10-07S | 032-38E | 1360 m
################################################################################
202009071200 AAXX 07124 67481 NIL=

################################################################################
#  SYNOPS from 67531, Zambezi (Zambia) | 13-32S | 023-07E | 1077 m
################################################################################
202009071200 AAXX 07124 67531 NIL=

################################################################################
#  SYNOPS from 67541, Kasempa (Zambia) | 13-32S | 025-51E | 1234 m
################################################################################
202009071200 AAXX 07124 67541 NIL=
202009070900 AAXX 07094 67541 42980 10000 10245 20099 48/// 80001
                   333 5//// 81080=
202009070600 AAXX 07064 67541 32980 10000 10178 20057 48/// 80001
                   333 10290 20102 5//// 81080=
202009040900 AAXX 04094 67541 41960 00504 10270 20112 48/// 70500
                   333 5////=
202009040600 AAXX 04064 67541 31960 00000 10185 20122 48/// 70500
                   333 10312 20118 5////=
202009030900 AAXX 03094 67541 42980 10504 10260 20125 48/// 80001
                   333 5//// 81080=
202009020900 AAXX 02094 67541 42980 20513 10255 20124 48/// 80002
                   333 5//// 82080=
202009010600 AAXX 01064 67541 32980 40000 10200 20104 48/// 80004
                   333 10334 20134 5//// 84080=

################################################################################
#  SYNOPS from 67543, Kabompo (Zambia) | 13-36S | 024-12E | 1075 m
################################################################################
202009071200 AAXX 07124 67543 NIL=

################################################################################
#  SYNOPS from 67551, Solwezi (Zambia) | 12-11S | 026-23E | 1386 m
################################################################################
202009071200 AAXX 07124 67551 NIL=

################################################################################
#  SYNOPS from 67561, Ndola (Zambia) | 13-00S | 028-39E | 1269 m
################################################################################
202009071200 AAXX 07124 67561 NIL=

################################################################################
#  SYNOPS from 67563, Kafironda (Zambia) | 12-36S | 028-07E | 1243 m
################################################################################
202009071200 AAXX 07124 67563 NIL=

################################################################################
#  SYNOPS from 67571, Serenje (Zambia) | 13-14S | 030-13E | 1384 m
################################################################################
202009071200 AAXX 07124 67571 NIL=
202009021200 AAXX 02124 67571 42665 41204 10243 20078 48493 70500 84500
                   333 58015 84640=
202009020900 AAXX 02094 67571 42565 60903 10206 20111 48512 70522 86500
                   333 58017 86628=

################################################################################
#  SYNOPS from 67575, Mkushi (Zambia) | 13-38-00S | 029-26-00E | 1237 m
################################################################################
202009071200 AAXX 07124 67575 NIL=

################################################################################
#  SYNOPS from 67580, Msekera (Zambia) | 13-39S | 032-34E | 1025 m
################################################################################
202009071200 AAXX 07124 67580 NIL=

################################################################################
#  SYNOPS from 67581, Chipata (Zambia) | 13-33S | 032-35E | 1028 m
################################################################################
202009071200 AAXX 07124 67581 NIL=

################################################################################
#  SYNOPS from 67583, Lundazi (Zambia) | 12-17S | 033-12E | 1143 m
################################################################################
202009071200 AAXX 07124 67583 NIL=
202009070900 AAXX 07094 67583 41758 12106 10254 20091 48/// 81100
                   333 5//// 81850=
202009070600 AAXX 07064 67583 31958 01704 10188 20093 48/// 70500
                   333 10280 2//// 5////=
202009010600 AAXX 01064 67583 31957 01306 10226 20118 48/// 70500
                   333 10326 2//// 5////=

################################################################################
#  SYNOPS from 67599, Mfuwe (Zambia) | 13-16S | 031-56E | 568 m
################################################################################
202009071200 AAXX 07124 67599 NIL=
202009070600 AAXX 07064 67599 32980 01309 10218 20100 48555
                   333 10335 20099 5//// 91020=
202009031200 AAXX 03124 67599 41860 51007 10315 20124 48566 70522 85100
                   333 58017 85857 91028=
202009030900 AAXX 03094 67599 41770 50908 10295 20134 48583 70522 85100
                   333 58013 85850 91022=
202009020900 AAXX 02094 67599 41859 31112 10301 20130 48582 70522 83100
                   333 58012 83856 91020=
202009011200 AAXX 01124 67599 41856 30710 10343 20112 48549 70522 83100
                   333 58023 83858 91015=

################################################################################
#  SYNOPS from 67625, Kalabo (Zambia) | 14-51S | 022-42E | 1033 m
################################################################################
202009071200 AAXX 07124 67625 42982 00916 10300 20027 48///
                   333 5////=
202009070900 AAXX 07094 67625 42982 01223 10270 20055 48///
                   333 5////=
202009070600 AAXX 07064 67625 32982 00914 10169 20059 48///
                   333 10315 20130 58000=
202009040600 AAXX 04064 67625 32982 01114 10190 20106 48///
                   333 10330 20155 58018=
202009010600 AAXX 01064 67625 11980 71409 10170 20128 48/// 69914 70522 85034
                   333 10246 20154 59021 85360 87075=

################################################################################
#  SYNOPS from 67633, Mongu (Zambia) | 15-15S | 023-09E | 1052 m
################################################################################
202009071200 AAXX 07124 67633 NIL=
202009030900 AAXX 03094 67633 41975 00915 10282 20113 48554 70500
                   333 58010 91021=

################################################################################
#  SYNOPS from 67641, Kaoma (Zambia) | 14-48S | 024-48E | 1213 m
################################################################################
202009071200 AAXX 07124 67641 NIL=

################################################################################
#  SYNOPS from 67655, Mumbwa (Zambia) | 15-04S | 027-11E | 1216 m
################################################################################
202009071200 AAXX 07124 67655 NIL=
202009040600 AAXX 04064 67655 31959 00000 10173 20086 48572 70500
                   333 10292 20130 59012 91024=

################################################################################
#  SYNOPS from 67659, Kafue Polder (Zambia) | 15-46S | 027-55E | 978 m
################################################################################
202009071200 AAXX 07124 67659 NIL=

################################################################################
#  SYNOPS from 67662, Kabwe Agric (Zambia) | 14-24S | 028-30E | 1165 m
################################################################################
202009071200 AAXX 07124 67662 NIL=

################################################################################
#  SYNOPS from 67663, Kabwe (Zambia) | 14-27S | 028-28E | 1206 m
################################################################################
202009071200 AAXX 07124 67663 NIL=
202009040600 AAXX 04064 67663 31975 00913 10176 20104 48554 70500
                   333 10280 20119 58026
                   555 00268=

################################################################################
#  SYNOPS from 67665, Lusaka Internationalairport (Zambia) | 15-19S | 028-27E | 1152 m
################################################################################
202010010600 AAXX 01064 67665 31959 20910 10225 20146 48527 70500 80002
                   333 10335 20/// 59010 82080=
202009301800 AAXX 30184 67665 42970 01106 10259 20123 48513 70200
                   333 58005=
202009300900 AAXX 30094 67665 41959 00511 10299 20121 48541 70500
                   333 58007=
202009300600 AAXX 30064 67665 31959 01107 10246 20122 48540 70500
                   333 10337 20//0 58006=
202009300300 AAXX 30034 67665 41959 21404 10207 20111 48511 70500 82030
                   333 58004 82360=
202009300000 AAXX 30004 67665 41959 21205 10210 20126 48506 70500 81030
                   333 58007 81360=
202009292100 AAXX 29214 67665 41959 01506 10228 20128 48521 70500
                   333 58014=
202009291800 AAXX 29184 67665 41959 29902 10262 20112 48515 70502 80002
                   333 58011 82080 91017=
202009291500 AAXX 29154 67665 41959 50603 10327 20066 48507 70522 80007
                   333 58019 85280 555 10338 91015=
202009291200 AAXX 29124 67665 41958 60304 10325 20089 48515 70502 81307
                   333 58020 81360 86230 91016=
202009290900 AAXX 29094 67665 41959 70707 10292 20099 48541 70500 80007
                   333 58024 87230 91020=
202009290600 AAXX 29064 67665 31959 11003 10245 20121 48534 70500 80002
                   333 58020 81080 91019=
202009290000 AAXX 29004 67665 41959 01206 10226 20094 48502 70500
                   333 58026=
202009281800 AAXX 28184 67665 41959 01105 10272 20056 48500 70500
                   333 10359 58024=
202009281500 AAXX 28154 67665 41959 01005 10348 20005 48588 70500
                   333 58020 555 10359=
202009281200 AAXX 28124 67665 41959 00305 10349 21010 48497 70500
                   333 58023=
202009280900 AAXX 28094 67665 41958 00212 10329 20055 48523 70500
                   333 58024 91017=
202009271800 AAXX 27184 67665 41959 21303 10279 20016 48477 70500 82030
                   333 59011 82360 91013=
202009271500 AAXX 27154 67665 41959 31503 10356 21019 48469 70500 83030
                   333 59011 83360 91011=
202009271200 AAXX 27124 67665 41959 31105 10367 20004 48475 70500 83030
                   333 59011 83360 91012=
202009270900 AAXX 27094 67665 41959 00106=
202009270300 AAXX 27034 67665 41960 01401 10175 20045 48468 70500
                   333 59030=
202009260900 AAXX 26094 67665 41959 03605 10323 21004 48516 70500
                   333 59039 91017=
202009260600 AAXX 26064 67665 41959 03305 10228 20054 48517 70500
                   333 10//0 20//0 59037 91018=
202009251800 AAXX 25184 67665 41960 01103 10240 20040 48515 70500
                   333 59028=
202009251500 AAXX 25154 67665 42660 11104 10313 20020 48511 70500 81100
                   333 59025 81848=
202009251200 AAXX 25124 67665 41660 41205 10324 20003 48525 70500 84100
                   333 59021 84840=
202009250600 AAXX 25064 67665 31970 01006 10207 20091 48550 70500
                   333 10312 59018 555 00/// 91022=
202009241800 AAXX 24184 67665 42980 01105 10222 20073 48540 70500
                   333 59015 91021=
202009240900 AAXX 24094 67665 42970 00912 10246 20088 48569 70500
                   333 59017=
202009240600 AAXX 24064 67665 31970 01012 10191 20093 48565 70500
                   333 10//0 20//0 59014=
202009240300 AAXX 24034 67665 41959 01404 10138 20091 48540 70500
                   333 59018=
202009240000 AAXX 24004 67665 41959 01505 10152 20086 48538 70500
                   333 59021=
202009232100 AAXX 23214 67665 41959 01105 10166 20094 48552 70500
                   333 59015=
202009231800 AAXX 23184 67665 41959 01009 10218 20096 48556 70500
                   333 59009 91022=
202009231500 AAXX 23154 67665 41959 01110 10267 20098 48551 70500
                   333 58001 555 10286 91021=
202009230600 AAXX 23064 67665 31959 01020 10192 20114 48578 70500
                   333 10320 58025 91025=
202009230300 AAXX 23034 67665 41959 01010 10177 20097 48563 70500
                   333 58032 91024=
202009230000 AAXX 23004 67665 41959 01505 10152 20086 48538 70500
                   333 59021=
202009221800 AAXX 22184 67665 41959 00812 10236 20060 48566 70500
                   333 10330 58023=
202009221500 AAXX 22154 67665 41958 01015 10289 20056 48551 70500
                   333 58045 555 10330=
202009221200 AAXX 22124 67665 41958 00917 10305 20036 48556 70500
                   333 58029=
202009220600 AAXX 22064 67665 31959 00502 10255 20019 48491 70500
                   333 10/// 20/// 59030=
202009211800 AAXX 21184 67665 41959 01304 10245 20000 48522 70500
                   333 58000 91018=
202009211200 AAXX 21124 67665 41958 00608 10324 20006 48518 70500
                   333 59005 91017=
202009210900 AAXX 21094 67665 41958 00708 10286 20046 48543 70500
                   333 59007=
202009210600 AAXX 21064 67665 31958 01207 10236 20016 48536 70500
                   333 10//0 20//0 59005=
202009210300 AAXX 21034 67665 41960 01405 10173 20045 48510 70500
                   333 59019=
202009202100 AAXX 20214 67665 41960 01404 10203 20063 48520 70500
                   333 59014=
202009201800 AAXX 20184 67665 41960 01305 10236 20061 48521 70500
                   333 59013=
202009200900 AAXX 20094 67665 41959 00712 10277 20045 48549 70500
                   333 59011 91021=
202009200600 AAXX 20064 67665 31959 01208 10222 20090 48549 70500
                   333 10/// 20/// 59020 91022=
202009191800 AAXX 19184 67665 19184 41958 01005 10227 20031 48532 70500
                   333 59013=
202009191500 AAXX 19154 67665 41958 01210 10305 20000 48524 70500
                   333 59014=
202009191200 AAXX 19124 67665 41958 01010 10310 20048 48529 70500
                   333 59009=
202009190600 AAXX 19064 67665 31959 01009 10214 20090 48558 70500
                   333 10317 58002 555 00/// 91023=
202009181800 AAXX 18184 67665 42960 01205 10234 20022 48545 70200
                   333 58019 91021=
202009181500 AAXX 18154 67665 41959 01313 10298 20046 48537 70500
                   333 58023=
202009180300 AAXX 18034 67665 41959 01003 10160 20064 48528 70500
                   333 58023=
202009180000 AAXX 18004 67665 41959 01603 10172 20067 48518 70500
                   333 58016=
202009172100 AAXX 17214 67665 41959 01404 10193 20072 48530 70500
                   333 58014=
202009171500 AAXX 17154 67665 41959 10911 10325 20028 48519 70500 81060
                   333 58011 555 10346 91017=
202009171200 AAXX 17124 67665 41759 10613 10336 20052 48524 70500 81100
                   333 58006 91017=
202009170900 AAXX 17094 67665 41959 00812 10306 20100 48549 70500
                   333 58013 91020=
202009170600 AAXX 17064 67665 31959 11106 10228 20099 48534 70500 81030
                   333 10328 20//0 58007 81360 91020.2=
202009170300 AAXX 17034 67665 41959 21404 10186 20086 48510 70500 82030
                   333 58007 82360 91018=
202009161800 AAXX 16184 67665 41959 31105 20080 48509 70500 83030
                   333 10328 59005 83360=
202009161500 AAXX 16154 67665 41959 70804 10308 20061 48504 70522 86032
                   333 59006 86360 82080
                   555 10328=
202009161200 AAXX 16124 67665 41759 40409 10323 20056 48515 70500 81131
                   333 58002 81850 84360 81080=
202009160900 AAXX 16094 67665 41958 00611 10301 48536 70500
                   333 59009 91019=
202009151800 AAXX 15184 67665 41959 21304 10248 20091 48514 70500 82030
                   333 59020 82360 91017=
202009151500 AAXX 15154 67665 41959 31008 10299 20077 48509 70500 83030
                   333 59023 83360 91016=
202009151200 AAXX 15124 67665 41659 50609 10302 20065 48515 70532 84130
                   333 59023 84845 82360 91017=
202009150900 AAXX 15094 67665 41959 30710 10292 20086 48543 70500
                   333 83031 555 59016 83360 81080=
202009150600 AAXX 15064 67665 31959 41203 10225 20104 48537 70500 84030
                   333 10//0 20//0 59020 84360=
202009150000 AAXX 15004 67665 41960 51401 10188 20101 48523 70500 85030
                   333 59009 85360=
202009142100 AAXX 14214 67665 41960 51505 10205 20089 48538 70500 85030
                   333 59011 85360=
202009141800 AAXX 14184 67665 41959 11205 10225 20103 48531 70500 81030
                   333 10//0 20//0 59016 81360=
202009140900 AAXX 14094 67665 41958 30710 10274 20099 48556 70500 80002
                   333 59021 83080 91022=
202009140600 AAXX 14064 67665 31959 31109 10209 20105 48554 70500 82032
                   333 10//0 20//0 59021 82360 82080=
202009131800 AAXX 13184 67665 41960 21206 10220 20109 48544 70522 82030
                   333 59024=
202009131200 AAXX 13124 67665 41659 10509 10275 20072 48546 81100
                   333 59015 81835=
202009130900 AAXX 13094 67665 41959 60817 10245 20100 58577 70522 85032
                   333 59008 85360 84080=
202009130600 AAXX 13064 67665 31959 71008 10178 20097 48570 70502 87030
                   333 10273 20/// 59004 87360
                   555 00/// BB/// CC/// DD/// Q1025.2=
202009121800 AAXX 12184 67665 42980 21107 10192 20046 48565 70200 82030
                   333 58019 82360 91024=
202009120600 AAXX 12064 67665 32980 01110 10181 20055 48574
                   333 10//0 20//0 58017=
202009120300 AAXX 12034 67665 42980 01303 10132 20040 48546 70200
                   333 58017=
202009120000 AAXX 12004 67665 42980 00000 10148 20047 48541 70200
                   333 58013=
202009112100 AAXX 11214 67665 42975 01402 10166 20031 48553 70500
                   333 58012=
202009111800 AAXX 11184 67665 41959 01204 10200 20030 48549 70500
                   333 58002 91022=
202009111200 AAXX 11124 67665 41659 21011 10265 20005 48540 70500 82100
                   333 59009 82845 91020=
202009110900 AAXX 11094 67665 42680 10712 10240 20054 48568 70300 81100
                   333 59011 81830 91023=
202009110600 AAXX 11064 67665 31959 00909 10180 20055 48558 70500
                   333 10//0 59018=
202009101800 AAXX 10184 67665 42980 01503 10186 21010 48545 70200
                   333 10279 59018=
202009101500 AAXX 10154 67665 42980 01209 10265 21045 48540 70200
                   333 59020 555 10279=
202009101200 AAXX 10124 67665 41975 01008 10262 21031 48548 70500
                   333 59018=
202009100900 AAXX 10094 67665 41970 01210 10240 21012 48580 70500
                   333 59018 91025=
202009100600 AAXX 10064 67665 32980 01108 10180 20055 48575
                   333 10//0 20//0 59018=
202009100300 AAXX 10034 67665 42980 01601 10115 20042 48551
                   333 59019=
202009090900 AAXX 09094 67665 42980 00915 10226 20015 48596
                   333 58013=
202009090600 AAXX 09064 67665 32980 01112 10173 20057 48590 70200
                   333 10//0 20//0 58019 91027=
202009081800 AAXX 08184 67665 42980 01306 10183 20000 48562
                   333 58015=
202009081500 AAXX 08154 67665 42980 01210 10258 21011 48556
                   333 58016=
202009081200 AAXX 08124 67665 42980 01110 10267 21010 48559
                   333 58012=
202009080600 AAXX 08064 67665 32980 01010 10180 20066 48574 70200
                   333 10291 58023 555 91025=
202009080000 AAXX 08004 67665 42980 01305 10140 20036 48548 70200
                   333 58021 91023=
202009072100 AAXX 07214 67665 42980 01504 10151 20040 48551 70200
                   333 58013 91023=
202009071800 AAXX 07184 67665 42980 01206 10189 20021 48548 70200
                   333 58014 91022=
202009071200 AAXX 07124 67665 NIL=
202009070900 AAXX 07094 67665 42980 00811 10227 20047 48565
                   333 58011=
202009070600 AAXX 07064 67665 32980 01012 10165 20070 48551
                   333 10//0 20//0 58016=
202009070300 AAXX 07034 67665 42980 01207 10127 20046 48528 70200
                   333 58005=
202009070000 AAXX 07004 67665 42980 01208 10127 20031 48526 70200
                   333 58002=
202009062100 AAXX 06214 67665 42980 01105 10135 20030 48536 70200
                   333 58014=
202009061800 AAXX 06184 67665 41975 01208 10179 20052 48541 70500
                   333 59007 91020=
202009061500 AAXX 06154 67665 41975 01011 10243 20045 48528 70500
                   333 59008 555 10261 91019=
202009061200 AAXX 06124 67665 42980 01011 10244 20046 48531 70200
                   333 59017 91019=
202009060000 AAXX 06004 67665 42980 01208 10127 20031 48526 70200
                   333 58002=
202009051800 AAXX 05184 67665 42980 01106 10180 20040 48540 70200
                   333 10263 59025=
202009051500 AAXX 05154 67665 42980 01010 10251 20026 48536 70200
                   333 59028 555 10263=
202009051200 AAXX 05124 67665 41959 31108 10257 20037 48547 70500 80002
                   333 59013 83080=
202009050900 AAXX 05094 67665 42680 10713 10221 20074 48574 70300 81500 333=
202009050600 AAXX 05064 67665 32980 01108 10169 20064 48571
                   333 10/// 20/// 59012=
202009050300 AAXX 05034 67665 42980 01308 10140 20062 48553
                   333 59012=
202009042100 AAXX 04214 67665 42980 01306 10166 20060 48571
                   333 58003=
202009040900 AAXX 04094 67665 42680 10810 10220 20074 48591 70300 81100
                   333 58002 81830=
202009031800 AAXX 03184 67665 42980 01104 10191 20070 48562
                   333 58000=
202009031500 AAXX 03154 67665 42980 01015 10259 20057 48557
                   333 58001=
202009031200 AAXX 03124 67665 42680 11209 10252 20108 48564 81100
                   333 58009 81830=
202009030600 AAXX 03064 67665 32380 30813 10172 20131 48577 70300 83600
                   333 10290 20//0 58008 83708
                   555 91025=
202009021500 AAXX 02154 67665 42980 11414 10253 20074 48554 70200 81030
                   333 58011 81359 91022=
202009020900 AAXX 02094 67665 42580 09013 10232 20126 48578 86500
                   333 58017 86622=
202009020600 AAXX 02064 67665 32480 61015 10183 20132 48569 86500
                   333 10//0 20//0 58026 85612=
202009020300 AAXX 02034 67665 42380 61008 10160 20125 48547 70322 86700
                   333 58009 86607=
202009020000 AAXX 02004 67665 41959 01006 10163 20118 48545 70500
                   333 58017=
202009012100 AAXX 01214 67665 41959 01009 10186 20118 48555 70500
                   333 58009=
202009010900 AAXX 01094 67665 41559 50818 10240 20128 48563 70500 85500
                   333 59019 85625 91023=

################################################################################
#  SYNOPS from 67666, Lusaka City Airport (Zambia) | 15-25-00S | 028-28-00E | 1280 m
################################################################################
202009071200 AAXX 07124 67666 NIL=

################################################################################
#  SYNOPS from 67667, Mount Makulu (Zambia) | 15-33S | 028-15E | 1213 m
################################################################################
202009071200 AAXX 07124 67667 NIL=
202009070600 AAXX 07064 67667 31960 01004 10175 20089 48592 70500
                   333 10280 20122 58015=
202009040600 AAXX 04064 67667 31960 00906 10176 20091 48/// 70500
                   333 10286 20130 58007=
202009031200 AAXX 03124 67667 41660 14607 10262 20125 48611 70500 81100
                   333 58009 81835=
202009030900 AAXX 03094 67667 41960 00910 10226 20123 48/// 70500
                   333 58010=
202009021200 AAXX 02124 67667 41660 31009 10254 20121 48601 70500 83100
                   333 58016 83835=
202009020900 AAXX 02094 67667 41660 21310 10228 20135 48621 70500 82100
                   333 58016 82830=
202009010600 AAXX 01064 67667 31660 10915 10156 20135 48590 70500 81100
                   333 10342 20165 58006 81830=

################################################################################
#  SYNOPS from 67673, Petauke (Zambia) | 14-15S | 031-17E | 1035 m
################################################################################
202009071200 AAXX 07124 67673 NIL=

################################################################################
#  SYNOPS from 67731, Senanga (Zambia) | 16-06S | 023-16E | 1027 m
################################################################################
202009071200 AAXX 07124 67731 NIL=
202009070900 AAXX 07094 67731 42980 020// 10276 20114 48///
                   333 58005=
202009070600 AAXX 07064 67731 32980 009// 10225 20119 48///
                   333 10239 20121 58000=

################################################################################
#  SYNOPS from 67741, Sesheke (Zambia) | 17-28S | 024-18E | 949 m
################################################################################
202009071200 AAXX 07124 67741 NIL=
202009011200 AAXX 01124 67741 42980 00902 10311 20144 48527
                   333 59028=
202009010900 AAXX 01094 67741 42980 00902 10262 20142 48546
                   333 59030=
202009010600 AAXX 01064 67741 12980 50901 10166 20139 48528 60014 85030
                   333 10164 20123 59022 85362=

################################################################################
#  SYNOPS from 67743, Livingstone (Zambia) | 17-49S | 025-49E | 985 m
################################################################################
202009071200 AAXX 07124 67743 NIL=

################################################################################
#  SYNOPS from 67751, Magoye (Zambia) | 16-00S | 027-36E | 1018 m
################################################################################
202009071200 AAXX 07124 67751 NIL=

################################################################################
#  SYNOPS from 67753, Choma (Zambia) | 16-50S | 027-04E | 1213 m
################################################################################
202009071200 AAXX 07124 67753 NIL=

################################################################################
#  SYNOPS from 67855, Lupaki (Zambia) | 17-03-00S | 024-46-00E | 1000 m
################################################################################
202009240600 AAXX 24064 67855 31970 00301 10198 20107 3//// 48/// 70500
                   333 20130 5////=
202009211200 AAXX 21124 67855 41970 00000 10364 20030 3//// 48/// 70500
                   333 5////=
202009200600 AAXX 20064 67855 31970 01401 10228 20045 3//// 48/// 70500
                   333 20135 5////=
202009181200 AAXX 18124 67855 41970 80000 10276 20153 3//// 48/// 70522 8807/
                   333 5//// 88459=
202009180600 AAXX 18064 67855 11970 70604 10246 20130 3//// 48/// 69904 70522 8707/
                   333 20230 5//// 87459=
202009170600 AAXX 17064 67855 31970 50000 10230 20117 3//// 48/// 70522 85030
                   333 20188 5//// 85360=
202009161200 AAXX 16124 67855 41770 33302 10344 20122 3//// 48/// 70511 83200
                   333 5//// 83856=
202009150600 AAXX 15064 67855 31970 01001 10194 20079 3//// 48/// 70500
                   333 20102 5////=
202009111200 AAXX 11124 67855 41970 00602 10300 20057 3//// 48/// 70500
                   333 5////=
202009100600 AAXX 10064 67855 31970 01301 10146 20058 3//// 48/// 70500
                   333 20052 5////=
202009070600 AAXX 07064 67855 31970 00602 10156 20058 3//// 48/// 70500
                   333 20086 5////=
202009060600 AAXX 06064 67855 31970 01102 10152 20073 3//// 48/// 70500
                   333 20073 5////=
202009031200 AAXX 03124 67855 41970 01702 10310 20095 38/// 48/// 70500
                   333 5////=
202009030600 AAXX 03064 67855 31970 01105 10176 20115 38/// 48/// 70500
                   333 20118 5////=
202009021200 AAXX 02124 67855 41670 30605 10294 20123 3//// 48/// 70500 83100
                   333 5//// 83845=
202009020600 AAXX 02064 67855 31570 11103 10174 20126 3//// 48/// 70500 81530
                   333 20130 5//// 81620=
202009011200 AAXX 01124 67855 41670 70603 10284 20129 3//// 48/// 70511 8217/
                   333 5//// 82840 87360=
202009010600 AAXX 01064 67855 11970 10604 10180 20127 3//// 48/// 69904 70511 81030
                   333 20150 5//// 81360=
