################################################################################
# Query made at 04/14/2022 04:02:45 UTC
# Country like Zamb*
# Time interval: from 10/01/2015 05:30  to 10/31/2015 06:30  UTC
################################################################################

################################################################################
#  SYNOPS from 67403, Kawambwa (Zambia) | 09-48S | 029-05E | 1323 m
################################################################################
201510290600 AAXX 29064 67403 31975 43002 10225 20186 48502 70522 81031
                   333 10//0 20177 59013 81360 84080
                   555 00/// 20000=
201510271500 AAXX 27154 67403 NIL=
201510200600 AAXX 20064 67403 31975 50908 10229 20127 48529 70520 84031
                   333 10/// 20193 58005 84360 83080=
201510191200 AAXX 19124 67403 NIL=
201510170600 AAXX 17064 67403 NIL=
201510160600 AAXX 16064 67403 11980 50903 10224 20173 48511 60024 70500 80001
                   333 10/// 20180 5//// 85080=
201510150600 AAXX 15064 67403 31980 12902 10228 20202 48512 70500 80001
                   333 10/// 20190 59002 81080=
201510130600 AAXX 13064 67403 31970 00905 10232 20127 48520 70500
                   333 10/// 20170 58000=
201510120600 AAXX 12064 67403 31970 10908 10231 20104 48520 70500 80001
                   333 10/// 20169 58000 81080=
201510100600 AAXX 10064 67403 NIL=
201510080600 AAXX 08064 67403 31980 11408 10238 20140 48522 70500 80001
                   333 10/// 20179 59011 81080=
201510070600 AAXX 07064 67403 31975 10908 10233 20121 48533 70500 81030
                   333 10//0 20183 58007 81360=
201510060600 AAXX 06064 67403 31975 10906 10232 20131 48526 70500 81080
                   333 10/// 20174 59008 81361=
201510051200 AAXX 05124 67403 NIL=

################################################################################
#  SYNOPS from 67413, Mbala (Zambia) | 08-51S | 031-20E | 1673 m
################################################################################
201510271500 AAXX 27154 67413 NIL=
201510191200 AAXX 19124 67413 NIL=
201510170600 AAXX 17064 67413 NIL=
201510120600 AAXX 12064 67413 NIL=
201510100600 AAXX 10064 67413 NIL=
201510051200 AAXX 05124 67413 NIL=

################################################################################
#  SYNOPS from 67441, Mwinilunga (Zambia) | 11-45S | 024-26E | 1361 m
################################################################################
201510271500 AAXX 27154 67441 NIL=
201510191200 AAXX 19124 67441 NIL=
201510170600 AAXX 17064 67441 NIL=
201510160900 AAXX 16094 67441 41458 825// 10170 20170 48559 79599 81975
                   333 58015 81920 81820 88460=
201510160600 AAXX 16064 67441 11475 812// 10200 20153 48550 69904 71799 8197/
                   333 10350 20/// 58002 81918 82820 88360=
201510150600 AAXX 15064 67441 11975 000// 10205 20174 48548 60014 70500
                   333 10325 20/// 59005=
201510130600 AAXX 13064 67441 31970 306// 10190 20141 48555 70500 80001
                   333 10330 20/// 59008 83080=
201510120600 AAXX 12064 67441 NIL=
201510100600 AAXX 10064 67441 NIL=
201510070600 AAXX 07064 67441 31980 300// 10200 20144 48575 70500 80001
                   333 10330 20//0 58018 83080=
201510060600 AAXX 06064 67441 31975 015// 10215 20124 48557 70500
                   333 10325 20/// 59010=
201510051200 AAXX 05124 67441 NIL=
201510050600 AAXX 05064 67441 31970 400// 10195 20164 48567 70522 84030
                   333 10300 20/// 59011 84360=

################################################################################
#  SYNOPS from 67461, Mansa (Zambia) | 11-06S | 028-51E | 1382 m
################################################################################
201510271500 AAXX 27154 67461 NIL=
201510200600 AAXX 20064 67461 31970 71208 10233 20138 48542 70522 80008
                   333 10324 20180 59003 87280 91021=
201510191200 AAXX 19124 67461 NIL=
201510190600 AAXX 19064 67461 31970 61210 10230 20120 48545 70555 80008
                   333 10332 20175 5//// 86280 91021=
201510170600 AAXX 17064 67461 NIL=
201510160600 AAXX 16064 67461 31970 70000 10244 20167 48521 70500 80008
                   333 10349 20183 58005 87280 91018=
201510120600 AAXX 12064 67461 NIL=
201510100600 AAXX 10064 67461 NIL=
201510060600 AAXX 06064 67461 31965 01005 10240 20125 48535 70500
                   333 10326 20166 59016 91020=
201510051200 AAXX 05124 67461 NIL=
201510050600 AAXX 05064 67461 31975 41105 10236 20136 48549 70500 80001
                   333 10330 20168 58004 84080 91021=

################################################################################
#  SYNOPS from 67475, Kasama (Zambia) | 10-13S | 031-08E | 1382 m
################################################################################
201510290600 AAXX 29064 67475 31970 30711 10242 20142 48508 70500 80002
                   333 10320 20171 59015 83080
                   555 00/// 91019=
201510271500 AAXX 27154 67475 NIL=
201510200600 AAXX 20064 67475 31970 80911 10214 20133 48540 70520 80008
                   333 10/// 20/// 59006 88280 91022=
201510191200 AAXX 19124 67475 NIL=
201510190600 AAXX 19064 67475 31970 41012 10241 20085 48548 70502 80002
                   333 10319 20155 59001 84080 91023=
201510170600 AAXX 17064 67475 NIL=
201510161200 AAXX 16124 67475 41770 41410 10331 20095 48480 70510 84200
                   333 58002 81956 83856 91015=
201510160900 AAXX 16094 67475 41970 10510 10306 20119 48513 70500 81030
                   333 59000 81361 91018=
201510160600 AAXX 16064 67475 31970 30315 10242 20117 48519 70521 80001
                   333 10348 20160 59009 83080 91020=
201510151200 AAXX 15124 67475 41870 40106 10329 20085 48478 70528 84200
                   333 59039 84857 91014=
201510150600 AAXX 15064 67475 31970 50417 10246 20110 48520 70522 80008
                   333 10340 20167 59009 85280 91020=
201510130600 AAXX 13064 67475 31970 50512 10238 20114 48543 70500 80002
                   333 10334 20154 58000 85080 91022=
201510120600 AAXX 12064 67475 NIL=
201510100600 AAXX 10064 67475 NIL=
201510080600 AAXX 08064 67475 31970 01013 10240 20119 48542 70500 80001
                   333 10335 20179 59008 81080 91022=
201510070600 AAXX 07064 67475 31975 30913 10238 20096 48549 70510 80001
                   333 10329 20192 59003 83080 91023=
201510060600 AAXX 06064 67475 31975 00910 10223 20106 48545 70500
                   333 10325 20155 91022=
201510051200 AAXX 05124 67475 41875 31008 10311 20102 48547 70500 83200
                   333 59008 83857 91018=

################################################################################
#  SYNOPS from 67476, Misamfu (Zambia) | 10-06S | 031-15E | 1536 m
################################################################################
201510271500 AAXX 27154 67476 NIL=
201510191200 AAXX 19124 67476 NIL=
201510170600 AAXX 17064 67476 NIL=
201510120600 AAXX 12064 67476 NIL=
201510100600 AAXX 10064 67476 NIL=
201510070600 AAXX 07064 67476 31979 20603 10233 20158 48/// 70500 80002
                   333 10//0 20//0 5//// 82080=
201510051200 AAXX 05124 67476 NIL=
201510050600 AAXX 05064 67476 31979 00704 10223 20141 48/// 70522
                   333 10319 20163 5////=

################################################################################
#  SYNOPS from 67477, Mpika (Zambia) | 11-54S | 031-26E | 1400 m
################################################################################
201510290600 AAXX 29064 67477 31978 40906 10234 20//0 48573 70500 80001
                   333 10298 20184 59021 84080
                   555 00/// 20000=
201510271500 AAXX 27154 67477 NIL=
201510200600 AAXX 20064 67477 31978 00904 10239 20/// 48/// 70500
                   333 10306 20186 5////=
201510191200 AAXX 19124 67477 NIL=
201510190600 AAXX 19064 67477 31978 20000 10238 20/// 48553 70500 81071
                   333 10298 20176 5//// 81359 82080=
201510170600 AAXX 17064 67477 NIL=
201510160600 AAXX 16064 67477 31978 00000 10256 20/// 48520 70500
                   333 10340 20193 58001=
201510150600 AAXX 15064 67477 31978 30902 10254 20/// 48519 70500 80001
                   333 10323 20208 59010 83080=
201510130600 AAXX 13064 67477 31978 00906 10246 20/// 48/// 70500
                   333 10327 20200 5////=
201510120600 AAXX 12064 67477 NIL=
201510100600 AAXX 10064 67477 NIL=
201510080600 AAXX 08064 67477 32980 00000 10260 20/// 48547
                   333 10320 20180 59006=
201510070600 AAXX 07064 67477 31980 00612 10249 20//0 48552 70500
                   333 10315 20205 58003=
201510051200 AAXX 05124 67477 NIL=

################################################################################
#  SYNOPS from 67481, Isoka (Zambia) | 10-07S | 032-38E | 1360 m
################################################################################
201510290600 AAXX 29064 67481 32978 22703 10244 20134 48/// 80001
                   333 10320 20181 59018 82080
                   555 00/// 20990=
201510271500 AAXX 27154 67481 NIL=
201510200600 AAXX 20064 67481 31975 33003 10245 20098 48/// 70500 80001
                   333 10330 20174 59007 83080=
201510191200 AAXX 19124 67481 NIL=
201510190900 AAXX 19094 67481 41775 13006 10295 20072 48/// 70500 81100
                   333 5//// 81856=
201510190600 AAXX 19064 67481 31975 23006 10240 20090 48/// 70500 80001
                   333 10329 20161 59002 82080=
201510170600 AAXX 17064 67481 NIL=
201510160600 AAXX 16064 67481 31975 21903 10230 20118 48/// 70500 80001
                   333 10345 20184 59003 82080=
201510150600 AAXX 15064 67481 31975 21802 10245 20112 48/// 70500 80001
                   333 10345 20182 59009 82080=
201510130600 AAXX 13064 67481 31975 11802 10235 20114 48/// 70500 80001
                   333 10338 20170 58001 81080=
201510120600 AAXX 12064 67481 31970 00000 10230 20111 48/// 70500
                   333 10344 20157 58002=
201510100600 AAXX 10064 67481 NIL=
201510080900 AAXX 08094 67481 41775 42703 10302 20112 48/// 70511 84130
                   333 59012 84850 81361=
201510080600 AAXX 08064 67481 31975 22402 10255 20131 48/// 70500 82030
                   333 10332 20180 59009 82360=
201510070600 AAXX 07064 67481 31975 22403 10250 20099 48/// 70500 80001
                   333 10330 20185 58000 82080=
201510060600 AAXX 06064 67481 31975 03302 10240 20114 48/// 70500
                   333 10328 20185 59004=
201510051200 AAXX 05124 67481 NIL=
201510050600 AAXX 05064 67481 31975 12402 10240 20122 48/// 70500 80001
                   333 10305 20189 58003 81080=

################################################################################
#  SYNOPS from 67531, Zambezi (Zambia) | 13-32S | 023-07E | 1077 m
################################################################################
201510290600 AAXX 29064 67531 32980 70601 10242 20156 48/// 70222 8707/
                   333 10367 20198 59021 87361
                   555 00///=
201510271500 AAXX 27154 67531 NIL=
201510191200 AAXX 19124 67531 NIL=
201510190600 AAXX 19064 67531 32980 33302 10215 20172 48/// 70200 80002
                   333 10350 20140 59004 83081=
201510170600 AAXX 17064 67531 NIL=
201510160600 AAXX 16064 67531 31978 73305 10222 20167 48/// 71799 8197/
                   333 10382 20206 58002 81954 87360=
201510150600 AAXX 15064 67531 31978 11203 10236 20182 48/// 70500 80001
                   333 10384 20205 59009 81080=
201510130600 AAXX 13064 67531 31978 43303 10226 20159 48/// 70511 82032
                   333 10360 20160 59004 82362 83081=
201510120600 AAXX 12064 67531 31978 43602 10236 20159 48/// 70511 84030
                   333 10365 20200 59006 84362=
201510100600 AAXX 10064 67531 NIL=
201510080600 AAXX 08064 67531 11978 70602 10260 20143 48/// 60014 70562 8707/
                   333 10366 20180 59015 87360=
201510070600 AAXX 07064 67531 31978 10304 10242 20147 48/// 70500 80002
                   333 10366 20166 58020 81081=
201510060600 AAXX 06064 67531 31978 10908 10254 20095 48/// 70500 81030
                   333 10360 20180 59016 81361=
201510051200 AAXX 05124 67531 NIL=
201510050600 AAXX 05064 67531 11975 21204 10212 20170 48/// 69914 70540 82030
                   333 10315 20150 59013 82362=

################################################################################
#  SYNOPS from 67541, Kasempa (Zambia) | 13-32S | 025-51E | 1234 m
################################################################################
201510271500 AAXX 27154 67541 NIL=
201510191200 AAXX 19124 67541 NIL=
201510170600 AAXX 17064 67541 NIL=
201510120600 AAXX 12064 67541 NIL=
201510100600 AAXX 10064 67541 NIL=
201510051200 AAXX 05124 67541 NIL=

################################################################################
#  SYNOPS from 67543, Kabompo (Zambia) | 13-36S | 024-12E | 1075 m
################################################################################
201510271500 AAXX 27154 67543 NIL=
201510191200 AAXX 19124 67543 NIL=
201510190600 AAXX 19064 67543 31975 3//01 10231 20134 48/// 70500 80001
                   333 10365 20160 59005 83080=
201510170600 AAXX 17064 67543 NIL=
201510160900 AAXX 16094 67543 42975 7//00 10231 20176 48/// 70222 8707/
                   333 58024 87360=
201510160600 AAXX 16064 67543 11975 7//01 10217 20163 48/// 60014 76062 8703/
                   333 10385 20195 59001 87360=
201510151200 AAXX 15124 67543 41675 4//01 10363 20161 48/// 70500 84100
                   333 59009 84840=
201510150600 AAXX 15064 67543 31975 1//00 10244 20170 48/// 70500 80001
                   333 10378 20166 59004 81080=
201510130600 AAXX 13064 67543 31970 1//00 10206 20145 48/// 70500 80001
                   333 10376 20135 59010 81080=
201510120600 AAXX 12064 67543 31970 1//00 10218 20150 48/// 70500 80001
                   333 10374 20148 58004 81080=
201510100600 AAXX 10064 67543 NIL=
201510080600 AAXX 08064 67543 31975 0//00 10244 20119 48/// 70502
                   333 10370 20192 59011=
201510070600 AAXX 07064 67543 31975 4//00 10243 20126 48/// 70510 80001
                   333 10364 20190 5//// 84080=
201510051200 AAXX 05124 67543 NIL=

################################################################################
#  SYNOPS from 67551, Solwezi (Zambia) | 12-11S | 026-23E | 1386 m
################################################################################
201510290600 AAXX 29064 67551 31959 70906 10217 20109 48503 70522 8707/
                   333 10334 20200 59020 87362
                   555 00/// 20000 91017=
201510280600 AAXX 28064 67551 31959 01206 10234 20114 48525 70500 80000
                   333 10224 20151 59015
                   555 00/// 20000 91020=
201510271500 AAXX 27154 67551 NIL=
201510200600 AAXX 20064 67551 31970 50903 10229 20116 48537 70522 80008
                   333 10307 20166 59004 85280
                   555 00/// 20000 91021=
201510191200 AAXX 19124 67551 NIL=
201510170600 AAXX 17064 67551 NIL=
201510130600 AAXX 13064 67551 31959 01004 10222 20087 48535 70500
                   333 10335 20155 59004=
201510120600 AAXX 12064 67551 NIL=
201510100600 AAXX 10064 67551 NIL=
201510080600 AAXX 08064 67551 31959 00804 10230 20104 48538 70500 80000
                   333 10328 20192 59007
                   555 000/// 20000 91021=
201510051200 AAXX 05124 67551 NIL=
201510050600 AAXX 05064 67551 31959 40904 10230 20116 48567 70500 80001
                   333 10333 20175 59006 84080 91024=
201510020600 AAXX 02064 67551 11959 73204 10176 20164 48521 60024 76066 8707/
                   333 10313 20166 58007 87362
                   555 00/// 20990 91019=

################################################################################
#  SYNOPS from 67561, Ndola (Zambia) | 13-00S | 028-39E | 1269 m
################################################################################
201510300600 AAXX 30064 67561 31960 60000 10210 20163 48526 70522 86030
                   333 10315 20180 58015 86360
                   555 00/// 91020=
201510290600 AAXX 29064 67561 31659 60302 10211 20126 48511 70422 85230
                   333 10273 20135 59020 85825 81360
                   555 91018=
201510280600 AAXX 28064 67561 31960 11010 10236 20126 48523 70500 80001
                   333 10339 20177 59009 81080
                   555 00/// 91020=
201510271500 AAXX 27154 67561 41970 61510 10314 20097 48499 70522 86200
                   333 59005 86858=
201510270600 AAXX 27064 67561 31960 00611 10259 20108 48544 70500
                   333 10344 20188 59008
                   555 00/// 91021=
201510201200 AAXX 20124 67561 42680 70000 10321 20131 48513 86202
                   333 59011 86845 84080
                   555 66/// 77/// 8846/ 98040 91017=
201510200600 AAXX 20064 67561 31960 51006 10244 20130 48548 70522 80008
                   333 10328 20181 59003 85280
                   555 00/// 91022=
201510191200 AAXX 19124 67561 NIL=
201510181200 AAXX 18124 67561 41865 60906 10312 20122 48529 70522 86200
                   333 58022 86857 555 66/// 77/// 8845/ 98006
                   91019=
201510180600 AAXX 18064 67561 31959 30910 10241 20138 48554 70411 80002
                   333 10//0 20190 58025 83080
                   555 91023=
201510170600 AAXX 17064 67561 NIL=
201510160600 AAXX 16064 67561 41959 00505 10239 20114 48523 70400
                   333 10351 20179 58001
                   555 00/// 91019=
201510151200 AAXX 15124 67561 41870 20000 10336 20127 48486 70500 82100
                   333 59008 82858 555 66/// 77/// 8841/ 98001
                   91014=
201510141200 AAXX 14124 67561 41870 30000 10345 20123 48496 70500 83102
                   333 59009 83858 81080
                   555 66/// 77/// 8840/ 98003 91015=
201510140600 AAXX 14064 67561 31959 40506 10235 20111 48528 70411 80002
                   333 10350 20174 59013 84080
                   555 00/// 91020=
201510130600 AAXX 13064 67561 31960 50610 10246 20120 48540 70522 81038
                   333 10345 20170 59002 81360 85280
                   555 00/// 91021=
201510121200 AAXX 12124 67561 41960 00805 10334 20084 48509 70500
                   333 59001 555 66/// 77/// 88039 98031 91017=
201510120600 AAXX 12064 67561 NIL=
201510101200 AAXX 10124 67561 41960 60000 10328 20105 48507 70522 83208
                   333 58002 83859 85280
                   555 66/// 77/// 8838/ 98003 91017=
201510100600 AAXX 10064 67561 NIL=
201510081800 AAXX 08184 67561 41960 05003 10288 20104 48511 70522 85030
                   555 10334 59010 85360
                   555 91017=
201510081200 AAXX 08124 67561 41970 10604 10334 20096 48506 70500 81200
                   333 59014 81857 91016=
201510080600 AAXX 08064 67561 31959 00806 10256 20111 48541 70400
                   333 10342 20201 59009
                   555 00/// 91021=
201510071200 AAXX 07124 67561 41860 30000 10323 20112 48519 70511 83101
                   333 58006 83858 82080
                   555 66/// 77/// 88012 9803/ 91018=
201510070600 AAXX 07064 67561 41959 00905 10255 20105 48549 70400
                   333 10345 20180 58002
                   555 00/// 91022=
201510061200 AAXX 06124 67561 41860 30605 10327 20100 48512 70400 83100
                   333 59007 83859 555 91017=
201510060600 AAXX 06064 67561 31958 00910 10232 20110 48546
                   333 10333 20173 59009
                   555 00/// 91022=
201510060300 AAXX 06034 67561 41960 00000 10201 20088 48530 70500
                   333 59009 91020=
201510051200 AAXX 05124 67561 NIL=
201510050600 AAXX 05064 67561 31960 00910 10255 20101 48555 70500
                   333 10333 20170 58004
                   555 00/// 91023=
201510031200 AAXX 03124 67561 41760 50304 10315 20127 48515 70522 83231
                   333 58019 83360 82080
                   555 66/// 77/// 88059 9802/ 91018=
201510030600 AAXX 03064 67561 31957 70000 10204 20151 48534 70422 87030
                   333 10314 20181 58015 87360
                   555 00/// 91021=

################################################################################
#  SYNOPS from 67563, Kafironda (Zambia) | 12-36S | 028-07E | 1243 m
################################################################################
201510271500 AAXX 27154 67563 NIL=
201510191200 AAXX 19124 67563 NIL=
201510170600 AAXX 17064 67563 NIL=
201510120600 AAXX 12064 67563 NIL=
201510100600 AAXX 10064 67563 NIL=
201510051200 AAXX 05124 67563 NIL=

################################################################################
#  SYNOPS from 67571, Serenje (Zambia) | 13-14S | 030-13E | 1384 m
################################################################################
201510290600 AAXX 29064 67571 32975 70908 10230 20094 48508 70200 8703/
                   333 10315 20185 59024 87360
                   555 00284=
201510271500 AAXX 27154 67571 NIL=
201510200600 AAXX 20064 67571 32970 71212 10231 20110 48543 70511 80008
                   333 10302 20180 59005 87281=
201510191200 AAXX 19124 67571 NIL=
201510170600 AAXX 17064 67571 NIL=
201510161200 AAXX 16124 67571 42670 21206 10322 20081 48486 70500 81240
                   333 58004 81848 81360=
201510160600 AAXX 16064 67571 32970 10605 10274 20098 48515 70500 80001
                   333 10352 20210 58002 81081=
201510150600 AAXX 15064 67571 32970 00905 10252 20096 48514
                   333 10340 20196 59015=
201510130600 AAXX 13064 67571 32980 10906 10257 20100 48535 70500 80001
                   333 10340 20196 59001 81080=
201510120600 AAXX 12064 67571 32970 10906 10252 20093 48534 70500 81030
                   333 10331 20189 59002 81360=
201510100600 AAXX 10064 67571 NIL=
201510080600 AAXX 08064 67571 32970 00908 10241 20091 48544 70500
                   333 10328 20180 59009=
201510070600 AAXX 07064 67571 32970 01205 10240 20096 48544 70500
                   333 10324 20175 58009=
201510060600 AAXX 06064 67571 32970 00908 10238 20081 48544 70500
                   333 10313 20162 59014=
201510051200 AAXX 05124 67571 NIL=

################################################################################
#  SYNOPS from 67575, Mkushi (Zambia) | 13-38-00S | 029-26-00E | 1237 m
################################################################################
201510271500 AAXX 27154 67575 NIL=
201510191200 AAXX 19124 67575 NIL=
201510170600 AAXX 17064 67575 NIL=
201510120600 AAXX 12064 67575 NIL=
201510100600 AAXX 10064 67575 NIL=
201510051200 AAXX 05124 67575 NIL=

################################################################################
#  SYNOPS from 67580, Msekera (Zambia) | 13-39S | 032-34E | 1025 m
################################################################################
201510290600 AAXX 29064 67580 31980 71604 10273 20101 48/// 70522 81038
                   333 10343 20//0 59026 81360 87280
                   555 00/// 20000=
201510271500 AAXX 27154 67580 NIL=
201510200600 AAXX 20064 67580 31980 71604 10252 20120 48/// 70522 80008
                   333 10342 20/// 59006 87280=
201510191200 AAXX 19124 67580 NIL=
201510190600 AAXX 19064 67580 11675 11206 10263 20148 48/// 69904 70500 81101
                   333 10340 20/// 59009 81830 81080=
201510170600 AAXX 17064 67580 NIL=
201510161200 AAXX 16124 67580 41975 41204 10352 20121 48/// 70500 84100
                   333 58007 84858=
201510160900 AAXX 16094 67580 41875 30603 10340 20123 48/// 70500 83100
                   333 58006 83857=
201510160600 AAXX 16064 67580 31975 01203 10298 20120 48/// 70500
                   333 10378 20/// 59005=
201510151200 AAXX 15124 67580 41975 51203 10347 20102 48/// 70511 84101
                   333 59018 84858 83080=
201510150600 AAXX 15064 67580 31975 70903 10300 20127 48/// 70522 80007
                   333 10367 20/// 59015 87280=
201510130600 AAXX 13064 67580 31980 20905 10279 20137 48/// 70500 80001
                   333 10371 20/// 58007 82080=
201510120600 AAXX 12064 67580 31975 31204 10288 20122 48/// 70510 80001
                   333 10362 20/// 59001 83082=
201510100600 AAXX 10064 67580 NIL=
201510080600 AAXX 08064 67580 31970 01104 10274 20105 48/// 70500
                   333 10354 20/// 59012=
201510070600 AAXX 07064 67580 31970 01205 10275 20124 48/// 70500
                   333 10356 20//0 5////=
201510060600 AAXX 06064 67580 31975 01204 10281 20107 48/// 70500
                   333 10350 20/// 5////=
201510051200 AAXX 05124 67580 NIL=
201510050900 AAXX 05094 67580 41775 50906 10320 20111 48/// 70500 85101
                   333 5//// 85850 81080=
201510050600 AAXX 05064 67580 31975 01007 10275 20140 48/// 70500
                   333 10350 20/// 58011=

################################################################################
#  SYNOPS from 67581, Chipata (Zambia) | 13-33S | 032-35E | 1028 m
################################################################################
201510290600 AAXX 29064 67581 31980 20702 10280 48534 70500 80002
                   333 10329 20172 59025 82080
                   555 00174 91018=
201510271500 AAXX 27154 67581 NIL=
201510200600 AAXX 20064 67581 31960 21710 10255 20115 48564 70500 80001
                   333 10330 20184 59006 82080 91022=
201510191200 AAXX 19124 67581 NIL=
201510190600 AAXX 19064 67581 31660 21806 10255 20146 48570 70500 82100
                   333 10386 20250 59005 82830 91022=
201510170600 AAXX 17064 67581 NIL=
201510160600 AAXX 16064 67581 31960 01604 10285 20112 48545 70500
                   333 10362 20230 58000 91017=
201510150600 AAXX 15064 67581 31960 50806 10282 20121 48545 70522 80002
                   333 10355 20210 59018 85080 91017=
201510130600 AAXX 13064 67581 32980 01206 10270 20134 48568 70200
                   333 10353 20189 58006 91022=
201510120600 AAXX 12064 67581 32660 10604 10288 20123 48576 81100
                   333 10351 20205 58003 81838 91021=
201510100600 AAXX 10064 67581 NIL=
201510080600 AAXX 08064 67581 31960 00912 10280 20115 48568 70500
                   333 10344 20200 59013 91021=
201510070600 AAXX 07064 67581 31960 00910 10272 20128 48576 70500
                   333 10338 20182 5//// 91022=
201510060600 AAXX 06064 67581 31960 00805 10282 20116 48/// 70500
                   333 10337 20170 5////=
201510051200 AAXX 05124 67581 41660 20810 10330 20096 48/// 70500 81101
                   333 5//// 81840 82080=
201510050600 AAXX 05064 67581 31960 00907 10269 20109 48576 70500
                   333 10339 20210 58001 91023=

################################################################################
#  SYNOPS from 67583, Lundazi (Zambia) | 12-17S | 033-12E | 1143 m
################################################################################
201510271500 AAXX 27154 67583 NIL=
201510191200 AAXX 19124 67583 NIL=
201510190600 AAXX 19064 67583 31675 11203 10260 20168 48/// 70500 81101
                   333 10/// 20/// 59058 81830 81080=
201510170600 AAXX 17064 67583 NIL=
201510150600 AAXX 15064 67583 31978 31201 10285 20129 48/// 70500 80001
                   333 10/// 20/// 59025 83080=
201510130600 AAXX 13064 67583 31675 30902 10275 20150 48/// 70500 81131
                   333 10/// 20/// 58007 81830 81360 82080=
201510120600 AAXX 12064 67583 NIL=
201510100600 AAXX 10064 67583 NIL=
201510070600 AAXX 07064 67583 31975 01504 10265 20136 48/// 70500
                   333 10//0 20//0 5////=
201510051200 AAXX 05124 67583 NIL=

################################################################################
#  SYNOPS from 67599, Mfuwe (Zambia) | 13-16S | 031-56E | 568 m
################################################################################
201510271500 AAXX 27154 67599 NIL=
201510191200 AAXX 19124 67599 NIL=
201510170600 AAXX 17064 67599 NIL=
201510150600 AAXX 15064 67599 31970 40000 10310 20146 48540 70500 80001
                   333 10405 20190 59015 84080 91015=
201510120600 AAXX 12064 67599 NIL=
201510100600 AAXX 10064 67599 NIL=
201510080600 AAXX 08064 67599 31959 00000 10288 20131 48560 70544
                   333 10395 20195 59012 91018=
201510070600 AAXX 07064 67599 31959 00000 10285 20133 48571 70500
                   333 10385 20200 58001 91019=
201510060600 AAXX 06064 67599 41958 00903 10285 20133 48570 70544
                   333 10391 20190 59008 91019=
201510051200 AAXX 05124 67599 NIL=

################################################################################
#  SYNOPS from 67625, Kalabo (Zambia) | 14-51S | 022-42E | 1033 m
################################################################################
201510271500 AAXX 27154 67625 NIL=
201510191200 AAXX 19124 67625 NIL=
201510170600 AAXX 17064 67625 NIL=
201510120600 AAXX 12064 67625 NIL=
201510100600 AAXX 10064 67625 NIL=
201510051200 AAXX 05124 67625 NIL=

################################################################################
#  SYNOPS from 67633, Mongu (Zambia) | 15-15S | 023-09E | 1052 m
################################################################################
201510271500 AAXX 27154 67633 NIL=
201510191200 AAXX 19124 67633 NIL=
201510170600 AAXX 17064 67633 NIL=
201510160600 AAXX 16064 67633 11980 73615 10261 20152 48503 69904 75052 87070
                   333 10395 20242 58001 87460 91015=
201510150600 AAXX 15064 67633 31980 10802 10258 20181 48503 70500 81030
                   333 10380 20205 59003 81360 91015=
201510130600 AAXX 13064 67633 31980 03302 10220 20151 48522 70500
                   333 10372 20185 59012 91018=
201510120600 AAXX 12064 67633 NIL=
201510100600 AAXX 10064 67633 NIL=
201510080600 AAXX 08064 67633 31980 00903 10255 20120 48535 70500
                   333 10382 20200 59010 91019=
201510060600 AAXX 06064 67633 32980 00910 10253 20111 48540 70200
                   333 10410 20179 59019 91020=
201510051200 AAXX 05124 67633 NIL=

################################################################################
#  SYNOPS from 67641, Kaoma (Zambia) | 14-48S | 024-48E | 1213 m
################################################################################
201510290600 AAXX 29064 67641 31975 40602 10249 20122 48491 70500 84030
                   333 10350 20167 59002 84360
                   555 00/// 20000 91014=
201510271500 AAXX 27154 67641 NIL=
201510200600 AAXX 20064 67641 31975 40406 10270 20119 48538 70500 80001
                   333 10354 20178 59007 84080
                   555 00///=
201510191200 AAXX 19124 67641 NIL=
201510190600 AAXX 19064 67641 31975 41101 10251 20145 48542 70500 80001
                   333 10350 20156 59002 84080 91020=
201510170600 AAXX 17064 67641 NIL=
201510160600 AAXX 16064 67641 11975 71406 10240 20145 48495 60184 70522 86030
                   333 10390 20216 59004 86360 91015=
201510150600 AAXX 15064 67641 31975 40000 10234 20148 48499 70500 82032
                   333 10381 20186 59005 82360 82080 91015=
201510130600 AAXX 13064 67641 31975 10000 10221 20119 48515 70500 81030
                   333 10361 20165 59008 81360 91017=
201510120600 AAXX 12064 67641 31975 10000 10209 20127 48520 70500 81030
                   333 10369 20174 59002 81360 91018=
201510100600 AAXX 10064 67641 NIL=
201510080600 AAXX 08064 67641 31975 00000 10241 20109 48527 70500
                   333 10361 20174 59010 91018=
201510060600 AAXX 06064 67641 31975 00901 10247 20097 48533 70500
                   333 10351 20156 59008 91020=
201510051200 AAXX 05124 67641 NIL=

################################################################################
#  SYNOPS from 67655, Mumbwa (Zambia) | 15-04S | 027-11E | 1216 m
################################################################################
201510271500 AAXX 27154 67655 NIL=
201510191200 AAXX 19124 67655 NIL=
201510170600 AAXX 17064 67655 NIL=
201510120600 AAXX 12064 67655 NIL=
201510100600 AAXX 10064 67655 NIL=
201510051200 AAXX 05124 67655 NIL=

################################################################################
#  SYNOPS from 67659, Kafue Polder (Zambia) | 15-46S | 027-55E | 978 m
################################################################################
201510271500 AAXX 27154 67659 NIL=
201510191200 AAXX 19124 67659 NIL=
201510170600 AAXX 17064 67659 NIL=
201510120600 AAXX 12064 67659 NIL=
201510100600 AAXX 10064 67659 NIL=
201510051200 AAXX 05124 67659 NIL=

################################################################################
#  SYNOPS from 67662, Kabwe Agric (Zambia) | 14-24S | 028-30E | 1165 m
################################################################################
201510271500 AAXX 27154 67662 NIL=
201510191200 AAXX 19124 67662 NIL=
201510170600 AAXX 17064 67662 NIL=
201510120600 AAXX 12064 67662 NIL=
201510100600 AAXX 10064 67662 NIL=
201510051200 AAXX 05124 67662 NIL=

################################################################################
#  SYNOPS from 67663, Kabwe (Zambia) | 14-27S | 028-28E | 1206 m
################################################################################
201510271500 AAXX 27154 67663 NIL=
201510191200 AAXX 19124 67663 NIL=
201510170600 AAXX 17064 67663 NIL=
201510120600 AAXX 12064 67663 NIL=
201510100600 AAXX 10064 67663 NIL=
201510051200 AAXX 05124 67663 NIL=

################################################################################
#  SYNOPS from 67665, Lusaka Internationalairport (Zambia) | 15-19S | 028-27E | 1152 m
################################################################################
201510310600 AAXX 31064 67665 32980 03205 10237 20126 48523
                   333 10347 20//0 58012=
201510301200 AAXX 30124 67665 42680 51604 10329 20120 48493 70122 85230
                   333 59002 85840 81360=
201510300600 AAXX 30064 67665 42980 00906 10257 20147 48532 70200
                   333 58000=
201510300300 AAXX 30034 67665 42980 01403 10168 20085 48505 70200
                   333 58002 91017=
201510292100 AAXX 29214 67665 42980 01403 10202 20107 48507 70200 82030
                   333 59005 91017=
201510290900 AAXX 29094 67665 42980 00510 10274 20143 48526
                   333 59013=
201510290600 AAXX 29064 67665 42980 00917 10227 20117 48528
                   333 59022=
201510282100 AAXX 28214 67665 42980 11303 10190 20102 48511 81030
                   333 59023 81360=
201510281800 AAXX 28184 67665 42980 11104 10233 20126 48507 81030
                   333 10330 20//0 59022 81360=
201510281500 AAXX 28154 67665 42680 61010 10284 20175 48502 85270
                   333 59021 85845 83360=
201510281200 AAXX 28124 67665 42680 31010 10296 20159 48517 83100 89022 83840=
201510280600 AAXX 28064 67665 32980 00616 10233 20145 48541 70100
                   333 10285 20//0 59017=
201510280300 AAXX 28034 67665 42980 20813 10201 20144 48533 82030
                   333 59007 82360=
201510271800 AAXX 27184 67665 42980 11205 10246 20101 48533 81030
                   333 59002=
201510271500 AAXX 27154 67665 NIL=
201510271200 AAXX 27124 67665 42680 30812 10308 20136 48540 83200
                   333 58005 83840=
201510270600 AAXX 27064 67665 32980 21014 10247 20102 48569 70300 82030
                   333 10370 20//0 59001=
201510270300 AAXX 27034 67665 42980 01002 10157 20093 48535 70200
                   333 59004=
201510262100 AAXX 26214 67665 42980 01404 10213 20110 48538 70200
                   333 59005=
201510261800 AAXX 26184 67665 42980 01405 10244 20119 48543 70200
                   333 58004=
201510261500 AAXX 26154 67665 42980 01012 10319 20139 48531 70200
                   333 58003 91018=
201510251800 AAXX 25184 67665 42980 21005 10239 20114 48537 70200 82030
                   333 58000 82360=
201510250000 AAXX 25004 67665 42980 01602 10184 20082 48525 58010 70200=
201510241800 AAXX 24184 67665 42980 01107 10234 20095 48531 70200
                   333 58006=
201510241200 AAXX 24124 67665 42680 31109 10304 20119 48533 83100
                   333 58010 83844=
201510231800 AAXX 23184 67665 42980 00906 10232 20124 48521 70200
                   333 50009=
201510230900 AAXX 23094 67665 42980 00917 10286 20145 48553 70200
                   333 58009 91021=
201510230300 AAXX 23034 67665 42980 01105 10172 20090 48539 70200
                   333 58019 91021=
201510222100 AAXX 22214 67665 42980 01305 10209 20094 48536 70200
                   333 58005 91020=
201510220900 AAXX 22094 67665 42980 10710 10297 20149 48546 80001
                   333 59012 81080=
201510220600 AAXX 22064 67665 32980 10815 10242 20126 48546 80001
                   333 59015 81080=
201510220300 AAXX 22034 67665 42980 01303 10142 20064 48514
                   333 59013=
201510211800 AAXX 21184 67665 42980 21304 10233 20116 48521 70200 80001
                   333 59018 82080 91018=
201510211500 AAXX 21154 67665 42980 21310 10308 20164 48514 70200 80001
                   333 59018 82080 91016=
201510211200 AAXX 21124 67665 42980 20905 10306 20171 48522 80001
                   333 59016 82080=
201510210900 AAXX 21094 67665 42980 21209 10275 20150 48546 70200 80001
                   333 59008 82080=
201510210600 AAXX 21064 67665 32980 10915 10228 20130 48551 70200 80001
                   333 10330 20/// 59009 81080=
201510210300 AAXX 21034 67665 42980 01302 10155 20090 48529
                   333 59008=
201510202100 AAXX 20214 67665 42980 01504 10202 20085 48541
                   333 59009=
201510201800 AAXX 20184 67665 42980 01003 10221 20089 48538
                   333 59004=
201510201500 AAXX 20154 67665 42980 10909 10311 20148 48527 80001
                   333 59017 81080=
201510200300 AAXX 20034 67665 42980 01502 10176 20106 48539 70200
                   333 59004=
201510192100 AAXX 19214 67665 42980 01403 10194 20107 48548 70200
                   333 58004=
201510191800 AAXX 19184 67665 41960 50911 10313 20151 48547 70500 85200
                   333 59002 85848 91020=
201510191500 AAXX 19154 67665 41960 11014 10301 20155 48544 81200
                   333 59003 81856 91020=
201510191200 AAXX 19124 67665 41960 50911 10313 20151 48547 70500 85200
                   333 59002 85848 91020=
201510190900 AAXX 19094 67665 42960 31113 10286 20153 48573 70300 83200
                   333 59001 83840 91023=
201510190600 AAXX 19064 67665 42980 01011 10230 20122 48569 70200
                   333 59002 91024=
201510190300 AAXX 19034 67665 42980 11305 10170 20075 48545 81030
                   333 59002 81360=
201510190000 AAXX 19004 67665 42980 01803 10165 20070 48534
                   333 59001=
201510182100 AAXX 18214 67665 42980 01503 10185 20096 48545
                   333 58001=
201510181800 AAXX 18184 67665 42980 21004 10234 20137 48546 70200 80001
                   333 10335 58004 82080=
201510181500 AAXX 18154 67665 42780 31110 10301 20145 48547 70122 82101
                   333 58023 82856 82080=
201510181200 AAXX 18124 67665 42680 51209 10317 20166 48551 70222 85201
                   333 58020 85845 82080=
201510180900 AAXX 18094 67665 42680 20815 10284 20171 48572 81101
                   333 58027 81840 81080=
201510180600 AAXX 18064 67665 32980 00615 10241 20146 48573
                   333 10323 58031=
201510172100 AAXX 17214 67665 42980 00908 10227 20118 48541 70200
                   333 58021=
201510171800 AAXX 17184 67665 42980 01007 10245 20131 48545
                   333 10340 20//0 58031=
201510171500 AAXX 17154 67665 41959 00716 10308 20154 48525 70500
                   333 58006=
201510171200 AAXX 17124 67665 41658 51016 10312 20159 48529 70500 81131
                   333 58000 81840 81360 84080=
201510170600 AAXX 17064 67665 NIL=
201510161800 AAXX 16184 67665 41959 71305 10225 20141 48512 70522 8603/
                   333 58016 86360=
201510161500 AAXX 16154 67665 42970 71809 10257 20155 48505 70222 80002
                   333 58034 87080=
201510161200 AAXX 16124 67665 42970 71808 10250 20156 48514 70222 82032
                   333 58038 82360 87080=
201510160900 AAXX 16094 67665 41960 71409 10289 20169 48544 70222 86032
                   333 58028 86360 84080=
201510160300 AAXX 16034 67665 42960 01305 10211 20128 48498 70200
                   333 59003 91016=
201510152100 AAXX 15214 67665 42960 01403 10226 20106 48502 70200
                   333 59014=
201510150900 AAXX 15094 67665 42980 00610 10333 20197 48521
                   333 59021=
201510150000 AAXX 15004 67665 42980 01403 10199 20102 48497
                   333 59019=
201510142100 AAXX 14214 67665 42980 01403 10225 20115 48516
                   333 59011=
201510141800 AAXX 14184 67665 42980 03604 10263 20154 48511 70500
                   333 59008=
201510141500 AAXX 14154 67665 41960 00711 10334 20168 48497 70500
                   333 59014=
201510141200 AAXX 14124 67665 41960 00805 10337 20170 48513 70500
                   333 59011=
201510140900 AAXX 14094 67665 41960 00412 10324 20176 48533 70500
                   333 59012=
201510140600 AAXX 14064 67665 41960 00505 10264 20164 48538 70500
                   333 10356 20//0 59017=
201510140300 AAXX 14034 67665 42960 01303 10183 20113 48510 70200
                   333 59020=
201510132100 AAXX 13214 67665 42960 01206 10219 20099 48525 70200
                   333 59018=
201510131800 AAXX 13184 67665 42960 01005 10258 20106 48519 70200
                   333 10356 59016=
201510131200 AAXX 13124 67665 41959 00912 10339 20125 48554 70500
                   333 59008=
201510130300 AAXX 13034 67665 42980 01103 10195 20075 48531
                   333 58005=
201510122100 AAXX 12214 67665 42980 00303 10225 20115 48544
                   333 58006=
201510121800 AAXX 12184 67665 41960 00905 10259 20139 48535 70500
                   333 58003=
201510121500 AAXX 12154 67665 41959 00912 10329 20165 48525 70500
                   333 58006=
201510121200 AAXX 12124 67665 41959 00715 10333 20165 48532 70500
                   333 58006=
201510120900 AAXX 12094 67665 41959 00814 10318 20177 48559 70500
                   333 58000=
201510120600 AAXX 12064 67665 31958 11004 10254 20143 48555 70500 81030
                   333 58002 81360=
201510120300 AAXX 12034 67665 42980 01404 10196 20100 48527
                   333 59004=
201510120000 AAXX 12004 67665 42980 01505 10181 20091 48523
                   333 59002=
201510112100 AAXX 11214 67665 42980 01405 10213 20130 48536
                   333 59004=
201510111800 AAXX 11184 67665 42980 10904 10251 20139 48531 70500 80001
                   333 10350 58001 81080=
201510111500 AAXX 11154 67665 41959 10328 20146 48519 70500
                   333 58001=
201510111200 AAXX 11124 67665 41959 01108 10342 20161 48527 70500
                   333 58000=
201510110900 AAXX 11094 67665 41959 00211 10315 20183 48559 70500
                   333 58004=
201510101800 AAXX 10184 67665 41957 01204 10248 20128 48530 70500
                   333 10350 20//0 58004=
201510101500 AAXX 10154 67665 41958 11009 10315 20158 48515 70500 81030
                   333 58003 81360=
201510101200 AAXX 10124 67665 42959 20715 10328 20181 48526 70500 82030
                   333 59010 82360=
201510100900 AAXX 10094 67665 41958 00615 10310 20185 48553 70500
                   333 59001 91021=
201510100600 AAXX 10064 67665 31959 00813 10268 20168 48555 70500
                   333 58034 91022=
201510100300 AAXX 10034 67665 42980 01006 10192 20121 48524 70200
                   333 58001=
201510100000 AAXX 10004 67665 42980 01204 10182 20070 40518 70200
                   333 58003=
201510092100 AAXX 09214 67665 41960 01304 10221 20088 48534 70500
                   333 59010=
201510091500 AAXX 09154 67665 41660 10710 10326 20116 48514 70500 81100
                   333 59007 81848=
201510091200 AAXX 09124 67665 41659 13508 10330 20110 48524 70500 81100
                   333 59003=
201510090900 AAXX 09094 67665 41959 00909 10310 20104 48554 70500
                   333 59003=
201510090600 AAXX 09064 67665 31959 00908 10251 20156 48553 70500
                   333 10354 20//0 59008 91022=
201510090300 AAXX 09034 67665 42980 01306 10195 20110 48523 70200
                   333 59011=
201510090000 AAXX 09004 67665 42980 01303 10182 20099 48515 70200
                   333 59005=
201510082100 AAXX 08214 67665 42980 01303 10201 20084 48532 70200
                   333 59009=
201510081800 AAXX 08184 67665 42980 01107 10244 20099 48532 70200
                   333 10354=
201510081200 AAXX 08124 67665 41659 10609 10323 20110 48529 70500 81100
                   333 58011 81845=
201510080900 AAXX 08094 67665 41959 00614 10299 20163 48556 70500
                   333 59016=
201510080000 AAXX 08004 67665 42980 02002 10172 20102 48529
                   333 59008=
201510072100 AAXX 07214 67665 41980 01002 10205 20120 48542
                   333 59003=
201510071800 AAXX 07184 67665 40960 01206 10244 20149 48542 70200
                   333 58001=
201510071500 AAXX 07154 67665 41959 01009 10315 20182 48537 70500
                   333 58003=
201510071200 AAXX 07124 67665 41959 10711 10320 20197 48540 70500 80001
                   333 58002 81080 91019=
201510070900 AAXX 07094 67665 41959 00816 10298 20187 48570 70500
                   333 58011=
201510070600 AAXX 07064 67665 31959 00915 10254 20162 48563 70500
                   333 10337 20//0 58002=
201510070300 AAXX 07034 67665 42960 01204 10181 20131 48540
                   333 59001=
201510062100 AAXX 06214 67665 42960 01303 10196 20110 48544
                   333 59009=
201510061500 AAXX 06154 67665 41758 11111 10309 20174 48532 70500 81060
                   333 59006 81358=
201510061200 AAXX 06124 67665 41658 20815 10318 20168 48538 70500 82100
                   333 59009 82845=
201510060300 AAXX 06034 67665 42980 01502 10167 20130 48541 70200
                   333 59006=
201510060000 AAXX 06004 67665 42980 01301 10174 20134 48541 70200
                   333 59004=
201510052100 AAXX 05214 67665 42980 01302 10199 20143 48553 70200
                   333 58002=
201510051200 AAXX 05124 67665 NIL=
201510050900 AAXX 05094 67665 41659 20714 10297 20203 48576 70500 81101
                   333 58000 81840 81080=
201510050600 AAXX 05064 67665 41980 11214 10240 20162 48566 70500 80001
                   333 58002 81080=
201510050300 AAXX 05034 67665 42980 01404 10179 20113 48549
                   333 58007=
201510042100 AAXX 04214 67665 42980 01204 10204 20109 48551
                   333 58009=
201510041800 AAXX 04184 67665 41960 21004 10243 20118 48550 48550 70500 80001
                   333 10340 58024 82080=
201510041500 AAXX 04154 67665 41959 41009 10311 20138 48550 70522 81061
                   333 58030 81360 84080=
201510041200 AAXX 04124 67665 41659 51012 10319 20139 48553 70522 85201
                   333 58018 85845 83080=
201510040900 AAXX 04094 67665 41659 30410 10285 20137 48575 70500 81101
                   333 58028 81835 81080=
201510040600 AAXX 04064 67665 41959 10910 10245 20121 48572 70500 80001
                   333 58021 81080=
201510040300 AAXX 04034 67665 41960 01305 10204 20098 48537 70500
                   333 58013=
201510032100 AAXX 03214 67665 41960 01703 10214 20101 48538 70500
                   333 58022=
201510031800 AAXX 03184 67665 41959 11005 10252 20110 48528 70500 81030
                   333 58021 81360=
201510031200 AAXX 03124 67665 41659 30906 10320 20130 48535 70500 81101
                   333 58027 81845 81080=
201510030900 AAXX 03094 67665 41959 20815 10305 20140 48549 70500 82030
                   333 58016 82360=
201510030600 AAXX 03064 67665 31959 20709 10241 20140 48550 70500 82030
                   333 10324 20//0 58023 82360=
201510021800 AAXX 02184 67665 41959 21303 10251 20130 48504 70501 80001
                   333 58019 82080=
201510021500 AAXX 02154 67665 41959 40902 10312 20149 48491 70522 82031
                   333 58020 82360 83080=
201510021200 AAXX 02124 67665 41959 63506 10313 20141 48501 70522 84031
                   333 58013 84360 86080=
201510020900 AAXX 02094 67665 41658 72303 10281 20126 48530 70500 83530
                   333 58016 83635 85360=
201510020600 AAXX 02064 67665 31959 52202 10231 20134 48526 70500 85030
                   333 10342 20//0 58010=
201510020300 AAXX 02034 67665 42980 00101 10198 20118 48503 70200
                   333 58008=
201510012100 AAXX 01214 67665 42980 01302 10227 20107 48503 70200
                   333 59002 91016=
201510010900 AAXX 01094 67665 41958 70805 10305 20160 48516 70500 80001
                   333 59011 87080=
201510010600 AAXX 01064 67665 31959 31009 10237 20140 48518 70500 80002
                   333 10339 20//0 59009 83080=

################################################################################
#  SYNOPS from 67666, Lusaka City Airport (Zambia) | 15-25-00S | 028-28-00E | 1280 m
################################################################################
201510271500 AAXX 27154 67666 NIL=
201510191200 AAXX 19124 67666 NIL=
201510190600 AAXX 19064 67666 32980 20906 10224 20144 48559 80001
                   333 10/// 20/// 59002 82080 91023=
201510170600 AAXX 17064 67666 NIL=
201510160600 AAXX 16064 67666 31959 81407 10255 20113 48530 70522 8803/
                   333 10356 20/// 58016 88359 91019=
201510150600 AAXX 15064 67666 32975 00806 10271 20102 48516 70500
                   333 10340 20/// 59017 91017=
201510130600 AAXX 13064 67666 31970 30909 10260 20109 48544 70500 83030
                   333 10338 20/// 59004 83360 91021=
201510120600 AAXX 12064 67666 31958 10811 10258 20085 48550 70500 81030
                   333 10340 20/// 58001 81359 91021=
201510100600 AAXX 10064 67666 NIL=
201510080600 AAXX 08064 67666 31970 00912 10246 20/// 48552 70500
                   333 10320 20/// 59009 91022=
201510070600 AAXX 07064 67666 31959 01015 10245 20129 48560 70500
                   333 10315 20/// 58004 91023=
201510060600 AAXX 06064 67666 31970 01012 10240 20125 48555 70500
                   333 10305 20/// 59008 91022=
201510051200 AAXX 05124 67666 NIL=
201510050900 AAXX 05094 67666 41680 31212 10290 20141 48563 70500 81102
                   333 59003 81835 82080 91023=

################################################################################
#  SYNOPS from 67667, Mount Makulu (Zambia) | 15-33S | 028-15E | 1213 m
################################################################################
201510271500 AAXX 27154 67667 NIL=
201510191200 AAXX 19124 67667 NIL=
201510170600 AAXX 17064 67667 NIL=
201510120600 AAXX 12064 67667 NIL=
201510100600 AAXX 10064 67667 NIL=
201510051200 AAXX 05124 67667 NIL=

################################################################################
#  SYNOPS from 67673, Petauke (Zambia) | 14-15S | 031-17E | 1035 m
################################################################################
201510271500 AAXX 27154 67673 NIL=
201510200600 AAXX 20064 67673 31670 30908 10195 20146 48562 70500 83100
                   333 10330 20205 59008 83840=
201510191200 AAXX 19124 67673 NIL=
201510190600 AAXX 19064 67673 31570 20904 10256 20141 48586 70500
                   333 10340 20202 58043 82830=
201510170600 AAXX 17064 67673 NIL=
201510161200 AAXX 16124 67673 41660 31502 10355 20128 48522 70500 83100
                   333 58016 83845=
201510150600 AAXX 15064 67673 31965 03604 10285 20134 48549 70500
                   333 10355 20228 59006=
201510120600 AAXX 12064 67673 NIL=
201510100600 AAXX 10064 67673 NIL=
201510051200 AAXX 05124 67673 NIL=

################################################################################
#  SYNOPS from 67731, Senanga (Zambia) | 16-06S | 023-16E | 1027 m
################################################################################
201510290600 AAXX 29064 67731 32980 016// 10274 20115 48/// 70200
                   333 10322 20158 59023
                   555 00/// 20000=
201510271500 AAXX 27154 67731 NIL=
201510191200 AAXX 19124 67731 NIL=
201510170600 AAXX 17064 67731 NIL=
201510160600 AAXX 16064 67731 11980 615// 10243 20162 48/// 60024 70222 84032
                   333 10394 20201 58013 84360 86080=
201510120600 AAXX 12064 67731 NIL=
201510100600 AAXX 10064 67731 NIL=
201510070600 AAXX 07064 67731 31975 011// 10240 20102 48/// 70500
                   333 10376 20149 5////=
201510060600 AAXX 06064 67731 32980 010// 10261 20093 48///
                   333 10356 20145 5////=
201510051200 AAXX 05124 67731 42980 114// 10360 20059 48/// 70200 81050
                   333 5//// 81362=
201510050600 AAXX 05064 67731 32980 110// 10270 20134 48/// 70200 80008
                   333 10361 20165 5//// 81080=

################################################################################
#  SYNOPS from 67741, Sesheke (Zambia) | 17-28S | 024-18E | 949 m
################################################################################
201510271500 AAXX 27154 67741 NIL=
201510191200 AAXX 19124 67741 NIL=
201510170600 AAXX 17064 67741 NIL=
201510120600 AAXX 12064 67741 NIL=
201510100600 AAXX 10064 67741 NIL=
201510051200 AAXX 05124 67741 NIL=

################################################################################
#  SYNOPS from 67743, Livingstone (Zambia) | 17-49S | 025-49E | 985 m
################################################################################
201510271500 AAXX 27154 67743 NIL=
201510191200 AAXX 19124 67743 42980 10605 10339 20019 48544 81101
                   333 59002 81858 81080 91018=
201510170600 AAXX 17064 67743 32980 71208 10246 20116 48538 70222 80001
                   333 10372 20204 58024 87080
                   555 00/// 91019=
201510161500 AAXX 16154 67743 42680 61005 10346 20023 48500 81332
                   333 58020 81945 82640 82360 85079 91013=
201510161200 AAXX 16124 67743 42780 20807 10349 20079 48513 81131
                   333 58021 81856 81360 81080 91014=
201510140600 AAXX 14064 67743 31975 11004 10269 20112 48515 70500 80001
                   333 10389 20210 59018 81080=
201510120600 AAXX 12064 67743 31975 00811 10275 20015 48548 70500
                   333 10398 20208 58009
                   555 00/// 91020=
201510100600 AAXX 10064 67743 31959 00908 10270 21003 48544 70500
                   333 10382 20199 58///
                   555 91019=
201510081500 AAXX 08154 67743 41975 01214 10354 21048 48511 70500
                   333 59012 555 Q1015.5=
201510081200 AAXX 08124 67743 41975 01209 10351 20014 48531 70500
                   333 59007 555 Q1016=
201510080600 AAXX 08064 67743 31975 00907 10262 20070 48544 70500
                   333 10370 20195 555 00/// 91020=
201510070600 AAXX 07064 67743 32980 01108 10267 20057 48565 70200
                   333 10380 20200 59003
                   555 00/// 91022=
201510051200 AAXX 05124 67743 41775 51007 10352 20015 48541 70511 81101
                   333 59009 82856 85080 91018=

################################################################################
#  SYNOPS from 67751, Magoye (Zambia) | 16-00S | 027-36E | 1018 m
################################################################################
201510271500 AAXX 27154 67751 NIL=
201510191200 AAXX 19124 67751 NIL=
201510170600 AAXX 17064 67751 NIL=
201510120600 AAXX 12064 67751 NIL=
201510100600 AAXX 10064 67751 NIL=
201510051200 AAXX 05124 67751 NIL=

################################################################################
#  SYNOPS from 67753, Choma (Zambia) | 16-50S | 027-04E | 1213 m
################################################################################
201510271500 AAXX 27154 67753 NIL=
201510200600 AAXX 20064 67753 31960 00909 10239 20116 48561 70500
                   333 10320 20116 5////=
201510191200 AAXX 19124 67753 NIL=
201510190600 AAXX 19064 67753 31560 10619 10239 20139 48/// 70500 81100
                   333 10331 20158 5//// 81820=
201510170600 AAXX 17064 67753 NIL=
201510160600 AAXX 16064 67753 11960 71312 10216 20163 48540 69904 70500 87070
                   333 10356 20199 5//// 87360=
201510150600 AAXX 15064 67753 31960 10210 10219 20146 48/// 70500 81030
                   333 10356 20199 5//// 81360=
201510130600 AAXX 13064 67753 31960 20508 10251 20186 48533 70500 82030
                   333 10351 20186 5//// 82360=
201510120600 AAXX 12064 67753 NIL=
201510100600 AAXX 10064 67753 NIL=
201510080600 AAXX 08064 67753 31960 00821 10250 20100 48/// 70500
                   333 10326 20176 5////=
201510070600 AAXX 07064 67753 31960 00719 10255 20117 48563 70500
                   333 10325 20170 5////=
201510060600 AAXX 06064 67753 31960 00608 10254 20114 48/// 70500
                   333 10329 20172 5////=
201510051200 AAXX 05124 67753 NIL=
201510050600 AAXX 05064 67753 31960 10614 10255 20115 48/// 70500 80002
                   333 10339 20186 5//// 81080=

################################################################################
#  SYNOPS from 67855, Lupaki (Zambia) | 17-03-00S | 024-46-00E | 1000 m
################################################################################
201510301200 AAXX 30124 67855 41770 50702 10344 20093 3//// 48/// 70511 85230
                   333 5//// 85850=
201510291800 AAXX 29184 67855 NIL=
201510290600 AAXX 29064 67855 NIL=
201510281200 AAXX 28124 67855 NIL=
201510280600 AAXX 28064 67855 NIL=
201510271200 AAXX 27124 67855 41670 51005 10328 20115 3//// 48/// 70511 85230
                   333 5//// 85840=
201510261800 AAXX 26184 67855 NIL=
201510261200 AAXX 26124 67855 41770 53201 10368 20088 3//// 48/// 70511 85100
                   333 5//// 85850=
201510260600 AAXX 26064 67855 31970 00902 10260 20078 3//// 48///
                   333 20134 5////=
201510251800 AAXX 25184 67855 NIL=
201510250600 AAXX 25064 67855 NIL=
201510241800 AAXX 24184 67855 NIL=
201510240600 AAXX 24064 67855 NIL=
201510231200 AAXX 23124 67855 NIL=
201510230600 AAXX 23064 67855 31970 00904 10236 20113 3//// 48/// 70500
                   333 20174 5////=
201510221800 AAXX 22184 67855 NIL=
201510221200 AAXX 22124 67855 41960 31304 10350 20051 3//// 48/// 70500 81102
                   333 5//// 81850 83080=
201510220600 AAXX 22064 67855 32975 00606 10250 20103 3//// 48///
                   333 20134 5////=
201510211800 AAXX 21184 67855 NIL=
201510211200 AAXX 21124 67855 42975 11903 10352 20071 3//// 48/// 80002
                   333 5//// 81080=
201510210600 AAXX 21064 67855 32975 20603 10230 20115 3//// 48/// 80001
                   333 20143 5//// 82080=
201510201200 AAXX 20124 67855 NIL=
201510200600 AAXX 20064 67855 31970 00807 10242 20096 3//// 48/// 70500
                   333 20168 5////=
201510191800 AAXX 19184 67855 NIL=
201510191200 AAXX 19124 67855 41770 41902 10336 20113 3//// 48/// 70500 84200
                   333 5//// 84850=
201510190600 AAXX 19064 67855 31970 00602 10230 20138 3//// 48/// 70500
                   333 20182 5////=
201510181800 AAXX 18184 67855 NIL=
201510170600 AAXX 17064 67855 NIL=
201510161200 AAXX 16124 67855 NIL=
201510151800 AAXX 15184 67855 NIL=
201510141200 AAXX 14124 67855 41960 10202 10380 20128 3//// 48/// 70500 81100
                   333 5//// 81850=
201510140600 AAXX 14064 67855 31960 00305 10284 20108 3//// 48/// 70500
                   333 10193 5////=
201510131800 AAXX 13184 67855 NIL=
201510131200 AAXX 13124 67855 41760 10705 10376 20110 3//// 48/// 70511 81130
                   333 5//// 81850=
201510130600 AAXX 13064 67855 31960 40105 10276 20111 3//// 48/// 70511 84030
                   333 20226 5//// 84360=
201510121800 AAXX 12184 67855 NIL=
201510121200 AAXX 12124 67855 41760 13603 10370 20115 3//// 48/// 70500 81100
                   333 5//// 81850=
201510120600 AAXX 12064 67855 31960 00605 10270 20068 3//// 48/// 70500
                   333 20210 5////=
201510111800 AAXX 11184 67855 NIL=
201510111200 AAXX 11124 67855 41960 01103 10388 20081 3//// 48/// 70500
                   333 5////=
201510110600 AAXX 11064 67855 31960 00000 10244 20047 3//// 48/// 70500
                   333 20175 5////=
201510101800 AAXX 10184 67855 NIL=
201510101200 AAXX 10124 67855 41960 00604 10372 20060 3//// 48/// 70500
                   333 5////=
201510100600 AAXX 10064 67855 31960 00304 10228 20045 3//// 48/// 70500
                   333 20145 5////=
201510091800 AAXX 09184 67855 NIL=
201510091200 AAXX 09124 67855 NIL=
201510090600 AAXX 09064 67855 31970 00901 10260 20023 3//// 48/// 70500
                   333 20145 5////=
201510081800 AAXX 08184 67855 NIL=
201510081200 AAXX 08124 67855 41960 01404 10374 20020 3//// 48/// 70500
                   333 5////=
201510080600 AAXX 08064 67855 31970 00604 10246 20035 3//// 48/// 70500
                   333 20116 5////=
201510071200 AAXX 07124 67855 41960 00803 10370 20055 3//// 48/// 70500
                   333 5////=
201510070600 AAXX 07064 67855 31970 00903 10294 20085 3//// 48/// 70500
                   333 20120 5////=
201510061800 AAXX 06184 67855 NIL=
201510061200 AAXX 06124 67855 NIL=
201510060600 AAXX 06064 67855 31970 00601 10246 20065 3//// 48/// 70500
                   333 20166 5////=
201510051800 AAXX 05184 67855 NIL=
201510051200 AAXX 05124 67855 41770 10603 10362 20096 3//// 48/// 70500 81100
                   333 5//// 81850=
201510050600 AAXX 05064 67855 32975 10703 10248 20088 3//// 48/// 80001
                   333 20180 5//// 81080=
201510041800 AAXX 04184 67855 NIL=
201510041200 AAXX 04124 67855 41770 41702 10366 20093 3//// 48/// 70500 81102
                   333 5//// 81850 84080=
201510040600 AAXX 04064 67855 32975 20602 10244 20134 3//// 48/// 80001
                   333 20172 5//// 82080=
201510031800 AAXX 03184 67855 NIL=
201510031200 AAXX 03124 67855 42675 50302 10354 20089 3//// 48/// 85200
                   333 5//// 85840=
201510030600 AAXX 03064 67855 12975 00000 10214 20127 3//// 48/// 60014
                   333 20143 5////=
201510021800 AAXX 02184 67855 NIL=
201510020600 AAXX 02064 67855 NIL=
201510011800 AAXX 01184 67855 NIL=
201510011200 AAXX 01124 67855 NIL=
201510010600 AAXX 01064 67855 NIL=
