################################################################################
# Query made at 04/14/2022 12:11:37 UTC
# Country like Zamb*
# Time interval: from 03/01/2013 05:30  to 03/31/2013 06:30  UTC
################################################################################

################################################################################
#  SYNOPS from 67599, Mfuwe (Zambia) | 13-16S | 031-56E | 568 m
################################################################################
201303160600 AAXX 16064 67599 32980 30000 10230 20216 48555 70100 82032
                   333 10315 20200 59005 82360 82080
                   555 00200 20026 91020=
201303070900 AAXX 07094 67599 42580 50000 10306 20234 48553 70322 84202
                   333 59010 84820 85080 91017=

################################################################################
#  SYNOPS from 67665, Lusaka Internationalairport (Zambia) | 15-19S | 028-27E | 1152 m
################################################################################
201303310600 AAXX 31064 67665 32980 01007 10178 20141 48546 70200
                   333 10289 20126 58003 555=
201303301800 AAXX 30184 67665 42980 10904 10203 20187 48527 81030
                   333 10284 59009 81360=
201303301500 AAXX 30154 67665 42680 30610 10261 20211 48527 83130
                   333 59016 83848 81360=
201303301200 AAXX 30124 67665 42680 50910 10263 20205 48535 85100
                   333 59018 85838=
201303300900 AAXX 30094 67665 42580 40713 10240 20203 48552 84500
                   333 59010 84625=
201303300600 AAXX 30064 67665 32480 11109 10174 20150 48542 81500
                   333 10265 20130 59015 81610=
201303291800 AAXX 29184 67665 42980 11404 10195 20180 48535 81030
                   333 59005 81360=
201303290600 AAXX 29064 67665 32480 11106 10178 20153 48538 81100
                   333 10274 20132 58001 81815=
201303290300 AAXX 29034 67665 42980 11204 10168 20160 48544 81030
                   333 59006 81360 91022=
201303290000 AAXX 29004 67665 42980 11503 10165 20156 48534 81030
                   333 59004 81360 91021=
201303282100 AAXX 28214 67665 42980 11502 10181 20165 48542 81030
                   333 59003 91021=
201303281200 AAXX 28124 67665 42580 50906 10262 20196 48550 84230
                   333 58004 84830 82360=
201303280600 AAXX 28064 67665 32480 31012 10184 20166 48557 83530
                   333 10275 20144 58018 83612 81360=
201303271800 AAXX 27184 67665 42980 10000 10204 20176 48535 81030
                   333 10275 59011 81360=
201303271500 AAXX 27154 67665 42780 31206 10254 20195 48532 83230
                   333 58009 83850 81360 91018=
201303271200 AAXX 27124 67665 42680 61010 10256 20197 48546 70222 86200
                   333 58009 86835 91021=
201303270600 AAXX 27064 67665 32380 30910 10194 20187 48550 70300 83500
                   333 10275 20175 58005 83608=
201303262100 AAXX 26214 67665 42980 10902 10188 20173 48537 81030
                   333 58008 81360=
201303261800 AAXX 26184 67665 42980 10904 10210 20186 48528 81030
                   333 10275 58005 81360=
201303261500 AAXX 26154 67665 42780 21008 10254 20183 48524 82100
                   333 58008 82850 555 10275 91018=
201303261200 AAXX 26124 67665 42680 60808 10254 20196 48536 85230
                   333 58008 85835 82360 91020=
201303260900 AAXX 26094 67665 42480 40810 10248 20204 48554 84130
                   333 58011 84820 82360=
201303251800 AAXX 25184 67665 42880 20905 10215 20200 48524 81930
                   333 10291 59001 81957 81360=
201303251500 AAXX 25154 67665 42780 31211 10264 20214 48517 81931
                   333 58001 81950 83360 81080=
201303241800 AAXX 24184 67665 42780 61007 10214 20207 48524 81932
                   333 10286 58008 81956 82360 85080=
201303241200 AAXX 24124 67665 42680 51204 10284 20236 48527 84232
                   333 58003 84840 81360 83080=
201303240900 AAXX 24094 67665 42580 63603 10238 20209 48547 85832
                   333 58007 85825 81627 81360 81080=
201303240600 AAXX 24064 67665 32980 53302 10195 20174 48537 81032
                   333 10286 20140 58010 81360 85080=
201303240300 AAXX 24034 67665 42980 22405 10170 20161 48527 82031
                   333 58009 82360 81080 91018=
201303240000 AAXX 24004 67665 42980 20000 10179 20171 48511 80001
                   333 59002 82080 91018=
201303231200 AAXX 23124 67665 42580 50704 10266 20201 48520 70222 85201
                   333 59005 85830 82080=
201303230600 AAXX 23064 67665 32980 01105 10178 20162 48526 72842
                   333 10269 20120 59012=
201303221800 AAXX 22184 67665 42980 11506 10199 20184 48513 81030
                   333 10269 59018 81360=
201303221500 AAXX 22154 67665 42780 20906 10256 20171 48512 82200
                   333 59022 82850 555 10269 91017=
201303221200 AAXX 22124 67665 42680 41008 10254 20195 48522 84200
                   333 59021 84835 91018=
201303220600 AAXX 22064 67665 32980 10907 10192 20185 48539 82030
                   333 10261 20172 59024 81610 81080=
201303212100 AAXX 21214 67665 42980 10902 10175 20160 48534 81030
                   333 58003 81360=
201303211800 AAXX 21184 67665 42980 11303 10191 20167 48529 81030
                   333 10261 58013 81360=
201303211200 AAXX 21124 67665 42680 51109 10251 20184 48551 85200
                   333 58028 85835=
201303210900 AAXX 21094 67665 42580 61012 10236 20199 48571 70222 86800
                   333 48032 83623 84825 91024=
201303210600 AAXX 21064 67665 12480 40909 10185 20167 48562 60024 70322 83531
                   333 10296 20165 83615 81360 81080
                   555 00/// 91024=
201303201800 AAXX 20184 67665 41780 21304 10207 20199 48519 71300 81930
                   333 10296 58022 81956 82360=
201303201500 AAXX 20154 67665 41680 51006 10246 20217 48516 72982 81932
                   333 58027 81945 84360 82080=
201303201200 AAXX 20124 67665 42680 60908 10277 20197 48525 85230
                   333 58020 81940 85845 83360=
201303200900 AAXX 20094 67665 42580 61011 10245 20217 48541 83830
                   333 58025 81827 83628 85360=
201303200600 AAXX 20064 67665 32980 71002 10205 20190 48529 87080
                   333 10305 20159 58016 87360=
201303191800 AAXX 19184 67665 42780 21708 10223 20193 48499 81931
                   333 10305 81956 81360 81080=
201303191500 AAXX 19154 67665 42780 51412 10240 20195 48488 82932
                   333 59003 82950 83360 83080=
201303191200 AAXX 19124 67665 42680 40605 10285 20180 48500 84200
                   333 59011 84848=
201303190900 AAXX 19094 67665 42680 10702 10264 20207 48517 81030
                   333 59012 81830 81360=
201303190600 AAXX 19064 67665 31960 10203 10205 20187 48513 72844 80002
                   333 10305 20156 59012 81080=
201303190000 AAXX 19004 67665 42980 11501 10194 20178 48507 81030
                   333 59011 81360 91017=
201303182100 AAXX 18214 67665 42980 42980 10000 20193 48512 81030
                   333 59016 81360 91018=
201303181800 AAXX 18184 67665 42980 51603 10232 20202 48510 83032
                   333 59005 83360 85080=
201303181200 AAXX 18124 67665 42688 51105 10283 20219 48510 85202
                   333 59015 84845 83080=
201303180600 AAXX 18064 67665 32980 11402 10203 20185 48524 80002
                   333 10295 20150 59017 81080=
201303180300 AAXX 18034 67665 42980 12101 10183 20169 48497 81030
                   333 59018 81360=
201303171800 AAXX 17184 67665 42980 31504 10210 20200 48512 80002
                   333 10295 59014 83080=
201303171500 AAXX 17154 67665 42680 31404 10286 20161 48514 82201
                   333 59021 81940 83080
                   555 10295 91017=
201303171200 AAXX 17124 67665 42580 51303 10266 20184 48524 85100
                   333 59019 85830 91018=
201303170600 AAXX 17064 67665 11305 70303 10194 20194 48539 60064 74744 877//
                   333 10235 20176 59008 87707=
201303161800 AAXX 16184 67665 42980 31202 10190 20183 48523 82032
                   333 59006 82360 81080=
201303161200 AAXX 16124 67665 41559 73207 10238 20231 48548 78082 8653/
                   333 58013 86620 87359=
201303160900 AAXX 16094 67665 42580 83305 10229 20206 48562 70322 8653/
                   333 58015 86625 87360 91023=
201303160600 AAXX 16064 67665 11360 80904 10189 20184 48546 60054 72842 886//
                   333 10220 20167 58001 88708
                   555 00/// 91022=
201303151800 AAXX 15184 67665 42759 71204 10190 20183 48529 81930
                   333 59006 81956 87359=
201303151200 AAXX 15124 67665 41359 80807 10204 20204 48530 76166 857//
                   333 59003 85706 88618=
201303150900 AAXX 15094 67665 41460 70708 10221 20191 48547 76022 87530
                   333 59005 86613 85360=
201303150600 AAXX 1506/ 67665 12380 71100 10194 20178 48536 69924 87600
                   333 10240 20170 59010 87707=
201303141800 AAXX 14184 67665 42780 70905 10206 20191 48531 81930
                   333 10240 58003 81956 87360=
201303141500 AAXX 14154 67665 42580 60907 10221 20191 48522 82531
                   333 58007 82620 85360 82080=
201303140900 AAXX 14094 67665 42580 70710 10226 20189 48553 86530
                   333 58004 86620 85360=
201303140600 AAXX 1406/ 67665 32380 60908 10197 20174 48547 86630
                   333 10257 20170 59003 81708 86360=
201303140300 AAXX 14034 67665 42980 61104 10183 20166 48525 70322 86030
                   333 58005 86360 91019=
201303132100 AAXX 13214 67665 42980 21504 10194 20178 48539 82030
                   333 59004 82360 91021=
201303131200 AAXX 13124 67665 42580 70906 10254 20178 48533 70222 87800
                   333 59009 86625 84830=
201303130900 AAXX 13094 67665 42580 60908 10235 20182 48549 86800
                   333 59008 86620 83825=
201303130600 AAXX 13064 67665 32480 30909 10187 20163 48544 83531
                   333 10248 20172 59011 83610 81360 81080=
201303121800 AAXX 12184 67665 42980 21302 10194 20171 48536 81031
                   333 10248 59002 81360 81080 91020=
201303121200 AAXX 12124 67665 42680 71010 10236 20199 48540 70322 875//
                   333 58003 87630=
201303120600 AAXX 12064 67665 11358 80910 10192 20192 48548 69904 75055 887//
                   333 10249 20166 59001 88706=
201303112100 AAXX 11214 67665 42980 21002 10179 20179 48542 82030
                   333 58005 82360=
201303111800 AAXX 11184 67665 42680 31103 10185 20176 48534 81931
                   333 10249 58005 81945 83360 81080=
201303111500 AAXX 11154 67665 42680 50904 10219 20193 48519 83231
                   333 58003 83840 82360 81080
                   555 10249 91018=
201303110600 AAXX 11064 67665 31380 71009 10200 20200 48551 60124 8563/
                   333 10238 20182 58017 85708 87359=
201303101800 AAXX 10184 67665 42760 70806 10206 20206 48532 81930
                   333 58007 81950 86359=
201303101500 AAXX 10154 67665 42460 71204 10220 20220 48516 83230
                   333 58017 83830 85359=
201303101200 AAXX 10124 67665 41360 80906 10215 20215 48523 76196 83730
                   333 58007 83709 81930 87359=
201303100900 AAXX 10094 67665 41320 81215 10195 20195 48545 79592 8673/
                   333 58006 85708 81920 86359=
201303100600 AAXX 10064 67665 11/60 81503 10192 20192 48531 60134 76096 8294/
                   333 10301 20174 59003 829// 87459=
201303091800 AAXX 09184 67665 42780 52708 10234 20212 48519 81932
                   333 10301 58014 81956 83360 84080=
201303090900 AAXX 09094 67665 41680 71007 10266 20216 48547 84202
                   333 58012 81930 84830 86280=
201303090600 AAXX 09064 67665 32480 70903 10220 20201 48540 81532
                   333 10304 20176 58008 81615 83360 86280=
201303090300 AAXX 09034 67665 42980 11602 10186 20170 48515 81030
                   333 59002 81360 91018=
201303090000 AAXX 09004 67665 42980 10000 10191 20167 48518 81030
                   333 58009 81360=
201303081200 AAXX 08124 67665 42680 60207 10294 20208 48514 84230
                   333 59004 84840 82360=
201303080900 AAXX 08094 67665 42580 60306 10263 20219 48536 85231
                   333 58000 85825 83360 81080 91020=
201303071800 AAXX 07184 67665 42780 71706 10234 20220 48515 71322 81932
                   333 10304 58001 81956 85360 81080=
201303071500 AAXX 07154 67665 42780 50803 10271 20184 48498 81902
                   333 59009 81950 85280 91015=
201303071200 AAXX 07124 67665 42680 63605 10288 20203 48517 83202
                   333 59012 83835 82080 91017=
201303070600 AAXX 07064 67665 32980 40202 10203 20188 48535 81032
                   333 10291 20165 59014 81360 84080=
201303062100 AAXX 06214 67665 42980 11302 10195 20186 48520 81030
                   333 59020 81360=
201303061800 AAXX 06184 67665 41680 21304 10218 20204 48512 71300 81931
                   333 10291 59023 81950 81360 81080=
201303061500 AAXX 06154 67665 42680 20908 10274 20181 48507 82100
                   333 59016 82845 555 10291 91016=
201303061200 AAXX 06124 67665 42680 61105 10280 20216 48529 86200
                   333 59005 86830 91018=
201303051800 AAXX 05184 67665 42780 31208 10228 20221 48536 81901
                   333 10290 59002 81956 83080=
201303051200 AAXX 05124 67665 42680 60807 10280 20216 48540 85231
                   333 59007 85840 82360 81080=
201303050900 AAXX 05094 67665 42580 70809 10245 20209 48557 86830
                   333 59008 82825 85627 81360=
201303050600 AAXX 05064 67665 32580 60910 10190 48559 86531
                   333 10271 20170 58009 85612 82360 82080=
201303041800 AAXX 04184 67665 42780 41504 10221 20206 48537 81931
                   333 10271 59003 81956 82360 83080=
201303040900 AAXX 04094 67665 42580 70809 10250 20221 48565 87800
                   333 58005 82825 86627=
201303030900 AAXX 03094 67665 60710 10247 20187 48560 86500
                   333 58016 86620 91022=
201303030600 AAXX 03064 67665 12380 40908 10120 20190 48550 69904 83632
                   333 10285 20174 58002 83707 81360 82080
                   555 00/// 91022=
201303021800 AAXX 02184 67665 41760 21404 10198 20174 48519 71399 81932
                   333 10285 58019 81956 82360 81080=
201303020600 AAXX 02064 67665 32480 60907 10221 20199 48540 70322 83530
                   333 10308 20191 58020 83615 85360=
201303011800 AAXX 01184 67665 41780 31303 10242 20228 48505 71322 81930
                   333 10308 59013 81956 83360=
201303010600 AAXX 01064 67665 12380 20902 10209 20183 48519 60024 81630
                   333 10296 20183 58000 81709 82360=

################################################################################
#  SYNOPS from 67743, Livingstone (Zambia) | 17-49S | 025-49E | 985 m
################################################################################
201303231500 AAXX 23154 67743 42880 31004 10313 20134 48503 83100
                   333 59006 83858 555 10329 91014=
201303050600 AAXX 05064 67743 12580 31007 10215 20185 48553 69904 81530
                   333 10319 20//0 59002 81625 83360=
201303020600 AAXX 02064 67743 32980 10907 10230 20166 48528 81030
                   333 10348 20//0 58020 81360=

################################################################################
#  SYNOPS from 67855, Lupaki (Zambia) | 17-03-00S | 024-46-00E | 1000 m
################################################################################
201303310600 AAXX 31064 67855 32980 01405 10204 20133 3//// 48///
                   333 20170 5////=
201303301800 AAXX 30184 67855 NIL=
201303301200 AAXX 30124 67855 NIL=
201303300600 AAXX 30064 67855 NIL=
201303291800 AAXX 29184 67855 NIL=
201303291200 AAXX 29124 67855 NIL=
201303290600 AAXX 29064 67855 32980 00607 10192 20139 3//// 48///
                   333 20121 5////=
201303281800 AAXX 28184 67855 NIL=
201303281200 AAXX 28124 67855 NIL=
201303280600 AAXX 28064 67855 32980 10206 10200 20136 38/// 48/// 81030
                   333 20145 5//// 81360=
201303271800 AAXX 27184 67855 NIL=
201303271200 AAXX 27124 67855 NIL=
201303270600 AAXX 27064 67855 32980 00202 10196 20101 38/// 48///
                   333 20124 5////=
201303261800 AAXX 26184 67855 NIL=
201303261200 AAXX 26124 67855 NIL=
201303260600 AAXX 26064 67855 NIL=
201303251800 AAXX 25184 67855 NIL=
201303251200 AAXX 25124 67855 NIL=
201303250600 AAXX 25064 67855 32975 00401 10187 20146 38/// 48///
                   333 20124 5////=
201303241200 AAXX 24124 67855 NIL=
201303240600 AAXX 24064 67855 32975 00000 10187 20147 3//// 48///
                   333 20129 5////=
201303231200 AAXX 23124 67855 NIL=
201303230600 AAXX 23064 67855 32980 00000 10183 20146 38/// 48///
                   333 20123 5////=
201303221800 AAXX 22184 67855 NIL=
201303221200 AAXX 22124 67855 42775 30601 10212 20141 38/// 48/// 83100
                   333 5//// 83856=
201303220600 AAXX 22064 67855 32975 00301 10195 20150 3//// 48///
                   333 20131 5////=
201303211200 AAXX 21124 67855 NIL=
201303210600 AAXX 21064 67855 32975 00903 10187 20133 3//// 48///
                   333 20130 5////=
201303201200 AAXX 20124 67855 42875 20703 10334 20128 3//// 48/// 82100
                   333 5//// 82857=
201303200600 AAXX 20064 67855 32975 00000 10205 20174 38/// 48///
                   333 20160 5////=
201303191200 AAXX 19124 67855 NIL=
201303190600 AAXX 19064 67855 32975 00000 10210 20176 38/// 48///
                   333 20149 5////=
201303181800 AAXX 18184 67855 NIL=
201303181200 AAXX 18124 67855 42875 23002 10349 20153 38/// 48/// 82100
                   333 5//// 82856=
201303180600 AAXX 18064 67855 32475 70000 10203 20180 3//// 48/// 8167/
                   333 20130 5//// 81710 87460=
201303171800 AAXX 17184 67855 NIL=
201303171200 AAXX 17124 67855 42775 10000 10341 20143 3//// 48/// 81101
                   333 5//// 81856=
201303170600 AAXX 17064 67855 32975 10000 10193 20176 3//// 48/// 80001
                   333 20121 5//// 81080=
201303161800 AAXX 16184 67855 NIL=
201303161200 AAXX 16124 67855 NIL=
201303160600 AAXX 16064 67855 32975 00000 10192 20173 3//// 48///
                   333 20134 5////=
201303151800 AAXX 15184 67855 NIL=
201303151200 AAXX 15124 67855 42775 50000 10282 20158 3//// 48/// 85260
                   333 5//// 85850=
201303150600 AAXX 15064 67855 32475 11303 10172 20116 38/// 48/// 81630
                   333 20126 5//// 81710=
201303141200 AAXX 14124 67855 42775 22801 10291 20142 38/// 48/// 82100
                   333 5//// 81250=
201303140600 AAXX 14064 67855 32975 00404 10177 20131 3//// 48///
                   333 20116 5////=
201303131800 AAXX 13184 67855 NIL=
201303131200 AAXX 13124 67855 42775 40000 10297 20133 3//// 48/// 81101
                   333 5//// 81850 84080=
201303130600 AAXX 13064 67855 32975 10702 10160 20120 38/// 48/// 81031
                   333 20100 5//// 81360=
201303121800 AAXX 12184 67855 NIL=
201303121200 AAXX 12124 67855 NIL=
201303111200 AAXX 11124 67855 NIL=
201303110600 AAXX 11064 67855 32475 71001 10212 20162 3//// 48/// 81672
                   333 20186 5//// 81710 86360=
201303101800 AAXX 10184 67855 NIL=
201303101200 AAXX 10124 67855 NIL=
201303100600 AAXX 10064 67855 11980 61301 10216 20189 38/// 48/// 69904 72162 86070
                   333 20172 5//// 86459=
201303091800 AAXX 09184 67855 NIL=
201303090600 AAXX 09064 67855 12980 23601 10204 20195 3//// 48/// 60064 82030
                   333 20188 5//// 82360=
201303081800 AAXX 08184 67855 NIL=
201303081200 AAXX 08124 67855 42680 53602 10328 20183 3//// 48/// 85230
                   333 5//// 85840 83360=
201303080600 AAXX 08064 67855 12980 23601 10206 20176 38/// 48/// 69904 82030
                   333 20184 5//// 82360=
201303071800 AAXX 07184 67855 NIL=
201303071200 AAXX 07124 67855 41670 43603 10330 20194 38/// 48/// 71792 84233
                   333 5//// 81925 83830=
201303070600 AAXX 07064 67855 11970 10701 10208 20197 3//// 48/// 60024 70500 81030
                   333 20180 5//// 81360=
201303061200 AAXX 06124 67855 NIL=
201303060600 AAXX 06064 67855 12380 30301 10216 20193 3//// 48/// 69904 83600
                   333 20176 5//// 83707=
201303051200 AAXX 05124 67855 42680 52801 10302 20183 3//// 48/// 85200
                   333 5//// 85840=
201303050600 AAXX 05064 67855 12380 42001 10214 20185 38/// 48/// 69904 83670
                   333 20190 5//// 83707 84459=
201303041200 AAXX 04124 67855 42680 51103 10290 20188 38/// 48/// 82271
                   333 5//// 82830 85459=
201303040600 AAXX 04064 67855 12380 60603 10210 20174 3//// 48/// 69904 86070
                   333 20178 5//// 86459=
201303031800 AAXX 03184 67855 NIL=
201303031200 AAXX 03124 67855 42680 40000 10298 20193 3//// 48/// 84231
                   333 5//// 84840=
201303030600 AAXX 03064 67855 12350 10602 10204 20182 38/// 48/// 60334 81601
                   333 20170 5//// 81707=
201303021200 AAXX 02124 67855 41670 63602 10312 20188 38/// 48/// 71792 86233
                   333 5//// 81925 85830=
201303020600 AAXX 02064 67855 32980 62003 10214 20162 3//// 48/// 86070
                   333 20180 5//// 86459=
201303011200 AAXX 01124 67855 42680 42701 10330 20145 3//// 48/// 84200
                   333 5//// 84840=
201303010600 AAXX 01064 67855 32980 01102 10218 20170 3//// 48///
                   333 20160 5////=
