################################################################################
# Query made at 04/14/2022 03:47:42 UTC
# Country like Zamb*
# Time interval: from 12/01/2016 05:30  to 12/31/2016 06:30  UTC
################################################################################

################################################################################
#  SYNOPS from 67403, Kawambwa (Zambia) | 09-48S | 029-05E | 1323 m
################################################################################
201612300600 AAXX 30064 67403 11480 52701 10215 20187 48525 60014 82530
                   333 10290 20176 59002 82610 85360
                   555 00176=
201612280600 AAXX 28064 67403 12980 62702 10207 20180 48518 60044 85031
                   333 10318 20179 58011 86360 82080
                   555 00172=
201612271200 AAXX 27124 67403 NIL=
201612230600 AAXX 23064 67403 12980 20905 10227 20189 48508 60064 82031
                   333 10295 20170 59009 82360 81080
                   555 00168=
201612220600 AAXX 22064 67403 12980 82701 10194 20177 48515 60034 8703/
                   333 10249 20166 58004 87360
                   555 00172=
201612210600 AAXX 21064 67403 11480 82703 10212 20202 48512 60334 70222 8553/
                   333 10266 20177 58006 85610 87360
                   555 00187=
201612200900 AAXX 20094 67403 NIL=
201612200600 AAXX 20064 67403 11475 72702 10214 20194 48506 60094 70222 8253/
                   333 10282 20188 58000 82612 87360
                   555 00198=
201612190600 AAXX 19064 67403 32980 52701 10223 20191 48507 85031
                   333 10288 20186 59022 85360 81080
                   555 00196=
201612160600 AAXX 16064 67403 12980 70801 10204 20183 48531 69914 87030
                   333 10269 20180 58000 87360
                   555 00192=
201612150600 AAXX 15064 67403 11970 82701 10185 20178 48530 60124 76166 8807/
                   333 10257 20172 58003 88360
                   555 00176=
201612140600 AAXX 14064 67403 11720 80000 10179 20176 48527 60094 79596 8197/
                   333 10292 20176 58017 81957 87359
                   555 00189=
201612120600 AAXX 12064 67403 12980 21201 10323 20162 48516 69934 82030
                   333 10//0 20176 59008 82360
                   555 00198=
201612080600 AAXX 08064 67403 11980 80903 10173 20164 48543 60044 70262 8703/
                   333 10264 20170 58014 87360
                   555 00194=
201612071500 AAXX 07154 67403 NIL=
201612070600 AAXX 07064 67403 11475 80901 10191 20178 48530 60114 72162 8453/
                   333 10259 20176 58012 84610 88360
                   555 00196=
201612060600 AAXX 06064 67403 12980 50902 10205 20174 48519 60084 84032
                   333 10272 20175 85360 82080
                   555 00191=
201612020600 AAXX 02064 67403 11475 70902 10207 20183 48518 60154 70362 84530
                   333 10288 20178 59005 84612 86360
                   555 00182=
201612010600 AAXX 01064 67403 11375 60902 10197 20182 48523 60194 70362 81531
                   333 10298 20173 59002 81610 86360 82080
                   555 00176=

################################################################################
#  SYNOPS from 67413, Mbala (Zambia) | 08-51S | 031-20E | 1673 m
################################################################################
201612300600 AAXX 30064 67413 12980 60000 10195 20175 48543 60034 82032
                   333 10245 20160 58004 82360 86080
                   555 00/// 91025=
201612280600 AAXX 28064 67413 12480 70903 10210 20163 48537 60074 82130
                   333 10290 20160 58012 82818 87358
                   555 00/// 91024=
201612271200 AAXX 27124 67413 NIL=
201612230600 AAXX 23064 67413 32980 50907 10200 20160 48/// 85030
                   333 10270 20168 5//// 85460=
201612220600 AAXX 22064 67413 12980 51209 10180 20164 48533 60114 83032
                   333 10245 20150 59006 83360 85080 91023=
201612200900 AAXX 20094 67413 NIL=
201612150600 AAXX 15064 67413 NIL=
201612140600 AAXX 14064 67413 NIL=
201612071500 AAXX 07154 67413 NIL=
201612060600 AAXX 06064 67413 11980 82801 10175 20159 48539 60164 75052 8807/
                   333 10260 20165 58005 88457
                   555 00/// 91024=
201612020600 AAXX 02064 67413 NIL=

################################################################################
#  SYNOPS from 67441, Mwinilunga (Zambia) | 11-45S | 024-26E | 1361 m
################################################################################
201612271200 AAXX 27124 67441 NIL=
201612230600 AAXX 23064 67441 11460 62301 10195 20187 48/// 60024 70522 83110
                   333 10300 20170 5//// 83820 83460
                   555 00175=
201612220600 AAXX 22064 67441 31965 80401 10195 20187 48/// 70522 8802/
                   333 10260 20175 5//// 88465
                   555 00160=
201612200900 AAXX 20094 67441 NIL=
201612200600 AAXX 20064 67441 11960 80301 10190 20181 48/// 60024 70522 8801/
                   333 10315 20165 5//// 88460
                   555 00160=
201612150600 AAXX 15064 67441 NIL=
201612140600 AAXX 14064 67441 NIL=
201612120600 AAXX 12064 67441 11465 30301 10200 20177 48/// 69904 70511 83100
                   333 10270 20160 5//// 83820
                   555 00200=
201612071500 AAXX 07154 67441 NIL=
201612020600 AAXX 02064 67441 NIL=

################################################################################
#  SYNOPS from 67461, Mansa (Zambia) | 11-06S | 028-51E | 1382 m
################################################################################
201612300600 AAXX 30064 67461 12980 70000 10215 20160 48518 60554 87030
                   333 10308 20170 58010 87360
                   555 00189 91019=
201612280600 AAXX 28064 67461 12980 70000 10200 20183 48507 60064 8707/
                   333 10299 20180 59010 87360
                   555 00190 20027 91018=
201612271200 AAXX 27124 67461 NIL=
201612230600 AAXX 23064 67461 32980 30902 10228 20190 48516 83030
                   333 10293 20171 59014 83360
                   555 00172 91018=
201612220600 AAXX 22064 67461 11480 70000 10190 20180 48527 60034 72842 8457/
                   333 10276 20166 58015 84610 87460
                   555 00170 91020=
201612210600 AAXX 21064 67461 12580 70000 10206 20193 48/// 8357/
                   333 10269 20182 58029 83620 87460
                   555 00183 91018=
201612200900 AAXX 20094 67461 NIL=
201612200600 AAXX 20064 67461 12580 70902 10201 20195 48486 60174 8157/
                   333 10310 20190 59010 81620 87360
                   555 00180 91015=
201612150600 AAXX 15064 67461 12480 71603 10200 20179 48536 60344 8157/
                   333 10277 20180 58005 81615 87460
                   555 00189 91021=
201612140600 AAXX 14064 67461 12480 71403 10195 20180 48530 60054 8157/
                   333 10299 20176 58018 81612 87460
                   555 00176 91020=
201612120600 AAXX 12064 67461 32980 10000 10228 20170 48517 80001
                   333 10297 20168 59011 81080
                   555 00158 91018=
201612071500 AAXX 07154 67461 NIL=
201612020600 AAXX 02064 67461 NIL=
201612010600 AAXX 01064 67461 12480 70000 10191 20177 48530 60454 8157/
                   333 10304 20176 58024 81617 87460
                   555 00182 91020=

################################################################################
#  SYNOPS from 67475, Kasama (Zambia) | 10-13S | 031-08E | 1382 m
################################################################################
201612300600 AAXX 30064 67475 12360 63602 10199 20181 48/// 60494 8267/
                   333 10292 20166 5//// 82705 86360
                   555 00186 9////=
201612271200 AAXX 27124 67475 NIL=
201612230600 AAXX 23064 67475 NIL=
201612220600 AAXX 22064 67475 12960 80000 10196 20179 48529 69904 70222 83047
                   333 10278 20169 58007 83360 88280
                   555 00172 91021=
201612210600 AAXX 21064 67475 11640 83607 10175 20172 48521 60204 72999 8327/
                   333 10278 20163 59002 81930 82830 88460
                   555 00170 91020=
201612200900 AAXX 20094 67475 NIL=
201612200600 AAXX 20064 67475 11240 80405 10174 20174 48522 60054 76322 8377/
                   333 10304 20173 58007 83705 819// 88460
                   555 00173 91020=
201612190600 AAXX 19064 67475 12560 50701 10202 20187 48517 69904 70322 83238
                   333 10280 20170 59007 83820 83360 85280
                   555 00170 91019=
201612160600 AAXX 16064 67475 12360 63404 10186 20172 48538 60284 81672
                   333 10274 20149 58000 81307 86360 82080
                   555 00/// 91022=
201612150600 AAXX 15064 67475 11260 72508 10183 20170 48538 60294 70282 8477/
                   333 10288 20165 58010 84705 87360
                   555 00178 91022=
201612141200 AAXX 14124 67475 41760 71592 10//0 20//0 84278
                   333 58009 81950 83850 81461 87280 91017=
201612140600 AAXX 14064 67475 12460 61612 10191 20182 48528 60054 865//
                   333 10304 20170 58010 865//
                   555 00182 91021=
201612120600 AAXX 12064 67475 12560 20605 10205 20176 48530 60074 81101
                   333 10286 20153 59005 81820 82080
                   555 00158 91021=
201612080600 AAXX 08064 67475 11358 80000 10169 20169 48553 60054 76166 8677/
                   333 10230 20162 58017 86707 88460
                   555 00170 91024=
201612071500 AAXX 07154 67475 NIL=
201612070600 AAXX 07064 67475 12480 70000 10178 20173 48537 875//
                   333 10251 20165 58006 87615
                   555 00174 91022=
201612060600 AAXX 06064 67475 12359 80000 10181 20175 48531 60054 71542 8667/
                   333 10306 20168 58010 86708 88460
                   555 00172 91021=
201612051200 AAXX 05124 67475 41760 70000 10287 20164 48481 72992 8427/
                   333 59031 81950 83850 86460 91015=
201612050900 AAXX 05094 67475 42660 70404 10265 20163 48518 70322 84278
                   333 59012 84835 82361 87280 91019=
201612020600 AAXX 02064 67475 NIL=

################################################################################
#  SYNOPS from 67476, Misamfu (Zambia) | 10-06S | 031-15E | 1536 m
################################################################################
201612271200 AAXX 27124 67476 NIL=
201612230600 AAXX 23064 67476 32980 30000 10224 20185 48/// 83031
                   333 10280 20173 59010 83360 81080
                   555 00166=
201612220600 AAXX 22064 67476 12980 70000 10197 20176 48/// 69904 81038
                   333 10271 20170 58024 81359 87280
                   555 00168=
201612210600 AAXX 21064 67476 11965 83303 10193 20173 48/// 60254 72166 8807/
                   333 10270 20166 59020 88459
                   555 00164=
201612200900 AAXX 20094 67476 NIL=
201612200600 AAXX 20064 67476 11930 80000 10176 20170 48/// 60084 76362 8807/
                   333 10285 20173 58009 88459
                   555 00178=
201612190600 AAXX 19064 67476 12980 40000 10200 20185 48/// 69904 84008
                   333 10282 20157 5//// 84080
                   555 00138=
201612150600 AAXX 15064 67476 NIL=
201612140600 AAXX 14064 67476 12580 31003 10220 20165 48/// 60044 82130
                   333 10295 20175 58013 82823 82360
                   555 00170=
201612080600 AAXX 08064 67476 11360 80000 10175 20171 48/// 60114 76166 8567/
                   333 10250 20166 58016 85709 88459
                   555 00166=
201612071500 AAXX 07154 67476 NIL=
201612060600 AAXX 06064 67476 11463 82002 10184 20175 48/// 60054 71022 8467/
                   333 10298 20172 58007 84712 88459
                   555 00168=
201612020600 AAXX 02064 67476 11476 80302 10185 20173 48/// 60174 71022 8367/
                   333 10282 20172 59008 83710 88459
                   555 00171=

################################################################################
#  SYNOPS from 67477, Mpika (Zambia) | 11-54S | 031-26E | 1400 m
################################################################################
201612300600 AAXX 30064 67477 12980 50902 10218 20140 48535 60144 85030
                   333 10276 20172 58002 85358
                   555 00180=
201612280600 AAXX 28064 67477 32480 40906 10228 20130 48525 81101
                   333 10292 20172 58005 81812 84080
                   555 00165=
201612271200 AAXX 27124 67477 NIL=
201612230600 AAXX 23064 67477 32480 20000 10241 20150 48525 82100
                   333 10278 20178 59009 82810
                   555 00162=
201612220600 AAXX 22064 67477 12980 70000 10212 20162 48533 60254 87070
                   333 10263 20167 58014 87459
                   555 00170=
201612210600 AAXX 21064 67477 12480 60000 10230 20180 48518 69904 83170
                   333 10260 20172 59002 83801 85459
                   555 00178=
201612200900 AAXX 20094 67477 NIL=
201612200600 AAXX 20064 67477 11980 80000 10181 20180 48521 60064 76061 8807/
                   333 10272 20172 58001 88459
                   555 00180=
201612160600 AAXX 16064 67477 32980 70000 10217 20160 48541 8703/
                   333 10260 20176 58003 87459
                   555 00158=
201612150600 AAXX 15064 67477 NIL=
201612140600 AAXX 14064 67477 11460 80000 10198 20167 48539 60024 74042 8457/
                   333 10299 20162 58016 84610 85460
                   555 00158=
201612120600 AAXX 12064 67477 12480 41203 10//0 20120 48532 69904 81101
                   333 10292 20177 59004 81810 84080
                   555 00168=
201612080600 AAXX 08064 67477 11480 80000 10188 20169 48560 60114 72122 8457/
                   333 10254 20162 58017 84610 86459=
201612071500 AAXX 07154 67477 NIL=
201612060600 AAXX 06064 67477 12480 50000 10218 20130 48529 69904 84530
                   333 10301 20173 58002 84612 82359
                   555 00156=
201612020600 AAXX 02064 67477 12980 30000 10238 20140 48533 69904 82031
                   333 10305 20152 59009 82359 82080
                   555 00158=
201612010600 AAXX 01064 67477 12480 70000 10193 20130 48542 60014 8257/
                   333 10303 20178 58011 82612 86459
                   555 00170=

################################################################################
#  SYNOPS from 67481, Isoka (Zambia) | 10-07S | 032-38E | 1360 m
################################################################################
201612280600 AAXX 28064 67481 12480 52401 10212 20194 48/// 69924 81131
                   333 10299 20178 59001 81810 82360 85080
                   555 00///=
201612271200 AAXX 27124 67481 NIL=
201612230600 AAXX 23064 67481 12980 10602 10232 20184 48/// 60014 81050
                   333 10284 20174 59015 81361
                   555 00160=
201612220600 AAXX 22064 67481 12480 72703 10190 20170 48/// 60104 8255/
                   333 10300 20182 58016 82610 87360
                   555 00172=
201612210600 AAXX 21064 67481 32480 52002 10204 20192 48/// 81131
                   333 10268 20185 5//// 81810 84360 83080
                   555 00176=
201612200900 AAXX 20094 67481 NIL=
201612200600 AAXX 20064 67481 12980 72102 10196 20186 48/// 60904 8707/
                   333 10304 20180 5//// 87460=
201612190600 AAXX 19064 67481 11480 62102 10204 20190 48/// 60084 72864 81130
                   333 10282 20186 5//// 81810 86360
                   555 00165=
201612160600 AAXX 16064 67481 12480 60302 10217 20183 48/// 69904 81230
                   333 10253 20166 5//// 81813 86361
                   555 00158=
201612150600 AAXX 15064 67481 12480 81702 10222 20178 48/// 60014 8527/
                   333 10296 20188 58010 82619 88460
                   555 00180=
201612140600 AAXX 14064 67481 32480 60904 10200 20184 48/// 85550
                   333 10300 20190 58007 85610 82361
                   555 00190=
201612120600 AAXX 12064 67481 32580 10902 10232 20187 48/// 81100
                   333 10256 20172 59004 81825
                   555 00160=
201612090600 AAXX 09064 67481 12480 60908 10200 20185 48/// 61514 83550
                   333 10250 20160 5//// 83610 85310
                   555 00155=
201612080600 AAXX 08064 67481 12480 80000 10200 20179 48/// 60304 8227/
                   333 10290 20160 5//// 82810 88360
                   555 00160=
201612071500 AAXX 07154 67481 NIL=
201612070600 AAXX 07064 67481 11480 80000 10190 20190 48/// 60184 72166 8357/
                   333 10246 20180 5//// 83610 88460
                   555 00180=
201612060600 AAXX 06064 67481 12480 80903 10190 20177 48/// 60254 8557/
                   333 10290 20180 85610 88460
                   555 00180=
201612020600 AAXX 02064 67481 12980 70303 10194 20182 48/// 60014 87080
                   333 10290 20150 5//// 87361
                   555 00160=
201612010600 AAXX 01064 67481 12480 62703 10226 20176 48/// 69904 82280
                   333 10325 20190 58010 82818 86361
                   555 00190=

################################################################################
#  SYNOPS from 67531, Zambezi (Zambia) | 13-32S | 023-07E | 1077 m
################################################################################
201612271200 AAXX 27124 67531 NIL=
201612230600 AAXX 23064 67531 12980 30904 10226 20190 48/// 60034 70200 82031
                   333 10301 20186 59004 82362 81080
                   555 00189=
201612220600 AAXX 22064 67531 12480 70403 10221 20200 48/// 60184 70222 83532
                   333 10240 20194 58012 83610 86361 82080=
201612210600 AAXX 21064 67531 11375 80402 10200 20194 48/// 60094 76166 8477/
                   333 10305 20192 58011 84706 88460=
201612200900 AAXX 20094 67531 NIL=
201612200600 AAXX 20064 67531 12380 70000 10211 20202 48/// 60204 70222 8367/
                   333 10285 20186 59025 83707 87361=
201612190600 AAXX 19064 67531 11380 80302 10206 20196 48/// 60314 72166 8567/
                   333 10315 20186 59002 85708 88460
                   555 00190=
201612160600 AAXX 16064 67531 12980 50000 10236 20202 48/// 60024 83032
                   333 10315 20201 58001 83361 85280=
201612150600 AAXX 15064 67531 NIL=
201612140600 AAXX 14064 67531 NIL=
201612120600 AAXX 12064 67531 11380 70000 10201 20185 48/// 60284 71792 8267/
                   333 10297 20183 58006 81706 81608 87460
                   555 00190=
201612080600 AAXX 08064 67531 12380 70000 10210 20196 48/// 69934 70222 8467/
                   333 10300 20180 58013 84706 86361=
201612071500 AAXX 07154 67531 NIL=
201612020600 AAXX 02064 67531 12980 10000 10227 20140 48/// 69944 81070
                   333 10300 20168 59024 81361
                   555 00170=
201612010600 AAXX 01064 67531 12980 53002 10230 20186 48/// 60014 85030
                   333 10264 20175 59008 85361
                   555 00190=

################################################################################
#  SYNOPS from 67541, Kasempa (Zambia) | 13-32S | 025-51E | 1234 m
################################################################################
201612271200 AAXX 27124 67541 NIL=
201612230600 AAXX 23064 67541 NIL=
201612220600 AAXX 22064 67541 NIL=
201612200900 AAXX 20094 67541 NIL=
201612150600 AAXX 15064 67541 NIL=
201612140600 AAXX 14064 67541 NIL=
201612090600 AAXX 09064 67541 12980 10404 10210 20187 48518 60074 70222 81030
                   333 10285 20158 58007 81360=
201612080600 AAXX 08064 67541 12980 70403 10190 20179 48525 60034 70222 87030
                   333 10280 20170 58004 87360=
201612071500 AAXX 07154 67541 NIL=
201612020600 AAXX 02064 67541 12980 20303 10213 20190 48512 60014 70222 82030
                   333 10290 20168 59017 82360=

################################################################################
#  SYNOPS from 67543, Kabompo (Zambia) | 13-36S | 024-12E | 1075 m
################################################################################
201612271200 AAXX 27124 67543 NIL=
201612230600 AAXX 23064 67543 NIL=
201612220600 AAXX 22064 67543 NIL=
201612200900 AAXX 20094 67543 NIL=
201612150600 AAXX 15064 67543 NIL=
201612140600 AAXX 14064 67543 NIL=
201612080600 AAXX 08064 67543 11480 70000 10204 20183 48/// 69904 72999 8731/
                   333 10304 20194 5//// 81912 83612 87460
                   555 00130=
201612071500 AAXX 07154 67543 NIL=
201612070600 AAXX 07064 67543 12380 70000 10207 20185 48/// 60314 8563/
                   333 10306 20172 5//// 85708 87360
                   555 00158=
201612060600 AAXX 06064 67543 32478 70000 10218 20183 48/// 84530
                   333 10346 20/// 5//// 84610 87360
                   555 00166=
201612020600 AAXX 02064 67543 12980 30000 10224 20183 48/// 69904 81035
                   333 10312 20186 5//// 81360 83280
                   555 00158=

################################################################################
#  SYNOPS from 67551, Solwezi (Zambia) | 12-11S | 026-23E | 1386 m
################################################################################
201612271200 AAXX 27124 67551 NIL=
201612230600 AAXX 23064 67551 32980 71003 10217 20184 48514 86030
                   333 10280 20174 59009 86362
                   555 00241 91019=
201612220600 AAXX 22064 67551 12370 71203 10177 20173 48528 60124 8667/
                   333 10274 20169 58011 86704 87367
                   555 00210 91020=
201612200900 AAXX 20094 67551 NIL=
201612150600 AAXX 15064 67551 12475 61003 10206 20182 48534 60044 82530
                   333 10226 20178 58006 82610 84362
                   555 00225 91021=
201612140600 AAXX 14064 67551 11356 73303 10182 20180 48535 60114 79696 8197/
                   333 10286 20173 59006 81906 87362
                   555 00200 91020=
201612090600 AAXX 09064 67551 11380 73503 10180 20173 48530 60034 76066 8157/
                   333 10254 20170 59012 81610 87362
                   555 00210 91020=
201612071500 AAXX 07154 67551 NIL=
201612060600 AAXX 06064 67551 11475 71203 10//0 20177 48525 69904 85530
                   333 10298 20172 58004 85610 87360
                   555 00249 91020=
201612020600 AAXX 02064 67551 NIL=

################################################################################
#  SYNOPS from 67561, Ndola (Zambia) | 13-00S | 028-39E | 1269 m
################################################################################
201612280600 AAXX 28064 67561 11560 50605 10221 20182 48523 69904 70562 82568
                   333 10//0 20182 58006 82625 83360 85280
                   555 00/// 91019=
201612271200 AAXX 27124 67561 NIL=
201612261200 AAXX 26124 67561 41660 70211 10237 20176 48512 79599 87200
                   333 58027 82706 81935 86840
                   555 66053 77/// 8877/ 98023 91018=
201612260600 AAXX 26064 67561 11360 62205 10213 20186 48533 60024 70592 8263/
                   333 10317 20176 58022 82705 86360
                   555 00/// 91021=
201612231200 AAXX 23124 67561 41670 61105 10297 20191 48500 70522 86202
                   333 59011 81930 86825 82080
                   555 66011 77063 8877/ 98021 91016=
201612230600 AAXX 23064 67561 11959 60000 10235 20181 48522 60024 70542 82038
                   333 10298 20176 59011 82360 86280 91019=
201612220600 AAXX 22064 67561 11358 70000 10191 20177 48530 6///4 74244 83638
                   333 10266 20167 58019 83705 84360 85280 91020=
201612210600 AAXX 21064 67561 11265 73103 10206 2//// 48512 60014 70522 83632
                   333 10275 20191 58001 83705 87360 81080 91018=
201612200900 AAXX 20094 67561 NIL=
201612200600 AAXX 20064 67561 11365 70000 10216 20186 48511 60144 70522 85638
                   333 10267 20189 59001 85707 87360 87280
                   555 00/// 20990 91018=
201612190600 AAXX 19064 67561 11360 70000 10200 20186 48512 69904 70522 8363/
                   333 10274 20186 59009 83709 87360
                   555 00/// 20440 91018=
201612171200 AAXX 17124 67561 41560 70000 10245 20194 48482 70622 85208
                   333 59028 81930 85825 86280
                   555 66021 77041 8884/ 98025 91014=
201612160600 AAXX 16064 67561 31265 70000 10197 20185 48536 70522 81630
                   333 10280 20179 58007 81704 87360
                   555 00/// 20104 91021=
201612150600 AAXX 15064 67561 11975 70000 10194 20171 48528 60104 70522 8707/
                   333 10279 20172 58004 87459
                   555 00/// 20094 91020=
201612140600 AAXX 14064 67561 11975 70805 10192 20174 48516 60094 70522 8703/
                   333 10256 20174 59005 87360
                   555 00/// 20990 91020=
201612130600 AAXX 13064 67561 31370 72303 10196 20181 48530 69904 78022 8477/
                   333 10279 20179 58005 84608 87459
                   555 00/// 20990 91020=
201612121200 AAXX 12124 67561 41570 60907 10288 20170 48495 70522 85208
                   555 59011 85840 85280 66000 77067 8881/ 98031
                   91015=
201612120600 AAXX 12064 67561 11960 60903 10221 20188 48527 69904 70522 81038
                   333 10258 20177 59003 81360 86280
                   555 00/// 20039 91020=
201612110600 AAXX 11064 67561 11958 70000 10216 20177 48529 60044 74622 87032
                   333 10262 20178 59003 87360 81080
                   555 20019 91020=
201612090600 AAXX 09064 67561 11370 80805 10196 20178 48542 60024 70562 8167/
                   333 10225 20178 59003 81706 85610 88459 91022=
201612080600 AAXX 08064 67561 11475 70607 10196 20177 48545 70522 8567/
                   333 10268 20182 58011 85709 87459
                   555 20122 91022=
201612071500 AAXX 07154 67561 41675 51204 10260 20170 48496 70522 85238
                   333 59002 81950 85856 82360 85280=
201612071200 AAXX 07124 67561 41675 69903 10241 20169 48509 70522 85238
                   333 58014 81935 85840 81360 85280
                   555 66000 77034 8886/ 98041 91018=
201612060600 AAXX 06064 67561 11270 70000 10197 20182 48525 60064 76062 8563/
                   333 10309 20183 58002 85708 87360
                   555 00/// 91020=
201612050600 AAXX 05064 67561 11960 50000 10225 20178 48525 60014 70522 81038
                   333 10306 20177 59014 81360 85280
                   555 00/// 20028=
201612031200 AAXX 03124 67561 42680 60507 10296 20156 48515 70322 86202
                   333 58013 81040 86845 81081
                   555 66085 77083 8872/ 98008 91018=
201612020600 AAXX 02064 67561 NIL=
201612010600 AAXX 01064 67561 11260 40000 10208 20182 48538 69904 72844 83631
                   333 10281 20174 58011 83704 82360 81080 91021=

################################################################################
#  SYNOPS from 67563, Kafironda (Zambia) | 12-36S | 028-07E | 1243 m
################################################################################
201612271200 AAXX 27124 67563 NIL=
201612230600 AAXX 23064 67563 NIL=
201612220600 AAXX 22064 67563 NIL=
201612200900 AAXX 20094 67563 NIL=
201612150600 AAXX 15064 67563 NIL=
201612140600 AAXX 14064 67563 NIL=
201612071500 AAXX 07154 67563 NIL=
201612020600 AAXX 02064 67563 NIL=

################################################################################
#  SYNOPS from 67571, Serenje (Zambia) | 13-14S | 030-13E | 1384 m
################################################################################
201612300600 AAXX 30064 67571 32582 60000 10236 20186 48/// 81138
                   333 10273 20162 5//// 81823 83360 86280
                   555 00243=
201612271200 AAXX 27124 67571 42682 70905 10280 20174 48/// 70222 85208
                   333 5//// 81940 85840 87280=
201612230600 AAXX 23064 67571 12582 71204 10248 20180 48/// 69904 70222 81108
                   333 10286 20162 5//// 81821 87280
                   555 00243=
201612220600 AAXX 22064 67571 NIL=
201612210900 AAXX 21094 67571 42582 70602 10249 20183 48/// 70222 83238
                   333 5//// 81925 83825 81360 87280=
201612210600 AAXX 21064 67571 32982 73002 10216 20184 48/// 70222 82038
                   333 10261 20181 5//// 82360 87280=
201612200900 AAXX 20094 67571 42582 73305 10220 20180 48/// 70222 8553/
                   333 5//// 85625 87360=
201612200600 AAXX 20064 67571 12382 82702 10194 20188 48/// 69904 70222 886//
                   333 10276 20184 5//// 88707
                   555 00190=
201612190600 AAXX 19064 67571 12382 83305 10200 20185 48/// 69914 70222 886//
                   333 10254 20175 5//// 88707=
201612150600 AAXX 15064 67571 12382 71206 10186 20166 48/// 60114 8167/
                   333 10256 20166 81708 87360
                   555 00196=
201612140600 AAXX 14064 67571 12482 73603 10204 20173 48/// 60064 70222 8153/
                   333 10265 20171 5//// 81619 87360=
201612130900 AAXX 13094 67571 41680 71205 10255 20191 48/// 76166 872//
                   333 5//// 81930 87530=
201612120600 AAXX 12064 67571 12582 70605 10226 20164 48/// 70222 81538
                   333 10277 20180 5//// 81620 81360 87280=
201612090600 AAXX 09064 67571 12982 70000 10209 20164 48/// 60024 70222 8707/
                   333 10247 20179 5//// 87460
                   555 00217=
201612080600 AAXX 08064 67571 11382 83604 10180 20165 48531 60044 72052 887//
                   333 10265 20175 58001 88708=
201612071500 AAXX 07154 67571 NIL=
201612070600 AAXX 07064 67571 12382 82705 10187 20173 48531 60124 886//
                   333 10285 20169 5//// 88708
                   555 00202=
201612060600 AAXX 06064 67571 12582 70605 10232 20154 48/// 69904 8153/
                   333 10310 20180 5//// 81620 87360
                   555 00///=
201612051200 AAXX 05124 67571 41682 63005 10275 20152 48/// 71799 86230
                   333 5//// 81940 86840 81360=
201612050900 AAXX 05094 67571 42682 70905 10282 20135 48/// 70322 84208
                   333 5//// 81930 84830 87280=
201612020600 AAXX 02064 67571 32982 12703 10205 20166 48/// 70111 81030
                   333 10301 20160 5//// 81360=

################################################################################
#  SYNOPS from 67575, Mkushi (Zambia) | 13-38-00S | 029-26-00E | 1237 m
################################################################################
201612271200 AAXX 27124 67575 NIL=
201612230600 AAXX 23064 67575 NIL=
201612220600 AAXX 22064 67575 NIL=
201612200900 AAXX 20094 67575 NIL=
201612150600 AAXX 15064 67575 NIL=
201612140600 AAXX 14064 67575 NIL=
201612071500 AAXX 07154 67575 NIL=
201612020600 AAXX 02064 67575 NIL=

################################################################################
#  SYNOPS from 67580, Msekera (Zambia) | 13-39S | 032-34E | 1025 m
################################################################################
201612271200 AAXX 27124 67580 NIL=
201612230600 AAXX 23064 67580 NIL=
201612220600 AAXX 22064 67580 NIL=
201612200900 AAXX 20094 67580 NIL=
201612160600 AAXX 16064 67580 12580 40000 10246 20198 48/// 60024 81131
                   333 10257 20177 59006 81828 81361 84080
                   555 00183=
201612150600 AAXX 15064 67580 NIL=
201612140600 AAXX 14064 67580 NIL=
201612071500 AAXX 07154 67580 NIL=
201612020600 AAXX 02064 67580 32980 30303 10250 20180 48/// 83030
                   333 10334 20186 5//// 83360
                   555 00197=

################################################################################
#  SYNOPS from 67581, Chipata (Zambia) | 13-33S | 032-35E | 1028 m
################################################################################
201612271200 AAXX 27124 67581 NIL=
201612230600 AAXX 23064 67581 NIL=
201612220600 AAXX 22064 67581 NIL=
201612200900 AAXX 20094 67581 NIL=
201612150600 AAXX 15064 67581 NIL=
201612140600 AAXX 14064 67581 NIL=
201612071500 AAXX 07154 67581 NIL=
201612020600 AAXX 02064 67581 NIL=

################################################################################
#  SYNOPS from 67583, Lundazi (Zambia) | 12-17S | 033-12E | 1143 m
################################################################################
201612271200 AAXX 27124 67583 NIL=
201612230600 AAXX 23064 67583 NIL=
201612220600 AAXX 22064 67583 NIL=
201612200900 AAXX 20094 67583 NIL=
201612150600 AAXX 15064 67583 NIL=
201612140600 AAXX 14064 67583 NIL=
201612071500 AAXX 07154 67583 NIL=
201612020600 AAXX 02064 67583 NIL=

################################################################################
#  SYNOPS from 67599, Mfuwe (Zambia) | 13-16S | 031-56E | 568 m
################################################################################
201612271200 AAXX 27124 67599 NIL=
201612230600 AAXX 23064 67599 32980 20000 10280 20232 48532 80001
                   333 10335 20210 59012 82080
                   555 00205 91015=
201612220600 AAXX 22064 67599 12360 70000 10235 20221 48527 60104 877//
                   333 10334 20210 58018 87706
                   555 00205 91017=
201612200900 AAXX 20094 67599 NIL=
201612150600 AAXX 15064 67599 NIL=
201612140600 AAXX 14064 67599 11580 60000 10245 20216 48535 69934 71522 86200
                   333 10354 20210 58010 86820
                   555 00200 91017=
201612080600 AAXX 08064 67599 11260 80000 10222 20214 48556 60034 76066 8277/
                   333 10280 20210 58023 82703 88459
                   555 00210 91021=
201612071500 AAXX 07154 67599 NIL=
201612060600 AAXX 06064 67599 12480 70000 10240 20218 48532 60104 8363/
                   333 10372 20205 58011 83710 87360
                   555 00200 91017=
201612020600 AAXX 02064 67599 NIL=

################################################################################
#  SYNOPS from 67625, Kalabo (Zambia) | 14-51S | 022-42E | 1033 m
################################################################################
201612271200 AAXX 27124 67625 NIL=
201612230600 AAXX 23064 67625 12982 80702 10225 20196 48/// 60024 87073
                   333 10304 20200 58002 87360 87075
                   555 00196=
201612220600 AAXX 22064 67625 11382 70106 10224 20204 48/// 60024 72052 83673
                   333 10256 20196 58012 83707 85360 87075
                   555 00190=
201612210600 AAXX 21064 67625 12982 70603 10201 20191 48/// 60054 86023
                   333 10295 20186 58006 86460 87075
                   555 00182=
201612200900 AAXX 20094 67625 NIL=
201612200600 AAXX 20064 67625 12982 83601 10211 20207 48/// 60114 8802/
                   333 10295 20200 59023 88460
                   555 00198=
201612190600 AAXX 19064 67625 12382 83501 10200 20197 48/// 60304 84623
                   333 10273 20190 58002 84707 87460 87075
                   555 00186=
201612160600 AAXX 16064 67625 11982 80902 10197 20194 48/// 60084 72055 87028
                   333 10305 20195 59002 85460 88280
                   555 00193=
201612150600 AAXX 15064 67625 12382 73606 10203 20197 48/// 60294 8462/
                   333 10296 20184 59002 84707 87460
                   555 00182=
201612140600 AAXX 14064 67625 12382 80303 10215 20206 48/// 60034 85623
                   333 10316 20195 58008 85708 87460 87075
                   555 00193=
201612071500 AAXX 07154 67625 NIL=
201612020600 AAXX 02064 67625 NIL=

################################################################################
#  SYNOPS from 67633, Mongu (Zambia) | 15-15S | 023-09E | 1052 m
################################################################################
201612300600 AAXX 30064 67633 32980 73603 10226 20184 48537 69904 87030
                   333 10308 20198 58019 87360
                   555 00218 91021=
201612280600 AAXX 28064 67633 11475 81502 10185 20185 48530 60494 76266 8557/
                   333 10324 20185 58020 85615 88460
                   555 00194 91020=
201612271200 AAXX 27124 67633 NIL=
201612230600 AAXX 23064 67633 12980 70902 10225 20199 48508 60144 70222 87070
                   333 10225 20201 59004 87460
                   555 00200 91017=
201612220600 AAXX 22064 67633 NIL=
201612210600 AAXX 21064 67633 12980 70805 10214 20200 48486 60494 70222 87070
                   333 10316 20188 59004 87460
                   555 00218 91015=
201612200900 AAXX 20094 67633 NIL=
201612200600 AAXX 20064 67633 12480 80702 10215 20201 48475 60014 70222 885//
                   333 10287 20200 59003 88625
                   555 00200 91015=
201612190600 AAXX 19064 67633 12980 73602 10210 20198 48495 60474 70222 87070
                   333 10285 20202 59016 87460
                   555 00225 91015=
201612160600 AAXX 16064 67633 11480 80902 10185 20185 48530 60344 76066 8457/
                   333 10312 20187 58006 84615 88460
                   555 00197 91020=
201612150600 AAXX 15064 67633 NIL=
201612140600 AAXX 14064 67633 NIL=
201612071500 AAXX 07154 67633 NIL=
201612020600 AAXX 02064 67633 NIL=

################################################################################
#  SYNOPS from 67641, Kaoma (Zambia) | 14-48S | 024-48E | 1213 m
################################################################################
201612271200 AAXX 27124 67641 NIL=
201612230600 AAXX 23064 67641 NIL=
201612220600 AAXX 22064 67641 NIL=
201612200900 AAXX 20094 67641 NIL=
201612150600 AAXX 15064 67641 NIL=
201612140600 AAXX 14064 67641 NIL=
201612071500 AAXX 07154 67641 NIL=
201612020600 AAXX 02064 67641 NIL=

################################################################################
#  SYNOPS from 67655, Mumbwa (Zambia) | 15-04S | 027-11E | 1216 m
################################################################################
201612271200 AAXX 27124 67655 NIL=
201612230600 AAXX 23064 67655 NIL=
201612220600 AAXX 22064 67655 NIL=
201612200900 AAXX 20094 67655 NIL=
201612150600 AAXX 15064 67655 NIL=
201612140600 AAXX 14064 67655 NIL=
201612071500 AAXX 07154 67655 NIL=
201612020600 AAXX 02064 67655 NIL=

################################################################################
#  SYNOPS from 67659, Kafue Polder (Zambia) | 15-46S | 027-55E | 978 m
################################################################################
201612280600 AAXX 28064 67659 32980 61803 10245 20209 48/// 86030
                   333 10315 20235 58003 86360
                   555 00///=
201612271200 AAXX 27124 67659 NIL=
201612230600 AAXX 23064 67659 NIL=
201612220600 AAXX 22064 67659 NIL=
201612200900 AAXX 20094 67659 NIL=
201612150600 AAXX 15064 67659 NIL=
201612140600 AAXX 14064 67659 12480 61704 10240 20213 48/// 60114 70322 82230
                   333 10275 20182 59010 82815 84360=
201612120600 AAXX 12064 67659 11475 81802 10190 20192 48/// 60294 76166 83520
                   333 10318 20192 59007 81910 82620 86460=
201612090600 AAXX 09064 67659 32580 6//// 10250 20192 48/// 70322 86500
                   333 10275 20178 58000 86820=
201612071500 AAXX 07154 67659 NIL=
201612070600 AAXX 07064 67659 32480 31203 10252 20180 48/// 83200
                   333 10305 20178 58006 83820
                   555 00///=
201612060600 AAXX 06064 67659 12480 41504 10236 20188 48/// 69904 84200
                   333 10321 20156 58000 84810
                   555 00///=
201612020600 AAXX 02064 67659 32980 10304 10270 20205 48/// 70222 80002
                   333 10297 20170 5//// 81080=

################################################################################
#  SYNOPS from 67662, Kabwe Agric (Zambia) | 14-24S | 028-30E | 1165 m
################################################################################
201612280600 AAXX 28064 67662 12480 60805 10237 20194 48/// 60114 81132
                   333 10285 20182 81818 82360 85080
                   555 00172=
201612271200 AAXX 27124 67662 NIL=
201612230600 AAXX 23064 67662 NIL=
201612220600 AAXX 22064 67662 NIL=
201612210600 AAXX 21064 67662 12380 83002 10203 20183 48/// 60304 8267/
                   333 10280 20188 5//// 82707 88460
                   555 00184=
201612200900 AAXX 20094 67662 NIL=
201612190600 AAXX 19064 67662 32480 70000 10243 20187 48/// 83130
                   333 10290 20190 5//// 83819 87360
                   555 00188=
201612150600 AAXX 15064 67662 12380 80000 10198 20186 48/// 60054 8167/
                   333 10293 20176 81707 88460
                   555 00174=
201612140600 AAXX 14064 67662 12980 70000 10228 20184 48/// 60164 87030
                   333 10260 20184 5//// 87360
                   555 00181=
201612080600 AAXX 08064 67662 32480 70000 10222 20188 48/// 86530
                   333 10294 20192 5//// 86618 85360
                   555 00189=
201612071500 AAXX 07154 67662 NIL=
201612070600 AAXX 07064 67662 32580 70000 10229 20175 48/// 84108
                   333 10290 20178 84825 87280
                   555 00165=
201612060600 AAXX 06064 67662 12480 71004 10219 20178 48/// 60024 8653/
                   333 10312 20182 86613 87360
                   555 00171=
201612020600 AAXX 02064 67662 32980 43603 10243 20176 48/// 80002
                   333 10306 20186 5//// 84080
                   555 00170=

################################################################################
#  SYNOPS from 67663, Kabwe (Zambia) | 14-27S | 028-28E | 1206 m
################################################################################
201612271200 AAXX 27124 67663 NIL=
201612230600 AAXX 23064 67663 NIL=
201612220600 AAXX 22064 67663 NIL=
201612200900 AAXX 20094 67663 NIL=
201612150600 AAXX 15064 67663 NIL=
201612140600 AAXX 14064 67663 NIL=
201612071500 AAXX 07154 67663 NIL=
201612020600 AAXX 02064 67663 NIL=

################################################################################
#  SYNOPS from 67665, Lusaka Internationalairport (Zambia) | 15-19S | 028-27E | 1152 m
################################################################################
201612310600 AAXX 31064 67665 12380 70406 10210 20172 48529 6///4 8163/
                   333 10//0 20//0 59009 81707 85620 86360=
201612310300 AAXX 31034 67665 42980 61203 10185 20163 48516 86030
                   333 59006 86360=
201612310000 AAXX 31004 67665 42980 61003 10188 20163 48515 8607/
                   333 59013 86360=
201612302100 AAXX 30214 67665 42980 20603 10193 20181 48538 70190 81030
                   333 59002 82360=
201612301800 AAXX 30184 67665 42480 71202 10202 20187 48524 70222 81231
                   333 58003 81320 83360 84360
                   555 91019=
201612301500 AAXX 30154 67665 42580 71006 10221 20192 48510 70222 83250
                   333 58008 83820 85360=
201612301200 AAXX 30124 67665 41560 71803 10200 20186 48527 79599 81970
                   333 58006 81920 87459
                   555 91019=
201612300900 AAXX 30094 67665 41580 70108 10192 20176 48538 79592 81930
                   333 59013 81925 86825 84459=
201612300600 AAXX 30064 67665 32480 50907 10223 20167 48544 85531
                   333 10//0 20//0 59003 85612 83360 81080=
201612300300 AAXX 30034 67665 42980 11102 10193 20179 48520 81030
                   333 58002 81360=
201612300000 AAXX 30004 67665 42980 61102 10201 20178 49528 86030
                   333 58011 86360=
201612292100 AAXX 29214 67665 42980 51003 10199 20178 48541 85031
                   333 58015 85360 81080=
201612291800 AAXX 29184 67665 42980 13503 10228 20161 48524 80001
                   333 58009 81080=
201612291500 AAXX 29154 67665 42980 30203 10258 20162 48506 80002
                   333 58009 83080=
201612291200 AAXX 29124 67665 42680 71604 10228 20162 48524 8197/
                   333 58008 81935 87460=
201612290900 AAXX 29094 67665 42480 71203 10203 20171 48552 70222 82630
                   333 58020 82707 85610 81360=
201612282100 AAXX 28214 67665 42980 12403 10229 20165 48529 80001
                   333 59005 81080=
201612281800 AAXX 28184 67665 42980 10603 10237 20172 48517 80001
                   333 59007 81080=
201612281500 AAXX 28154 67665 42680 40604 10282 20182 48500 81962
                   333 59004 81940 81842 81359 84080=
201612281200 AAXX 28124 67665 42580 50307 10286 20181 48524 81963
                   333 59003 81925 81828 81359 85080=
201612280900 AAXX 28094 67665 42480 30312 10272 20179 48541 82102
                   333 59005 82815 83080=
201612280600 AAXX 28064 67665 12980 40907 10219 20174 48533 81032
                   333 10300 20//0 59004 81360 83080 555=
201612280300 AAXX 28034 67665 42980 11103 10183 20159 48515 81030
                   333 59001 81360 91018=
201612280000 AAXX 28004 67665 42980 00804 10193 20161 48518
                   333 58006=
201612272100 AAXX 27214 67665 42980 01502 10207 20151 48442 70100
                   333 58001 91020=
201612271200 AAXX 27124 67665 NIL=
201612270600 AAXX 27064 67665 32480 60911 10215 20182 48537 70222 85501
                   333 10274 20//0 59011 85612 82080=
201612270300 AAXX 27034 67665 42980 01602 10186 20170 48516 70200
                   333 59004=
201612262100 AAXX 26214 67665 42980 01102 10202 20171 48530 70200
                   333 58016=
201612261800 AAXX 26184 67665 42980 11003 10219 20181 48517 81030
                   333 10274 58012 81360=
201612261500 AAXX 26154 67665 42980 31107 10265 20147 48510 81032
                   333 58019 81360 83080=
201612261200 AAXX 26124 67665 42560 72002 10248 20194 48539 83232
                   333 58042 83820 85360 83260=
201612260600 AAXX 26064 67665 42460 71708 10174 20157 48541 76055 85530
                   333 10217 20171 58033 87615 81359
                   555 91022=
201612260000 AAXX 26004 67665 42980 21203 10218 20185 48509 70200 82030
                   333 58011 82369 555 91017=
201612252100 AAXX 25214 67665 42480 41403 10217 20186 48517 70200 82031
                   333 58007 82360 82080=
201612251800 AAXX 25184 67665 42980 40703 10224 20188 48506 70122 82032
                   333 10314 58015 82360 84080=
201612251500 AAXX 25154 67665 42780 61305 10267 20168 48491 70222 81932
                   333 58005 81950 83850 84360 83080=
201612251200 AAXX 25124 67665 41680 60804 10297 20190 48504 71722 81930
                   333 58010 81935 84835 82360=
201612250900 AAXX 25094 67665 42580 70506 10282 20170 48528 82132
                   333 58012 82825 86360 82080 91018=
201612250600 AAXX 25064 67665 32980 51204 10234 20166 48517 82082
                   333 10//0 20//0 58002 82360 85080=
201612250300 AAXX 25034 67665 42980 41104 10199 20176 48502 84031
                   333 58002 84360 81080=
201612250000 AAXX 25004 67665 42980 11003 19294 20177 48498 80001
                   333 58002 81080=
201612242100 AAXX 24214 67665 42980 10603 10218 20182 48510 81030
                   333 59002 81360=
201612241800 AAXX 24184 67665 42980 21505 10232 20186 48492 70200 80001
                   333 58010 82080 555 91015=
201612241500 AAXX 24154 67665 42580 62107 10276 20163 48487 70222 83201
                   333 58013 83830 82080=
201612241200 AAXX 24124 67665 42680 60307 10297 20177 48502 70222 86200
                   333 58018 86830 555 91014=
201612240900 AAXX 24094 67665 42580 40302 10298 20183 48518 70300 84201
                   333 59018 84825 82080=
201612240600 AAXX 24064 67665 42980 10403 10275 20202 48521 70100 80001
                   333 10250 20//0 81080=
201612232100 AAXX 23214 67665 42980 42402 10209 20185 48511 70122 80003
                   333 59013 84080=
201612231800 AAXX 23184 67665 42980 41803 10222 20183 48506 81063
                   333 59005 81360 84080=
201612231500 AAXX 23154 67665 42680 61108 10234 20198 48494 81963
                   333 58005 81933 81835 82360 86080=
201612231200 AAXX 23124 67665 42580 53605 10301 20181 48513 81930
                   333 59013 81925 84827 81360=
201612230600 AAXX 23064 67665 NIL=
201612230300 AAXX 23034 67665 42980 22404 10194 20182 48513 80001
                   333 59003 82080=
201612221200 AAXX 22124 67665 42680 40504 10282 20164 48524 81232
                   333 58020 81832 83360 82080=
201612220900 AAXX 22094 67665 42580 53304 10248 20159 48535 81132
                   333 58030 81825 85360 82080=
201612220600 AAXX 22064 67665 12380 63604 10197 20171 48535 60134 85630
                   333 10280 20/// 58015 85708 85260=
201612220300 AAXX 22034 67665 42360 72902 10188 20173 48516 8163/
                   333 58019 81705 87360 91018=
201612220000 AAXX 22004 67665 41459 72907 10186 20174 48518 76166 8477/
                   333 58020 84705 87459=
201612212100 AAXX 21214 67665 41758 83505 10185 20185 48529 79596 81937
                   333 58025 81956 87459 91020=
201612211500 AAXX 21154 67665 42580 70000 10262 20184 48488 70222 86201
                   333 58015 83840 83080=
201612210900 AAXX 21094 67665 42580 73205 10232 20187 48525 70222 85530
                   333 58023 85620 87360=
201612210300 AAXX 21034 67665 42959 72802 10196 20181 48499 70222 87070
                   333 58001 87459=
201612201500 AAXX 20154 67665 42480 71503 10218 20186 48472 70222 86530
                   333 10274 58011 82615 85820 82360=
201612201200 AAXX 20124 67665 42480 73504 10265 20181 75022 83530
                   333 58005 83620 85830 83360
                   555 91014=
201612200900 AAXX 20094 67665 42480 73104 10240 20185 48503 8713/
                   333 82825 85360=
201612200300 AAXX 20034 67665 42980 43003 10198 20182 48498 84030
                   333 5//// 84359=
201612200000 AAXX 20004 67665 42980 62503 10198 20182 48490 86030
                   333 5//// 86359=
201612192100 AAXX 19214 67665 42380 72803 10220 20182 48501 8177/
                   333 5//// 81708 87459=
201612191800 AAXX 19184 67665 42759 70303 10198 20182 48498 72166 8197/
                   333 10287 81956 87459=
201612191500 AAXX 19154 67665 42719 10208 20185 48492 72566 8197/
                   333 59011 81930 87459=
201612191200 AAXX 19124 67665 42680 53007 10269 20170 48486 70222 84230
                   333 59023 84830 83360=
201612190900 AAXX 19094 67665 42480 70204 10250 20184 48513 70222 85230
                   333 58003 85820 84360=
201612190600 AAXX 19064 67665 12480 73102 10211 20193 48517 70122 8553/
                   333 58005 85615 87359=
201612181800 AAXX 18184 67665 42680 61403 10216 20184 48512 70162 81963
                   333 58012 84359 85080=
201612181500 AAXX 18154 67665 41660 72811 10229 20201 48495 71522 82963
                   333 58007 82935 82838 84359 86080=
201612180900 AAXX 18094 67665 41760 10229 20178 48524 70222 86570
                   333 58012 86612 86459=
201612171800 AAXX 17184 67665 42980 72403 10230 20183 48502 70222 80038
                   333 59017 82360 87280=
201612170900 AAXX 17094 67665 42480 53603 10267 20173 48518 81931
                   333 59028 81915 83818 82360 82080=
201612170000 AAXX 17004 67665 42980 52401 10204 20172 48507 85030
                   333 59021 85360=
201612162100 AAXX 16214 67665 42980 50000 10204 20174 48519 85030
                   333 59020 85360 91018=
201612160600 AAXX 16064 67665 32480 63301 10222 20184 48543 70222 84530
                   333 10227 20205 5//// 84608 84360
                   555 91021=
201612160300 AAXX 16034 67665 42480 60902 10207 20199 48521 70222 84530
                   333 5//// 84630 83360=
201612152100 AAXX 15214 67665 42960 60704 10214 20192 48541 70222 84031
                   333 5//// 84360 82080=
201612151800 AAXX 15184 67665 42760 60307 10236 20158 48524 81932
                   333 10289 59008 81950 81360 86280=
201612151500 AAXX 15154 67665 42660 60102 10271 20174 48512 83232
                   333 59030 81940 83845 81360 85080=
201612151200 AAXX 15124 67665 42680 63606 10261 20170 48528 83232
                   333 58015 83830 85360 81080=
201612150900 AAXX 15094 67665 42580 70706 10234 20165 48545 70222 87530
                   333 58009 82609 82832 83360=
201612150600 AAXX 15064 67665 NIL=
201612141500 AAXX 14154 67665 42680 62515 10231 20180 48512 70222 85201
                   333 58009 85840 83080=
201612141200 AAXX 14124 67665 42680 50411 10280 20184 48516 70322 84201
                   333 59018 84830 83080=
201612140600 AAXX 14064 67665 12480 70507 10220 20190 48537 60074 70322 875//
                   333 10235 59003 87613=
201612140000 AAXX 14004 67665 42980 41203 10199 20182 48517 70222 84031
                   333 58003 82360 84080=
201612132100 AAXX 13214 67665 42980 40302 10204 20183 48529 70222 82031
                   333 58004 82360 84080=
201612131800 AAXX 13184 67665 42980 31103 10204 20176 48522 81031
                   333 58004 81360 83080=
201612131500 AAXX 13154 67665 42580 50903 10223 20197 48501 70162 81363
                   333 58003 81920 81823 81359 85080=
201612131200 AAXX 13124 67665 41440 83506 10186 20186 48522 76952 885//
                   333 59001 88615=
201612130600 AAXX 13064 67665 31459 70807 10212 20185 48540 60054 70222 8757/
                   333 10270 20/// 58001 87609 84459=
201612130300 AAXX 13034 67665 41459 70000 10193 20175 48510 76188 8857/
                   333 59003 83609 85459=
201612122100 AAXX 12214 67665 42959 70000 10195 20174 48521 70222 8707/
                   333 59005 87459=
201612121500 AAXX 12154 67665 41959 81704 10195 20181 48496 76188 8807/
                   333 59006 88459=
201612121200 AAXX 12124 67665 41557 82011 10198 20174 48528 78092 8297/
                   333 58017 82920 84823 88459=
201612120900 AAXX 12094 67665 42480 70709 10261 20185 48541 8387/
                   333 59004 82815 82618 87359=
201612120600 AAXX 12064 67665 12380 70607 10220 20201 48539 60124 70262 8268/
                   333 10//0 20//0 59005 82708 87459=
201612120300 AAXX 12034 67665 42980 50604 10204 20181 48523 85030
                   333 58003 85360 91019=
201612111500 AAXX 11154 67665 42680 60708 10248 20205 48510 70222 86230
                   333 58008 84835 82360=
201612110900 AAXX 11094 67665 42580 51005 10249 20179 48544 70122 85230
                   333 58000 85830 84360=
201612110600 AAXX 11064 67665 31360 71109 10197 20160 48541 69904 8467/
                   333 10296 20//0 58004 84709 87459=
201612110300 AAXX 11034 67665 42960 70000 10189 20159 48818 70222 86072
                   333 58003 86459 82080=
201612110000 AAXX 11004 67665 41960 73003 10193 20161 48529 75052 81970
                   333 58014 81956 86459=
201612102100 AAXX 10214 67665 41760 70509 10193 20161 48537 72582 81972
                   333 58009 81956 86459 83080=
201612101800 AAXX 10184 67665 41760 30902 10229 20169 71322 81932
                   333 10296 59010 81950 82360 83080=
201612101500 AAXX 10154 67665 41660 72708 10279 20184 48503 71522 81930
                   333 59013 81940 85845 81360 91016=
201612101200 AAXX 10124 67665 42680 42809 10269 20151 48513 84200
                   333 59015 84835=
201612100600 AAXX 10064 67665 42980 62806 10205 20171 48538 8607/
                   333 10//0 20//0 59011 86360=
201612100300 AAXX 10034 67665 42980 52803 10183 20166 48515 85031
                   333 59015 85360 81080=
201612100000 AAXX 10004 67665 42980 32904 10197 20179 48517 83031
                   333 59010 83360 81080=
201612091800 AAXX 09184 67665 41780 40604 10206 20175 48525 71322 81932
                   333 10269 59005 81956 82360 83080=
201612091500 AAXX 09154 67665 42670 50412 10249 20164 48512 70222 83232
                   333 59008 83845 83360 83080=
201612091200 AAXX 09124 67665 41660 73503 10211 20173 48524 76082 872//
                   333 58005 87833=
201612090900 AAXX 09094 67665 42560 70306 10233 20171 48547 70322 8553/
                   333 59001 85620 87360 91021=
201612090600 AAXX 09064 67665 11280 60705 10193 20174 48546 70322 82570
                   333 58001 82606 85460=
201612090000 AAXX 09004 67665 42980 00802 10189 20172 48525 70200
                   333 58004=
201612082100 AAXX 08214 67665 42980 30502 10203 20183 48534 70212 81031
                   333 58002 82360 82080=
201612081800 AAXX 08184 67665 42980 40903 10199 20182 48528 81031
                   333 58016 81360 84080=
201612081500 AAXX 08154 67665 42680 70905 10197 20177 48514 72196 81263
                   333 58021 81840 83359 86080=
201612081200 AAXX 08124 67665 42680 50906 10282 20182 48528 85930
                   333 58011 82930 84833 81360=
201612080900 AAXX 08094 67665 42580 60607 10266 20169 48555 70222 86530
                   333 58012 86622 82360=
201612080600 AAXX 08064 67665 42480 60309 10218 20174 48556 70300 86500
                   333 58002 82690 84820=
201612080300 AAXX 08034 67665 42980 00000 10185 20152 48518 70300 83030
                   333 58005 83360=
201612071800 AAXX 07184 67665 42680 10207 10233 20167 48517 70100 81300
                   333 59005 81932=
201612071500 AAXX 07154 67665 42680 30908 10297 20219 48505 70122 84260
                   333 59006 82834 82360=
201612071200 AAXX 07124 67665 42680 50909 10290 20169 48518 70222 85860
                   333 59003 83830 83632 82360=
201612070900 AAXX 07094 67665 42580 50708 10262 20176 48541 85860
                   333 59002 84820 82622 81359=
201612070600 AAXX 07064 67665 32480 50103 10234 20171 48550 83530
                   333 10296 20//0 58007 83612 82360
                   555 00///=
201612070300 AAXX 07034 67665 42980 22702 10173 20139 48527 82030
                   333 58005 82360 91020=
201612062100 AAXX 06214 67665 42980 01402 10203 20146 48532
                   333 58016 91020=
201612061800 AAXX 06184 67665 42980 00503 10232 20144 48514 70200
                   333 59008=
201612060900 AAXX 06094 67665 42680 50610 10252 20178 48542 70210 85500
                   333 59005 85628=
201612060600 AAXX 06064 67665 31480 30811 10216 20165 48540 69904 70300 83500
                   333 10315 20//0 58008 83612=
201612060300 AAXX 06034 67665 42980 21103 10176 20154 48522 70200 82030
                   333 58010 82360=
201612052100 AAXX 05214 67665 42970 41702 10189 20170 48516 70222 84030
                   333 59008 84360=
201612051800 AAXX 05184 67665 41760 83207 10196 20164 48525 79592 8197/
                   333 10312 81950 87360=
201612051500 AAXX 05154 67665 41660 71806 10258 20156 48497 71622 81932
                   333 58001 81940 83845 86359 81080=
201612051200 AAXX 05124 67665 42680 60302 10307 20155 48513 83232
                   333 59014 81935 83835 83080=
201612050900 AAXX 05094 67665 42580 71703 10257 20155 48551 8717/
                   333 10//0 20//0 59011 81828 86360=
201612050600 AAXX 05064 67665 32980 70903 10236 20156 48538 8707/
                   333 10//0 20//0 59011 87360=
201612050300 AAXX 05034 67665 42980 70902 10210 20156 48516 8703/
                   333 59018 87359=
201612050000 AAXX 05004 67665 42980 62203 10216 20157 48513 84031
                   333 58002 84360 85080=
201612042100 AAXX 04214 67665 42680 51107 10221 20157 48527 71322 81931
                   333 59003 819// 83360 84080=
201612041800 AAXX 04184 67665 42780 51216 10261 20151 48521 71322 81931
                   333 10331 58010 81956 83360 83080=
201612041500 AAXX 04154 67665 42780 40703 10318 20126 48503 70222 84201
                   333 58003 84850 82080=
201612041200 AAXX 04124 67665 42680 40404 10319 20126 48529 70200 83230
                   333 58003 83840 81360=
201612040900 AAXX 04094 67665 42680 30306 10285 20134 48551 82101
                   333 58009 82830 81360 81080 91021=
201612040000 AAXX 04004 67665 42980 21302 10202 20156 48528 70201 80001
                   333 58014 82080=
201612031800 AAXX 03184 67665 42780 41203 10244 20175 48509 70222 81901
                   333 58012 81956 84080=
201612031500 AAXX 03154 67665 41680 40604 10301 20145 48498 71792 81901
                   333 58008 81945 84850 81080=
201612031200 AAXX 03124 67665 42680 40406 10308 20130 48524 70300 84100
                   333 58012 84835=
201612030900 AAXX 03094 67665 42680 10605 10291 20095 48542 81200
                   333 58008 81830=
201612030600 AAXX 03064 67665 42980 03404 10231 20112 48542 70300
                   333 59003=
201612030300 AAXX 03034 67665 42980 00000 10212 20105 48531 70100
                   333 58003=
201612030000 AAXX 03004 67665 42980 02403 10216 20092 48515 70100
                   333 58010=
201612020900 AAXX 02094 67665 42680 23405 10294 20167 48534 70300 82100
                   333 59016 82830=
201612020600 AAXX 02064 67665 NIL=
201612020300 AAXX 02034 67665 42980 01601 10173 20130 48507
                   333 59027 91018=
201612020000 AAXX 02004 67665 42980 02303 10193 20131 48506 70200
                   333 59020=
201612012100 AAXX 01214 67665 41780 11202 10229 20131 48521 71300 81900
                   333 59018 81956 91018=
201612011800 AAXX 01184 67665 42980 01904 10260 20135 48505 70200
                   333 59015=
201612010600 AAXX 01064 67665 31980 41201 10251 20175 48548 69904 70222 80002
                   333 10312 20//0 58003 84080=

################################################################################
#  SYNOPS from 67666, Lusaka City Airport (Zambia) | 15-25-00S | 028-28-00E | 1280 m
################################################################################
201612280600 AAXX 28064 67666 32980 60912 10224 20164 48527 81038
                   333 10272 20185 5//// 81360 86280
                   555 00162 91020=
201612271200 AAXX 27124 67666 42680 51006 10268 20184 48518 70222 85200
                   333 58021 85828 91018=
201612270900 AAXX 27094 67666 42580 60911 10250 20177 48/// 70222 86830
                   333 5//// 84615 83818 81360=
201612230600 AAXX 23064 67666 32980 30202 10248 20165 48524 82031
                   333 10310 20176 58015 82360 82076
                   555 00162 91019=
201612220600 AAXX 22064 67666 12480 70104 10202 20177 48529 60054 81170
                   333 10261 20180 58014 81818 87359
                   555 00124 91020=
201612210600 AAXX 21064 67666 12480 70806 10201 20174 48515 60104 70222 83678
                   333 10254 20180 58014 83710 85459 87280
                   555 00183 91018=
201612200900 AAXX 20094 67666 NIL=
201612190600 AAXX 19064 67666 11458 80602 10208 20193 48518 74244 86537
                   333 10264 20192 59006 85610 83360 88280
                   555 00192 91018=
201612160600 AAXX 16064 67666 32980 70805 10218 20185 48538 8707/
                   333 10270 20199 59001 87358
                   555 00190 91021=
201612150600 AAXX 15064 67666 12980 80909 10199 20176 48537 60024 86077
                   333 10278 20170 58008 86459 88280
                   555 00175 91021=
201612140600 AAXX 14064 67666 12480 80909 10206 20191 48530 60274 887//
                   333 10238 20188 5//// 88710
                   555 00184 91020=
201612090600 AAXX 09064 67666 11380 40906 10194 20175 48542 60094 75052 83770
                   333 10350 20196 58000 83706 84459
                   555 00170 91021=
201612071500 AAXX 07154 67666 NIL=
201612070600 AAXX 07064 67666 32380 30403 10220 20174 48541 83500
                   333 10271 20166 59014 83708
                   555 00158 91021=
201612060600 AAXX 06064 67666 12480 40907 10219 20169 48530 60044 84530
                   333 10281 20181 58004 84608 82360
                   555 00161 91020=
201612020600 AAXX 02064 67666 31975 10605 10242 20178 48527 70500 80001
                   333 10311 20176 59016 81075
                   555 00138 91019=

################################################################################
#  SYNOPS from 67667, Mount Makulu (Zambia) | 15-33S | 028-15E | 1213 m
################################################################################
201612300600 AAXX 30064 67667 12580 70901 10230 20201 48/// 60024 875//
                   333 10274 20177 59007 87628
                   555 00160=
201612271200 AAXX 27124 67667 NIL=
201612230600 AAXX 23064 67667 32980 20000 10267 20214 48/// 80002
                   333 10300 20182 59003 82080
                   555 00178=
201612220600 AAXX 22064 67667 32980 63601 10210 20181 48/// 80002
                   333 10282 20187 58008 86080
                   555 00180=
201612210600 AAXX 21064 67667 12580 73602 10226 20171 48/// 60074 84108
                   333 10273 20188 58020 84825 87280
                   555 00160=
201612200900 AAXX 20094 67667 NIL=
201612190600 AAXX 19064 67667 12580 80000 10210 20198 48/// 60014 84508
                   333 10264 20186 58006 84625 88280
                   555 00183=
201612160600 AAXX 16064 67667 32980 70000 10234 20202 48/// 80008
                   333 10295 20203 58001 87280
                   555 00184=
201612150600 AAXX 15064 67667 12980 80900 10226 20186 48/// 60054 80008
                   333 10290 20177 58009 88280
                   555 00175=
201612140600 AAXX 14064 67667 12580 70901 10217 20191 48/// 60104 86508
                   333 10246 20185 59006 86625 87280
                   555 00184=
201612090600 AAXX 09064 67667 32680 50901 10223 20184 48/// 81102
                   333 10300 20183 58000 81830 85080
                   555 00150=
201612071500 AAXX 07154 67667 NIL=
201612060600 AAXX 06064 67667 32680 40902 10228 20172 48/// 84102
                   333 10312 20190 58002 84830 81080
                   555 00150=
201612020600 AAXX 02064 67667 32980 13501 10256 20188 48/// 80001
                   333 10327 20170 59014 81082
                   555 00130=

################################################################################
#  SYNOPS from 67673, Petauke (Zambia) | 14-15S | 031-17E | 1035 m
################################################################################
201612300600 AAXX 30064 67673 32584 60902 10228 20200 48552 84138
                   333 10288 20198 58009 84828 83360 86280
                   555 00172=
201612280600 AAXX 28064 67673 12680 30902 10250 20208 48548 60094 81131
                   333 10294 20190 58001 81830 81360 83080
                   555 00168=
201612271200 AAXX 27124 67673 NIL=
201612230600 AAXX 23064 67673 12984 33601 10260 20206 48558 69904 82031
                   333 10324 20188 58011 82360 83080
                   555 00160=
201612220600 AAXX 22064 67673 NIL=
201612201200 AAXX 20124 67673 42580 60000 10218 20205 48503 83132
                   333 58000 83830 86360 84080=
201612200900 AAXX 20094 67673 NIL=
201612200600 AAXX 20064 67673 11580 70000 10196 20186 48532 60104 76166 875//
                   333 10290 20194 58013 87625
                   555 00170=
201612190600 AAXX 19064 67673 12580 70000 10210 20195 48519 69914 8613/
                   333 10260 20192 59010 86828 87360
                   555 00168=
201612150600 AAXX 15064 67673 NIL=
201612140600 AAXX 14064 67673 NIL=
201612120600 AAXX 12064 67673 32584 53602 10240 20210 48550 83131
                   333 10310 20190 58006 83830 85360 84080
                   555 00180=
201612090600 AAXX 09064 67673 12584 63001 10232 20185 48557 83130
                   333 59004 83825 86360
                   555 00172=
201612071500 AAXX 07154 67673 NIL=
201612050900 AAXX 05094 67673 42684 50502 10300 20181 48548 85201
                   333 5//// 85835 82080=
201612020600 AAXX 02064 67673 NIL=
201612010600 AAXX 01064 67673 32984 33001 10240 20195 48550 81031
                   333 10320 20200 58006 81360 83080
                   555 00162=

################################################################################
#  SYNOPS from 67731, Senanga (Zambia) | 16-06S | 023-16E | 1027 m
################################################################################
201612280600 AAXX 28064 67731 12480 812// 10217 20192 48/// 60054 70266 8357/
                   333 10302 20160 58027 83510 88760
                   555 00156=
201612271200 AAXX 27124 67731 NIL=
201612230600 AAXX 23064 67731 NIL=
201612220600 AAXX 22064 67731 NIL=
201612200900 AAXX 20094 67731 NIL=
201612150600 AAXX 15064 67731 NIL=
201612140600 AAXX 14064 67731 12480 1//// 10219 20176 48/// 60564 70103 83578
                   333 10311 20170 5//// 83611 85760 85280
                   555 00166=
201612120600 AAXX 12064 67731 12480 509// 10228 20173 48/// 60224 70222 83538
                   333 10260 20181 58001 83612 84360 84280
                   555 00174=
201612090600 AAXX 09064 67731 12980 307// 10248 20138 48/// 60044 70100 83030
                   333 10332 20188 5//// 83360
                   555 00173=
201612080600 AAXX 08064 67731 12980 210// 10231 20150 48/// 60234 70200 80008
                   333 10330 20189 5//// 82280
                   555 00178=
201612071500 AAXX 07154 67731 NIL=
201612020600 AAXX 02064 67731 NIL=
201612010600 AAXX 01064 67731 12980 422// 10220 20182 48/// 60034 70222 84030
                   333 10256 20157 59015 84360=

################################################################################
#  SYNOPS from 67741, Sesheke (Zambia) | 17-28S | 024-18E | 949 m
################################################################################
201612300600 AAXX 30064 67741 12680 21201 10244 20216 48533 60044 81531
                   333 10316 20207 58008 81080
                   555 00212=
201612271200 AAXX 27124 67741 NIL=
201612230600 AAXX 23064 67741 32980 60000 10238 20211 48523 86030
                   333 10311 20206 59002 86362
                   555 00224=
201612220600 AAXX 22064 67741 32980 60801 10242 20207 48523 86030
                   333 10312 20193 58026 86362
                   555 00162=
201612200900 AAXX 20094 67741 NIL=
201612200600 AAXX 20064 67741 12980 33601 10243 20214 48494 81031
                   333 10295 20198 59023 81362 83080
                   555 00214=
201612190600 AAXX 19064 67741 12680 60000 10224 20204 48510 69904 86500
                   333 10284 20201 5//// 86635=
201612160600 AAXX 16064 67741 12980 73601 10231 20192 48521 60014 8703/
                   333 10302 20210 59006 87362
                   555 00218=
201612150600 AAXX 15064 67741 12680 30000 10228 20196 48533 69904 81540
                   333 10295 20203 58005 81635 83362
                   555 00///=
201612140600 AAXX 14064 67741 12980 70801 10203 20197 48516 60224 8707/
                   333 10295 20183 87460
                   555 00191=
201612130600 AAXX 13064 67741 11675 70901 10205 20190 48516 60374 72122 8257/
                   333 10268 20193 59004 82630 87459
                   555 00195=
201612120600 AAXX 12064 67741 32680 50901 10226 20205 48521 84530
                   333 10274 20203 59011 84635 82362=
201612080600 AAXX 08064 67741 32980 11301 10250 20183 48535 81030
                   333 10335 20186 58004 81361=
201612071500 AAXX 07154 67741 NIL=
201612060600 AAXX 06064 67741 12680 50601 10232 20184 48533 60014 81530
                   333 10326 20213 58005 81635 85361
                   555 00202=
201612020600 AAXX 02064 67741 32980 02701 10278 20186 48521
                   333 10361 20220 59030
                   555 00193=
201612010600 AAXX 01064 67741 12980 10000 10240 20183 48542 60024 81030
                   333 10318 20186 59005 81361
                   555 00178=

################################################################################
#  SYNOPS from 67743, Livingstone (Zambia) | 17-49S | 025-49E | 985 m
################################################################################
201612300600 AAXX 30064 67743 12580 60907 10234 20200 48529 60034 81130
                   333 10328 20200 58004 81835 86358 91020=
201612280600 AAXX 28064 67743 12980 70904 10232 20198 48528 60064 84038
                   333 10326 20205 58008 84359 87080
                   555 00/// 91019=
201612271200 AAXX 27124 67743 41758 70511 10216 20184 48506 79598 81901
                   333 59003 81950 86850 82080 91017=
201612230600 AAXX 23064 67743 NIL=
201612220600 AAXX 22064 67743 NIL=
201612210600 AAXX 21064 67743 32980 70305 10247 20201 48494 70320 81101
                   333 10326 20203 58001 81830 87080 91015=
201612200900 AAXX 20094 67743 NIL=
201612150600 AAXX 15064 67743 NIL=
201612140600 AAXX 14064 67743 NIL=
201612071500 AAXX 07154 67743 NIL=
201612020600 AAXX 02064 67743 NIL=

################################################################################
#  SYNOPS from 67751, Magoye (Zambia) | 16-00S | 027-36E | 1018 m
################################################################################
201612271200 AAXX 27124 67751 NIL=
201612230600 AAXX 23064 67751 32980 30000 10250 20191 48/// 81031
                   333 10321 20204 58005 81360 82080=
201612220600 AAXX 22064 67751 NIL=
201612200900 AAXX 20094 67751 NIL=
201612160600 AAXX 16064 67751 32980 70403 10233 20204 8707/
                   333 10288 20207 58002 87360
                   555 00200=
201612150600 AAXX 15064 67751 NIL=
201612140600 AAXX 14064 67751 12480 60305 10235 20203 48/// 60234 81136
                   333 10254 20205 58005 81812 81360 85280
                   555 00192=
201612071500 AAXX 07154 67751 NIL=
201612020600 AAXX 02064 67751 32980 00803 10258 20174 48///
                   333 10338 20184 59021
                   555 00173=

################################################################################
#  SYNOPS from 67753, Choma (Zambia) | 16-50S | 027-04E | 1213 m
################################################################################
201612300600 AAXX 30064 67753 12560 51012 10227 20193 48532 69974 82531
                   333 10264 20170 58003 82620 85360 81080
                   555 00///=
201612271200 AAXX 27124 67753 NIL=
201612230600 AAXX 23064 67753 32960 50000 10226 20196 48523 81031
                   333 10294 20182 58004=
201612220600 AAXX 22064 67753 32960 71106 10211 20179 48521 8707/
                   333 10267 20186 58011 87459=
201612210600 AAXX 21064 67753 32360 61804 10211 20193 48501 83630
                   333 10286 20190 58007 83709 83360=
201612200900 AAXX 20094 67753 NIL=
201612200600 AAXX 20064 67753 12460 70000 10214 20199 48501 60084 87500
                   333 10244 20196 59007 87615=
201612190600 AAXX 19064 67753 32360 80000 10206 20187 48500 886//
                   333 10264 20186 59012 88707=
201612150600 AAXX 15064 67753 NIL=
201612140600 AAXX 14064 67753 12580 71603 10216 20189 48531 60044 87200
                   333 10256 20190 58002 87825=
201612120600 AAXX 12064 67753 12480 70502 10191 20164 48528 60014 83570
                   333 10277 20182 58005 83615 84459=
201612080600 AAXX 08064 67753 32960 00606 10232 20167 48542
                   333 10300 20170 58009=
201612071500 AAXX 07154 67753 NIL=
201612060600 AAXX 06064 67753 32480 52610 10214 20166 48540 83530
                   333 10306 20174 58004 85615 82360
                   555 00///=
201612020600 AAXX 02064 67753 32960 00000 10262 20125 48515
                   333 10327 20172 59024=

################################################################################
#  SYNOPS from 67855, Lupaki (Zambia) | 17-03-00S | 024-46-00E | 1000 m
################################################################################
201612310600 AAXX 31064 67855 12575 50406 10224 20198 38/// 48/// 60144 81572
                   333 20192 5//// 81625 85359=
201612300600 AAXX 30064 67855 NIL=
201612291200 AAXX 29124 67855 41670 52901 10300 20186 3//// 48/// 71792 85233
                   333 5//// 81940 84845=
201612290600 AAXX 29064 67855 12975 70903 10222 20193 3//// 48/// 60024 80002
                   333 20190 5//// 87080=
201612281800 AAXX 28184 67855 NIL=
201612281200 AAXX 28124 67855 41675 53401 10308 20197 3//// 48/// 79598 85233
                   333 5//// 81935 84840=
201612280600 AAXX 28064 67855 12975 50301 10238 20195 3//// 48/// 60014 82031
                   333 20191 5//// 82360 85080=
201612271200 AAXX 27124 67855 NIL=
201612270600 AAXX 27064 67855 32975 70402 10242 20192 3//// 48/// 8703/
                   333 20190 5//// 87360=
201612261200 AAXX 26124 67855 NIL=
201612260600 AAXX 26064 67855 12975 70301 10206 20176 3//// 48/// 60134 85072
                   333 20186 5//// 85360 87080=
201612251800 AAXX 25184 67855 NIL=
201612251200 AAXX 25124 67855 NIL=
201612250600 AAXX 25064 67855 12975 70903 10242 20208 3//// 48/// 60114 81031
                   333 20208 5//// 81360 87080=
201612241800 AAXX 24184 67855 NIL=
201612241200 AAXX 24124 67855 41975 70000 10270 20210 3//// 48/// 70298 85032
                   333 5//// 85360 87080=
201612240600 AAXX 24064 67855 11570 82002 10218 20208 3//// 48/// 60024 79598 84273
                   333 20210 5//// 81920 83825 88458=
201612231800 AAXX 23184 67855 NIL=
201612231200 AAXX 23124 67855 NIL=
201612230600 AAXX 23064 67855 12975 60000 10260 20190 3//// 48/// 69904 81031
                   333 20188 5//// 81360 86080=
201612221800 AAXX 22184 67855 NIL=
201612221200 AAXX 22124 67855 NIL=
201612220600 AAXX 22064 67855 32975 73301 10244 20201 3//// 48/// 81032
                   333 20209 5//// 81360 87080=
201612211800 AAXX 21184 67855 NIL=
201612211200 AAXX 21124 67855 42775 50303 10334 20169 3//// 48/// 85202
                   333 5//// 85856=
201612210600 AAXX 21064 67855 32575 33605 10250 20201 3//// 48/// 81501
                   333 20200 5//// 81625 83080=
201612201800 AAXX 20184 67855 NIL=
201612201200 AAXX 20124 67855 42775 50000 10334 20155 3//// 48/// 85200
                   333 5//// 85856=
201612200600 AAXX 20064 67855 32975 10301 10252 20198 3//// 48/// 80001
                   333 20200 5//// 81080=
201612191800 AAXX 19184 67855 NIL=
201612191200 AAXX 19124 67855 42775 70000 10302 20168 3//// 48/// 85232
                   333 5//// 85850 87080=
201612190600 AAXX 19064 67855 32575 60904 10238 20175 3//// 48/// 81531
                   333 20174 5//// 81625 86080=
201612181800 AAXX 18184 67855 NIL=
201612181200 AAXX 18124 67855 NIL=
201612180600 AAXX 18064 67855 NIL=
201612171800 AAXX 17184 67855 NIL=
201612171200 AAXX 17124 67855 41775 41902 10296 20185 3//// 48/// 70161 84200
                   333 5//// 84850=
201612170600 AAXX 17064 67855 11970 72001 10214 20200 3//// 48/// 60304 76062 8707/
                   333 20198 5//// 87459=
201612161800 AAXX 16184 67855 NIL=
201612161200 AAXX 16124 67855 NIL=
201612160600 AAXX 16064 67855 12975 70000 10238 20200 3//// 69904 8703/
                   333 20194 87360=
201612151800 AAXX 15184 67855 NIL=
201612151200 AAXX 15124 67855 42675 50305 10300 20183 3//// 85231
                   333 5//// 85840 85360=
201612150600 AAXX 15064 67855 12975 60403 10232 20179 3//// 48/// 60254 86071
                   333 20189 5//// 86360=
201612141800 AAXX 14184 67855 NIL=
201612141200 AAXX 14124 67855 41575 80000 10194 20188 3//// 48/// 72598 8557/
                   333 5//// 85620 88459=
201612140600 AAXX 14064 67855 12575 80000 10216 20193 3//// 48/// 8557/
                   333 20202 5//// 85620 88360=
201612131800 AAXX 13184 67855 NIL=
201612131200 AAXX 13124 67855 NIL=
201612130600 AAXX 13064 67855 12575 70601 10220 20176 3//// 48/// 60084 83572
                   333 20190 5//// 83620 85360 87080=
201612121800 AAXX 12184 67855 NIL=
201612121200 AAXX 12124 67855 NIL=
201612120600 AAXX 12064 67855 12575 50703 10230 20183 3//// 48/// 60074 85531
                   333 20203 5//// 85620 83360=
201612111200 AAXX 11124 67855 41675 73401 10280 20177 3//// 48/// 70252 85232
                   333 5//// 85840 87080=
201612110600 AAXX 11064 67855 12975 70000 10216 20184 3//// 48/// 60174 85072
                   333 20190 5//// 85360 87080=
201612101800 AAXX 10184 67855 NIL=
201612101200 AAXX 10124 67855 41775 50000 10306 20165 3//// 48/// 72998 83233
                   333 5//// 81945 83850 85360=
201612100600 AAXX 10064 67855 11970 70000 10228 20116 3//// 48/// 60024 8707/ 76062
                   333 20203 5//// 87458=
201612091800 AAXX 09184 67855 NIL=
201612091200 AAXX 09124 67855 42875 50503 10328 20150 3//// 48/// 85232
                   333 5//// 85857=
201612090600 AAXX 09064 67855 12975 33602 10256 20173 3//// 48/// 69904 84030
                   333 20189 5//// 84360=
201612081800 AAXX 08184 67855 NIL=
201612081200 AAXX 08124 67855 41875 50704 10348 20138 3//// 48/// 70281 85230
                   333 5//// 85857=
201612080600 AAXX 08064 67855 32975 03608 10262 20169 3//// 48///
                   333 20179 5////=
201612071800 AAXX 07184 67855 NIL=
201612071200 AAXX 07124 67855 42875 52001 10342 20140 3//// 48/// 85200
                   333 5//// 85857=
201612070600 AAXX 07064 67855 NIL=
201612061800 AAXX 06184 67855 NIL=
201612061200 AAXX 06124 67855 41770 53603 10308 20151 3//// 48/// 70511 85231
                   333 5//// 85856=
201612060600 AAXX 06064 67855 31570 31403 10246 20168 3//// 48/// 70500 81532
                   333 20188 5//// 81620 83360=
201612051200 AAXX 05124 67855 42775 51703 10338 20126 3//// 48/// 85201
                   333 5//// 85856=
201612041800 AAXX 04184 67855 NIL=
201612041200 AAXX 04124 67855 NIL=
201612040600 AAXX 04064 67855 12575 70000 10250 20173 3//// 48/// 60024 81502
                   333 20189 5//// 81620 87080=
201612031200 AAXX 03124 67855 42875 52802 10360 20123 3//// 48/// 85232
                   333 5//// 85857=
201612030600 AAXX 03064 67855 12975 60603 10282 20162 3//// 48/// 69904 81032
                   333 20211 5//// 81360 86080=
201612021800 AAXX 02184 67855 NIL=
201612020600 AAXX 02064 67855 32975 10402 10296 20130 3//// 48/// 80002
                   333 20184 5//// 81080=
201612011800 AAXX 01184 67855 NIL=
201612011200 AAXX 01124 67855 42875 51403 10372 20080 3//// 48/// 82102
                   333 5//// 82857 85080=
201612010600 AAXX 01064 67855 32975 32701 10280 20178 3//// 48/// 80002
                   333 20199 5//// 83080=
