################################################################################
# Query made at 04/06/2022 07:19:07 UTC
# Country like Zamb*
# Time interval: from 03/31/2021 23:30  to 05/01/2021 23:30  UTC
################################################################################

################################################################################
#  SYNOPS from 67403, Kawambwa (Zambia) | 09-48S | 029-05E | 1323 m
################################################################################
202104270900 AAXX 27094 67403 NIL=
202104200900 AAXX 20094 67403 NIL=
202104151200 AAXX 15124 67403 NIL=
202104141200 AAXX 14124 67403 NIL=
202104090900 AAXX 09094 67403 NIL=
202104090600 AAXX 09064 67403 11375 51203 10195 20172 48517 60114 70322 81631
                   333 10289 20174 59019 81707 82360 85080
                   555 00/// 20027=
202104080600 AAXX 08064 67403 11475 41203 10189 20171 48534 60274 70320 81631
                   333 10284 20174 58005 81610 84368 81080
                   555 00/// 20044=

################################################################################
#  SYNOPS from 67413, Mbala (Zambia) | 08-51S | 031-20E | 1673 m
################################################################################
202104270900 AAXX 27094 67413 NIL=
202104260600 AAXX 26064 67413 32580 70815 10180 20165 48539 70222 83501
                   333 10170 20150 59001 83625 86030
                   555 00198 91023=
202104220600 AAXX 22064 67413 32480 71209 10185 20154 48555 8457/
                   333 10250 20166 58009 84612 87356
                   555 00220 91026=
202104200900 AAXX 20094 67413 NIL=
202104151200 AAXX 15124 67413 NIL=
202104141200 AAXX 14124 67413 NIL=
202104090900 AAXX 09094 67413 NIL=

################################################################################
#  SYNOPS from 67441, Mwinilunga (Zambia) | 11-45S | 024-26E | 1361 m
################################################################################
202104270900 AAXX 27094 67441 NIL=
202104200900 AAXX 20094 67441 NIL=
202104151200 AAXX 15124 67441 NIL=
202104141200 AAXX 14124 67441 NIL=
202104090900 AAXX 09094 67441 NIL=
202104090600 AAXX 09064 67441 12980 70000 10185 20165 48555 69914 8703/
                   333 10265 20165 59017 87360=
202104080600 AAXX 08064 67441 11380 80000 10180 20171 48572 60454 72166 8372/
                   333 10305 20120 58007 83709 88460=

################################################################################
#  SYNOPS from 67461, Mansa (Zambia) | 11-06S | 028-51E | 1382 m
################################################################################
202104280600 AAXX 28064 67461 32980 71209 10190 20179 48501 8707/
                   333 10289 20143 59011 87360 91016=
202104270900 AAXX 27094 67461 NIL=
202104260600 AAXX 26064 67461 32980 71306 10195 20180 48512 8703/
                   333 10296 20138 58000 87360 91018=
202104220900 AAXX 22094 67461 42680 51320 10255 20170 48538 84230
                   333 59011 84846 82360 91020=
202104220600 AAXX 22064 67461 32580 41313 10205 20170 48545 84530
                   333 10269 20129 58002 84620 81360 91021=
202104210600 AAXX 21064 67461 32580 51216 10192 20164 48543 85500
                   333 10257 20120 58005 85620 91021=
202104200900 AAXX 20094 67461 42580 72115 10229 20162 48544 875//
                   333 58000 87625 91021=
202104200600 AAXX 20064 67461 32480 70817 10177 20155 48536 875//
                   333 10262 20112 59003 87612 91021=
202104191200 AAXX 19124 67461 42680 40620 10254 20155 48528 84200
                   333 59008 84247 91019=
202104190900 AAXX 19094 67461 42580 70715 10223 20148 48544 875//
                   333 59008 87620 91021=
202104160900 AAXX 16094 67461 42680 71113 10236 20158 48518 8153/
                   333 58000 81630 87360 91019=
202104151200 AAXX 15124 67461 NIL=
202104150900 AAXX 15094 67461 42680 71215 10250 20165 48518 83531
                   333 59009 83635 86360 81080 91019=
202104150600 AAXX 15064 67461 32380 51209 10180 20164 48520 81531
                   333 10270 20138 59008 81606 84360 81080 91019=
202104141200 AAXX 14124 67461 NIL=
202104140900 AAXX 14094 67461 42680 71019 10245 20168 48527 82831
                   333 59001 81630 81832 84360 82080 91019=
202104090900 AAXX 09094 67461 42680 61313 10240 20170 48526 86230
                   333 59021 86846 81360 91019=
202104090600 AAXX 09064 67461 32580 21215 10196 20160 48533 81530
                   333 10272 59031 81620 82360
                   555 00/// 91019=
202104080600 AAXX 08064 67461 32580 41203 10196 20165 48553 82530
                   333 10272 20141 58026 82620 83360
                   555 00/// 91023=

################################################################################
#  SYNOPS from 67469, Samfya (Zambia) | 11-22S | 029-54E | 1171 m
################################################################################
202104300900 AAXX 30094 67469 42480 20906 10258 20200 48/// 82130
                   333 5//// 82818 81360=
202104291200 AAXX 29124 67469 42680 41006 10270 20200 48/// 81932
                   333 5//// 81935 84840 81360 81280=
202104290900 AAXX 29094 67469 42580 21007 10260 20210 48/// 82500
                   333 5//// 81624 83835=
202104280600 AAXX 28064 67469 12480 61208 10212 20190 48/// 60084 82532
                   333 10264 20209 5//// 82613 86360 82280=
202104271200 AAXX 27124 67469 42580 50704 10259 20200 48/// 83230
                   333 5//// 83824 82360=
202104270900 AAXX 27094 67469 42580 60905 10240 20190 48/// 82230
                   333 5//// 82824 86360=
202104270600 AAXX 27064 67469 32980 61406 10216 20180 48/// 86030
                   333 10259 20197 86360=
202104260900 AAXX 26094 67469 42580 61006 10256 20190 48/// 81230
                   333 5//// 81824 86360=
202104260600 AAXX 26064 67469 32980 61107 10223 20180 48/// 86030
                   333 10267 20186 5//// 86360=
202104230900 AAXX 23094 67469 42580 41213 10245 20180 48/// 82500
                   333 5//// 82623 84835=
202104221200 AAXX 22124 67469 42580 31006 10255 20190 48/// 83230
                   333 5//// 83824 81360=
202104220900 AAXX 22094 67469 42680 51303 10232 20166 48/// 70322 84230
                   333 58001 84835 82360=
202104210600 AAXX 21064 67469 32480 51415 10205 20180 48/// 85530
                   333 10245 20188 5//// 85613 81360=
202104200900 AAXX 20094 67469 42480 31108 10225 20180 48/// 83131
                   333 5//// 83818 81360 81080=
202104200600 AAXX 20064 67469 32480 51407 10199 20160 48/// 85531
                   333 10239 20178 5//// 85613 82360 81080=
202104151200 AAXX 15124 67469 NIL=
202104150600 AAXX 15064 67469 32980 70910 10215 20190 48/// 84030
                   333 10253 20199 5//// 84360=
202104141200 AAXX 14124 67469 NIL=
202104140600 AAXX 14064 67469 32580 70915 10217 20190 48/// 86530
                   333 10266 20199 5//// 86620 81362=
202104090900 AAXX 09094 67469 42680 60905 10240 20180 48/// 83201
                   333 5//// 83830 83080=
202104090600 AAXX 09064 67469 32580 60910 10211 20170 48/// 84530
                   333 10277 20193 5//// 84610 81361=
202104080600 AAXX 08064 67469 32580 60910 10212 20170 48/// 84530
                   333 10266 20195 5//// 84620 82360=
202104071200 AAXX 07124 67469 42680 60910 10225 20180 48/// 85201
                   333 5//// 85830 81080=
202104070900 AAXX 07094 67469 42580 60913 10242 20190 48/// 85230
                   333 5//// 85820 81360=
202104061200 AAXX 06124 67469 41680 72710 10243 20210 48/// 71692 85230
                   333 5//// 85840 82360=

################################################################################
#  SYNOPS from 67475, Kasama (Zambia) | 10-13S | 031-08E | 1382 m
################################################################################
202104300900 AAXX 30094 67475 42680 60703 10259 20166 48524 82830
                   333 59015 82830 84360 83080 91020=
202104291200 AAXX 29124 67475 41660 60909 10273 20170 48502 75055 862//
                   333 58004 81935 86835 91017=
202104290900 AAXX 29094 67475 42560 51009 10259 20176 48530 85831
                   333 58008 83620 83824 83360 82080 91021=
202104280600 AAXX 28064 67475 32480 40809 10217 20177 48519 84501
                   333 10//0 20166 5//// 84612 81080 91020=
202104271200 AAXX 27124 67475 42660 40806 10291 20151 48497 84201
                   333 59008 84835 82080 91017=
202104270900 AAXX 27094 67475 42560 51314 10257 20168 48528 84201
                   333 59004 84820 82080 91020=
202104270600 AAXX 27064 67475 32460 50809 10219 20178 48/// 84831
                   333 10//0 20159 5//// 83612 82814 84360 82080=
202104260900 AAXX 26094 67475 42560 40911 10261 20153 48532 83131
                   333 59002 83820 83360 81080 91021=
202104260600 AAXX 26064 67475 32360 40808 10202 20171 48528 82360
                   333 1//// 20148 59003 82707 84360 91021=
202104230900 AAXX 23094 67475 42580 71203 10238 20198 48536 876//
                   333 59014 87720 91021=
202104221200 AAXX 22124 67475 42680 70703 10270 20172 48525 872//
                   333 58000 87830 91020=
202104220900 AAXX 22094 67475 42580 60907 10243 20179 48550 8563/
                   333 58002 85720 84360 91023=
202104220600 AAXX 22064 67475 11480 71303 10190 20186 48550 69904 8463/
                   333 1//// 20164 58003 84715 85360 91023=
202104210600 AAXX 21064 67475 32360 71013 10184 20157 48546 8365/
                   333 1//// 20151 59001 83709 86360 91023=
202104200900 AAXX 20094 67475 42460 61611 10231 20152 48546 868//
                   333 58005 85618 82820 91023=
202104200600 AAXX 20064 67475 32460 80914 10166 20150 48540 885//
                   333 1//// 20136 59005 88612 91022=
202104191200 AAXX 19124 67475 42560 61208 10224 20151 48528 868//
                   333 59009 84624 84826 91021=
202104151200 AAXX 15124 67475 NIL=
202104150600 AAXX 15064 67475 32480 71103 10198 20168 48536 83631
                   333 1//// 20163 59005 83620 84360 82280 91022=
202104141200 AAXX 14124 67475 42680 71105 10248 20166 48521 84231
                   333 59008 84830 82360 83080 91020=
202104140900 AAXX 14094 67475 42580 60905 10244 20161 48533 83201
                   333 59007 83825 84080 91022=
202104140600 AAXX 14064 67475 32480 81205 10180 20167 48541 886//
                   333 10//0 20160 58000 88612 91022=
202104131200 AAXX 13124 67475 42660 51013 10256 20149 48530 84231
                   333 58000 84830 85360 83080 91021=
202104121200 AAXX 12124 67475 42660 50913 10267 20155 48531 84208
                   333 58011 81930 84830 85280 91021=
202104090900 AAXX 09094 67475 NIL=
202104090600 AAXX 09064 67475 32580 80903 10198 20164 48529 70322 83607
                   333 1//// 20160 59014 83625 83360 85280 91021=
202104080600 AAXX 08064 67475 32580 81203 10188 20167 48543 70322 84631
                   333 1//// 20166 58000 84625 83360 82080 91022=

################################################################################
#  SYNOPS from 67476, Misamfu (Zambia) | 10-06S | 031-15E | 1536 m
################################################################################
202104300900 AAXX 30094 67476 42680 40703 10253 20186 48/// 82230
                   333 59005 82833 83360=
202104280600 AAXX 28064 67476 32480 30702 10200 20180 48/// 70340 83130
                   333 10285 20155 5//// 83818 81360=
202104270900 AAXX 27094 67476 NIL=
202104270600 AAXX 27064 67476 31560 20601 10209 20180 48/// 72844 81132
                   333 10290 20137 5//// 81820 81360 81080=
202104260600 AAXX 26064 67476 32580 30703 10200 20171 48/// 70300 81132
                   333 10285 20145 5//// 81820 81360 82080=
202104230900 AAXX 23094 67476 42680 70903 10233 20165 48/// 871//
                   333 59014 87833=
202104220600 AAXX 22064 67476 12580 70902 10186 20165 48/// 60014 8113/
                   333 10267 20156 58005 81820 87360=
202104210900 AAXX 21094 67476 42680 70902 10220 20165 48/// 70322 8523/
                   333 58001 85832 87360=
202104210600 AAXX 21064 67476 32480 61103 10181 20159 48/// 70322 8117/
                   333 10247 20120 58002 81817 86360=
202104200900 AAXX 20094 67476 42680 71503 10220 20159 48/// 871//
                   333 58000 87835=
202104200600 AAXX 20064 67476 32580 71203 10167 20145 48/// 70222 875//
                   333 10227 20121 59005 87620=
202104190900 AAXX 19094 67476 42680 71103 10209 20153 48/// 871//
                   333 5//// 87833=
202104161200 AAXX 16124 67476 41675 51301 10258 20175 48/// 71522 84202
                   333 59003 84845 82080=
202104151200 AAXX 15124 67476 42680 71201 10250 20176 48/// 70322 8523/
                   333 59009 85848 83360=
202104150900 AAXX 15094 67476 42680 70902 10230 20168 48/// 874//
                   333 59003 87635=
202104150600 AAXX 15064 67476 12580 71103 10190 20168 48/// 69904 8643/
                   333 10256 20156 59005 86620 87360=
202104141200 AAXX 14124 67476 41668 71201 10241 20174 48/// 71622 84272
                   333 59009 84845 85460=
202104140900 AAXX 14094 67476 42680 71002 10240 20166 48/// 86131
                   333 59006 86833 81360 83080=
202104140600 AAXX 14064 67476 11480 71404 10190 20164 48/// 69904 75052 8148/
                   333 10261 20155 59001 81615 81818 87358=
202104131200 AAXX 13124 67476 42680 51802 10246 20157 48/// 84232
                   333 58004 84848 82360 81080=
202104090900 AAXX 09094 67476 NIL=
202104090600 AAXX 09064 67476 32480 61602 10189 20165 48/// 82401
                   333 10252 20148 59016 82618 84820 82080
                   555 00/// 20991=
202104080600 AAXX 08064 67476 12580 71602 10188 20170 48/// 69914 8413/
                   333 10265 20155 59001 84820 87360=

################################################################################
#  SYNOPS from 67477, Mpika (Zambia) | 11-54S | 031-26E | 1400 m
################################################################################
202104300900 AAXX 30094 67477 42580 40903 10252 20172 48536 84131
                   333 59001 84825 82361 82080=
202104291200 AAXX 29124 67477 42680 31202 10269 20153 48510 83201
                   333 58001 83830 82080=
202104290900 AAXX 29094 67477 42580 50904 10239 20167 48537 84231
                   333 58010 84820 81360 82080=
202104280600 AAXX 28064 67477 32480 31208 10208 20171 48520 82131
                   333 10276 20169 59006 82813 81359 81080=
202104271200 AAXX 27124 67477 42680 20905 10258 20156 48506 82101
                   333 59006 82834 82080=
202104270900 AAXX 27094 67477 42580 51206 10238 20162 48525 81131
                   333 59007 81824 85360 82080=
202104260900 AAXX 26094 67477 42580 61205 10243 20158 48532 82130
                   333 59002 82825 85360=
202104260600 AAXX 26064 67477 32480 61206 10198 20168 48533 81130
                   333 10268 20158 59006 81814 86359=
202104221200 AAXX 22124 67477 42630 40908 10245 20162 48537 84200
                   333 59001 84835=
202104220900 AAXX 22094 67477 42680 30909 10230 20169 48560 83130
                   333 58001 83830 81360=
202104220600 AAXX 22064 67477 32380 51207 10176 20157 48556 82630
                   333 10238 20145 59003 82709 85359=
202104210600 AAXX 21064 67477 32480 61209 10166 20148 48558 86500
                   333 10241 20149 58009 86610=
202104201200 AAXX 20124 67477 42680 40905 10225 20162 48539 84200
                   333 58001 84830=
202104200900 AAXX 20094 67477 42580 41210 10204 20157 48554 84501
                   333 58000 84625 81080=
202104200600 AAXX 20064 67477 32480 31209 10175 20149 48550 82501
                   333 10235 20142 59005 82615 82080=
202104191200 AAXX 19124 67477 42680 31209 10218 20147 48538 83100
                   333 59013 83837=
202104190900 AAXX 19094 67477 42580 20908 10205 20148 48554 82100
                   333 59003 82827=
202104151200 AAXX 15124 67477 42680 51203 10239 20156 48523 85201
                   333 59015 85830 82080=
202104150600 AAXX 15064 67477 12480 31208 10186 20161 48539 69904 82531
                   333 10234 20147 59012 82612 81349 81080=
202104141200 AAXX 14124 67477 42580 61201 10218 20157 48538 85131
                   333 59001 85828 82361 82080=
202104140900 AAXX 14094 67477 41580 61202 10196 20162 48542 72052 86531
                   333 5//// 86620 82360 82080=
202104140600 AAXX 14064 67477 11480 81205 10176 20163 48550 69904 72052 885//
                   333 10234 20163 59002 88611=
202104121200 AAXX 12124 67477 42580 61202 10237 20168 48541 85131
                   333 5//// 85825 82364 82080=
202104091200 AAXX 09124 67477 42680 40907 10244 20168 48552 84200
                   333 59024 84836=
202104090900 AAXX 09094 67477 42580 31207 10228 20165 48541 83500
                   333 59021 83627=
202104090600 AAXX 09064 67477 32480 21208 10179 20149 48549 82501
                   333 10245 20144 59026 82616 81080
                   555 00/// 20000=
202104080600 AAXX 08064 67477 32480 31210 10178 20147 48568 83500
                   333 10241 20149 59005 83613
                   555 00/// 20000=
202104060900 AAXX 06094 67477 42580 60906 10234 20174 48602 86500
                   333 5//// 86625=

################################################################################
#  SYNOPS from 67481, Isoka (Zambia) | 10-07S | 032-38E | 1360 m
################################################################################
202104280600 AAXX 28064 67481 32980 33002 10204 20182 48/// 83030
                   333 10292 20164 5//// 83360=
202104270900 AAXX 27094 67481 NIL=
202104260600 AAXX 26064 67481 23480 52002 10212 20186 48/// 82130
                   333 10272 20162 5//// 82810 85360=
202104220600 AAXX 22064 67481 11480 60302 10180 20166 48/// 69924 72162 84530
                   333 10251 20170 5//// 84610 86360=
202104210600 AAXX 21064 67481 32480 81203 10183 20165 48/// 885//
                   333 10240 20163 5//// 88610=
202104200900 AAXX 20094 67481 NIL=
202104200600 AAXX 20064 67481 12480 82002 10158 20152 48/// 69904 885//
                   333 10253 20153 5//// 88610=
202104151200 AAXX 15124 67481 NIL=
202104150600 AAXX 15064 67481 32480 72002 10188 20172 48/// 875//
                   333 10252 20165 5//// 87610=
202104141200 AAXX 14124 67481 NIL=
202104090900 AAXX 09094 67481 NIL=
202104090600 AAXX 09064 67481 12480 60301 10196 20176 48/// 86500
                   333 10268 20171 5//// 86610
                   555 00/// 20019=
202104080600 AAXX 08064 67481 12480 70000 10180 20165 48/// 60194 875//
                   333 10252 20160 5//// 87610
                   555 00/// 20000=

################################################################################
#  SYNOPS from 67531, Zambezi (Zambia) | 13-32S | 023-07E | 1077 m
################################################################################
202104300900 AAXX 30094 67531 42980 71206 10266 20193 48/// 8703/
                   333 59002 87362=
202104290900 AAXX 29094 67531 42980 70808 10265 20187 48/// 8707/
                   333 58005 87362=
202104280600 AAXX 28064 67531 32980 50000 10176 20170 48/// 85030
                   333 10307 20141 59009 85362=
202104271200 AAXX 27124 67531 42780 61005 10298 20182 48/// 85230
                   333 59005 85850 82362=
202104270900 AAXX 27094 67531 42980 61004 10260 20190 48/// 8603/
                   333 59006 86362=
202104260900 AAXX 26094 67531 42680 10708 10280 20173 48/// 81130
                   333 59002 81843 81362=
202104260600 AAXX 26064 67531 32980 21204 10206 20167 48/// 82030
                   333 10310 20162 59004 82362=
202104221200 AAXX 22124 67531 42680 41606 10292 20173 48/// 83230
                   333 58001 83849 82362=
202104220900 AAXX 22094 67531 42980 30906 10265 20162 48/// 83030
                   333 58004 83362=
202104220600 AAXX 22064 67531 32980 31007 10195 20153 48/// 82031
                   333 10301 20152 58004 82362 82080=
202104210600 AAXX 21064 67531 32980 11206 10175 20145 48/// 81030
                   333 10289 20140 58001 81362=
202104200900 AAXX 20094 67531 42980 31207 10240 20139 48/// 83030
                   333 58000 83362=
202104200600 AAXX 20064 67531 32980 31006 10170 20131 48/// 83030
                   333 10288 20136 59001 83362=
202104190900 AAXX 19094 67531 42680 21006 10246 20157 48/// 82100
                   333 5//// 82840=
202104151200 AAXX 15124 67531 NIL=
202104150900 AAXX 15094 67531 42980 71008 10258 20157 48/// 8703/
                   333 59016 87362=
202104150600 AAXX 15064 67531 12980 71105 10193 20167 48/// 60024 8703/
                   333 10300 20172 59015 87360=
202104141200 AAXX 14124 67531 NIL=
202104140900 AAXX 14094 67531 42680 20904 10270 20167 48/// 81130
                   333 59001 81842 82362=
202104121200 AAXX 12124 67531 42780 30907 10300 20177 48/// 83101
                   333 5//// 83850 81082=
202104091200 AAXX 09124 67531 42780 21203 10286 20131 48/// 81131
                   333 5//// 81856 82362 81082=
202104090900 AAXX 09094 67531 42980 11006 10258 20128 48/// 81031
                   333 59019 81362 81082=
202104090600 AAXX 09064 67531 32980 41103 10191 20152 48/// 84031
                   333 10305 20144 59017 84362 81081=
202104080600 AAXX 08064 67531 32980 30903 10210 20173 48/// 81031
                   333 10311 20143 58020 81362 83082
                   555 00/// 20000=
202104071200 AAXX 07124 67531 42780 30903 10295 20178 48/// 81101
                   333 58015 81850 83082=
202104070900 AAXX 07094 67531 42980 60905 10272 20174 48/// 80008
                   333 58010 86282=
202104061200 AAXX 06124 67531 42880 11306 10301 20138 48/// 81101
                   333 5//// 81857 81082=
202104060900 AAXX 06094 67531 42980 10904 10277 20165 48/// 80001
                   333 5//// 81082=

################################################################################
#  SYNOPS from 67541, Kasempa (Zambia) | 13-32S | 025-51E | 1234 m
################################################################################
202104300900 AAXX 30094 67541 42480 70503 10240 20195 48/// 8323/
                   333 5//// 83819 87360=
202104280600 AAXX 28064 67541 12980 30000 10220 20190 48/// 60034 83030
                   333 10269 20150 5//// 83360=
202104271200 AAXX 27124 67541 42480 70000 10243 20202 48/// 8323/
                   333 5//// 83818 87360=
202104270900 AAXX 27094 67541 42980 70000 10240 20196 48/// 8703/
                   333 5//// 87360=
202104260900 AAXX 26094 67541 42980 70000 10250 20198 48/// 87030
                   333 5//// 87360=
202104260600 AAXX 26064 67541 32980 70000 10180 20164 48/// 8703/
                   333 10284 20136 5//// 87360=
202104230900 AAXX 23094 67541 42980 30505 10255 20188 48/// 83030
                   333 5//// 83360=
202104210600 AAXX 21064 67541 32980 70000 10150 20150 48/// 8703/
                   333 10274 20130 5//// 87360=
202104200900 AAXX 20094 67541 NIL=
202104200600 AAXX 20064 67541 32980 40000 10155 20129 48/// 80004
                   333 10270 20100 5//// 84080=
202104151200 AAXX 15124 67541 NIL=
202104150600 AAXX 15064 67541 32980 70000 10170 20153 48/// 8703/
                   333 10272 20160 5//// 87360=
202104141200 AAXX 14124 67541 NIL=
202104130900 AAXX 13094 67541 42980 70503 10245 20185 48/// 87030
                   333 5//// 87360=
202104121200 AAXX 12124 67541 42680 50000 10272 20196 48/// 70222 85200
                   333 5//// 85832=
202104091200 AAXX 09124 67541 42980 70000 10260 20168 48/// 70222 87030
                   333 5//// 87360=
202104090900 AAXX 09094 67541 NIL=
202104090600 AAXX 09064 67541 32980 70000 10175 20150 48/// 70222 87030
                   333 10290 20120 5//// 87360=
202104080600 AAXX 08064 67541 32980 20000 10185 20161 48/// 70222 80002
                   333 10296 20120 5//// 82080
                   555 00///=
202104071200 AAXX 07124 67541 42680 40000 10270 20197 48/// 70222 84200
                   333 5//// 84830=
202104061200 AAXX 06124 67541 42680 20000 10280 20192 48/// 70222 82100
                   333 5//// 82835=
202104060900 AAXX 06094 67541 42980 40000 10270 20180 48/// 70222 80004
                   333 5//// 84080=

################################################################################
#  SYNOPS from 67543, Kabompo (Zambia) | 13-36S | 024-12E | 1075 m
################################################################################
202104280600 AAXX 28064 67543 32980 40000 10206 20178 48/// 84030
                   333 10308 20170 5//// 84361=
202104270900 AAXX 27094 67543 NIL=
202104270600 AAXX 27064 67543 12980 70000 10190 20178 48/// 69904 8705/
                   333 10314 20174 5//// 87361=
202104260600 AAXX 26064 67543 12980 60000 10206 20179 48/// 60014 86030
                   333 10302 20174 5//// 86361=
202104220600 AAXX 22064 67543 32980 30000 10174 20153 48/// 80005
                   333 10300 20136 5//// 83280=
202104200900 AAXX 20094 67543 NIL=
202104200600 AAXX 20064 67543 32980 70000 10160 20134 48/// 86031
                   333 10314 20128 5//// 86362 82085=
202104151200 AAXX 15124 67543 NIL=
202104141200 AAXX 14124 67543 NIL=
202104140600 AAXX 14064 67543 32960 61102 10224 20170 48/// 86030
                   333 10312 20162 5//// 86362=
202104090900 AAXX 09094 67543 NIL=
202104090600 AAXX 09064 67543 32980 70000 10178 20156 48/// 86031
                   333 10286 20152 5//// 86362 82080
                   555 00///=
202104080600 AAXX 08064 67543 32980 70000 10204 20168 48/// 86035
                   333 10316 20154 5//// 86360 83280
                   555 00///=

################################################################################
#  SYNOPS from 67551, Solwezi (Zambia) | 12-11S | 026-23E | 1386 m
################################################################################
202104270900 AAXX 27094 67551 NIL=
202104260600 AAXX 26064 67551 11980 70905 10180 20162 48527 69904 76062 8707/
                   333 10248 20155 59008 87362 91020=
202104230900 AAXX 23094 67551 42580 41805 10244 20171 48532 84100
                   333 59018 84825 91020=
202104220600 AAXX 22064 67551 32980 31506 10171 20139 48549 83031
                   333 10266 20150 58010 83362 81080 91023=
202104210600 AAXX 21064 67551 32380 61505 10159 20150 48538 86500
                   333 10254 20142 58001 86706 91022=
202104200900 AAXX 20094 67551 NIL=
202104200600 AAXX 20064 67551 32980 61505 10141 20124 48536 86036
                   333 10249 20120 59007 86362 85280 91022=
202104190900 AAXX 19094 67551 42480 41207 10201 20139 48545 84100
                   333 59003 84815 91022=
202104160600 AAXX 16064 67551 32980 71305 10170 20148 48528 87030
                   333 10246 20158 59004 87362 91021=
202104151200 AAXX 15124 67551 NIL=
202104141200 AAXX 14124 67551 NIL=
202104130900 AAXX 13094 67551 52580 71506 10230 20176 48544 85130
                   333 59004 85825 87362 91023=
202104090900 AAXX 09094 67551 NIL=
202104090600 AAXX 09064 67551 32980 40906 10175 20142 48530 84030
                   333 10213 20149 59021 84362
                   555 00/// 20000 91020=
202104080600 AAXX 08064 67551 12375 61605 10180 20161 48568 69914 81630
                   333 10265 20167 58008 82705 83362
                   555 00/// 91023=

################################################################################
#  SYNOPS from 67561, Ndola (Zambia) | 13-00S | 028-39E | 1269 m
################################################################################
202104280600 AAXX 28064 67561 31959 11105 10199 20169 48522 70400 81030
                   333 10275 20153 59004 81360 91019=
202104270900 AAXX 27094 67561 42580 71207 10258 20168 48532 81230
                   333 59003 81820 87360 91020=
202104260600 AAXX 26064 67561 31959 70000 10198 20170 48529 70422 8703/
                   333 10295 20168 59006 87360 91020=
202104230900 AAXX 23094 67561 42680 50908 10246 20159 48537 85200
                   333 59020 85830 91021=
202104221200 AAXX 22124 67561 42680 50605 10279 20154 48529 85201
                   333 59002 85840 81080 91019=
202104220900 AAXX 22094 67561 42580 10609 10245 20147 48556 81130
                   333 58005 81820 81360 91023=
202104220600 AAXX 22064 67561 31960 10904 10185 20146 48553 70500 81030
                   333 10280 20133 58004 81360 91023=
202104210600 AAXX 21064 67561 31960 51206 10187 20143 48549 70522 80008
                   333 10257 20151 58005 85280 91023=
202104200900 AAXX 20094 67561 NIL=
202104200600 AAXX 20064 67561 31959 61104 10173 20142 48536 70422 80008
                   333 10266 20142 59013 86280 91022=
202104190900 AAXX 19094 67561 41470 31407 10215 20124 48552 70511 83530
                   333 59010 83615 82360 91023=
202104151200 AAXX 15124 67561 NIL=
202104150600 AAXX 15064 67561 31960 70000 10174 20142 48528 70522 87030
                   333 10254 20148 59013 87360 91021=
202104141200 AAXX 14124 67561 NIL=
202104140900 AAXX 14094 67561 42580 61111 10228 20152 48554 862//
                   333 59001 86825 91023=
202104131200 AAXX 13124 67561 42680 61706 10257 20142 48531 8523/
                   333 58001 81935 86360
                   555 91021=
202104130900 AAXX 13094 67561 42580 51311 10240 20152 48556 84230
                   333 59006 84820 84360
                   555 91023=
202104091200 AAXX 09124 67561 42780 61604 10263 20127 48514 86230
                   333 59014 86850 81360
                   555 91018=
202104090900 AAXX 09094 67561 42680 51106 10236 20138 48534 85230
                   333 59008 85835 81360 91020=
202104090600 AAXX 09064 67561 31959 50000 10174 20142 48531 70411 85030
                   333 10280 20128 59016 85360 91021=
202104080600 AAXX 08064 67561 31959 30000 10185 20145 48547 70400 80002
                   333 10277 20140 58000 83080
                   555 00/// 91023=

################################################################################
#  SYNOPS from 67563, Kafironda (Zambia) | 12-36S | 028-07E | 1243 m
################################################################################
202104270900 AAXX 27094 67563 NIL=
202104260600 AAXX 26064 67563 31978 71402 10204 20170 48/// 70522 87030
                   333 10292 20150 59006 87360
                   555 00129=
202104220600 AAXX 22064 67563 32980 10302 10195 20164 48/// 70200 81030
                   333 10289 20116 58009 81361
                   555 00100=
202104200900 AAXX 20094 67563 NIL=
202104151200 AAXX 15124 67563 NIL=
202104141200 AAXX 14124 67563 NIL=
202104090900 AAXX 09094 67563 NIL=

################################################################################
#  SYNOPS from 67571, Serenje (Zambia) | 13-14S | 030-13E | 1384 m
################################################################################
202104280600 AAXX 28064 67571 32480 20903 10211 20164 48472 82530
                   333 10269 20156 59005 82615 81360=
202104271200 AAXX 27124 67571 42682 50606 10261 20151 48463 83230
                   333 59004 81940 83840 83360=
202104270900 AAXX 27094 67571 NIL=
202104260600 AAXX 26064 67571 32982 71202 10198 20156 48482 8703/
                   333 10272 20160 58019 87360=
202104221200 AAXX 22124 67571 42682 51205 10245 20164 48483 85230
                   333 59014 81935 85835 81360=
202104220600 AAXX 22064 67571 32982 11208 10178 20138 48501 81030
                   333 10227 20133 59002 81360=
202104210600 AAXX 21064 67571 32382 71508 10154 20139 48509 876//
                   333 10244 20131 58007 87708=
202104201200 AAXX 20124 67571 42682 71805 10220 20152 48482 8223/
                   333 59004 82830 87360=
202104200900 AAXX 20094 67571 NIL=
202104200600 AAXX 20064 67571 32482 21208 10161 20132 48500 81501
                   333 10216 20126 59007 81618 81080=
202104191200 AAXX 19124 67571 42682 71205 10205 20130 48492 875//
                   333 59011 87630=
202104151200 AAXX 15124 67571 42682 31206 1//// 2//// 48473 83200
                   333 59022 83835=
202104150600 AAXX 15064 67571 32982 71206 10177 20122 48491 81038
                   333 10241 20134 59015 81360 87280=
202104141200 AAXX 14124 67571 NIL=
202104140900 AAXX 14094 67571 42582 61208 10210 20144 48502 86500
                   333 59002 86620=
202104130900 AAXX 13094 67571 42582 71508 10207 20154 48512 875//
                   333 59005 87626=
202104120900 AAXX 12094 67571 42582 71207 10225 20164 48513 875//
                   333 58014 87622=
202104090900 AAXX 09094 67571 42682 61802 10224 20144 48482 70322 84501
                   333 59018 84632 83080=
202104090600 AAXX 09064 67571 32482 31203 10186 20147 48481 70200 81501
                   333 10246 20133 59021 81617 83080=
202104080600 AAXX 08064 67571 32482 41202 10183 20146 48501 70200 81101
                   333 10236 20138 58002 81816 84080=
202104071200 AAXX 07124 67571 42682 71206 10217 20150 48492 875//
                   333 58019 87635=
202104070900 AAXX 07094 67571 42582 71805 10197 20145 48512 875//
                   333 58017 87625=
202104061200 AAXX 06124 67571 42682 71208 10242 20173 48473 8323/
                   333 59001 81940 83840 87360=
202104060900 AAXX 06094 67571 42582 51206 10248 20170 48494 85200
                   333 59004 81928 85828=

################################################################################
#  SYNOPS from 67575, Mkushi (Zambia) | 13-38-00S | 029-26-00E | 1237 m
################################################################################
202104270900 AAXX 27094 67575 NIL=
202104260600 AAXX 26064 67575 32980 70902 10192 20173 48491 87070
                   333 10296 20157 59002 87360
                   555 00145=
202104210600 AAXX 21064 67575 32480 51007 10177 20141 48512 82531
                   333 10260 20145 58005 82612 81360 84080
                   555 00135=
202104200900 AAXX 20094 67575 NIL=
202104151200 AAXX 15124 67575 NIL=
202104141200 AAXX 14124 67575 NIL=
202104090900 AAXX 09094 67575 NIL=
202104080600 AAXX 08064 67575 32480 21203 10187 20144 48510 81101
                   333 10262 20138 5//// 81815 82080
                   555 00120=

################################################################################
#  SYNOPS from 67580, Msekera (Zambia) | 13-39S | 032-34E | 1025 m
################################################################################
202104300900 AAXX 30094 67580 42680 50906 10295 20184 48/// 85100
                   333 59011 85840=
202104290900 AAXX 29094 67580 42680 71208 10278 20190 48/// 86230
                   333 58009 86840 81362=
202104280600 AAXX 28064 67580 12480 11204 10233 20189 48/// 69904 81100
                   333 10312 20189 59008 81816=
202104271200 AAXX 27124 67580 41680 71202 10265 20197 48/// 79592 82908
                   333 58008 82932 86832 87280=
202104270900 AAXX 27094 67580 NIL=
202104260900 AAXX 26094 67580 42680 70903 10284 20180 48/// 8317/
                   333 59005 83840 87362=
202104260600 AAXX 26064 67580 32980 70000 10230 20188 48/// 8703/
                   333 10320 20182 59003 87362=
202104210600 AAXX 21064 67580 32480 71511 10183 20147 48/// 86532
                   333 10275 20150 5//// 86618 82360 82080=
202104201200 AAXX 20124 67580 42680 71205 10256 20163 48/// 8523/
                   333 59002 85840 87360=
202104200900 AAXX 20094 67580 42580 71508 10238 20158 48/// 8113/
                   333 59004 81825 87360=
202104200600 AAXX 20064 67580 32480 81804 10186 20154 48/// 8113/
                   333 10263 20159 5//// 81814 87360=
202104190900 AAXX 19094 67580 42580 71204 10235 20162 48/// 87100
                   333 59014 87828=
202104151200 AAXX 15124 67580 42780 72406 10273 20149 48/// 84208
                   333 59020 84850 86280=
202104150900 AAXX 15094 67580 42680 71505 10255 20166 48/// 85208
                   333 59013 85835 86280=
202104150600 AAXX 15064 67580 32980 71204 10185 20164 48/// 80008
                   333 10257 20149 59010 87280=
202104141200 AAXX 14124 67580 NIL=
202104140900 AAXX 14094 67580 42580 71503 10233 20173 48/// 87800
                   333 59005 86825 82628=
202104131200 AAXX 13124 67580 42680 71504 10267 20174 48/// 87231
                   333 59005 87840 81361 81080=
202104130900 AAXX 13094 67580 42680 71506 10266 20179 48/// 87131
                   333 59003 87832 83360 82080=
202104121200 AAXX 12124 67580 42680 71204 10250 20188 48/// 82238
                   333 58014 82840 83360 87280=
202104091200 AAXX 09124 67580 42680 71502 10264 20156 48/// 87200
                   333 59023 87838=
202104090900 AAXX 09094 67580 42680 51504 10253 20161 48/// 85100
                   333 59025 85832=
202104090600 AAXX 09064 67580 32980 11206 10204 20172 48/// 81030
                   333 10279 20150 59021 81360
                   555 00/// 20000=
202104080600 AAXX 08064 67580 32980 30903 10184 20154 48/// 81031
                   333 10278 20149 58003 81361 82080
                   555 00/// 20000=
202104071200 AAXX 07124 67580 42780 61205 10272 20177 48/// 86100
                   333 58019 86850=
202104070900 AAXX 07094 67580 42680 11606 10245 20142 48/// 81102
                   333 58016 81835 81080=
202104061200 AAXX 06124 67580 42680 71804 10284 20166 48/// 878//
                   333 58004 82845 87650=
202104060900 AAXX 06094 67580 42680 11605 10270 20152 48/// 81130
                   333 58000 81840 81362=

################################################################################
#  SYNOPS from 67581, Chipata (Zambia) | 13-33S | 032-35E | 1028 m
################################################################################
202104300900 AAXX 30094 67581 42680 50405 10276 20173 48547 85100
                   333 59009 85840 91018=
202104280600 AAXX 28064 67581 32480 10905 10247 20183 48541 81130
                   333 10//0 20196 59007 81830 81360 91019=
202104270900 AAXX 27094 67581 NIL=
202104260900 AAXX 26094 67581 42680 73605 10270 20179 48/// 70222 8223/
                   333 5//// 82830 87360=
202104260600 AAXX 26064 67581 32580 70607 10230 20177 48549 70200 8123/
                   333 1//// 20188 59002 81820 87360 91020=
202104220600 AAXX 22064 67581 32480 11410 10220 20152 48569 70200 81530
                   333 10//0 20172 58001 81612 81360 91023=
202104210600 AAXX 21064 67581 32580 31408 10185 20143 48564 82130
                   333 10//0 20162 58002 82825 83360 91023=
202104200900 AAXX 20094 67581 42680 70322 1//// 2//// 8423/
                   333 59003 84830 87360 91022=
202104200600 AAXX 20064 67581 32980 71510 10192 20140 48564 8703/
                   333 10//0 20170 59003 87360 91023=
202104151200 AAXX 15124 67581 NIL=
202104150600 AAXX 15064 67581 12980 41406 10210 20148 48550 69904 80002
                   333 10//0 20154 5//// 84080 91021=
202104141200 AAXX 14124 67581 NIL=
202104090900 AAXX 09094 67581 NIL=
202104090600 AAXX 09064 67581 32580 30905 10204 20153 48543 82130
                   333 10//0 20166 59023 82825 83360
                   555 00/// 20000 91020=
202104080600 AAXX 08064 67581 32980 31710 10200 20145 48564 80001
                   333 10//0 20162 58001 83080
                   555 00/// 20000 91023=

################################################################################
#  SYNOPS from 67583, Lundazi (Zambia) | 12-17S | 033-12E | 1143 m
################################################################################
202104280600 AAXX 28064 67583 12480 20000 10204 20182 48/// 60014 81130
                   333 10300 20//0 5//// 81810 81359=
202104270900 AAXX 27094 67583 NIL=
202104270600 AAXX 27064 67583 32980 20000 10214 20186 48/// 82031
                   333 10315 20//0 5//// 82360 81080=
202104260600 AAXX 26064 67583 32980 50000 10226 20190 48/// 84031
                   333 10300 2//// 5//// 84360 81080=
202104220600 AAXX 22064 67583 32880 71802 10198 20164 48/// 70222 8703/
                   333 10282 20//0 5//// 87358=
202104210600 AAXX 21064 67583 32980 21503 10198 20159 48/// 70200 81031
                   333 10276 20//0 5//// 81360 81080=
202104200900 AAXX 20094 67583 NIL=
202104151200 AAXX 15124 67583 NIL=
202104150600 AAXX 15064 67583 32980 51203 10198 20174 48/// 70222 81038
                   333 10250 20//0 5//// 81359 85280=
202104141200 AAXX 14124 67583 NIL=
202104090900 AAXX 09094 67583 NIL=
202104090600 AAXX 09064 67583 32480 71203 10196 20179 48/// 70322 8263/
                   333 10280 20//0 5//// 82710 87359
                   555 00///=
202104080600 AAXX 08064 67583 32580 31503 10204 20165 48/// 83530
                   333 10274 2//// 5//// 83620 81359=
202104070900 AAXX 07094 67583 42680 41203 10250 20174 48/// 84130
                   333 5//// 84835 81359=

################################################################################
#  SYNOPS from 67599, Mfuwe (Zambia) | 13-16S | 031-56E | 568 m
################################################################################
202104270900 AAXX 27094 67599 NIL=
202104270600 AAXX 27064 67599 32980 72003 10230 20201 48532 87030
                   333 10353 20205 59010 87369
                   555 00190 91017=
202104200900 AAXX 20094 67599 NIL=
202104200600 AAXX 20064 67599 32980 71803 10212 20174 48559 8707/
                   333 10295 20187 59009 87459 91021=
202104151200 AAXX 15124 67599 NIL=
202104141200 AAXX 14124 67599 NIL=
202104090900 AAXX 09094 67599 NIL=
202104090600 AAXX 09064 67599 32960 41903 10220 20138 48516 84032
                   333 10323 20179 59021 84360 82080
                   555 00172 91018=

################################################################################
#  SYNOPS from 67625, Kalabo (Zambia) | 14-51S | 022-42E | 1033 m
################################################################################
202104291200 AAXX 29124 67625 42782 20914 10300 20162 48/// 81163
                   333 59005 81850 81360 82080=
202104280600 AAXX 28064 67625 32982 31208 10220 20190 48/// 83030
                   333 10305 20180 59007 83360=
202104271200 AAXX 27124 67625 42482 20616 10295 20157 48/// 81133
                   333 5//// 81850 81360 82075=
202104270900 AAXX 27094 67625 42682 10309 10275 20177 48/// 81130
                   333 81838 81360=
202104260600 AAXX 26064 67625 32982 71212 10207 20180 48/// 8707/
                   333 10290 20173 5//// 87360=
202104221200 AAXX 22124 67625 42782 51010 10280 20132 48/// 81103
                   333 58008 81850 85075=
202104220900 AAXX 22094 67625 42982 41020 10245 20150 48/// 80003
                   333 58002 84075=
202104220600 AAXX 22064 67625 32982 51214 10195 20147 48/// 80003
                   333 10290 20160 58016 85075=
202104210600 AAXX 21064 67625 32982 20815 10194 20147 48/// 82030
                   333 10281 20162 59027 82360=
202104201200 AAXX 20124 67625 42982 30917 10264 20127 48/// 83030
                   333 59005 83361=
202104200900 AAXX 20094 67625 42982 70918 10239 20143 48/// 8703/
                   333 59010 87360=
202104200600 AAXX 20064 67625 32982 50917 10190 20141 48/// 85030
                   333 10270 20175 59006 85360=
202104191200 AAXX 19124 67625 42982 70924 10255 20134 48/// 87033
                   333 87360 87075=
202104190900 AAXX 19094 67625 42682 70819 10225 20135 48/// 81103
                   333 81835 87075=
202104151200 AAXX 15124 67625 42982 31318 10290 20118 48/// 83030
                   333 59014 83360=
202104150600 AAXX 15064 67625 32982 61007 10210 20163 48/// 86030
                   333 10295 20175 5//// 86360=
202104141200 AAXX 14124 67625 NIL=
202104140900 AAXX 14094 67625 42682 20923 10265 20156 48/// 81030
                   333 5//// 81843 82360=
202104131200 AAXX 13124 67625 42782 20819 10283 20153 48/// 82130
                   333 82850 82360=
202104130900 AAXX 13094 67625 42682 20933 10265 20165 48/// 81130
                   333 5//// 81833 82360=
202104120900 AAXX 12094 67625 42982 20725 10257 20161 48/// 80005
                   333 82275=
202104091200 AAXX 09124 67625 42782 20614 10283 20114 48/// 80003
                   333 59005 81856 82075=
202104090900 AAXX 09094 67625 42982 40920 10255 20153 48/// 80003
                   333 5//// 84075=
202104090600 AAXX 09064 67625 32982 60913 10215 20152 48/// 80003
                   333 10297 20165 5//// 86075
                   555 00/// 20000=
202104080600 AAXX 08064 67625 32982 60911 10212 20170 48/// 80003
                   333 10305 20189 5//// 86075
                   555 00/// 20000=
202104071200 AAXX 07124 67625 42782 80913 10292 20142 48/// 81133
                   333 58004 81856 81361 88075=
202104070900 AAXX 07094 67625 42982 60317 10269 20161 48/// 80003
                   333 5//// 86075=
202104061200 AAXX 06124 67625 42782 30512 10304 20150 48/// 81105
                   333 81856 83275=
202104060900 AAXX 06094 67625 42982 50613 10285 20172 48/// 80003
                   333 85075=

################################################################################
#  SYNOPS from 67633, Mongu (Zambia) | 15-15S | 023-09E | 1052 m
################################################################################
202104270900 AAXX 27094 67633 NIL=
202104260600 AAXX 26064 67633 32980 60905 10202 20159 48526 86030
                   333 10295 20176 59004 86360
                   555 00163 91019=
202104220600 AAXX 22064 67633 32980 10906 10187 20141 48547 80002
                   333 10301 20144 58002 81080
                   555 00131 91022=
202104200900 AAXX 20094 67633 NIL=
202104160600 AAXX 16064 67633 32980 60903 10212 20155 48524 70222 86030
                   333 10313 20167 58000 86360
                   555 00160 91020=
202104151200 AAXX 15124 67633 42780 40808 10303 20118 48530 81130
                   333 59015 81856 85360 91018=
202104150600 AAXX 15064 67633 32980 50905 10195 20150 48526 85360
                   333 10307 20166 59012 85360
                   555 00156 91019=
202104141200 AAXX 14124 67633 NIL=
202104090900 AAXX 09094 67633 NIL=
202104080600 AAXX 08064 67633 32980 30906 1//// 20162 48580 70200 80002
                   333 10319 20175 58001 83080
                   555 00205 91010=

################################################################################
#  SYNOPS from 67641, Kaoma (Zambia) | 14-48S | 024-48E | 1213 m
################################################################################
202104270900 AAXX 27094 67641 NIL=
202104260600 AAXX 26064 67641 32980 70000 10192 20158 48517 87030
                   333 10317 20170 59004 87360 91018=
202104220600 AAXX 22064 67641 32980 10202 10170 20138 48538 81030
                   333 10299 20136 59002 81360 91021=
202104210600 AAXX 21064 67641 32980 11704 10169 20139 48540 81030
                   333 10288 20143 58000 81362 91021=
202104201200 AAXX 20124 67641 42980 71707 10275 20127 48526 87030
                   333 59008 87363 91017=
202104200900 AAXX 20094 67641 42980 21005 10248 20143 48547 82030
                   333 59008 82363 91021=
202104200600 AAXX 20064 67641 32980 50000 10156 20138 48539 85030
                   333 10284 20132 59002 85362 91021=
202104190900 AAXX 19094 67641 42680 21204 10244 20155 48553 81130
                   333 58000 81830 82362 91022=
202104151200 AAXX 15124 67641 42980 70903 10262 20153 48521 87030
                   333 59015 87360 91017=
202104150900 AAXX 15094 67641 42980 71006 10246 20146 48534 87030
                   333 59017 87360 91020=
202104150600 AAXX 15064 67641 12980 71604 10171 20152 48525 69904 87030
                   333 10291 20143 59013 87360 91020=
202104141200 AAXX 14124 67641 NIL=
202104140900 AAXX 14094 67641 42680 70706 10265 20171 48556 81130
                   333 59009 81830 87360 91022=
202104130900 AAXX 13094 67641 42680 51306 10262 20172 48564 83230
                   333 58007 83842 83361 91022=
202104091200 AAXX 09124 67641 42680 11411 10285 20149 48525 81130
                   333 59007 81848 81362 91017=
202104090900 AAXX 09094 67641 42980 21208 10260 20156 48543 82030
                   333 59012 82362 91020=
202104090600 AAXX 09064 67641 32980 21002 10170 20146 48527 82030
                   333 10306 20142 59016 82362 91020=
202104080600 AAXX 08064 67641 32980 60803 10174 20152 48542 80001
                   333 10316 20143 58010 86080
                   555 00/// 20000 91021=

################################################################################
#  SYNOPS from 67655, Mumbwa (Zambia) | 15-04S | 027-11E | 1216 m
################################################################################
202104270900 AAXX 27094 67655 NIL=
202104220600 AAXX 22064 67655 32980 01007 10170 20132 48563
                   333 10282 20103 5////=
202104200900 AAXX 20094 67655 NIL=
202104200600 AAXX 20064 67655 32980 60706 10152 20129 48563 70222 86080
                   333 10252 20101 59007 86359 91023=
202104151200 AAXX 15124 67655 NIL=
202104141200 AAXX 14124 67655 NIL=
202104140600 AAXX 14064 67655 32980 61111 10182 20154 48563 86080
                   333 10285 20139 59009 86358 91022=
202104131200 AAXX 13124 67655 42580 60905 10240 20149 48572 862//
                   333 59005 86825 91023=
202104090900 AAXX 09094 67655 NIL=
202104080600 AAXX 08064 67655 32980 41005 10170 20121 48562 80001
                   333 58008 84080 91023=

################################################################################
#  SYNOPS from 67659, Kafue Polder (Zambia) | 15-46S | 027-55E | 978 m
################################################################################
202104270900 AAXX 27094 67659 NIL=
202104220600 AAXX 22064 67659 32480 31307 10176 20118 48/// 83500
                   333 10276 20130 5//// 83618=
202104200900 AAXX 20094 67659 NIL=
202104151200 AAXX 15124 67659 NIL=
202104150600 AAXX 15064 67659 32980 10904 10197 20157 48/// 81030
                   333 10310 20112 5//// 81359=
202104141200 AAXX 14124 67659 NIL=
202104090900 AAXX 09094 67659 NIL=

################################################################################
#  SYNOPS from 67662, Kabwe Agric (Zambia) | 14-24S | 028-30E | 1165 m
################################################################################
202104270900 AAXX 27094 67662 NIL=
202104200900 AAXX 20094 67662 41580 51202 10217 20144 48/// 70222 82232
                   333 5//// 82825 81360 82080=
202104200600 AAXX 20064 67662 31980 40000 10151 20137 48/// 70300 81530
                   333 10235 20068 5//// 81610 83360=
202104151200 AAXX 15124 67662 NIL=
202104141200 AAXX 14124 67662 NIL=
202104090900 AAXX 09094 67662 NIL=

################################################################################
#  SYNOPS from 67663, Kabwe (Zambia) | 14-27S | 028-28E | 1206 m
################################################################################
202104300900 AAXX 30094 67663 42580 70907 10253 20187 48520 87500
                   333 59024 87626=
202104291200 AAXX 29124 67663 42680 61509 10280 20167 48503 86200
                   333 58008 86842=
202104290900 AAXX 29094 67663 42680 60912 10258 20178 48533 83130
                   333 58011 83830 85360=
202104280600 AAXX 28064 67663 32980 30905 10210 20179 48516 83030
                   333 10291 20165 59005 83360
                   555 00226=
202104271200 AAXX 27124 67663 42680 70310 10266 20163 48501 83230
                   333 59001 83840 87360=
202104270900 AAXX 27094 67663 42680 70809 10261 20167 48534 82130
                   333 58007 82835 87360=
202104260900 AAXX 26094 67663 42680 60709 10261 20160 48524 83130
                   333 59005 83832 83360=
202104260600 AAXX 26064 67663 32980 70504 10199 20162 48525 87030
                   333 10271 20161 59005 87360
                   555 00230=
202104230900 AAXX 23094 67663 42580 10910 10236 20158 48539 81130
                   333 59008 81823 81360=
202104221200 AAXX 22124 67663 42680 40904 10249 20160 48536 84100
                   333 59001 84830=
202104220600 AAXX 22064 67663 32980 01104 10166 20148 48534
                   333 10235 20116 59003
                   555 00200=
202104210600 AAXX 21064 67663 32480 41609 10163 20142 48549 81532
                   333 10241 20114 5//// 81616 81360 83080
                   555 00194=
202104200900 AAXX 20094 67663 NIL=
202104200600 AAXX 20064 67663 32480 71209 10151 20140 48535 85532
                   333 10232 20100 59001 85616 83360 81080
                   555 00200=
202104191200 AAXX 19124 67663 42580 70905 10225 20136 48538 875//
                   333 58025 87625=
202104190900 AAXX 19094 67663 42580 70908 10190 20132 48552 875//
                   333 58032 87620=
202104151200 AAXX 15124 67663 42580 70911 10246 20192 48530 81132
                   333 59017 81825 86360 82080=
202104150600 AAXX 15064 67663 32980 71004 10160 20135 48530 87030
                   333 10235 20118 59015 87360
                   555 00282=
202104141200 AAXX 14124 67663 NIL=
202104140900 AAXX 14094 67663 42580 70912 10222 20157 48547 875//
                   333 59002 87625=
202104121200 AAXX 12124 67663 42680 60904 10261 20166 48543 86200
                   333 58034 86830=
202104090900 AAXX 09094 67663 NIL=
202104090600 AAXX 09064 67663 32980 51706 10173 20134 48530 85030
                   333 10263 20118 59010 85360
                   555 00206=
202104080600 AAXX 08064 67663 32980 31007 10169 20139 48539 80002
                   333 10252 20112 58007 83080
                   555 00254=
202104071200 AAXX 07124 67663 42680 51605 10244 20152 48545 85102
                   333 58023 85830 81080=
202104070900 AAXX 07094 67663 42580 60614 10228 20152 48545 86502
                   333 58011 86625 81080=
202104061200 AAXX 06124 67663 42680 21809 10270 20152 48523 82102
                   333 58014 82840 81080=
202104060900 AAXX 06094 67663 42980 11214 10248 20131 48534 80002
                   333 58014 81080=

################################################################################
#  SYNOPS from 67665, Lusaka Internationalairport (Zambia) | 15-19S | 028-27E | 1152 m
################################################################################
202105012100 AAXX 01214 67665 42980 59901 10192 20180 48542 85030
                   333 58026 85360=
202105011800 AAXX 01184 67665 42680 41304 10208 20183 48538 70222 84230
                   333 58023 84850 84360 91021=
202105011500 AAXX 01154 67665 42680 41405 10256 20163 48524 70122 82130
                   333 58015 82845 84360 91018=
202105010600 AAXX 01064 67665 11360 71203 10183 20175 48534 60154 72162 8377/
                   333 10291 20//0 58000 83709 87459
                   555 00///=
202105010300 AAXX 01034 67665 41720 81906 10179 20179 48526 79596 8197/
                   333 58000 81957 88459=
202104302100 AAXX 30214 67665 42/80 41503 10205 20174 48519 81330
                   333 59009 819// 83360=
202104301800 AAXX 30184 67665 41/80 51704 10220 20173 48517 72999 81330
                   333 10291 20//0 59007 819// 85360=
202104301500 AAXX 30154 67665 42680 50803 10268 20162 81903
                   333 59006 81940 82840 85080=
202104301200 AAXX 30124 67665 42680 50807 10289 20158 48524 85200
                   333 59009 85833=
202104300900 AAXX 30094 67665 42580 50609 10265 20172 48546 85200
                   333 59008 85825=
202104291800 AAXX 29184 67665 42980 11205 10213 20175 48523 81030
                   333 10302 59006 81360=
202104291500 AAXX 29154 67665 42980 20706 10276 20156 48518 82030
                   333 59004 82360 555 10302=
202104291200 AAXX 29124 67665 42680 50710 10276 20151 48532 85230
                   333 58005 85835 81360=
202104290900 AAXX 29094 67665 42580 61012 10250 20173 48552 85230
                   333 58029 85822 86360=
202104290600 AAXX 29064 67665 32380 41106 10190 20166 48545 81130
                   333 10290 20/// 58013 81810 83360
                   555 00/// 91022=
202104281800 AAXX 28184 67665 42980 31205 10207 20166 48529 83030
                   333 10298 20//0 58006 83360=
202104281500 AAXX 28154 67665 42680 30808 10264 20156 48519 83200
                   333 59002 83845=
202104281200 AAXX 28124 67665 42680 40809 10286 20145 48428 84230
                   333 59002 84840 81360=
202104280900 AAXX 28094 67665 42680 50713 10257 20156 48549 70222 85500
                   333 59004 85630=
202104280600 AAXX 28064 67665 32980 31104 10190 20166 48533 83030
                   333 10267 20/// 83360
                   555 00/// 91020=
202104280300 AAXX 28034 67665 42980 21401 10166 20152 48516 82030
                   333 59008 82360 555 91019=
202104280000 AAXX 28004 67665 42980 31402 10177 20157 48517 83030
                   333 59006 83360 555 91010=
202104272100 AAXX 27214 67665 42980 51303 10194 20163 48526 85030
                   333 58003 85360 555 91019=
202104271200 AAXX 27124 67665 42580 70808 10260 20131 48526 84130
                   333 58000 84832 86360=
202104270900 AAXX 27094 67665 42480 60712 10255 20144 48550 70322 82130
                   333 59002 82820 86360 91021=
202104270600 AAXX 27064 67665 32980 31003 10186 20145 48542 70200 83030
                   333 10295 20//0 59001 83360 91021=
202104261500 AAXX 26154 67665 42780 31109 10271 20125 48521 81130
                   333 59009 81850 82360
                   555 91018=
202104261200 AAXX 26124 67665 42680 60404 10279 20122 48529 82130
                   333 59003 82845 83360
                   555 91018=
202104260900 AAXX 26094 67665 42580 60711 10255 20132 48552 83130
                   333 59002 83835 84360=
202104260600 AAXX 26064 67665 32980 51205 10190 20150 48545 85030
                   333 10285 20//0 59008 85360 91021=
202104260300 AAXX 26034 67665 42980 39901 10164 20148 48524 83030
                   333 59004 83360=
202104250900 AAXX 25094 67665 42680 51008 10252 20137 48555 84230
                   333 58003 84835 81360=
202104250600 AAXX 25064 67665 32980 31304 10186 20154 48550 83030
                   333 10274 58007 83360
                   555 00///=
202104250000 AAXX 25004 67665 42980 31603 10158 20140 48530 83030
                   333 59011 83360=
202104242100 AAXX 24214 67665 42980 71603 10178 20152 48534 8703/
                   333 59002 87360=
202104241800 AAXX 24184 67665 42980 01504 10198 20158 48527
                   333 58000 555 10274 91019=
202104241500 AAXX 24154 67665 42680 31105 10264 20125 48519 70100 81230
                   333 59003 81850 83360 91018=
202104231800 AAXX 23184 67665 42980 11304 10193 20154 48525 81030
                   333 10283 59016 81360=
202104231500 AAXX 23154 67665 42980 30910 10266 20138 48524 83030
                   333 59027 83360 555 10283=
202104231200 AAXX 23124 67665 42680 40906 10272 20145 48530 84200
                   333 59026 84845=
202104230600 AAXX 23064 67665 32380 11106 10173 20149 48550 81600
                   333 10261 20//0 59022 81708=
202104230000 AAXX 23004 67665 42980 01503 10135 20126 48533
                   333 59015=
202104222100 AAXX 22214 67665 42980 01403 10147 20126 48552
                   333 59005=
202104221800 AAXX 22184 67665 42980 21106 10181 20149 48549 82030
                   333 59005 82360 555 91022=
202104221500 AAXX 22154 67665 42780 30908 10246 20133 48548 83100
                   333 59002 83850 555 91021=
202104221200 AAXX 22124 67665 42680 40906 10240 20135 48522 84500
                   333 59001 84635 91022=
202104220900 AAXX 22094 67665 42680 70810 10212 20138 48577 875//
                   333 58002 87630=
202104220600 AAXX 22064 67665 32380 21105 10165 20149 48571 70300 82530
                   333 10238 20//0 58002 82610 82360
                   555 00/// 91025=
202104211800 AAXX 21184 67665 42980 01205 10175 20123 48543
                   333 10256 20//0 59004=
202104211500 AAXX 21154 67665 42680 21109 10241 20116 48550 82100
                   333 59003 82845=
202104211200 AAXX 21124 67665 42680 50809 10250 20127 48554 85100
                   333 58000 85835=
202104210600 AAXX 21064 67665 32480 71107 10157 20142 48567 70301 875//
                   333 10247 20/// 58003 87612 91025=
202104201800 AAXX 20184 67665 42980 01205 10167 20125 48556
                   333 59002=
202104201500 AAXX 20154 67665 42980 61111 10230 20122 48550 86102
                   333 59006 82856 86080=
202104201200 AAXX 20124 67665 42680 50911 10234 20116 48552 85502
                   333 59009 85635 84080=
202104200900 AAXX 20094 67665 42580 60913 10199 20131 48572 86502
                   333 59006 86620 84080
                   555 91025=
202104200600 AAXX 20064 67665 32380 61008 10146 20133 48563 81630
                   333 10225 20//0 59003 81708 86365 91024=
202104191200 AAXX 19124 67665 42680 71010 10215 20114 48559 70322 875//
                   333 59007 87635 91023=
202104190900 AAXX 19094 67665 42480 71011 10186 20128 48576 70222 866//
                   333 59007 87720 91025=
202104190600 AAXX 19064 67665 32380 40907 10146 20128 48566 70300 83630
                   333 10244 20/// 59006 83706 81360
                   555 000///=
202104190300 AAXX 19034 67665 42980 11106 10122 20104 48545 70300 81030
                   333 59016 81360=
202104190000 AAXX 19004 67665 42980 01204 10120 20101 48548 70100
                   333 59005=
202104180900 AAXX 18094 67665 42580 80813 10193 20116 48585 70222 885//
                   333 58011 88625 91026=
202104180600 AAXX 18064 67665 12480 50913 10165 20131 48574 69904 82530
                   333 10254 20//0 58009 82612 85360=
202104180300 AAXX 18034 67665 42380 70808 10157 20131 48565 876//
                   333 58020 87706=
202104180000 AAXX 18004 67665 42980 01206 10139 20121 48556
                   333 58022=
202104172100 AAXX 17214 67665 42980 01009 10160 20126 48562
                   333 58023=
202104171800 AAXX 17184 67665 42980 01104 10169 20106 48556
                   333 10254 58025=
202104171500 AAXX 17154 67665 42680 41113 10223 20101 48557 81132
                   333 58027 81845 82360 81080=
202104171200 AAXX 17124 67665 42680 50919 10240 20092 48559 85500
                   333 58025 85630=
202104170900 AAXX 17094 67665 42380 50920 10228 20120 48578 84630
                   333 58025 84715 82360=
202104170600 AAXX 17064 67665 32380 51015 10176 20131 48567 85630
                   333 10280 20//0 58015 85708 81360=
202104170300 AAXX 17034 67665 42980 01109 10151 20122 48545
                   333 58010=
202104170000 AAXX 17004 67665 42980 01206 10138 20102 48535
                   333 59002=
202104162100 AAXX 16214 67665 42980 09902 10139 20102 48539
                   333 59004=
202104161500 AAXX 16154 67665 42780 11010 10253 20064 48533 81100
                   333 59001 81850 555 91019=
202104161200 AAXX 16124 67665 42680 21112 10270 20063 48538 82100
                   333 59003 82835 555 91020=
202104160900 AAXX 16094 67665 42980 10808 10248 20116 48555 81030
                   333 59010 81360=
202104160600 AAXX 16064 67665 32980 21103 10181 20121 48549 70200 82030
                   333 10272 20//0 58003 82360 91023=
202104151800 AAXX 15184 67665 42980 31605 10187 20133 48534 83030
                   333 10272 20//0 59021 83360=
202104151500 AAXX 15154 67665 42980 50911 10240 20124 48532 83032
                   333 59024 83360 85080=
202104151200 AAXX 15124 67665 42680 51407 10258 20107 48540 84132
                   333 59024 84835 83360 85080 91020=
202104150900 AAXX 15094 67665 42980 40911 10241 20116 48562 84030
                   333 59015 84360 555 91023=
202104150600 AAXX 15064 67665 32980 31003 10161 20109 48547 70300 83030
                   333 59015 83360 91022=
202104142100 AAXX 14214 67665 42980 09903 10142 20106 48550
                   333 59008 91023=
202104141800 AAXX 14184 67665 42980 00504 10184 20111 48553 70101
                   333 59007 91023=
202104141200 AAXX 14124 67665 NIL=
202104140900 AAXX 14094 67665 42580 51114 10227 20128 48576
                   333 59006 85620=
202104131500 AAXX 13154 67665 42980 61212 10237 20140 48560 86030
                   333 58010 86360 91023=
202104131200 AAXX 13124 67665 42680 61211 10253 20141 48568 70222 86230
                   333 58000 86840 91025=
202104130900 AAXX 13094 67665 42580 61113 10241 20144 48584 70222 86500
                   333 59001 86625 91025=
202104130600 AAXX 13064 67665 32380 41108 10191 20158 48574 82630
                   333 10266 20//0 58004 82709 83360
                   555 00///=
202104121800 AAXX 12184 67665 42980 31505 10191 20158 48556 70321 82060
                   333 10278 58007 83360 91023=
202104121500 AAXX 12154 67665 42780 51111 10257 20147 48555 70222 85200
                   333 58004 85850 555 10278 91022=
202104121200 AAXX 12124 67665 42680 60810 10266 20138 48566 70022 86200
                   333 58015 86835 91023=
202104120900 AAXX 12094 67665 32380 50911 10192 20168 48571 84630
                   333 10260 20/// 58013 84709 81360
                   555 00///=
202104120600 AAXX 12064 67665 32380 50911 10192 20168 48571 84630
                   333 10260 20//0 58013 84709 81360
                   555 00///=
202104120000 AAXX 12004 67665 42980 01401 10146 20128 48544 70200
                   333 58010=
202104112100 AAXX 11214 67665 42980 01203 10163 20146 48552 70200
                   333 58010=
202104111800 AAXX 11184 67665 42980 01103 10178 20136 48547
                   333 10260 20//0 58015=
202104110600 AAXX 11064 67665 32480 11009 10175 20139 48557 81530
                   333 10264 20//0 58010 81612 81360=
202104110300 AAXX 11034 67665 42980 01404 10129 20102 48532
                   333 58006=
202104110000 AAXX 11004 67665 42980 01402 10138 20108 48533
                   333 58008=
202104102100 AAXX 10214 67665 42980 01503 10157 20122 48541
                   333 58008=
202104101800 AAXX 10184 67665 42980 01203 10180 20130 48534
                   333 10264 58006=
202104101500 AAXX 10154 67665 42780 31012 10250 20106 48531 83200
                   333 58003 83850 555 10264=
202104100600 AAXX 10064 67665 32480 11012 10185 20145 48548 81130
                   333 10272 20//0 59005 81810 81360=
202104100300 AAXX 10034 67665 42980 01405 10137 20110 48529
                   333 59005=
202104100000 AAXX 10004 67665 42980 01505 10139 20117 48526
                   333 59012=
202104092100 AAXX 09214 67665 42980 09901 10153 20126 48533
                   333 59017=
202104091800 AAXX 09184 67665 42980 21405 10187 20120 48530 82030
                   333 59014 82360 555 91020=
202104091200 AAXX 09124 67665 42680 31110 10268 20109 48535 83500
                   333 59016 83640 555 91019=
202104090900 AAXX 09094 67665 42680 30812 10239 20134 48554 82530
                   333 59020 82630 81360=
202104090600 AAXX 09064 67665 32980 21406 10179 20128 48552 70300 82030
                   333 10265 20/// 59015 82360 82360 91023=
202104081800 AAXX 08184 67665 42980 01604 10171 20119 48541
                   333 10265 20/// 59015=
202104081500 AAXX 08154 67665 42680 21111 10249 20116 48543 81109
                   333 59015 81845 81180 82080=
202104081200 AAXX 08124 67665 42680 21212 10257 20116 48551 82101
                   333 59013 82835 81080=
202104080900 AAXX 08094 67665 42480 31109 10231 20144 48573 83500
                   333 59004 83620 555 91024=
202104080600 AAXX 08064 67665 32380 10911 10174 20142 48576 81501
                   333 10238 20/// 59003 81609 81080
                   555 00/// 91024=
202104080000 AAXX 08004 67665 42980 09901 10124 20106 48542 70200
                   333 58010 91022=
202104072100 AAXX 07214 67665 42980 01105 10150 20124 48555 70200
                   333 58011 91023=
202104071800 AAXX 07184 67665 42980 01003 10170 20137 48557 70100
                   333 58020 91023=
202104070900 AAXX 07094 67665 42580 71014 10214 20143 48574 875//
                   333 58011 87620 555 91025=
202104060600 AAXX 06064 67665 32980 01106 10196 20156 48557 70200
                   333 10290 20//0 59002
                   555 00///=
202104060000 AAXX 06004 67665 42980 00000 10174 20148 70200
                   333 59001=
202104051800 AAXX 05184 67665 42980 00906 10198 20158 48535
                   333 10290 20//0 59006
                   555 00/// 91020=
202104050900 AAXX 05094 67665 42980 00909 10254 20153 48565 70200
                   333 59005 91023=
202104050600 AAXX 05064 67665 32980 00906 10101 20151 48554
                   333 10282 20//0 59002
                   555 00/// 91023=
202104050000 AAXX 05004 67665 42980 01303 10168 20146 48535
                   333 58004 555 91021=
202104042100 AAXX 04214 67665 42980 11603 10165 20144 48547 81030
                   333 58008 81360 555 91022=
202104041800 AAXX 04184 67665 42980 11505 10203 20151 48541 81030
                   333 10282 58006 81360=
202104041500 AAXX 04154 67665 42780 31008 10271 20125 48540 83200
                   333 59005 83850 555 10282=
202104041200 AAXX 04124 67665 42680 40909 10271 20145 48552 84200
                   333 58010 84835=
202104040900 AAXX 04094 67665 42580 31012 10258 20156 48570 83500
                   333 58006 83620=
202104040600 AAXX 04064 67665 32980 01007 10198 20160 48557
                   333 10280 20//0 59003=
202104040300 AAXX 04034 67665 42980 01604 10143 20127 48533
                   333 59002=
202104040000 AAXX 04004 67665 42980 01602 10154 20129 48529
                   333 59009=
202104032100 AAXX 03214 67665 42980 09901 10167 20133 48539
                   333 59012=
202104031500 AAXX 03154 67665 42780 41107 10268 20141 48545 70200 82201
                   333 58005 82850 82080=
202104031200 AAXX 03124 67665 32980 20806 10276 20131 48542 70200 82101
                   333 59006 82842 81080 91020=
202104030900 AAXX 03094 67665 42980 10909 10247 20134 48562 80001
                   333 59011 81080=
202104030600 AAXX 03064 67665 32980 01103 10188 20139 48559 70200
                   333 10276 20/// 59005 91023=
202104021800 AAXX 02184 67665 42980 01503 10192 20152 48540
                   333 10276 20//0 59006=
202104021500 AAXX 02154 67665 42680 51307 10257 20148 48539 83102
                   333 59005 83845 85080=
202104021200 AAXX 02124 67665 42680 41506 10265 20127 48548 83102
                   333 59002 83835 84080=
202104020900 AAXX 02094 67665 42580 30910 10235 20139 48570 83500
                   333 58008 83620 555 91024=
202104020000 AAXX 02004 67665 42980 01402 10155 20138 48539 70200
                   333 58002 91021=
202104012100 AAXX 01214 67665 42980 01602 10165 20148 48547 70200
                   333 58003 91022=
202104011800 AAXX 01184 67665 42980 21204 10194 20147 48545 70200 82030
                   333 58005 82360 91022=
202104011500 AAXX 01154 67665 42680 51410 10265 20147 48545 70112 82130
                   333 58016 82848 81360 91020=
202104010900 AAXX 01094 67665 42580 40808 10243 20157 48562 84100
                   333 59001 84825=
202104010600 AAXX 01064 67665 32980 01107 10186 20154 48551 70200
                   333 10193 20//0 59003
                   555 91022=

################################################################################
#  SYNOPS from 67666, Lusaka City Airport (Zambia) | 15-25-00S | 028-28-00E | 1280 m
################################################################################
202104300900 AAXX 30094 67666 42580 60812 10250 20173 48536 86200
                   333 59010 86820 91020=
202104280600 AAXX 28064 67666 32980 30907 10200 20164 48520 83030
                   333 10250 20192 59007 91019=
202104270900 AAXX 27094 67666 NIL=
202104270600 AAXX 27064 67666 42980 70910 10200 20114 48529 8707/
                   333 10250 20185 58005 87459 91020=
202104260600 AAXX 26064 67666 32980 51208 10210 20132 48540 85030
                   333 10279 20162 59001 85360 91021=
202104220600 AAXX 22064 67666 32980 10915 10170 20130 48555 81500
                   333 10242 20150 58002 81615 91024=
202104210600 AAXX 21064 67666 32480 30914 10164 20100 48554 82530
                   333 10240 20129 58005 82618 81360 91024=
202104200900 AAXX 20094 67666 NIL=
202104200600 AAXX 20064 67666 32480 60910 10143 20135 48552 83630
                   333 10220 20129 59005 83708 85360 91023=
202104151200 AAXX 15124 67666 NIL=
202104150600 AAXX 15064 67666 32980 20915 10186 20111 48538 82030
                   333 10261 20129 59012 82360 91022=
202104141200 AAXX 14124 67666 NIL=
202104131200 AAXX 13124 67666 42680 61009 10240 20126 48544 84230
                   333 59001 84830 82360 91022=
202104130900 AAXX 13094 67666 42580 61213 10220 20140 48567 85830
                   333 59001 83618 83820 81360 91024=
202104090900 AAXX 09094 67666 42680 21211 10220 20136 48581 82100
                   333 59022 82830 91021=
202104090600 AAXX 09064 67666 32980 20915 10180 20130 48537 82030
                   333 10253 20152 59017 82360
                   555 00/// 91021=
202104080600 AAXX 08064 67666 32980 20920 10170 20120 48555 80001
                   333 10239 20149 58001 82080 91023=
202104071200 AAXX 07124 67666 42680 61008 10230 20130 48552 70222 86100
                   333 58024 86830 91022=
202104070900 AAXX 07094 67666 42580 70911 10200 20133 48564 70322 87800
                   333 58012 85820 82625 91024=

################################################################################
#  SYNOPS from 67667, Mount Makulu (Zambia) | 15-33S | 028-15E | 1213 m
################################################################################
202104280600 AAXX 28064 67667 32980 40902 10216 20181 48587 84030
                   333 10302 20182 58003 84360=
202104270900 AAXX 27094 67667 NIL=
202104260600 AAXX 26064 67667 32980 40904 10214 20169 48593 84030
                   333 10300 20158 58007 84360=
202104220600 AAXX 22064 67667 32580 21805 10180 20160 48619 82100
                   333 10278 20107 58003 82825=
202104210600 AAXX 21064 67667 32580 31208 10180 20150 48617 82102
                   333 10266 20118 58002 82825 81080=
202104200900 AAXX 20094 67667 NIL=
202104200600 AAXX 20064 67667 32580 71003 10165 20141 48613 81108
                   333 10242 20118 59002 81825 87380=
202104160600 AAXX 16064 67667 32980 21201 10192 20161 48608 80001
                   333 10288 20148 58012 82080=
202104151200 AAXX 15124 67667 NIL=
202104150600 AAXX 15064 67667 32580 20902 10186 20166 48596 82100
                   333 10282 20108 59019 82825=
202104141200 AAXX 14124 67667 NIL=
202104090900 AAXX 09094 67667 42680 21307 10246 20140 48603 82101
                   333 59019 82830 81080=
202104090600 AAXX 09064 67667 32980 21403 10196 20145 48591 80001
                   333 10280 20123 59017 82080
                   555 00/// 20000=
202104081200 AAXX 08124 67667 42680 31206 10260 20164 48597 83101
                   333 59009 83830 82080=
202104080600 AAXX 08064 67667 32580 20910 10182 20140 48615 81101
                   333 10262 20108 59002 81825 82080
                   555 00/// 20000=

################################################################################
#  SYNOPS from 67673, Petauke (Zambia) | 14-15S | 031-17E | 1035 m
################################################################################
202104300900 AAXX 30094 67673 42684 40902 10270 20180 48/// 84100
                   333 5//// 84832=
202104291200 AAXX 29124 67673 42684 53602 10290 20190 48/// 85231
                   333 5//// 85840 82360 81080=
202104290900 AAXX 29094 67673 42684 50503 10269 20198 48/// 85131
                   333 5//// 85830 82080=
202104280600 AAXX 28064 67673 32584 33603 10248 20190 48/// 82130
                   333 10298 20//0 5//// 82828 83360=
202104271200 AAXX 27124 67673 42580 60000 10245 20198 48/// 76062 85231
                   333 5//// 85830 86360 84080=
202104270900 AAXX 27094 67673 42684 63601 10288 20188 48/// 84230
                   333 5//// 84835 86360=
202104270600 AAXX 27064 67673 32984 43601 10230 20185 48/// 84031
                   333 10304 20//0 5//// 84360 81080=
202104260900 AAXX 26094 67673 42684 53601 10274 20180 48/// 84130
                   333 5//// 84832 85360=
202104230900 AAXX 23094 67673 42684 50902 10154 20170 48/// 58100
                   333 5//// 85830=
202104221200 AAXX 22124 67673 42684 60000 10266 20162 48/// 85130
                   333 5//// 85835 86360=
202104220900 AAXX 22094 67673 42684 51001 10240 20161 48/// 85131
                   333 5//// 85832 84360 82080=
202104220600 AAXX 22064 67673 32584 60802 10200 20152 48/// 82131
                   333 10264 2//// 5//// 82828 86360 81080=
202104210600 AAXX 21064 67673 32584 40903 10196 20137 48/// 82131
                   333 10260 2//// 5//// 82825 83360 84080=
202104200900 AAXX 20094 67673 42684 60702 10240 20162 48/// 84130
                   333 5//// 84830 86360=
202104200600 AAXX 20064 67673 32584 60802 10198 20155 48/// 82130
                   333 10236 2//// 5//// 82825 86360=
202104191200 AAXX 19124 67673 42684 70901 10210 20142 48/// 8413/
                   333 5//// 84830 87360=
202104190900 AAXX 19094 67673 42684 60901 10210 20142 48/// 86800
                   333 5//// 83830 83632=
202104151200 AAXX 15124 67673 NIL=
202104150600 AAXX 15064 67673 32980 70703 10204 20171 48/// 82035
                   333 10286 20//0 5//// 82360 85280=
202104141200 AAXX 14124 67673 NIL=
202104090900 AAXX 09094 67673 NIL=

################################################################################
#  SYNOPS from 67731, Senanga (Zambia) | 16-06S | 023-16E | 1027 m
################################################################################
202104300900 AAXX 30094 67731 42980 412// 10266 20191 48/// 84030
                   333 58003 84361=
202104280600 AAXX 28064 67731 32980 507// 10216 20174 48/// 85030
                   333 10315 20190 59005 85360
                   555 00030=
202104270900 AAXX 27094 67731 42980 127// 10266 20172 48/// 81050
                   333 59013 81364=
202104260900 AAXX 26094 67731 42580 421// 10253 20133 48/// 83130
                   333 59015 83825 84362=
202104260600 AAXX 26064 67731 32480 4//// 10198 20137 48/// 83530
                   333 10271 20142 59004 83612 84360
                   555 00039=
202104221200 AAXX 22124 67731 42980 018// 10271 20134 48/// 70200
                   333 59010=
202104220900 AAXX 22094 67731 42980 012// 10266 20165 48/// 70200
                   333 59005=
202104220600 AAXX 22064 67731 32980 009// 10188 20128 48/// 70200
                   333 10279 20133 58002=
202104210600 AAXX 21064 67731 32980 308// 10191 20138 48/// 83030
                   333 10287 20141 59004 83360
                   555 00036=
202104200900 AAXX 20094 67731 NIL=
202104200600 AAXX 20064 67731 32980 211// 10188 20139 48/// 82030
                   333 10285 20149 59003 82360
                   555 00037=
202104191200 AAXX 19124 67731 42680 527// 10278 20133 48/// 81130
                   333 58001 81830 84365=
202104190900 AAXX 19094 67731 42980 109// 10252 20134 48/// 81010
                   333 59001 81462=
202104160600 AAXX 16064 67731 32980 216// 10208 20151 48/// 82030
                   333 10306 20146 58001 82360=
202104151200 AAXX 15124 67731 NIL=
202104141200 AAXX 14124 67731 NIL=
202104140900 AAXX 14094 67731 42980 408// 10259 20136 82030
                   333 58003 82360=
202104131200 AAXX 13124 67731 42680 418// 10275 20206 48/// 84100
                   333 58005 84830=
202104091200 AAXX 09124 67731 42580 418// 10270 20199 48/// 70322 84100
                   333 59010 84827=
202104090900 AAXX 09094 67731 42480 309// 10270 20147 48/// 70300 83100
                   333 59015 83823=
202104090600 AAXX 09064 67731 32980 003// 10219 20149 48/// 70200
                   333 10307 20159 59022
                   555 00049 20000=
202104080600 AAXX 08064 67731 32980 002// 10215 20155 48/// 70200
                   333 10323 20168 58009
                   555 00047 20000=
202104070900 AAXX 07094 67731 42980 014// 10290 20161 48/// 70200
                   333 58001=
202104061200 AAXX 06124 67731 42680 433// 10276 20211 48/// 70322 84100
                   333 59002 84830=
202104060900 AAXX 06094 67731 42980 018// 10269 20165 48/// 70200
                   333 58008=

################################################################################
#  SYNOPS from 67741, Sesheke (Zambia) | 17-28S | 024-18E | 949 m
################################################################################
202104280600 AAXX 28064 67741 32980 50000 10224 20177 48531 85030
                   333 10316 20168 59007 85362=
202104270900 AAXX 27094 67741 42980 10000 10294 20173 48543 81030
                   333 5//// 81362=
202104260600 AAXX 26064 67741 12980 51601 10188 20174 48532 60034 85030
                   333 10290 20148 59011 85362=
202104221200 AAXX 22124 67741 42980 11401 10282 20157 48550 81030
                   333 59008 81362=
202104220600 AAXX 22064 67741 32980 00000 10176 20139 48568
                   333 10278 20094 58000=
202104210600 AAXX 21064 67741 32980 10901 10178 20138 48568 81030
                   333 10271 20096 58004 81362=
202104201200 AAXX 20124 67741 42680 31202 10262 20127 48556 81130
                   333 59011 81850 83362=
202104200900 AAXX 20094 67741 42680 11001 10246 20139 48573 81130
                   333 59006 81850 81362=
202104200600 AAXX 20064 67741 32980 20000 10168 20134 48556 82030
                   333 18274 20098 59008 82362=
202104191200 AAXX 19124 67741 42680 21202 10258 20186 48566 82100
                   333 5//// 82850=
202104190900 AAXX 19094 67741 42680 10901 10233 20183 48578 81130
                   333 5//// 81850 81362=
202104151200 AAXX 15124 67741 42980 31002 10288 20134 48543 83030
                   333 59016 83362=
202104150900 AAXX 15094 67741 42980 31001 10268 20154 48558 83030
                   333 59018 83362=
202104150600 AAXX 15064 67741 32980 63601 10179 48540 83030
                   333 10294 20108 59018 86362=
202104141200 AAXX 14124 67741 NIL=
202104140900 AAXX 14094 67741 42980 11001 10258 20150 48575 81030
                   333 59003 81362=
202104131200 AAXX 13124 67741 42680 21401 10296 20171 48564 82100
                   333 58003 82850=
202104130900 AAXX 13094 67741 42980 00801 10268 20168 48587
                   333 5////=
202104121200 AAXX 12124 67741 42680 21201 10302 20160 48564 82100
                   333 5//// 82850=
202104091200 AAXX 09124 67741 42680 11201 10298 20115 48545 81100
                   333 59012 81850=
202104090900 AAXX 09094 67741 NIL=
202104090600 AAXX 09064 67741 32980 00000 10204 20168 48544
                   333 10294 20131 59022
                   555 00///=
202104080600 AAXX 08064 67741 32980 00901 10204 20163 48563
                   333 10304 20134 58008
                   555 00///=
202104061200 AAXX 06124 67741 42680 20902 10319 20143 48539 82100
                   333 5//// 82362=
202104060900 AAXX 06094 67741 42980 00000 10303 20167 48554
                   333 5////=

################################################################################
#  SYNOPS from 67743, Livingstone (Zambia) | 17-49S | 025-49E | 985 m
################################################################################
202104270900 AAXX 27094 67743 NIL=
202104260600 AAXX 26064 67743 32980 21001 10193 20162 48533 70200 82030
                   333 10314 20153 59001 82360 91020=
202104220900 AAXX 22094 67743 42680 30603 10249 20145 48574 83100
                   333 59007 83840 91023=
202104220600 AAXX 22064 67743 32980 10809 10177 20120 48564 81030
                   333 10286 20115 59004 81360 91024=
202104200900 AAXX 20094 67743 NIL=
202104200600 AAXX 20064 67743 32980 31102 10157 20133 48557 70200 83030
                   333 10279 20128 58007 83360 91023=
202104151200 AAXX 15124 67743 42780 11008 10298 20052 48541 70100 81130
                   333 59024 81856 81360 91018=
202104150600 AAXX 15064 67743 32980 21201 10177 20125 48545 82030
                   333 10328 20115 59016 82360 91021=
202104141200 AAXX 14124 67743 NIL=
202104090900 AAXX 09094 67743 42980 00704 10270 20144 48555 70300 81100
                   333 59020 81850 91021=
202104080600 AAXX 08064 67743 31975 11105 10203 20163 48566 70500 81030
                   333 10324 20150 59004 81360
                   555 00/// 20000 91024=

################################################################################
#  SYNOPS from 67751, Magoye (Zambia) | 16-00S | 027-36E | 1018 m
################################################################################
202104270900 AAXX 27094 67751 NIL=
202104260600 AAXX 26064 67751 32980 30000 10231 20171 48/// 83030
                   333 10//0 20155 5////=
202104220600 AAXX 22064 67751 32980 00902 10191 20141 48///
                   333 10/// 20125 5////=
202104210600 AAXX 21064 67751 32980 20804 10176 20131 48/// 82030
                   333 10//0 20123 5//// 82360=
202104200900 AAXX 20094 67751 NIL=
202104200600 AAXX 20064 67751 32980 70000 10165 20136
                   333 10//0 20112 5//// 87360=
202104151200 AAXX 15124 67751 NIL=
202104141200 AAXX 14124 67751 NIL=
202104090900 AAXX 09094 67751 NIL=

################################################################################
#  SYNOPS from 67753, Choma (Zambia) | 16-50S | 027-04E | 1213 m
################################################################################
202104270900 AAXX 27094 67753 NIL=
202104260600 AAXX 26064 67753 32980 70000 10215 20160 48541 87050
                   333 10275 20146 59003 87360=
202104220600 AAXX 22064 67753 32480 60000 10177 20143 48566 86100
                   333 10257 20098 59001 81815=
202104210600 AAXX 21064 67753 32480 51002 10180 20141 48562 83130
                   333 10236 20112 58006 83815 82360=
202104200900 AAXX 20094 67753 NIL=
202104200600 AAXX 20064 67753 32980 60000 10155 20131 48554 86030
                   333 10230 20116 59001 86360=
202104160600 AAXX 16064 67753 32980 40000 10176 20148 48547 84030
                   333 10269 20122 59003 84360=
202104151200 AAXX 15124 67753 NIL=
202104150600 AAXX 15064 67753 32480 10906 10202 20135 48549 81101
                   333 10244 20112 59013 81820 81080=
202104141200 AAXX 14124 67753 NIL=
202104090900 AAXX 09094 67753 NIL=
202104090600 AAXX 09064 67753 31980 00000 10185 20153 48548 70500
                   333 10259 20100 59021
                   555 00///=
202104080600 AAXX 08064 67753 32480 10612 10188 20143 48566 81100
                   333 10253 20106 58004 81820
                   555 00///=

################################################################################
#  SYNOPS from 67855, Lupaki (Zambia) | 17-03-00S | 024-46-00E | 1000 m
################################################################################
202104270900 AAXX 27094 67855 42980 02901 10271 20128 3//// 48///
                   333 5////=
202104240900 AAXX 24094 67855 42980 13401 10266 20147 3//// 48/// 81030
                   333 5//// 81360=
202104231500 AAXX 23154 67855 42780 21501 10281 20108 3//// 48/// 82200
                   333 5//// 82850=
202104230900 AAXX 23094 67855 42680 10701 10259 20137 3//// 48/// 81200
                   333 5//// 81835=
202104201500 AAXX 20154 67855 42680 22901 10245 20128 3//// 48/// 82400
                   333 5//// 82635=
202104200900 AAXX 20094 67855 42580 21601 10201 20169 3//// 48/// 82100
                   333 5//// 82825=
202104170900 AAXX 17094 67855 42780 12302 10242 20130 3//// 48/// 81100
                   333 5//// 81850=
202104160900 AAXX 16094 67855 42980 13503 10281 20137 3//// 48/// 81030
                   333 5//// 81360=
202104150900 AAXX 15094 67855 42980 00704 10278 20087 3//// 48///
                   333 5////=
202104140900 AAXX 14094 67855 42980 00902 10278 20117 3//// 48///
                   333 5////=
202104130900 AAXX 13094 67855 42980 01902 10267 20131 3//// 48///
                   333 5////=
202104120900 AAXX 12094 67855 42680 13202 10262 20160 3//// 48/// 81100
                   333 5//// 81845=
202104101500 AAXX 10154 67855 42780 41201 10291 20138 3//// 48/// 84400
                   333 5//// 84650=
202104100900 AAXX 10094 67855 42980 11703 10267 20131 3//// 48/// 81100
                   333 5//// 81850=
202104091500 AAXX 09154 67855 42982 40902 10285 20121 3//// 48/// 84030
                   333 5//// 84360=
202104090900 AAXX 09094 67855 42980 03201 10265 20127 3//// 48///
                   333 5////=
202104081500 AAXX 08154 67855 42780 10601 10285 20121 3//// 48/// 81100
                   333 5//// 81850=
202104060900 AAXX 06094 67855 42680 13503 10278 20165 3//// 48/// 81100
                   333 5//// 81830=
202104010900 AAXX 01094 67855 42680 10301 10262 20152 3//// 48/// 81100
                   333 5//// 81830=
