################################################################################
# Query made at 04/14/2022 16:35:49 UTC
# Country like Zamb*
# Time interval: from 07/01/2012 05:30  to 07/31/2012 05:30  UTC
################################################################################

################################################################################
#  SYNOPS from 67413, Mbala (Zambia) | 08-51S | 031-20E | 1673 m
################################################################################
201207300600 AAXX 30064 67413 32980 01510 10155 20110 48550
                   333 10270 20//0 58002=
201207040600 AAXX 04064 67413 31975 10312 10145 20090 48520 70500 80000
                   333 10231 20//0 59002 81080=

################################################################################
#  SYNOPS from 67441, Mwinilunga (Zambia) | 11-45S | 024-26E | 1361 m
################################################################################
201207180600 AAXX 18064 67441 31965 01204 10130 20060 48591 70500
                   333 10255 20//0 58001=
201207170600 AAXX 17064 67441 31965 00000 10105 20065 48590 58070=
201207100600 AAXX 10064 67441 31960 00000 10075 20043 48564 70500
                   333 10275 2//// 59001=
201207040900 AAXX 04094 67441 41965 00604 10225 20105 48561 70500 33 5////=
201207040600 AAXX 04064 67441 31960 00000 10100 20090 48553 70500
                   333 10280 20//0 59009=

################################################################################
#  SYNOPS from 67461, Mansa (Zambia) | 11-06S | 028-51E | 1382 m
################################################################################
201207300900 AAXX 30094 67461 41975 01313 10222 20072 48542 70500
                   333 58010=
201207300600 AAXX 30064 67461 31975 01208 10132 20070 48528 70500
                   333 10205 20085 58003=
201207271200 AAXX 27124 67461 41575 10805 10253 20160 48521 70500 81100
                   333 58000 81835=
201207210600 AAXX 21064 67461 31965 30803 10122 20075 48552 70500 80001
                   333 10250 20079 58004 83080=
201207100600 AAXX 10064 67461 31965 01202 10120 20093 48527 70500
                   333 10266 20074 59003=
201207090600 AAXX 09064 67461 31975 10604 10138 20085 48530 70500 80001
                   333 10264 20050 58001 81080=

################################################################################
#  SYNOPS from 67475, Kasama (Zambia) | 10-13S | 031-08E | 1382 m
################################################################################
201207300600 AAXX 30064 67475 31970 01304 10145 20083 48552 70500
                   333 10260 20092 59004=
201207271200 AAXX 27124 67475 41670 11510 10249 20073 48532 70522 81100
                   333 59007 81840=
201207100600 AAXX 10064 67475 31970 01003 10150 20088 48539 70500
                   333 10262 20083 58001=
201207090600 AAXX 09064 67475 31970 00302 10152 20076 48538 70500
                   333 10253 20080 58001=
201207041200 AAXX 04124 67475 41970 01204 10254 20074 48513 70500
                   333 5////=

################################################################################
#  SYNOPS from 67477, Mpika (Zambia) | 11-54S | 031-26E | 1400 m
################################################################################
201207300600 AAXX 30064 67477 31975 01505 10132 20045 48563 70500
                   333 10222 20060 58014=
201207271200 AAXX 27124 67477 42680 51106 10228 20068 48542 85100
                   333 59014 85850=

################################################################################
#  SYNOPS from 67531, Zambezi (Zambia) | 13-32S | 023-07E | 1077 m
################################################################################
201207300900 AAXX 30094 67531 41975 00907 10236 20070 48/// 70500
                   333 5////=
201207300600 AAXX 30064 67531 31975 01107 10166 20060 48/// 70500
                   333 10286 20060 5////=
201207100600 AAXX 10064 67531 31975 00000 10100 20066 48/// 70500
                   333 10270 20046 59007=
201207091200 AAXX 09124 67531 41975 01504 10260 20059 48/// 70500
                   333 5////=
201207041200 AAXX 04124 67531 41970 02102 10270 20103 48/// 70500
                   333 5////=
201207040900 AAXX 04094 67531 41970 01303 10245 20119 70500
                   333 5///=
201207040600 AAXX 04064 67531 31970 00000 10100 20064 48/// 70500
                   333 10281 20045 59002=

################################################################################
#  SYNOPS from 67541, Kasempa (Zambia) | 13-32S | 025-51E | 1234 m
################################################################################
201207300600 AAXX 30064 67541 31970 00000 10156 20077 48550 70500
                   333 10//0 20091 58022=
201207180600 AAXX 18064 67541 31960 00000 10135 20086 48566 70500
                   333 10//0 20088 58019=
201207100600 AAXX 10064 67541 31970 00000 10140 20078 48540 70500
                   333 10/// 20054 58015=
201207091200 AAXX 09124 67541 41970 00000 10252 20055 48525 70500
                   333 5////=
201207060600 AAXX 06064 67541 31970 00000 10144 20103 48533 70500
                   333 10//0 20094 58008=

################################################################################
#  SYNOPS from 67561, Ndola (Zambia) | 13-00S | 028-39E | 1269 m
################################################################################
201207271200 AAXX 27124 67561 42780 11206 10254 20054 48542 81100
                   333 59007 81850=
201207270600 AAXX 27064 67561 31960 00000 10140 20080 48557 70500
                   333 10253 20074 59005=
201207261200 AAXX 26124 67561 41775 60609 10231 20088 48547 70511 86200
                   333 58007 86850 91022=
201207250600 AAXX 25064 67561 31959 00000 10143 20096 48554 70400
                   333 10270 20084 58017=
201207210600 AAXX 21064 67561 31915 00000 10089 20072 48548 70400
                   333 10/// 20/// 59005=
201207200900 AAXX 20094 67561 41975 00000 10206 20028 48568 70500
                   333 59003=
201207180900 AAXX 1809/ 67561 41965 01213 10211 20048 48582 70500
                   333 58010=
201207170900 AAXX 17094 67561 41960 01104 10230 20065 48574 70500
                   333 58015=
201207131200 AAXX 13124 67561 41975 00000 10249 20060 48523 70500
                   333 58000 91019=
201207091200 AAXX 09124 67561 42980 00807 10245 20020 48534
                   333 58007=
201207041200 AAXX 04124 67561 41775 10000 10264 20096 48520 70511 81100
                   333 58002 81850=
201207040900 AAXX 04094 67561 42980 00912 10222 20088 48541
                   333 58002=
201207030600 AAXX 03064 67561 31956 00000 10136 20108 48530
                   333 10263 20093 59008=

################################################################################
#  SYNOPS from 67563, Kafironda (Zambia) | 12-36S | 028-07E | 1243 m
################################################################################
201207300600 AAXX 30064 67563 31970 00000 10088 20070 48/// 70500
                   333 10275 20019 58010=
201207200900 AAXX 20094 67563 41950 00802 10207 20030 48/// 70500
                   333 59001=
201207200600 AAXX 20064 67563 31950 00000 10051 20040 48/// 70500
                   333 10234 21017 59002=
201207180900 AAXX 1809/ 67563 41970 01505 10230 20070 48/// 70500
                   333 58007=
201207170900 AAXX 17094 67563 41970 01504 10234 20080 48/// 70500
                   333 58015=
201207091200 AAXX 09124 67563 41978 00904 10252 20055 48/// 70500
                   333 58002=
201207040900 AAXX 04094 67563 41970 01504 10223 20110 48/// 70500
                   333 58003=
201207040600 AAXX 04064 67563 31970 03001 10133 20110 48/// 70500
                   333 10283 20048 59005=

################################################################################
#  SYNOPS from 67571, Serenje (Zambia) | 13-14S | 030-13E | 1384 m
################################################################################
201207300600 AAXX 30064 67571 31975 00904 10148 20046 48558 70500
                   333 10228 20095 58008=
201207200900 AAXX 20094 67571 41978 00902 10203 21004 48561 70500
                   333 59009=
201207200600 AAXX 20064 67571 31975 00904 10138 20015 48558 70500
                   333 10219 20031 59006=
201207170900 AAXX 17094 67571 41970 00000 10199 20066 48571 70500
                   333 58021=
201207131200 AAXX 13124 67571 42980 00303 10241 20081 48524 70500
                   333 59006=
201207040900 AAXX 04094 67571 42980 01902 10212 20086 48532 70500
                   333 59006=

################################################################################
#  SYNOPS from 67580, Msekera (Zambia) | 13-39S | 032-34E | 1025 m
################################################################################
201207300900 AAXX 30094 67580 41675 11206 10224 20066 48/// 70500 81100
                   333 5//// 81840=
201207300600 AAXX 30064 67580 31975 01504 10162 20078 48/// 70500
                   333 10250 20//0 5////=
201207200900 AAXX 20094 67580 41975 01204 10223 20024 48/// 70500
                   333 59011=
201207200600 AAXX 20064 67580 31975 11204 10158 20046 48/// 70500 80001
                   333 10244 20//0 59008=
201207170900 AAXX 17094 67580 41570 11804 10220 20109 48/// 70522 81100
                   333 58026 81828=
201207060600 AAXX 06064 67580 31975 01203 10178 20087 48/// 70500
                   333 10274 20//0 58010=
201207040600 AAXX 04064 67580 31975 00902 10195 20105 48/// 70500
                   333 10282 20//0 59004=

################################################################################
#  SYNOPS from 67581, Chipata (Zambia) | 13-33S | 032-35E | 1028 m
################################################################################
201207271200 AAXX 27124 67581 41758 11708 10241 20071 48557 70500 81100
                   333 59006 81850=
201207210600 AAXX 21064 67581 31958 00000 10176 20038 49569 70500
                   333 10/// 20109 59003=
201207091200 AAXX 09124 67581 41960 01206 10257 20036 48550 70500
                   333 58010=
201207090600 AAXX 09064 67581 31960 00906 10201 20065 48561 70500
                   333 10274 20113 58004=
201207041200 AAXX 04124 67581 41970 01808 10255 20090 48535 70500
                   333 59007=

################################################################################
#  SYNOPS from 67599, Mfuwe (Zambia) | 13-16S | 031-56E | 568 m
################################################################################
201207300900 AAXX 30094 67599 41975 00000 10270 20079 48614 70500
                   333 58014=
201207251200 AAXX 25124 67599 41660 52006 10296 20144 48587 70522 85200
                   333 58006 85840 91021=
201207200600 AAXX 20064 67599 31959 01803 10106 20053 48537 70500
                   333 10281 20050 59010=
201207170600 AAXX 17064 67599 31956 70000 10184 20101 48578 70522 8707/
                   333 10333 20148 58023 87460
                   555 00136=
201207131200 AAXX 13124 67599 41670 30103 10300 20122 48566 70511 83230
                   333 59007 83850 81360 91018=
201207091500 AAXX 09154 67599 41970 00000 10290 20134 48570 70500
                   333 58022=
201207091200 AAXX 09124 67599 41975 00606 10292 20092 48576 70500
                   333 58017=
201207081500 AAXX 08154 67599 41975 00000 10290 20129 48549 70500
                   333 59014=
201207071500 AAXX 07154 67599 42980 10803 10277 20121 48561
                   333 59004 81360 555 10300 91019=
201207060600 AAXX 06064 67599 31970 00000 10166 20098 48565 70500
                   333 10296 20100 58004=
201207020600 AAXX 02064 67599 31960 61804 10160 20106 48561 70522 80001
                   333 10315 20105 58002 86080=
201207011500 AAXX 01154 67599 42980 00000 10249 20140 48559
                   333 59002 555 10315 91018=

################################################################################
#  SYNOPS from 67633, Mongu (Zambia) | 15-15S | 023-09E | 1052 m
################################################################################
201207170600 AAXX 17064 67633 31975 01803 10105 20020 48559 70500 333=
201207100600 AAXX 10064 67633 32975 00000 10120 20053 48537 70500
                   333 10274 20070 59010=
201207091200 AAXX 09124 67633 41975 01303 10257 20067 48541 70500
                   333 58008=
201207090600 AAXX 09064 67633 31975 01604 10122 20019 48544 70500
                   333 10263 20089 58023=
201207040600 AAXX 04064 67633 32980 00903 10155 20094 48523 70200
                   333 10282 20118 59006=

################################################################################
#  SYNOPS from 67655, Mumbwa (Zambia) | 15-04S | 027-11E | 1216 m
################################################################################
201207300600 AAXX 30064 67655 32980 00907 10131 20090 48563
                   333 10258 20//0 59005=

################################################################################
#  SYNOPS from 67663, Kabwe (Zambia) | 14-27S | 028-28E | 1206 m
################################################################################
201207041200 AAXX 04124 67663 42970 00905 10249 20109 48528
                   333 59003=

################################################################################
#  SYNOPS from 67665, Lusaka Internationalairport (Zambia) | 15-19S | 028-27E | 1152 m
################################################################################
201207302100 AAXX 30214 67665 42980 01505 10113 20070 48552
                   333 58001=
201207301500 AAXX 30154 67665 42680 10907 10217 20043 48550 81100
                   333 58008 81840=
201207301200 AAXX 30124 67665 42680 11009 10223 20053 48556 81100
                   333 58009=
201207300900 AAXX 30094 67665 42980 00913 10192 20071 48580
                   333 58008=
201207300600 AAXX 30064 67665 32980 00906 10123 20074 48571
                   333 10245 20132 58009=
201207291200 AAXX 29124 67665 42980 00809 10228 20025 48549
                   333 58006=
201207290900 AAXX 2909/ 67665 41959 00710 10210 20060 48575 70500
                   333 58009=
201207290600 AAXX 29064 67665 31970 01107 10124 20075 48563 70500
                   333 10264 20126 58014=
201207290400 AAXX 2904/ 67665 42980 01405 10085 20054 48542
                   333 58005=
201207290300 AAXX 29034 67665 42980 01603 10084 20064 48535
                   333 59003=
201207290000 AAXX 29004 67665 42980 01504 10086 20067 48534
                   333 59002=
201207281800 AAXX 28184 67665 41970 01504 10151 20059 48547 70500
                   333 10264 59007=
201207280900 AAXX 28094 67665 41960 01208 10219 20048 48568 70500
                   333 59028=
201207280600 AAXX 28064 67665 31960 00000 10142 20099 48552 70500
                   333 10240 20081 59019=
201207280400 AAXX 28044 67665 41960 01404 10071 20061 48535 70500
                   333 59026 Q1022.8=
201207280300 AAXX 2803/ 67665 41960 01603 10071 20061 48531 70500
                   333 59025 91022=
201207280000 AAXX 28004 67665 41960 01803 10093 20025 48536 70500
                   333 59029=
201207272100 AAXX 27214 67665 41960 01504 10112 20073 48552 70500
                   333 59013 91024=
201207271800 AAXX 27184 67665 41959 00000 10152 20075 48553 70500
                   333 10240 59023=
201207271500 AAXX 27154 67665 41970 00903 10222 20051 48549 70500
                   333 59027=
201207271200 AAXX 27124 67665 42780 21004 10226 20057 48564 82100
                   333 59012 82850=
201207270600 AAXX 27064 67665 31959 01204 10120 20098 48578 70500
                   333 10245 20116 59004=
201207262100 AAXX 26214 67665 41960 01604 10115 20085 48572 70500
                   333 58001=
201207261800 AAXX 26184 67665 41960 01603 10141 20085 48574 70500
                   333 10245 58005=
201207261500 AAXX 2615/ 67665 41975 11006 10210 20089 48573 70500 81030
                   333 58009 81360 555 10245 91025=
201207261200 AAXX 26124 67665 41660 10710 10220 20074 48575 70500 81100
                   333 58007 81845 91025=
201207260600 AAXX 26064 67665 31959 11010 10152 20117 48585 70500 80001
                   333 10249 20133 58006=
201207260300 AAXX 26034 67665 42980 01208 10111 20111 48568
                   333 58007=
201207260000 AAXX 26004 67665 41975 01604 10106 20098 48564 70500
                   333 58004=
201207251800 AAXX 25184 67665 41960 01206 10150 20095 48570 70500
                   333 10249 58012=
201207251500 AAXX 25154 67665 41960 11010 10221 20105 48566 70500
                   333 58015 81360 555 10249 91024=
201207251200 AAXX 25124 67665 41660 10908 10235 20089 48541 70510 81100
                   333 58016 81840 91024=
201207250900 AAXX 25094 67665 41960 01010 10202 20080 48591 70500
                   333 58019=
201207250600 AAXX 25064 67665 31960 11104 10120 20118 48574 70500 80001
                   333 10253 20078 58022 81080=
201207241800 AAXX 24184 67665 41970 01404 10155 20081 48541 70500
                   333 58016=
201207241500 AAXX 2415/ 67665 41959 01111 10227 20072 48553 70500
                   333 58013=
201207241200 AAXX 24124 67665 41959 01012 10241 20082 48555 70500
                   333 58007=
201207240900 AAXX 24094 67665 41959 00814 10211 20086 48574 70500
                   333 58008=
201207240600 AAXX 24064 67665 31959 01205 10127 20054 48556 70500 80001
                   333 10265 20084 58003 81080=
201207231800 AAXX 23184 67665 41960 01504 10155 21030 48545 70500
                   333 10265 58004=
201207231500 AAXX 23154 67665 41960 01108 10243 21010 48541 70500
                   333 59001=
201207211800 AAXX 21184 67665 41958 01503 10138 20029 48556 70500
                   333 10244 59003=
201207211500 AAXX 21154 67665 41970 01305 10219 20015 48549
                   333 59003=
201207211200 AAXX 21124 67665 41970 00902 10231 21013 48560 70500
                   333 59003=
201207210600 AAXX 21064 67665 31970 01603 10121 20089 48569 70500
                   333 10256 20099 59002=
201207210300 AAXX 21034 67665 41970 01503 10055 20020 48542 70500
                   333 59004=
201207202100 AAXX 20214 67665 41970 01404 10094 20029 48559 70500
                   333 59002=
201207201800 AAXX 20184 67665 41970 01504 10130 20031 48557 70500
                   333 10256 58000=
201207201200 AAXX 20124 67665 41970 01805 10219 21055 48561 70500
                   333 59008 91023=
201207200600 AAXX 20064 67665 32960 00903 10122 20051 48571
                   333 10225 20075 59009=
201207200400 AAXX 20044 67665 42980 01304 10020 20008 48547
                   333 59010=
201207200300 AAXX 2003/ 67665 42980 01302 10035 20010 48543
                   333 59011=
201207200000 AAXX 20004 67665 41975 01804 10069 20024 48548 70500
                   333 59014=
201207191800 AAXX 19184 67665 41970 01404 10109 20035 48553 70500
                   333 10225 59016=
201207191500 AAXX 19154 67665 41970 01207 10208 21024 48554 70500
                   333 59022 555 10225=
201207191200 AAXX 1912/ 67665 41970 00706 10209 20015 48567 70500
                   333 59016 Q1024.4=
201207190900 AAXX 19094 67665 41970 01008 10177 20036 48589 70500
                   333 59016=
201207190600 AAXX 19064 67665 31960 01207 10082 20029 48572 70500
                   333 10225 20065 59016=
201207181800 AAXX 18184 67665 42980 01504 10117 20020 48571
                   333 59001=
201207181200 AAXX 18124 67665 41959 01110 10207 20041 48583 70500
                   333 58012=
201207180900 AAXX 1809/ 67665 41959 00608 10184 20071 48604 70500
                   333 58013=
201207180600 AAXX 18064 67665 32970 00907 19116 20109 48594 70500
                   333 10241 20097 58017=
201207171800 AAXX 17184 67665 41970 01405 10139 20059 48575 70500
                   333 58016=
201207171500 AAXX 17154 67665 41960 01512 10211 20063 48567 70500
                   333 58016=
201207171200 AAXX 17124 67665 41959 00910 10233 20040 48574 70500
                   333 58021=
201207170900 AAXX 17094 67665 41959 00907 10199 20029 48595 70500
                   333 58025=
201207170600 AAXX 17064 67665 31980 01105 10114 20029 48577 70500
                   333 10256 20094 58022=
201207170400 AAXX 1704/ 67665 42980 01002 10077 21013 48558
                   333 58014=
201207170300 AAXX 17034 67665 42980 01202 10091 21019 48553
                   333 58016=
201207170000 AAXX 17004 67665 42980 01201 10088 21066 48553
                   333 58017=
201207162100 AAXX 16214 67665 41980 01504 10123 21045 48563 70500
                   333 58016=
201207160900 AAXX 16094 67665 41975 01206 10210 21045 48572 70500
                   333 58021=
201207160600 AAXX 16064 67665 31975 02002 10147 21025 48562 70500
                   333 10281 20094 58020=
201207160400 AAXX 16044 67665 41980 02401 10113 21020 48549 70500
                   333 58021=
201207160300 AAXX 16034 67665 41980 02702 10103 20026 48540 70500
                   333 58006=
201207160000 AAXX 16004 67665 41980 00903 10146 20016 48548 70500
                   333 58015=
201207152100 AAXX 15214 67665 41980 00502 10145 20079 48551 70500
                   333 58012 91023=
201207151800 AAXX 15184 67665 42958 01503 10171 20076 48549 70500
                   333 10281 58014=
201207151500 AAXX 15154 67665 41980 01308 10243 20083 48537 70500
                   333 58007=
201207151200 AAXX 15124 67665 42960 02103 10269 20074 48537
                   333 58001=
201207150400 AAXX 1504/ 67665 41960 01604 10117 20080 48530 70500
                   333 58001=
201207150300 AAXX 15034 67665 41960 01803 10118 20089 48527 70500
                   333 58000=
201207142100 AAXX 14214 67665 41960 01604 10147 20094 48540 70500
                   333 59006=
201207141800 AAXX 14184 67665 42980 01406 10171 20100 48535
                   333 10270 58000=
201207141500 AAXX 14154 67665 42980 00304 10248 20068 48532
                   333 58000=
201207141200 AAXX 14124 67665 42980 00906 10259 20071 48535
                   333 59001=
201207140900 AAXX 14094 67665 42980 00406 10232 20091 48560 70200
                   333 58000 91023=
201207140600 AAXX 14064 67665 42980 01502 10133 20096 48543 70500
                   333 10258 20110 59005
                   555 00/// 91022=
201207140400 AAXX 14044 67665 42980 01504 10093 20084 48526
                   333 59007=
201207140300 AAXX 14034 67665 42980 01604 10097 20077 48525
                   333 59003=
201207140000 AAXX 14004 67665 42980 01505 10123 20085 48526
                   333 59009=
201207131800 AAXX 13184 67665 42980 00803 10167 20084 70200
                   333 10258 59010=
201207131500 AAXX 13154 67665 42980 00605 10235 20071 48529 70200
                   333 59011 555 10258 91019=
201207131200 AAXX 13124 67665 42980 00611 10236 20072 48539 70200
                   333 59007 91020=
201207130600 AAXX 13064 67665 31960 01203 10135 20109 48548 70500
                   333 10250 20100 58002=
201207122100 AAXX 12214 67665 42980 01506 10122 20084 48542
                   333 59006=
201207121800 AAXX 12184 67665 42980 01505 10150 20085 48542
                   333 59004=
201207121500 AAXX 12154 67665 42980 00604 10230 20050 48540
                   333 59004=
201207121200 AAXX 12124 67665 42980 01210 10237 20049 48546
                   333 59005=
201207120600 AAXX 12064 67665 32222 22980 10114 20085 48544
                   333 59016=
201207111800 AAXX 11184 67665 41975 01204 10138 20092 48545 70500
                   333 59004=
201207111500 AAXX 11154 67665 41975 00906 10220 20035 48543 70500
                   333 59003=
201207111200 AAXX 11124 67665 41975 00908 10229 20063 48549 70500
                   333 59004=
201207110900 AAXX 11094 67665 42980 00912 10203 20073 48573
                   333 58001=
201207110600 AAXX 11064 67665 32980 01105 10177 20090 48561
                   333 10249 20065 58003=
201207110300 AAXX 11034 67665 42980 01504 10085 20072 48541
                   333 59004=
201207110000 AAXX 11004 67665 42980 01803 10083 20072 48540
                   333 59002=
201207102100 AAXX 10214 67665 42980 01603 10108 20076 48549
                   333 58000=
201207101800 AAXX 10184 67665 41980 01205 10143 20065 48550 70500
                   333 58001=
201207101500 AAXX 10154 67665 41970 02008 10227 20015 48547 70500
                   333 58002=
201207101200 AAXX 10124 67665 41980 01004 10222 20052 48552 70500
                   333 58007=
201207100600 AAXX 10064 67665 32975 00905 10127 20091 48557 70500
                   333 10259 20066 58003=
201207100400 AAXX 10044 67665 42980 01503 10090 20084 48549 70200
                   333 58011 Q1024.1=
201207100300 AAXX 10034 67665 42980 01504 10082 20062 48543 70200
                   333 58007 91023=
201207091800 AAXX 09184 67665 42975 01202 10150 20074 48550
                   333 10259 58017=
201207091500 AAXX 09154 67665 42975 01207 10233 20042 48545
                   333 58009=
201207091200 AAXX 09124 67665 42980 00605 10247 20038 48550
                   333 58008=
201207090600 AAXX 09064 67665 32970 11403 10151 20057 48558 70500 80001
                   333 10260 20075 58010 81078=
201207082100 AAXX 08214 67665 41960 01803 10105 20042 48540 70500
                   333 58006=
201207081800 AAXX 08184 67665 42980 01403 10154 20030 48536
                   333 10260 59006=
201207081500 AAXX 08154 67665 42980 01406 10239 20051 48537
                   333 59004=
201207080300 AAXX 08034 67665 42980 01804 10103 20084 48531
                   333 59017=
201207080000 AAXX 08004 67665 42980 01504 10096 20076 48531
                   333 59022=
201207071800 AAXX 07184 67665 42980 01203 10154 20100 48542
                   333 10250 59003 91022=
201207071500 AAXX 07154 67665 42980 00602 10239 20078 48541 70200
                   333 59001 555 10250 91020=
201207071200 AAXX 07124 67665 41680 11006 10230 20076 48551 70500 81100
                   333 59005 81840 91022=
201207070900 AAXX 07094 67665 42580 10711 10209 20105 48568 81100
                   333 58008 81825=
201207070600 AAXX 07064 67665 32980 01203 10130 20109 48561
                   333 10255 20071 58000=
201207061500 AAXX 06154 67665 42980 00809 10235 20072 48542
                   333 58012=
201207061200 AAXX 06124 67665 42980 00806 10243 20084 48557
                   333 58009=
201207060900 AAXX 06094 67665 42980 01112 10209 20100 48576
                   333 58018=
201207060600 AAXX 06064 67665 31970 01206 10139 20112 48562 70500
                   333 10279 20085 58019=
201207051500 AAXX 05154 67665 41970 00907 10249 20080 48532
                   333 58002=
201207051200 AAXX 05124 67665 42980 00706 10255 20090 48541
                   333 58006=
201207050900 AAXX 05094 67665 42980 00812 10224 20135 48560
                   333 58005=
201207050600 AAXX 05064 67665 32980 01404 10147 20138 48546
                   333 10266 20093 58001=
201207050000 AAXX 05004 67665 42980 01503 10122 20108 48536
                   333 58011=
201207042100 AAXX 04214 67665 42980 01303 10128 20119 48539
                   333 58001=
201207041800 AAXX 04184 67665 42975 01203 10161 48536
                   333 10266 59004=
201207041200 AAXX 04124 67665 41960 01004 10254 20106 49534 70500
                   333 59007=
201207040900 AAXX 0409/ 67665 41960 00905 10215 48555 70500
                   333 59001=
201207040600 AAXX 04064 67665 31960 01005 10145 20136 48545 70500
                   333 10259 20091 59004=
201207040400 AAXX 04044 67665 42980 11403 10102 20094 48528 70200 81030
                   333 59007 81360 91021=
201207040000 AAXX 04004 67665 42980 11404 10113 20103 48525 70200 81030
                   333 59008 81360 91020=
201207030900 AAXX 03094 67665 41960 01205 10223 20123 48556 70500
                   333 59007=
201207030600 AAXX 03064 67665 31960 00000 10141 20134 48548 70500
                   333 10255 20082 59006=
201207030400 AAXX 0304/ 67665 42980 41004 10117 20109 48538
                   333 84360=
201207030000 AAXX 03004 67665 42980 21402 10115 20101 48533 82030
                   333 58000 82360=
201207022100 AAXX 02214 67665 42980 11502 10136 20106 48545 81030
                   333 58000 81360=
201207021800 AAXX 02184 67665 41960 11402 10154 20099 48541 70500 81030
                   333 10255 58001 81360=
201207020600 AAXX 02064 67665 31980 01102 10133 20105 48552 70500
                   333 10250 20078 58001=
201207020400 AAXX 0204/ 67665 42980 01302 10089 20079 48534
                   333 58002=
201207020300 AAXX 0203/ 67665 42980 01503 10107 20088 48533
                   333 59001=
201207020000 AAXX 02004 67665 42980 01603 10101 20071 48532
                   333 59001=
201207011800 AAXX 01184 67665 42980 01502 10147 20080 48540 70300
                   333 10250 59010 91022=
201207011500 AAXX 01154 67665 42980 01004 10232 20040 48535 70200
                   333 59010 555 10250=
201207011200 AAXX 01124 67665 42680 10904 10245 20056 48542 70200 81100
                   333 59008 81845 91020=
201207010900 AAXX 01094 67665 42680 10803 10215 20102 48564 81100
                   333 59011 81830=
201207010600 AAXX 01064 67665 31970 01602 10142 20126 48552 70500
                   333 10255 20085 59009=

################################################################################
#  SYNOPS from 67666, Lusaka City Airport (Zambia) | 15-25S | 028-19E | 1280 m
################################################################################
201207261200 AAXX 26124 67666 42580 20908 10215 20102 48565 82100
                   333 58006 82825 91024=
201207200900 AAXX 20094 67666 42980 00906 10185 20104 48575
                   333 59001=
201207180900 AAXX 1809/ 67666 42980 00910 10181 20089 48594
                   333 58068 Q1027.9=
201207180600 AAXX 18064 67666 32980 00915 10120 20091 48598
                   333 10235 20104 58017 91027=
201207170900 AAXX 17094 67666 42980 00916 10195 20064 48571=
201207170600 AAXX 17064 67666 32980 00907 10135 20050 48571
                   333 10220 20115 58020=
201207131200 AAXX 13124 67666 42980 10235 20099 48531
                   333 58008 91019=
201207091200 AAXX 09124 67666 42980 00910 10236 20067 48541
                   333 58009=
201207060600 AAXX 06064 67666 32980 00912 10140 20104 48552
                   333 10//0 20120 58014=
201207040900 AAXX 04094 67666 42980 00912 10204 20111 48537
                   333 58000=
201207040600 AAXX 04064 67666 32980 00912 10160 20109 48541
                   333 10//0 20120 59005=

################################################################################
#  SYNOPS from 67673, Petauke (Zambia) | 14-15S | 031-17E | 1035 m
################################################################################
201207200600 AAXX 20064 67673 31960 00903 10158 20040 48573 70500
                   333 10234 20102 5////=
201207170900 AAXX 17094 67673 41960 40907 10208 20088 48596 70500 84030
                   333 58028 84360=
201207091200 AAXX 09124 67673 41965 01405 10250 20015 48558 70500
                   333 58016=
201207040900 AAXX 04094 67673 41965 01305 10236 20086 48560 70500
                   333 59008=
201207040600 AAXX 04064 67673 31965 00803 10188 20104 48552 70500
                   333 10275 20116 59006=

################################################################################
#  SYNOPS from 67743, Livingstone (Zambia) | 17-49S | 025-49E | 985 m
################################################################################
201207270600 AAXX 27064 67743 32980 00804 10122 20056 48572
                   333 10251 20095 59012=
201207210600 AAXX 21064 67743 32980 00000 10080 20044 48552
                   333 10266 20025 58002=
201207151500 AAXX 15154 67743 42980 08006 10227 20025 48557
                   333 58024=
201207151200 AAXX 15124 67743 42980 20004 10216 20025 48560
                   333 58021=
201207141500 AAXX 14154 67743 42980 03006 10285 20098 48525
                   333 59002=
201207140600 AAXX 14064 67743 32980 00000 10138 20091 48531 70200
                   333 10279 20113 59008 BB/// DD/// 91021=
201207131200 AAXX 13124 67743 42880 11106 10269 20104 48535 81100
                   333 59015 81857 555 91018=
201207120600 AAXX 12064 67743 32980 20062 48542
                   333 10270 20085 59013=
201207110600 AAXX 11064 67743 32980 00000 10097 20058 48546 70200=
201207100600 AAXX 10064 67743 32980 00802 10124 20065 48548
                   333 10285 20093 58003=
201207091200 AAXX 09124 67743 42980 00806 10267 20147 48551
                   333 59002=
201207090600 AAXX 09064 67743 32980 00000 10106 20040 48543 70500
                   333 10258 20058 58013=
201207041200 AAXX 04124 67743 42780 20903 10260 20107 48542 81130
                   333 58002 81850 81360=
201207040900 AAXX 04094 67743 42980 51004 10207 20106 48558 85030
                   333 58004 85360=
201207020600 AAXX 02064 67743 32980 01002 10118 20049 48536
                   333 10279 20080 59003=

################################################################################
#  SYNOPS from 67753, Choma (Zambia) | 16-50S | 027-04E | 1213 m
################################################################################
201207271200 AAXX 27124 67753 41760 10904 10224 20103 48/// 70500 81100
                   333 5//// 81850=
201207210600 AAXX 21064 67753 31960 01004 10112 20041 48/// 70500
                   333 10211 20011 5////=
201207100600 AAXX 10064 67753 31960 00908 10132 20084 48/// 70500
                   333 10253 20069 5////=
201207090600 AAXX 09064 67753 31960 12204 10100 20049 48/// 70500 80001
                   333 10263 20046 5//// 81080=

################################################################################
#  SYNOPS from 67855, Lupaki (Zambia) | 17-03-00S | 024-46-00E | 1000 m
################################################################################
201207301800 AAXX 30184 67855 NIL=
201207301200 AAXX 30124 67855 41770 60704 10250 20064 3//// 48/// 70522 81101
                   333 5//// 81850 86080=
201207300600 AAXX 30064 67855 31980 40703 10120 20050 3//// 48/// 70500 80001
                   333 20045 5//// 84080=
201207291800 AAXX 29184 67855 NIL=
201207291200 AAXX 29124 67855 41970 31701 10248 20050 3//// 48/// 70500 80001
                   333 5//// 83080=
201207290600 AAXX 29064 67855 31970 20605 10122 20039 3//// 48/// 70500 80001
                   333 20034 5//// 82080=
201207261200 AAXX 26124 67855 41370 33301 10248 20068 3//// 48/// 70500 83100
                   333 5//// 83850=
201207260600 AAXX 26064 67855 31970 21201 10104 20069 3//// 48/// 70500 82030
                   333 20050 5//// 82360=
201207251200 AAXX 25124 67855 NIL=
201207250600 AAXX 25064 67855 31970 00101 10090 20043 3//// 48/// 70500
                   333 20044 5////=
201207241800 AAXX 24184 67855 NIL=
201207241200 AAXX 24124 67855 41970 01105 10264 20025 3//// 48/// 70500
                   333 5////=
201207240600 AAXX 24064 67855 31970 01801 10092 21008 38/// 48/// 70500
                   333 20029 5////=
201207231200 AAXX 23124 67855 41970 02703 10280 21043 38/// 48/// 70500
                   333 5////=
201207230600 AAXX 23064 67855 31970 00000 10050 21083 3//// 48/// 70500
                   333 21028 5////=
201207221800 AAXX 22184 67855 NIL=
201207221200 AAXX 22124 67855 41970 02101 10250 21060 3//// 48/// 70500
                   333 5////=
201207220600 AAXX 22064 67855 31970 02101 10034 21085 3//// 48/// 70500
                   333 21020 5////=
201207211800 AAXX 21184 67855 NIL=
201207211200 AAXX 21124 67855 41970 03602 10254 21030 3//// 48/// 70500
                   333 5////=
201207210600 AAXX 21064 67855 31970 01801 10008 21120 3//// 48/// 70500
                   333 21034 5////=
201207201800 AAXX 20184 67855 NIL=
201207201200 AAXX 20124 67855 41970 01802 10228 21033 3//// 48/// 70500
                   333 5////=
201207200600 AAXX 20064 67855 31970 01801 10020 21043 3//// 48/// 70500
                   333 21026 5////=
201207191800 AAXX 19184 67855 NIL=
201207191200 AAXX 19124 67855 41970 00702 10216 20050 3//// 48/// 70500
                   333 5////=
201207190600 AAXX 19064 67855 31970 00601 10060 20010 3//// 48/// 70500
                   333 20010 5////=
201207181800 AAXX 18184 67855 NIL=
201207181200 AAXX 18124 67855 41970 10604 10230 20025 3//// 48/// 70500 80002
                   333 5//// 81080=
201207180600 AAXX 18064 67855 31970 00000 10048 20010 38/// 48/// 70500
                   333 20014 5////=
201207171800 AAXX 17184 67855 NIL=
201207171200 AAXX 17124 67855 41970 02003 10234 21018 3//// 48/// 70500
                   333 5////=
201207170600 AAXX 17064 67855 31970 02101 10034 21090 3//// 48/// 70500
                   333 21020 5////=
201207161800 AAXX 16184 67855 NIL=
201207161200 AAXX 16124 67855 41670 12104 10234 21016 3//// 48/// 70500 81101
                   333 5//// 81840=
201207151200 AAXX 15124 67855 NIL=
201207150600 AAXX 15064 67855 31970 02302 10094 21040 3//// 48/// 70500
                   333 20070 5////=
201207141800 AAXX 14184 67855 NIL=
201207141200 AAXX 14124 67855 41670 23604 10274 20095 82100
                   333 5//// 82840=
201207140600 AAXX 14064 67855 31970 00000 10118 20054 3//// 48/// 70500
                   333 20049 5////=
201207131200 AAXX 13124 67855 41770 50103 10250 20079 3//// 48/// 70511 85100
                   333 5//// 85850=
201207130600 AAXX 13064 67855 31970 00702 10098 20061 38/// 48/// 70500
                   333 20044 5////=
201207121800 AAXX 12184 67855 NIL=
201207121500 AAXX 12154 67855 41970 20601 10248 3//// 4//// 70500 80001
                   333 5//// 82080=
201207121200 AAXX 12124 67855 41970 11701 10256 20041 3//// 48/// 70500 80001
                   333 5//// 81080=
201207120600 AAXX 12064 67855 31970 00000 10050 20005 3//// 48/// 70500
                   333 20017 5////=
201207111800 AAXX 11184 67855 NIL=
201207111200 AAXX 11124 67855 41970 11303 10264 20045 3//// 48/// 70500 80001
                   333 5//// 81080=
201207110600 AAXX 11064 67855 31970 00000 10050 21011 3//// 48/// 70500
                   333 20006 5////=
201207101200 AAXX 10124 67855 41970 01603 10250 20060 3//// 48/// 70500
                   333 5////=
201207100600 AAXX 10064 67855 NIL=
201207091800 AAXX 09184 67855 NIL=
201207091200 AAXX 09124 67855 41970 00403 10272 20060 3//// 48/// 70500
                   333 5////=
201207090900 AAXX 09094 67855 41970 00602 10218 20050 3//// 48/// 70500
                   333 5////=
201207090600 AAXX 09064 67855 31970 00000 10056 20006 3//// 48/// 70500
                   333 20021 5////=
201207081800 AAXX 08184 67855 NIL=
201207081200 AAXX 08124 67855 42980 02402 10254 20055 3//// 48///
                   333 5////=
201207080600 AAXX 08064 67855 31970 00000 10060 20035 3//// 48/// 70500
                   333 20026 5////=
201207071800 AAXX 07184 67855 NIL=
201207071200 AAXX 07124 67855 41960 03604 10226 20053 3//// 48/// 70500
                   333 5////=
201207070600 AAXX 07064 67855 31970 00000 10084 20009 3//// 48/// 70500
                   333 20040 5////=
201207061800 AAXX 06184 67855 NIL=
201207061200 AAXX 06124 67855 41970 00304 10276 20048 3//// 48/// 70500
                   333 5////=
201207060600 AAXX 06064 67855 31970 00000 10106 20057 3//// 48/// 70500
                   333 20076 5////=
201207051800 AAXX 05184 67855 NIL=
201207051200 AAXX 05124 67855 41970 01302 10280 20077 3//// 48/// 70500
                   333 5////=
201207041200 AAXX 04124 67855 41670 21903 10270 20055 3//// 48/// 70500 82100
                   333 5//// 82840=
201207040600 AAXX 04064 67855 31970 00000 10086 20020 3//// 48/// 70500
                   333 20040 5////=
201207031800 AAXX 03184 67855 NIL=
201207031200 AAXX 03124 67855 41970 00604 10284 20044 3//// 48/// 70500
                   333 5////=
201207030600 AAXX 03064 67855 31970 00000 10042 20003 38/// 48/// 70500
                   333 20020 5////=
201207021800 AAXX 02184 67855 NIL=
201207021200 AAXX 02124 67855 41870 00303 10274 20033 38/// 48/// 70500
                   333 5////=
201207020600 AAXX 02064 67855 31970 00000 10044 21013 3//// 48/// 70500
                   333 20015 5////=
201207010600 AAXX 01064 67855 NIL=
