################################################################################
# Query made at 04/10/2022 06:08:40 UTC
# Country like Zamb*
# Time interval: from 06/30/2021 23:30  to 07/31/2021 23:30  UTC
################################################################################

################################################################################
#  SYNOPS from 67403, Kawambwa (Zambia) | 09-48S | 029-05E | 1323 m
################################################################################
202107300600 AAXX 30064 67403 31975 00903 10142 20086 48549 70500
                   333 10282 20114 58005
                   555 00///=
202107280600 AAXX 28064 67403 31975 10903 10135 20060 48529 70500 80001
                   333 10257 20102 59025 81080
                   555 00///=
202107270600 AAXX 27064 67403 31975 20807 10110 20055 48552 70500 80001
                   333 10212 20081 59016 82080=
202107230600 AAXX 23064 67403 31975 00902 10164 20105 48546 70500
                   333 10290 20119 59013
                   555 00///=
202107221200 AAXX 22124 67403 41675 21802 10277 20111 48539 70300 82100
                   333 59003 82847=
202107211200 AAXX 21124 67403 41975 03601 10296 20095 48544 70500
                   333 58005=
202107210900 AAXX 21094 67403 NIL=
202107210600 AAXX 21064 67403 31975 01203 10163 20098 48557 70500
                   333 10297 20120 58005
                   555 00///=
202107161200 AAXX 16124 67403 NIL=
202107160900 AAXX 16094 67403 NIL=
202107160600 AAXX 16064 67403 41975 01203 10153 20114 48551 70500
                   333 10285 20130 58017
                   555 00///=
202107150900 AAXX 15094 67403 41975 01002 10252 20119 48545 70500
                   333 5////=
202107150600 AAXX 15064 67403 31975 01203 10180 20107 48538 70500
                   333 10//0 20//0 5////
                   555 00///=
202107141200 AAXX 14124 67403 NIL=
202107110900 AAXX 11094 67403 NIL=
202107070600 AAXX 07064 67403 31975 00903 10145 20082 48543 70500
                   333 10256 20100 59005=
202107060600 AAXX 06064 67403 31975 01202 10150 20083 48546
                   333 10280 20113 58004=
202107011200 AAXX 01124 67403 41775 20901 10280 20107 48534 82100
                   333 58007 82850=
202107010900 AAXX 01094 67403 41975 01201 10251 20097 48556 70500
                   333 5////=
202107010600 AAXX 01064 67403 31975 00601 10147 20087 48544 70500
                   333 10292 20118 58006
                   555 00///=

################################################################################
#  SYNOPS from 67413, Mbala (Zambia) | 08-51S | 031-20E | 1673 m
################################################################################
202107270600 AAXX 27064 67413 32480 40912 10120 20050 48562 84500
                   333 10214 20082 59010 84615
                   555 00110 91026=
202107230600 AAXX 23064 67413 32980 21206 10167 20088 48566 82030
                   333 10262 20124 59011 82359
                   555 00148 91028=
202107210900 AAXX 21094 67413 NIL=
202107210600 AAXX 21064 67413 32980 00714 10207 20066 48581
                   333 10276 20128 58017
                   555 00180 91029=
202107190600 AAXX 19064 67413 32980 01012 10136 20069 48559
                   333 10233 20100 59012
                   555 00139 91026=
202107161200 AAXX 16124 67413 NIL=
202107160900 AAXX 16094 67413 NIL=
202107160600 AAXX 16064 67413 32480 21212 10146 20104 48567 82500
                   333 10258 20118 58013 82618
                   555 00180 91027=
202107150900 AAXX 15094 67413 NIL=
202107150600 AAXX 15064 67413 32980 01108 10264 20109 48554
                   333 10254 20106 59005
                   555 00180 91020=
202107141200 AAXX 14124 67413 NIL=
202107110900 AAXX 11094 67413 NIL=
202107010900 AAXX 01094 67413 NIL=
202107010600 AAXX 01064 67413 32980 00910 10165 20112 48562
                   333 10260 20124 5//// 91026=

################################################################################
#  SYNOPS from 67441, Mwinilunga (Zambia) | 11-45S | 024-26E | 1361 m
################################################################################
202107300900 AAXX 30094 67441 41980 01706 10210 20091 48600 70500
                   333 58000=
202107300600 AAXX 30064 67441 31970 00904 10130 20067 48591 70500
                   333 10260 20071 58010
                   555 00///=
202107210900 AAXX 21094 67441 42980 00904 10220 20010 48597 70500
                   333 58005=
202107210600 AAXX 21064 67441 31970 00000 10095 20075 48598 70500
                   333 10275 20050 58000
                   555 00///=
202107161200 AAXX 16124 67441 42680 51204 10255 20085 48564 70500 83200
                   333 58003 85840=
202107160900 AAXX 16094 67441 42980 01206 10227 20106 48596 70500
                   333 58022=
202107160600 AAXX 16064 67441 31970 00000 10135 20104 48582 70500
                   333 10285 20105 58010
                   555 00///=
202107150900 AAXX 15094 67441 NIL=
202107150600 AAXX 15064 67441 31970 0//// 10120 20106 48572 70500
                   333 10270 20070 58009=
202107141200 AAXX 14124 67441 NIL=
202107110900 AAXX 11094 67441 NIL=
202107090600 AAXX 09064 67441 32975 00802 10126 20082 48560 70500
                   333 10260 20060 58007
                   555 00///=
202107010900 AAXX 01094 67441 NIL=

################################################################################
#  SYNOPS from 67461, Mansa (Zambia) | 11-06S | 028-51E | 1382 m
################################################################################
202107300600 AAXX 30064 67461 32980 01213 10133 20085 48559
                   333 10258 20065 58007
                   555 00/// 91024=
202107280600 AAXX 28064 67461 32980 41320 10117 20066 48539 80001
                   333 10221 20047 59017 84080
                   555 00/// 91022=
202107270600 AAXX 27064 67461 32980 01317 10107 20069 48553
                   333 10190 20033 59018 91024=
202107230600 AAXX 23064 67461 31978 01305 10165 20102 48559 70500
                   333 10274 20083 59012
                   555 00/// 91024=
202107221200 AAXX 22124 67461 41975 01320 10270 20104 48554 70500
                   333 58016 91022=
202107210900 AAXX 21094 67461 NIL=
202107210600 AAXX 21064 67461 31970 01210 10140 20113 48557 70500
                   333 10260 20072 59002 91023=
202107190600 AAXX 19064 67461 31975 11316 10120 20082 48549 70500
                   333 10244 20062 59010 81080
                   555 00/// 91022=
202107161200 AAXX 16124 67461 NIL=
202107160900 AAXX 16094 67461 42580 41225 10217 20115 48573 84800
                   333 58010 81627 83830=
202107160600 AAXX 16064 67461 31575 10606 10153 20126 48562 70500 81500
                   333 10268 20093 58015
                   555 00/// 91024=
202107150900 AAXX 15094 67461 41975 01430 10230 20120 48536 70500
                   333 59021 91020=
202107150600 AAXX 15064 67461 31975 00818 10156 20110 48549 70500
                   333 10275 20096 58005
                   555 00/// 91023=
202107141200 AAXX 14124 67461 NIL=
202107110900 AAXX 11094 67461 NIL=
202107060600 AAXX 06064 67461 31970 01509 10145 20095 48558 70500
                   333 10248 20049 58001 91023=
202107050600 AAXX 05064 67461 32980 01206 10140 20100 48551
                   333 10251 20049 58006
                   555 00/// 91023=
202107011200 AAXX 01124 67461 41975 00503 10265 20076 48542 70500
                   333 58011 91020=
202107010900 AAXX 01094 67461 42980 01407 10238 20081 48566
                   333 58008 91024=
202107010600 AAXX 01064 67461 31975 00805 10151 20109 48559 70500
                   333 10275 20053 58016
                   555 00/// 91024=

################################################################################
#  SYNOPS from 67469, Samfya (Zambia) | 11-22S | 029-54E | 1171 m
################################################################################
202107280600 AAXX 28064 67469 32980 21110 10139 20090 48/// 82031
                   333 10206 20100 5//// 82360 81080
                   555 00///=
202107230600 AAXX 23064 67469 32980 00901 10181 20140 48///
                   333 10243 20145 5////
                   555 00///=
202107221200 AAXX 22124 67469 42680 20905 10230 20160 48/// 82100
                   333 5////=
202107220900 AAXX 22094 67469 42980 00907 10225 20150 48///
                   333 5////=
202107210900 AAXX 21094 67469 42980 00907 10201 20140 48///
                   333 5////=
202107210600 AAXX 21064 67469 32980 00905 10180 20140 48///
                   333 10229 20161 5////
                   555 00///=
202107161200 AAXX 16124 67469 42680 41210 10224 20130 48/// 84200
                   333 5//// 84839=
202107160900 AAXX 16094 67469 42480 01415 10197 20140 48/// 84230
                   333 5//// 84824 81360=
202107160600 AAXX 16064 67469 32980 01715 1//// 20140 48///
                   333 10251 20157 5////
                   555 00///=
202107150900 AAXX 15094 67469 42580 11310 10207 20140 48/// 81200
                   333 5//// 81826=
202107150600 AAXX 15064 67469 32980 01009 10176 20130 48///
                   333 10247 20139 5////
                   555 00///=
202107141200 AAXX 14124 67469 NIL=
202107110900 AAXX 11094 67469 NIL=
202107091200 AAXX 09124 67469 42980 00502 10203 20110 48///
                   333 5////=
202107070600 AAXX 07064 67469 32980 00915 10167 20130 48///
                   333 10228 20143 5////=
202107060600 AAXX 06064 67469 32980 00910 10178 20120 48///
                   333 10234 20153 5////=
202107050600 AAXX 05064 67469 32980 00910 10195 20110 48///
                   333 10242 20140 5////
                   555 00///=
202107011200 AAXX 01124 67469 42980 00704 10233 20150 48///
                   333 5////=
202107010900 AAXX 01094 67469 42980 00904 10209 20140 48///
                   333 5////=
202107010600 AAXX 01064 67469 32980 02504 10133 20130 48///
                   333 10232 20105 5////
                   555 00///=

################################################################################
#  SYNOPS from 67475, Kasama (Zambia) | 10-13S | 031-08E | 1382 m
################################################################################
202107280600 AAXX 28064 67475 31960 21013 10141 20064 48547 70500 80001
                   333 10//0 20089 59023 82080
                   555 00/// 91023=
202107270600 AAXX 27064 67475 31960 01209 10117 20059 48568 70500
                   333 10//0 20063 59009 91026=
202107230900 AAXX 23094 67475 41660 30911 10236 20083 48565 70500 83200
                   333 59012 83830 91026=
202107230600 AAXX 23064 67475 31960 00507 10174 20120 48560 70500
                   333 10//0 20101 59012
                   555 00/// 91025=
202107211200 AAXX 21124 67475 41960 01507 10276 20071 48557 70500
                   333 58012 555 91024=
202107210900 AAXX 21094 67475 41960 00911 10241 20094 48581 70500
                   333 58008 91026=
202107210600 AAXX 21064 67475 31960 00511 10161 20122 48576 70500
                   333 10//0 20091 555 00/// 91026=
202107161200 AAXX 16124 67475 41660 51113 10236 20086 48549 70522 85200
                   333 58007 85835 555 91023=
202107160900 AAXX 16094 67475 NIL=
202107160600 AAXX 16064 67475 31960 01013 10164 20109 48568 70500
                   333 10//0 20121 58017
                   555 00/// 91026=
202107150900 AAXX 15094 67475 NIL=
202107150600 AAXX 15064 67475 31960 00912 10154 20133 48551 70500
                   333 10//0 20121 59001
                   555 00/// 91024=
202107141200 AAXX 14124 67475 NIL=
202107130600 AAXX 13064 67475 31960 00404 10143 20114 48546 70500
                   333 10//0 20086 59017
                   555 00/// 91023=
202107110900 AAXX 11094 67475 41760 21207 10221 20055 48567 70500 82100
                   333 59001 82850 91025=
202107091200 AAXX 09124 67475 42960 01005 10244 20055 48548 70500
                   333 59009 555 91023=
202107070600 AAXX 07064 67475 31960 00907 10128 20080 48552 70500
                   333 10//0 20102 59005 91024=
202107060600 AAXX 06064 67475 31960 11207 10157 20084 48558 70500 81030
                   333 10/// 20101 58000 81360 91025=
202107050600 AAXX 05064 67475 31960 00504 10156 20084 48558 70500
                   333 10//0 20071 58006
                   555 00/// 91025=
202107010900 AAXX 01094 67475 NIL=
202107010600 AAXX 01064 67475 32960 00504 10176 20111 48561
                   333 10//0 20094 555 00///=

################################################################################
#  SYNOPS from 67476, Misamfu (Zambia) | 10-06S | 031-15E | 1536 m
################################################################################
202107230600 AAXX 23064 67476 31974 00702 10165 20128 48/// 70500
                   333 10275 20076 5////
                   555 00///=
202107221200 AAXX 22124 67476 41778 31104 10268 20099 48/// 70500 83100
                   333 58002 83856=
202107211200 AAXX 21124 67476 41978 00000 10282 20105 48/// 70500
                   333 5////=
202107210900 AAXX 21094 67476 41977 00903 10245 20129 48/// 70500
                   333 58012=
202107210600 AAXX 21064 67476 31975 00804 10162 20126 48/// 70500
                   333 10269 20091 58008
                   555 00///=
202107161200 AAXX 16124 67476 NIL=
202107160900 AAXX 16094 67476 NIL=
202107150900 AAXX 15094 67476 NIL=
202107150600 AAXX 15064 67476 NIL=
202107141200 AAXX 14124 67476 NIL=
202107110900 AAXX 11094 67476 NIL=
202107091200 AAXX 09124 67476 41978 01803 10241 20081 48/// 70500
                   333 58000=
202107070600 AAXX 07064 67476 31976 01204 10141 20067 48/// 70500
                   333 10240 20054 59005=
202107060600 AAXX 06064 67476 31975 11305 10150 20093 48/// 70500 81030
                   333 10250 20042 58011 81360=
202107050600 AAXX 05064 67476 31977 00802 10140 20096 48/// 70500
                   333 10260 20032 5////
                   555 00///=
202107010900 AAXX 01094 67476 NIL=

################################################################################
#  SYNOPS from 67477, Mpika (Zambia) | 11-54S | 031-26E | 1400 m
################################################################################
202107300900 AAXX 30094 67477 41575 41211 10195 20083 48579 70500 84800
                   333 58007 84625=
202107270600 AAXX 27064 67477 32480 21211 10115 20080 48577 82500
                   333 10190 20071 59008 82613=
202107230600 AAXX 23064 67477 31475 61203 10172 20126 48568 70522 86500
                   333 10257 20085 59014 86612=
202107221200 AAXX 22124 67477 42680 21206 10252 20124 48568 82100
                   333 58002 82832=
202107211200 AAXX 21124 67477 41978 01202 10247 20092 48567 70500
                   333 58012=
202107210900 AAXX 21094 67477 41980 01206 10226 20111 48586 70500
                   333 58005=
202107210600 AAXX 21064 67477 31978 01209 10162 20118 48577 70500
                   333 10227 20118 58007
                   555 00///=
202107161200 AAXX 16124 67477 41575 31208 10207 20100 48563 70522 83100
                   333 58010 83830=
202107160900 AAXX 16094 67477 41575 41209 10194 20109 48580 70500 84500
                   333 58013 84627=
202107160600 AAXX 16064 67477 31475 30910 10154 20102 48579 70500 83500
                   333 10235 20119 58015 83613
                   555 00///=
202107150900 AAXX 15094 67477 41575 30912 10201 20115 48568 70500 83500
                   333 58003 83627=
202107150600 AAXX 15064 67477 31475 21211 10162 20110 48565 70500 82500
                   333 10255 20135 58005 82612
                   555 00///=
202107141200 AAXX 14124 67477 NIL=
202107110900 AAXX 11094 67477 NIL=
202107091200 AAXX 09124 67477 41980 01202 10204 20089 48561 70500
                   333 59003=
202107070600 AAXX 07064 67477 31478 31202 10135 20113 48568 70500 83530
                   333 10211 20076 58000 83612 81359=
202107060600 AAXX 06064 67477 31475 31203 10152 20114 48568 70500 82530
                   333 10227 20056 58009 82612 83359=
202107050600 AAXX 05064 67477 31978 00903 10150 20102 48560 70500
                   333 10227 20064 59006
                   555 00///=
202107011200 AAXX 01124 67477 41975 01204 10240 20114 48/// 70500
                   333 5////=
202107010900 AAXX 01094 67477 41975 01207 10231 20092 48569 70500
                   333 59001=
202107010600 AAXX 01064 67477 31975 01206 10177 20100 48565 70500
                   333 10243 20089 58000
                   555 00///=

################################################################################
#  SYNOPS from 67481, Isoka (Zambia) | 10-07S | 032-38E | 1360 m
################################################################################
202107300600 AAXX 30064 67481 31975 02604 10160 20116 48/// 70500
                   333 10252 20092 5////
                   555 00///=
202107280600 AAXX 28064 67481 32980 02002 10140 20084 48///
                   333 10230 20080 59017
                   555 00///=
202107270600 AAXX 27064 67481 32980 02703 10142 20095 48///
                   333 10152 20072 5////=
202107230600 AAXX 23064 67481 31975 02702 10198 20114 48/// 70500
                   333 10279 20112 5////
                   555 00///=
202107211200 AAXX 21124 67481 41970 00902 10262 20077 48/// 70500
                   333 5////=
202107210900 AAXX 21094 67481 NIL=
202107210600 AAXX 21064 67481 31975 02002 10178 20123 48/// 70500
                   333 10262 20092 5////
                   555 00///=
202107161200 AAXX 16124 67481 41675 52002 10232 20085 48/// 70500 85100
                   333 58006 85840=
202107160900 AAXX 16094 67481 41575 32603 10200 20116 48/// 70500 83100
                   333 58017 83825=
202107160600 AAXX 16064 67481 31475 02004 10170 20126 48/// 70500 81100
                   333 10260 20120 5//// 81812
                   555 00///=
202107150900 AAXX 15094 67481 41575 32706 10218 20135 48/// 70500 83100
                   333 59004 83825=
202107150600 AAXX 15064 67481 31975 00000 10190 20134 48/// 70500
                   333 10270 20120 5////
                   555 00///=
202107141200 AAXX 14124 67481 NIL=
202107110900 AAXX 11094 67481 NIL=
202107070600 AAXX 07064 67481 31975 02702 10155 20095 48/// 70500
                   333 10253 20100 5////=
202107060600 AAXX 06064 67481 31975 02402 10164 20070 48/// 70500
                   333 10250 20090 5////=
202107050600 AAXX 05064 67481 31975 01002 10160 20098 48/// 70500
                   333 10235 20078 5////
                   555 00///=
202107011200 AAXX 01124 67481 41775 12002 10252 20097 48/// 70500 81100
                   333 59004 81850=
202107010900 AAXX 01094 67481 41975 02302 10230 20120 48/// 70500
                   333 5////=
202107010600 AAXX 01064 67481 31975 01202 10188 20132 48/// 70500
                   333 10265 20101 5////
                   555 00///=

################################################################################
#  SYNOPS from 67531, Zambezi (Zambia) | 13-32S | 023-07E | 1077 m
################################################################################
202107300900 AAXX 30094 67531 41975 40908 10215 20076 48/// 70500 80008
                   333 58007 84281=
202107300600 AAXX 30064 67531 31970 51005 10126 20069 48/// 70500 80008
                   333 10265 20080 58009 85281
                   555 00///=
202107280900 AAXX 28094 67531 41970 10910 10215 20064 48/// 70500 80001
                   333 59014 81082=
202107270600 AAXX 27064 67531 31970 11009 10100 20051 48/// 70500 80001
                   333 10242 20057 59019 81082=
202107230600 AAXX 23064 67531 31960 20000 10084 20023 48/// 70500 80001
                   333 10284 20029 59006 82082
                   555 00///=
202107221200 AAXX 22124 67531 41975 01406 10265 20054 48/// 70500
                   333 59010=
202107211200 AAXX 21124 67531 41970 00000 10261 20099 48/// 70500
                   333 5////=
202107210900 AAXX 21094 67531 41970 00905 10232 20089 48/// 70500
                   333 5////=
202107210600 AAXX 21064 67531 31965 00000 10105 20069 48/// 70500
                   333 10263 20056 5////
                   555 00///=
202107161200 AAXX 16124 67531 41875 10911 10265 20077 48/// 70500 81100
                   333 58001 81858=
202107160900 AAXX 16094 67531 41970 01010 10221 20116 48/// 70500
                   333 58007=
202107160600 AAXX 16064 67531 31965 00910 10153 20111 48/// 70500
                   333 10284 20115 58001
                   555 00///=
202107150900 AAXX 15094 67531 41975 01004 10225 20105 48/// 70500
                   333 58001=
202107150600 AAXX 15064 67531 31965 51805 10130 20073 48/// 70522 85030
                   333 10285 20098 58008 85362
                   555 00///=
202107141200 AAXX 14124 67531 NIL=
202107110900 AAXX 11094 67531 41965 01205 10230 20088 48/// 70500
                   333 59006=
202107091200 AAXX 09124 67531 41975 01505 10245 20091 48/// 70500
                   333 59011=
202107070600 AAXX 07064 67531 31965 00912 10122 20082 48/// 70500
                   333 10276 20075 58006=
202107060600 AAXX 06064 67531 31965 01105 10120 20050 48/// 70500
                   333 10282 20066 58001=
202107050600 AAXX 05064 67531 31965 00000 10091 20045 48/// 70500
                   333 10275 20048 59004
                   555 00///=
202107010900 AAXX 01094 67531 41970 00906 10250 20080 48/// 70500
                   333 58003=
202107010600 AAXX 01064 67531 31970 00000 10105 20071 48/// 70500
                   333 10286 20047 58003
                   555 00///=

################################################################################
#  SYNOPS from 67541, Kasempa (Zambia) | 13-32S | 025-51E | 1234 m
################################################################################
202107300900 AAXX 30094 67541 41970 20507 10210 20116 48543 70522 80002
                   333 58009 82080=
202107300600 AAXX 30064 67541 31970 20000 10125 20087 48534 70522 80002
                   333 10260 20066 58000 82080
                   555 00///=
202107280600 AAXX 28064 67541 31970 20000 10105 20075 48525 70522 80002
                   333 10230 20049 59018 82080
                   555 00///=
202107270600 AAXX 27064 67541 31975 40000 10100 20070 48543 70522 80004
                   333 10228 20036 59009 84080=
202107230600 AAXX 23064 67541 31970 00000 10138 20085 48534 70500
                   333 10280 20059 59009
                   555 00///=
202107221200 AAXX 22124 67541 41975 00504 10270 20163 48525 70500
                   333 59009=
202107211200 AAXX 21124 67541 41975 00000 10260 20168 48534 70500
                   333 58026=
202107210900 AAXX 21094 67541 41975 00000 10240 20162 48552 70500
                   333 58009=
202107210600 AAXX 21064 67541 31970 00000 10075 20065 48543 70500
                   333 10260 20030 58000
                   555 00///=
202107161200 AAXX 16124 67541 42680 50000 10235 20148 48517 85200
                   333 58009 85835=
202107160900 AAXX 16094 67541 42580 10506 10220 20148 48543 81100
                   333 58018 81825=
202107160600 AAXX 16064 67541 32980 00000 10150 20125 48534
                   333 10279 20099 58017
                   555 00///=
202107150900 AAXX 15094 67541 42980 30509 10240 20153 48525 83030
                   333 58000 83360=
202107150600 AAXX 15064 67541 32980 30000 10160 20120 48517 83030
                   333 10280 20112 58000 83360
                   555 00///=
202107141200 AAXX 14124 67541 NIL=
202107110900 AAXX 11094 67541 NIL=
202107010900 AAXX 01094 67541 41970 00503 10245 20120 48/// 70500
                   333 5////=
202107010600 AAXX 01064 67541 31975 00000 10085 20065 48543 70500
                   333 10280 20002 58018
                   555 00///=

################################################################################
#  SYNOPS from 67543, Kabompo (Zambia) | 13-36S | 024-12E | 1075 m
################################################################################
202107210900 AAXX 21094 67543 NIL=
202107161200 AAXX 16124 67543 NIL=
202107160900 AAXX 16094 67543 NIL=
202107150900 AAXX 15094 67543 NIL=
202107150600 AAXX 15064 67543 NIL=
202107141200 AAXX 14124 67543 NIL=
202107110900 AAXX 11094 67543 NIL=
202107010900 AAXX 01094 67543 NIL=

################################################################################
#  SYNOPS from 67551, Solwezi (Zambia) | 12-11S | 026-23E | 1386 m
################################################################################
202107300600 AAXX 30064 67551 31970 01205 10115 20070 48551 70500
                   333 10255 20082 58007
                   555 00/// 91025=
202107280600 AAXX 28064 67551 31970 71208 10100 20044 48542 70522 80006
                   333 10220 20070 59018 87280
                   555 00/// 91023=
202107270600 AAXX 27064 67551 31970 60909 10088 20049 48558 70522 80006
                   333 10216 20069 59016 86280 91025=
202107230600 AAXX 23064 67551 32960 71505 10140 20064 48556 87030
                   333 10264 20130 59014 87362
                   555 00//// 91025=
202107220900 AAXX 22094 67551 41960 01207 10226 20074 48567 70500
                   333 59003=
202107211200 AAXX 21124 67551 41970 01805 10263 20070 48542 70500
                   333 58010=
202107210900 AAXX 21094 67551 41960 00505 10215 20105 48578 70500
                   333 58008=
202107210600 AAXX 21064 67551 31968 01203 10101 20090 48565 70500
                   333 10261 20080 58003
                   555 00/// 91026=
202107161200 AAXX 16124 67551 41660 41006 10238 20066 48539 70500 84100
                   333 58007 84850=
202107160900 AAXX 16094 67551 41360 60907 10205 20100 48566 70500 83100
                   333 58010 83840=
202107160600 AAXX 16064 67551 31960 00905 10128 20112 48560 70500
                   333 10249 20119 58017
                   555 00/// 20000 91025=
202107150900 AAXX 15094 67551 41960 01707 10228 20091 48556 70500
                   333 58005 555 91024=
202107150600 AAXX 15064 67551 31960 01203 10133 20087 48454 70500
                   333 10255 20103 58001
                   555 00/// 91023=
202107141200 AAXX 14124 67551 NIL=
202107110900 AAXX 11094 67551 41770 21508 10211 20046 48567 70500 82100
                   333 59003 82855 555 91024=
202107091200 AAXX 09124 67551 41970 00905 10238 20056 48577 70500
                   333 59008=
202107060600 AAXX 06064 67551 31960 00906 10125 20071 48554 70500
                   333 10255 20081 58006 91024=
202107050600 AAXX 05064 67551 31960 00000 10088 20088 48548 70500
                   333 10252 20046 58002
                   555 00/// 91023=
202107010900 AAXX 01094 67551 41970 01505 10223 20162 48569 70500
                   333 58011 555 91025=
202107010600 AAXX 01064 67551 31965 00000 10099 20092 48560 70500
                   333 10246 20061 58012
                   555 00/// 91024=

################################################################################
#  SYNOPS from 67561, Ndola (Zambia) | 13-00S | 028-39E | 1269 m
################################################################################
202107300600 AAXX 30064 67561 31959 01012 10140 20083 48568 70400
                   333 10261 20082 58005
                   555 00///=
202107270600 AAXX 27064 67561 31960 31212 10123 20047 48578 70500 80002
                   333 10197 20081 59015 83080 91026=
202107230600 AAXX 23064 67561 31959 71705 10180 20086 48555 70422 87030
                   333 10270 20166 59017 87360
                   555 00/// 91024=
202107221200 AAXX 22124 67561 41959 01607 10269 20089 48560 70400
                   333 59002 91023=
202107211200 AAXX 21124 67561 41959 00000 10274 20086 48563 70400
                   333 58010 555 91023=
202107210900 AAXX 21094 67561 NIL=
202107210600 AAXX 21064 67561 31930 00000 10136 20098 48572 70400
                   333 10263 20085 58005
                   555 91026=
202107161200 AAXX 16124 67561 41670 51213 10217 20093 48556 70522 85200
                   333 58010 85840 91023=
202107160900 AAXX 16094 67561 41570 51013 10207 20108 48583 70511 85200
                   333 58022 85825 555 91026=
202107160600 AAXX 16064 67561 31959 01407 10148 20114 48573 70400
                   333 10270 20103 58023
                   555 91026=
202107150900 AAXX 15094 67561 NIL=
202107150600 AAXX 15064 67561 31959 01508 10179 20093 48554 70400
                   333 10284 20152 58004
                   555 00/// 91023=
202107141200 AAXX 14124 67561 NIL=
202107110900 AAXX 11094 67561 41670 61111 10219 20067 48579 70511 862//
                   333 58003 86840 555 91026=
202107070600 AAXX 07064 67561 31959 11409 10152 20088 48560 70400 81030
                   333 10235 20095 59006 81360 91024=
202107060600 AAXX 06064 67561 31959 51309 10160 20087 48566 70422 85030
                   333 10257 20084 58006 85360 91025=
202107040600 AAXX 04064 67561 31956 00805 10135 20078 48556 70400
                   333 10258 20069 59010 91024=
202107010900 AAXX 01094 67561 NIL=

################################################################################
#  SYNOPS from 67563, Kafironda (Zambia) | 12-36S | 028-07E | 1243 m
################################################################################
202107210900 AAXX 21094 67563 NIL=
202107190600 AAXX 19064 67563 31960 00000 10094 20070 48/// 70500
                   333 10247 20023 59007
                   555 00014=
202107161200 AAXX 16124 67563 NIL=
202107160900 AAXX 16094 67563 NIL=
202107150900 AAXX 15094 67563 NIL=
202107150600 AAXX 15064 67563 NIL=
202107141200 AAXX 14124 67563 NIL=
202107110900 AAXX 11094 67563 NIL=
202107050600 AAXX 05064 67563 31940 00602 10108 20090 48/// 70500
                   333 10276 20016 5////
                   555 00001=
202107040600 AAXX 04064 67563 31940 00000 10096 20070 48/// 70520
                   333 10267 20014 5////
                   555 00001=
202107010900 AAXX 01094 67563 NIL=

################################################################################
#  SYNOPS from 67571, Serenje (Zambia) | 13-14S | 030-13E | 1384 m
################################################################################
202107300900 AAXX 30094 67571 32580 31203 10137 20071 48529 70500 83500
                   333 10231 20078 58007 83621=
202107280600 AAXX 28064 67571 32978 61201 10112 20057 48498 80008
                   333 10195 20071 59029 86080
                   555 00///=
202107270600 AAXX 27064 67571 32482 71210 10106 20074 48527 875//
                   333 10194 20050 59005 87617=
202107230900 AAXX 23094 67571 42580 70904 10208 20100 48532 70522 83138
                   333 59008 83827 82360 85280=
202107221200 AAXX 22124 67571 42680 10904 10232 20092 48513 70500 81100
                   333 59007 81841=
202107210900 AAXX 21094 67571 NIL=
202107161200 AAXX 16124 67571 42680 60906 10177 20105 48511 70311 86500
                   333 58005 86636=
202107160900 AAXX 16094 67571 41480 61209 10161 20108 48539 72052 86500
                   333 58013 86620=
202107151200 AAXX 15124 67571 42680 41206 10207 20097 48512 70511 84500
                   333 58014 84648=
202107150900 AAXX 15094 67571 NIL=
202107150600 AAXX 15064 67571 NIL=
202107141200 AAXX 14124 67571 42680 61807 10244 20081 48503 70522 86500
                   333 58012 86638=
202107110900 AAXX 11094 67571 NIL=
202107091200 AAXX 09124 67571 42982 01203 10199 20054 48512
                   333 59008=
202107070600 AAXX 07064 67571 32976 01208 10124 20091 48508
                   333 10217 20087 59010=
202107060600 AAXX 06064 67571 32976 01506 10131 20088 48518
                   333 10230 20097 58010=
202107050600 AAXX 05064 67571 32978 01205 10143 20079 48509
                   333 10237 20102 58026
                   555 00///=
202107010900 AAXX 01094 67571 NIL=

################################################################################
#  SYNOPS from 67575, Mkushi (Zambia) | 13-38-00S | 029-26-00E | 1237 m
################################################################################
202107280600 AAXX 28064 67575 32980 61203 10122 20067 48511 80008
                   333 10205 20058 59030 86280
                   555 00038=
202107270600 AAXX 27064 67575 31475 61201 10073 20052 48534 70522 86501
                   333 10196 20020 59013 86615 81080
                   555 00006=
202107230600 AAXX 23064 67575 31970 21801 10146 20088 48526 70510 82030
                   333 10267 20097 59013 82360
                   555 00082=
202107221200 AAXX 22124 67575 41675 10903 10256 20091 48521 70500 81100
                   333 59003 81838=
202107220600 AAXX 22064 67575 31975 02701 10130 20093 48535 70500
                   333 10285 20080 58003
                   555 00064=
202107210900 AAXX 21094 67575 41975 01202 10237 20097 48547 70500
                   333 58009=
202107210600 AAXX 21064 67575 31975 01202 10150 20095 48535 70500
                   333 10265 20105 58005
                   555 00084=
202107190600 AAXX 19064 67575 32980 01004 10132 20070 48527
                   333 10236 20091 59006
                   555 00067=
202107161200 AAXX 16124 67575 42680 31206 10210 20096 48527 83200
                   333 58008 83838=
202107160900 AAXX 16094 67575 42680 61208 10178 20102 48548 86200
                   333 58017 86832=
202107160600 AAXX 16064 67575 32480 71202 10144 20114 48/// 87500
                   333 10243 20112 5//// 87615
                   555 00098=
202107150900 AAXX 15094 67575 41475 11009 10208 20112 48535 70500 81500
                   333 58015 81618=
202107150600 AAXX 15064 67575 31975 11209 10167 20103 48523 70500 81030
                   333 10274 20140 58008 81360
                   555 00122=
202107141200 AAXX 14124 67575 42780 21303 10246 20088 48507 82200
                   333 58013 82850=
202107130600 AAXX 13064 67575 32980 01001 10146 20108 48507
                   333 10250 20064 59021
                   555 00056=
202107110900 AAXX 11094 67575 NIL=
202107091200 AAXX 09124 67575 41975 01204 10230 20065 48521 70500
                   333 5////=
202107060600 AAXX 06064 67575 31975 01202 10137 20087 48529 70500
                   333 10260 20086 58011
                   555 00060=
202107050600 AAXX 05064 67575 31975 00000 10117 20064 48517 70500
                   333 10263 20046 58003
                   555 000031=
202107040600 AAXX 04064 67575 31975 00000 10101 20061 48512 70500
                   333 10254 20033 59009
                   555 00019=
202107010900 AAXX 01094 67575 NIL=

################################################################################
#  SYNOPS from 67580, Msekera (Zambia) | 13-39S | 032-34E | 1025 m
################################################################################
202107300900 AAXX 30094 67580 41680 61210 10222 20080 48/// 70521 86100
                   333 58024 86835=
202107300600 AAXX 30064 67580 31478 11204 10170 20118 48/// 70510 81130
                   333 10278 20121 58022 81818 81360
                   555 00///=
202107230600 AAXX 23064 67580 31978 71303 10207 20125 48/// 70522
                   333 10315 20163 59016 87360
                   555 00///=
202107221200 AAXX 22124 67580 42780 30904 10285 20088 48591 70122 83200
                   333 59012 83857 91023=
202107211200 AAXX 21124 67580 41775 10000 10288 20114 48/// 70500 81100
                   333 58008 81856=
202107210900 AAXX 21094 67580 41675 12003 10253 20110 48/// 70500 81100
                   333 58010 81835=
202107210600 AAXX 21064 67580 31975 00000 10194 20123 48/// 70500
                   333 10294 20134 5////
                   555 00///=
202107161200 AAXX 16124 67580 41675 71505 10243 20116 48/// 70522 86230
                   333 58010 86840 82360=
202107160900 AAXX 16094 67580 41675 51507 10214 20118 48/// 70510 85100
                   333 58013 85835=
202107160600 AAXX 16064 67580 31475 51510 10164 20117 48/// 70521 81130
                   333 10278 20129 5//// 81815 84360
                   555 00///=
202107150900 AAXX 15094 67580 41675 50910 10235 20132 48/// 70510 85100
                   333 5//// 85835=
202107150600 AAXX 15064 67580 31475 11210 10183 20133 48/// 70500 81100
                   333 10296 20108 5//// 81818
                   555 00///=
202107141200 AAXX 14124 67580 NIL=
202107110900 AAXX 11094 67580 NIL=
202107010900 AAXX 01094 67580 NIL=

################################################################################
#  SYNOPS from 67581, Chipata (Zambia) | 13-33S | 032-35E | 1028 m
################################################################################
202107300900 AAXX 30094 67581 42680 70910 10225 20068 48612 70122 8323/
                   333 58024 83845 87360 91028=
202107300600 AAXX 30064 67581 32980 11108 10180 20076 48602 81030
                   333 10//0 20135 58027 81360
                   555 00/// 91028=
202107280600 AAXX 28064 67581 32980 41305 10155 20071 48573 80002
                   333 10//0 20108 59027 84080
                   555 00/// 91024=
202107270600 AAXX 27064 67581 32480 41620 10140 20072 48596 82532
                   333 10//0 20106 59015 82612 81360 83080 91028=
202107230600 AAXX 23064 67581 32980 40907 10219 20107 48581 84030
                   333 10//0 20168 59020 84360
                   555 00/// 91024=
202107211200 AAXX 21124 67581 42980 00905 10278 20095 48601
                   333 58014 91024=
202107210900 AAXX 21094 67581 42580 10905 10242 20095 48607
                   333 58009 81825 91027=
202107210600 AAXX 21064 67581 32980 00908 10204 20105 48593
                   333 10//0 20160 58004
                   555 00/// 91026=
202107161200 AAXX 16124 67581 NIL=
202107160900 AAXX 16094 67581 42580 51612 10217 20106 48603 70323 85200
                   333 58012 85825 91027=
202107150900 AAXX 15094 67581 42680 40906 10229 20115 48593 84100
                   333 58014 84835 91026=
202107150600 AAXX 15064 67581 32580 11808 10186 20124 48580 81100
                   333 10//0 20168 58015 81825
                   555 00/// 91025=
202107141200 AAXX 14124 67581 NIL=
202107110900 AAXX 11094 67581 42680 50905 10213 20104 48593 84230
                   333 58002 84832 81360 91026=
202107091200 AAXX 09124 67581 42680 10906 10244 20045 48583 81100
                   333 59002 81836 91024=
202107070600 AAXX 07064 67581 32980 10602 10166 20090 48574 81030
                   333 10//0 20139 59010 81359 91024=
202107060600 AAXX 06064 67581 32980 71218 10170 20106 48586 8703/
                   333 10/// 20154 58012 87360 91026=
202107050600 AAXX 05064 67581 32980 00904 10191 20072 48577
                   333 10//0 20122 58001
                   555 00/// 91024=
202107011200 AAXX 01124 67581 42980 01602 10276 20073 48571
                   333 58005 91022=
202107010900 AAXX 01094 67581 42680 12702 10253 20082 48591 81100
                   333 59001 81830 91024=
202107010600 AAXX 01064 67581 32980 00902 10201 20108 48581
                   333 10//0 20116 58000
                   555 00/// 91024=

################################################################################
#  SYNOPS from 67583, Lundazi (Zambia) | 12-17S | 033-12E | 1143 m
################################################################################
202107270600 AAXX 27064 67583 32580 71303 10148 20112 48/// 81530
                   333 10222 2//// 5//// 81623 87359=
202107230600 AAXX 23064 67583 31970 00901 10172 20130 48/// 70500 81030
                   333 10294 2//// 5//// 81359=
202107221200 AAXX 22124 67583 41670 50000 10276 20120 48/// 70522 85100
                   333 5//// 85835=
202107220600 AAXX 22064 67583 31970 00000 10158 20130 48/// 70500
                   333 10302 2//// 5////=
202107211200 AAXX 21124 67583 41858 10000 10292 20106 48/// 70500 81100
                   333 5//// 81857=
202107210900 AAXX 21094 67583 41958 01202 10258 20110 48/// 70500
                   333 5////=
202107210600 AAXX 21064 67583 31958 00000 10168 20125 48/// 70500
                   333 10282 20//0 5////
                   555 00///=
202107161200 AAXX 16124 67583 NIL=
202107160900 AAXX 16094 67583 41658 11308 10236 20117 48/// 70500 81100
                   333 5//// 81848=
202107160600 AAXX 16064 67583 31458 21006 10174 20124 48/// 70500 82500
                   333 10262 20//0 5//// 82612=
202107150900 AAXX 15094 67583 41657 31505 10242 20147 48/// 70500 83100
                   333 5//// 83838=
202107150600 AAXX 15064 67583 31458 21806 10174 20143 48/// 70500 81530
                   333 10280 20//0 5//// 81610 81359
                   555 00///=
202107141200 AAXX 14124 67583 NIL=
202107110900 AAXX 11094 67583 NIL=
202107010900 AAXX 01094 67583 NIL=

################################################################################
#  SYNOPS from 67599, Mfuwe (Zambia) | 13-16S | 031-56E | 568 m
################################################################################
202107210900 AAXX 21094 67599 NIL=
202107161200 AAXX 16124 67599 NIL=
202107160900 AAXX 16094 67599 42680 71306 10242 20117 48606 871//
                   333 58027 87847 91025=
202107160600 AAXX 16064 67599 31970 11902 10187 20143 48587 70500 81030
                   333 10326 20154 58020 81360
                   555 00108 91025=
202107150900 AAXX 15094 67599 NIL=
202107150600 AAXX 15064 67599 31958 02303 10209 20136 48549 70500
                   333 10333 20131 58012
                   555 00100 91023=
202107141200 AAXX 14124 67599 NIL=
202107110900 AAXX 11094 67599 NIL=
202107070600 AAXX 07064 67599 31970 11103 10176 20123 48565 70500 81030
                   333 10263 20122 59004 81360
                   555 00080 91023=
202107060600 AAXX 06064 67599 31959 71805 10158 20099 48564 70522 87030
                   333 10318 20100 58010 87360
                   555 00066 91024=
202107050600 AAXX 05064 67599 31960 01704 10150 20097 48552 70500
                   333 10315 20113 58001
                   555 00086 91023=
202107010900 AAXX 01094 67599 NIL=
202107010600 AAXX 01064 67599 31958 01505 10158 20091 48555 70500
                   333 10330 20104 59003
                   555 00078 91023=

################################################################################
#  SYNOPS from 67625, Kalabo (Zambia) | 14-51S | 022-42E | 1033 m
################################################################################
202107210900 AAXX 21094 67625 NIL=
202107161200 AAXX 16124 67625 NIL=
202107160900 AAXX 16094 67625 NIL=
202107150900 AAXX 15094 67625 41980 11018 10220 20048 48/// 70511 81030
                   333 58006 81390=
202107150600 AAXX 15064 67625 31980 61512 10110 20009 48/// 70522 8603/
                   333 10270 20098 58006 86360
                   555 00///=
202107141200 AAXX 14124 67625 NIL=
202107110900 AAXX 11094 67625 NIL=
202107011200 AAXX 01124 67625 41980 00820 10281 20040 48/// 70500
                   333 59006=
202107010900 AAXX 01094 67625 41980 00913 10224 20080 48/// 70500
                   333 58006=
202107010600 AAXX 01064 67625 31980 01405 10135 20089 48/// 70500
                   333 10280 20096 58009
                   555 00///=

################################################################################
#  SYNOPS from 67633, Mongu (Zambia) | 15-15S | 023-09E | 1052 m
################################################################################
202107300600 AAXX 30064 67633 31975 40904 10127 20061 48565 70522 80002
                   333 10261 20085 58011 84080
                   555 00054 91025=
202107280600 AAXX 28064 67633 31975 20904 10117 20056 48545 70500 80001
                   333 10247 20077 59018 82080
                   555 00040 91023=
202107230900 AAXX 23094 67633 42980 31205 10240 20008 48595 80001
                   333 59005 83080 91026=
202107230600 AAXX 23064 67633 32980 41503 10125 21014 48569 80001
                   333 10283 20079 59004 84080
                   555 00030 91026=
202107221200 AAXX 22124 67633 41975 01502 10275 20020 48572 70500
                   333 59006 555 91025=
202107211200 AAXX 21124 67633 41975 02504 10260 20053 48582 70500
                   333 58021 555 91025=
202107210900 AAXX 21094 67633 41975 01804 10250 20068 48598 70500
                   333 58015 555 91026=
202107210600 AAXX 21064 67633 31975 00902 10145 20061 48570 70500
                   333 10273 20096 58011
                   555 00045 91025=
202107161200 AAXX 16124 67633 41675 21210 10270 20089 48557 70500 82100
                   333 58007 82835 555 91021=
202107160900 AAXX 16094 67633 41975 10915 10235 20106 48572 70500 81030
                   333 58008 81360 91024=
202107160600 AAXX 16064 67633 31975 10910 10160 20109 48556 70500 81030
                   333 10294 20135 58003 81360
                   555 00110 91023=
202107150900 AAXX 15094 67633 41975 30906 10245 20085 48566 70511 83030
                   333 59010 83360 91023=
202107150600 AAXX 15064 67633 31975 51802 10125 20023 48546 70522 85030
                   333 10282 20106 59001 85360
                   555 00080 91023=
202107141200 AAXX 14124 67633 NIL=
202107110900 AAXX 11094 67633 41975 00910 10230 20041 48576 70500
                   333 59013 555 91024=
202107091200 AAXX 09124 67633 41975 01004 10255 20066 48560 70500
                   333 59006 91022=
202107070600 AAXX 07064 67633 31975 00910 10175 20074 48556 70500
                   333 10278 20112 58005
                   555 00085 91023=
202107060600 AAXX 06064 67633 31975 00903 10144 20051 48550 70500
                   333 10291 20102 58000
                   555 00064 91023=
202107050600 AAXX 05064 67633 32980 00904 10134 20025 48548
                   333 10283 20090 59001
                   555 00050 91023=
202107010900 AAXX 01094 67633 42980 01206 10265 20091 48585
                   333 58012 91025=
202107010600 AAXX 01064 67633 32980 01202 10147 20064 48524
                   333 10299 20110 59022
                   555 00038 91020=

################################################################################
#  SYNOPS from 67641, Kaoma (Zambia) | 14-48S | 024-48E | 1213 m
################################################################################
202107300600 AAXX 30064 67641 31958 50000 10076 20056 48551 70510 80001
                   333 10262 20063 58003 85080
                   555 00/// 91024=
202107280600 AAXX 28064 67641 31960 10000 10071 20051 48536 70500 80001
                   333 10240 20042 59016 81080
                   555 00/// 91023=
202107270600 AAXX 27064 67641 31960 30000 10082 20042 48552 70500 80001
                   333 10227 20048 59017 83080 91024=
202107210900 AAXX 21094 67641 NIL=
202107210600 AAXX 21064 67641 31960 00000 10083 20066 48555 70500
                   333 10276 20070 58008
                   555 00/// 91024=
202107161200 AAXX 16124 67641 NIL=
202107160900 AAXX 16094 67641 42680 11002 10217 20118 48558 81100
                   333 58011 81840 91024=
202107160600 AAXX 16064 67641 31975 10000 10110 20096 48550 70500 81030
                   333 10287 20095 58013 81360
                   555 00/// 91023=
202107150900 AAXX 15094 67641 41970 00905 10250 20103 48554 70500
                   333 58005 91023=
202107150600 AAXX 15064 67641 31960 10000 10116 20091 48539 70521 81030
                   333 10295 20100 58009 81360
                   555 00/// 91022=
202107141200 AAXX 14124 67641 NIL=
202107110900 AAXX 11094 67641 NIL=
202107091200 AAXX 09124 67641 41975 00903 10245 20060 48555 70500
                   333 59008 91022=
202107070600 AAXX 07064 67641 31960 00000 10106 20076 48552 70500
                   333 10271 20054 58006 91024=
202107060600 AAXX 06064 67641 31950 00000 10064 20035 48539 70500
                   333 10278 20039 58010 91023=
202107011200 AAXX 01124 67641 41965 01204 10274 20041 48551 70500
                   333 58006 91021=
202107010900 AAXX 01094 67641 41965 00000 10257 20069 48570 70500
                   333 58001 555 91023=
202107010600 AAXX 01064 67641 31960 00000 10086 20055 48549 70500
                   333 10288 20051 58006
                   555 00/// 91024=

################################################################################
#  SYNOPS from 67655, Mumbwa (Zambia) | 15-04S | 027-11E | 1216 m
################################################################################
202107300900 AAXX 30094 67655 42680 41014 10196 20065 48600 83101
                   333 58018 83830 82080 91028=
202107300600 AAXX 30064 67655 32980 31412 10130 20068 48583 80001
                   333 10229 20000 58015 83080
                   555 00/// 91026=
202107280900 AAXX 28094 67655 41980 21208 10171 20064 48575 70500 80001
                   333 59021 82080 91024=
202107280600 AAXX 28064 67655 31980 10905 10100 20023 48561 70500 80001
                   333 10260 20061 59019 81080 91024=
202107230900 AAXX 23094 67655 42980 01010 10230 20101 48594
                   333 59009 91026=
202107230600 AAXX 23064 67655 32980 00905 10181 20086 48580
                   333 10245 20045 59003
                   555 00/// 91025=
202107210900 AAXX 21094 67655 NIL=
202107210600 AAXX 21064 67655 32980 01006 10150 20088 48585
                   333 10275 20010 58009
                   555 00/// 91026=
202107161200 AAXX 16124 67655 NIL=
202107160900 AAXX 16094 67655 NIL=
202107160600 AAXX 16064 67655 32380 30922 10144 20110 48582 83600
                   333 10273 20052 58015 83708
                   555 00/// 91026=
202107150900 AAXX 15094 67655 NIL=
202107150600 AAXX 15064 67655 32980 4//// 10157 20051 48570 84030
                   333 10262 20101 58013 84360 91024=
202107141200 AAXX 14124 67655 NIL=
202107110900 AAXX 11094 67655 41580 41006 10204 20075 48580 70500 84200
                   333 59002 84825 91025=
202107091200 AAXX 09124 67655 42980 00905 10224 20046 48567
                   333 59015 91023=
202107090900 AAXX 09094 67655 42980 01010 10200 20049 48592
                   333 59008 91026=
202107090600 AAXX 09064 67655 32980 01005 10096 20015 48576
                   333 10232 20039 59001
                   555 00/// 91026=
202107050600 AAXX 05064 67655 32980 01007 1//// 2//// 48566
                   333 20270 58001 555 00/// 91024=
202107010900 AAXX 01094 67655 NIL=
202107010600 AAXX 01064 67655 32980 00000 10160 20025 48576
                   333 10250 20040 58008
                   555 00/// 91024=

################################################################################
#  SYNOPS from 67659, Kafue Polder (Zambia) | 15-46S | 027-55E | 978 m
################################################################################
202107210900 AAXX 21094 67659 NIL=
202107161200 AAXX 16124 67659 NIL=
202107160900 AAXX 16094 67659 NIL=
202107150900 AAXX 15094 67659 NIL=
202107150600 AAXX 15064 67659 NIL=
202107141200 AAXX 14124 67659 NIL=
202107110900 AAXX 11094 67659 NIL=
202107010900 AAXX 01094 67659 NIL=

################################################################################
#  SYNOPS from 67662, Kabwe Agric (Zambia) | 14-24S | 028-30E | 1165 m
################################################################################
202107210900 AAXX 21094 67662 NIL=
202107161200 AAXX 16124 67662 NIL=
202107160900 AAXX 16094 67662 NIL=
202107150900 AAXX 15094 67662 NIL=
202107150600 AAXX 15064 67662 NIL=
202107141200 AAXX 14124 67662 NIL=
202107110900 AAXX 11094 67662 NIL=
202107010900 AAXX 01094 67662 NIL=

################################################################################
#  SYNOPS from 67663, Kabwe (Zambia) | 14-27S | 028-28E | 1206 m
################################################################################
202107280600 AAXX 28064 67663 32980 21207 10128 20053 48565 80001
                   333 10218 20070 59020 82080
                   555 00156=
202107270600 AAXX 27064 67663 32480 70809 10103 20046 48572 875//
                   333 10171 20066 58010 87620
                   555 00116=
202107230600 AAXX 23064 67663 32980 51605 10164 20099 48563 85030
                   333 10260 20114 59002 85360
                   555 00176=
202107221200 AAXX 22124 67663 42580 10910 10249 20086 48565 81100
                   333 58008 81826=
202107211200 AAXX 21124 67663 42580 10905 10250 20104 48557 81100
                   333 58001 81126=
202107210900 AAXX 21094 67663 42980 00907 10220 20104 48566
                   333 59007=
202107210600 AAXX 21064 67663 32980 00607 1//// 20106 48563
                   333 10252 20099 59003
                   555 00146=
202107161200 AAXX 16124 67663 NIL=
202107160900 AAXX 16094 67663 NIL=
202107160600 AAXX 16064 67663 32980 30904 10156 20119 48547 70211 83030
                   333 10252 20098 58007 83360
                   555 00184=
202107150900 AAXX 15094 67663 NIL=
202107150600 AAXX 15064 67663 32980 01507 10161 20131 48537 70200
                   333 10257 20110 59006
                   555 00180=
202107141200 AAXX 14124 67663 NIL=
202107110900 AAXX 11094 67663 42680 40908 10205 20100 48559 82130
                   333 59005 82832 82360=
202107091200 AAXX 09124 67663 42980 00706 10218 20078 48552
                   333 59021=
202107070600 AAXX 07064 67663 32980 00706 10137 20089 48544
                   333 10272 20116 58001
                   555 00158=
202107050600 AAXX 05064 67663 32980 00504 10150 20079 48546 70200
                   333 10261 20130 58002
                   555 00148=
202107011200 AAXX 01124 67663 42980 01510 10260 20051 48545
                   333 59007=
202107010900 AAXX 01094 67663 42980 01808 10240 20038 48572
                   333 58015=
202107010600 AAXX 01064 67663 32980 00903 10155 20056 48556
                   333 10263 20056 58000
                   555 00163=

################################################################################
#  SYNOPS from 67665, Lusaka Internationalairport (Zambia) | 15-19S | 028-27E | 1152 m
################################################################################
202107310900 AAXX 31094 67665 42580 50715 10196 20076 48623 70222 85500
                   333 58014 85625=
202107310600 AAXX 31064 67665 32380 61103 10103 20064 48601 866//
                   333 10232 20//0 58018 86709=
202107302100 AAXX 30214 67665 42980 01106 10119 20053 48599
                   333 58020=
202107301800 AAXX 30184 67665 42980 11005 10138 20047 48591 80001
                   333 58016 81080 555 91028=
202107301500 AAXX 30154 67665 41980 20914 10203 20046 48589 70500 80001
                   333 58020 82080 555 91027=
202107301200 AAXX 30124 67665 41980 11011 10217 20041 48595 70500 80001
                   333 58023 81080 555 91027=
202107300900 AAXX 30094 67665 42580 40814 10196 20054 48610 84500
                   333 58018 84630 91029=
202107291800 AAXX 29184 67665 42980 01605 10140 20057 48578
                   333 58018=
202107291500 AAXX 29154 67665 42980 51409 10212 20020 48571 80006
                   333 58015 85080=
202107291200 AAXX 29124 67665 42680 50808 10224 20055 48573 81106
                   333 58009 81840 85080=
202107290900 AAXX 29094 67665 42580 31109 10196 20035 48593 82101
                   333 58006 82820 82080
                   555 91027=
202107290600 AAXX 29064 67665 32980 01303 10120 20071 48573 70100
                   333 10219 20//0 58003
                   555 00///=
202107290300 AAXX 29034 67665 42980 01602 10074 20051 48554 70300
                   333 58005=
202107290000 AAXX 29004 67665 42980 01404 10093 20061 48561 70200
                   333 58001=
202107282100 AAXX 28214 67665 42980 01304 10108 20046 48563 70200
                   333 59006=
202107281800 AAXX 28184 67665 42980 11205 10133 20084 48557 81031
                   333 59010 81360 82080=
202107281200 AAXX 28124 67665 42680 40910 10209 20058 48563 84501
                   333 59021 84640 82080=
202107280900 AAXX 28094 67665 42580 51013 10175 20060 48584 85500
                   333 59018 85622=
202107280600 AAXX 28064 67665 32480 21009 10122 20076 48570 82530
                   333 10213 20//0 59023 82612 81360
                   555 00/// 91026=
202107271800 AAXX 27184 67665 42980 01106 10121 20038 48565 70200
                   333 10225 59028=
202107271500 AAXX 27154 67665 42980 10812 10196 20006 48570 80001
                   333 59027 81080 555 10225=
202107271200 AAXX 27124 67665 42680 50914 10196 20024 48582 83202
                   333 59021 83835 82080=
202107270600 AAXX 27064 67665 32480 11013 10114 20092 48590 81530
                   333 10162 20//0 81360 91028=
202107260900 AAXX 26094 67665 42580 71114 10139 20048 48615 875//
                   333 59012 87620=
202107260600 AAXX 26064 67665 32480 51108 10105 20069 48603 84530
                   333 10200 20//0 59014 84610 82360
                   555 00/// 91030=
202107260300 AAXX 26034 67665 42480 51007 10095 20054 48589 85500
                   333 58011 85610 555 91028=
202107252100 AAXX 25214 67665 42980 01103 10076 20025 48595
                   333 59008 555 91029=
202107250600 AAXX 25064 67665 32980 01012 10110 20067 48616
                   333 10190 20//0 58021=
202107242100 AAXX 24214 67665 42980 01105 10104 20083 49605
                   333 58022=
202107241500 AAXX 24154 67665 41680 81012 10158 20089 48598 70522 885//
                   333 58035 88645 555 10196 91028=
202107241200 AAXX 24124 67665 41680 70815 10177 20085 48601 70522 875//
                   333 58030 87630 555 91028=
202107240600 AAXX 24064 67665 32980 70918 10153 20109 48602
                   333 10250 20//0 58030 87708=
202107231800 AAXX 23184 67665 42980 21105 10170 20088 48585 82030
                   333 10250 58006 82360=
202107231500 AAXX 23154 67665 42680 51010 10229 20075 48575 81106
                   333 58004 85080=
202107231200 AAXX 23124 67665 42680 51012 10143 20086 48581 85130
                   333 58000 85840 82360=
202107230900 AAXX 23094 67665 42980 21014 10224 20081 48597 82030
                   333 59006 82360 555 91027=
202107230600 AAXX 23064 67665 32980 31003 10139 20036 48572 83030
                   333 10261 20/// 59018 59018 83360
                   555 00///=
202107230300 AAXX 23034 67665 42980 60702 10154 20030 48562 70122 86030
                   333 59020 86360=
202107230000 AAXX 23004 67665 42980 00000 10111 20050 48561 70200
                   333 59021=
202107222100 AAXX 22214 67665 42980 11801 10134 20054 48578 81030
                   333 58001 81360=
202107221800 AAXX 22184 67665 42980 09903 10166 20034 48579
                   333 59004=
202107221500 AAXX 22154 67665 42980 01405 10239 20020 48573
                   333 59004=
202107221200 AAXX 22124 67665 42980 01410 10254 20034 48582
                   333 59004 91025=
202107220900 AAXX 22094 67665 42980 00909 10237 20033 48606
                   333 59001=
202107220600 AAXX 22064 67665 42980 09901 10171 20080 48593 70200
                   333 10260 58004=
202107211800 AAXX 21184 67665 42980 01604 10171 20080 48583 70200
                   333 10267 58015=
202107211500 AAXX 21154 67665 41980 21206 10254 20076 48578 70500 82030
                   333 58015 82360 555 10267=
202107211200 AAXX 21124 67665 42980 11204 10253 20064 48586 70500 81030
                   333 58015 81360=
202107210900 AAXX 21094 67665 42980 00707 10217 20082 48602
                   333 58009=
202107210600 AAXX 21064 67665 32980 01404 10137 20081 48585
                   333 10248 20/// 58005
                   555 00/// 91027=
202107210300 AAXX 21034 67665 42980 01504 10105 20059 48567
                   333 58005 555 91025=
202107210000 AAXX 21004 67665 42980 01603 10109 20066 48564
                   333 58002 555 91025=
202107202100 AAXX 20214 67665 42980 01403 10126 20059 48567
                   333 59002 555 91025=
202107201200 AAXX 20124 67665 42680 20105 10248 20054 48568 70200 82100
                   333 59002 82848=
202107200900 AAXX 20094 67665 42980 00908 10197 20054 48592 70200
                   333 59006=
202107200600 AAXX 20064 67665 32980 01402 10125 20055 48579
                   333 10213 20//0 59002=
202107192100 AAXX 19214 67665 42980 01503 10104 20020 48565
                   333 59011=
202107191800 AAXX 19184 67665 42980 31703 10132 20040 48566 83030
                   333 59013 83360 555 91025=
202107191500 AAXX 19154 67665 42680 51306 10189 20041 48564 85500
                   333 59012 85650 555 10213 91024=
202107191200 AAXX 19124 67665 42680 60809 10194 20034 48567 86500
                   333 59012 86635 555 91024=
202107190900 AAXX 19094 67665 42480 30609 10185 20072 48559 83500
                   333 59006 83625=
202107181800 AAXX 18184 67665 42980 01405 10136 20057 48580
                   333 10220 58004=
202107181500 AAXX 18154 67665 42680 51211 10194 20056 48575 81530
                   333 58006 81645 85360=
202107181200 AAXX 18124 67665 42680 51014 10202 20052 48581 85130
                   333 58005 85840 82360=
202107180900 AAXX 18094 67665 42680 10914 10182 20068 48501 81500
                   333 59002 81630=
202107171800 AAXX 17184 67665 42980 11404 10139 20071 48576 81030
                   333 59010 81360=
202107171500 AAXX 17154 67665 42780 51109 10210 20040 48572 85500
                   333 59017 85650=
202107171200 AAXX 17124 67665 42680 30808 10215 20055 48577 83500
                   333 59015 83640=
202107170900 AAXX 17094 67665 42580 50710 10185 20081 48594 85500
                   333 59004 85625=
202107170600 AAXX 17064 67665 32480 81010 10133 20101 48592 885//
                   333 10190 20//0 59001 88612=
202107170300 AAXX 17034 67665 42980 80910 10129 20110 48581 8573/
                   333 58002 85707 88360=
202107170000 AAXX 17004 67665 42580 71105 10112 20103 48577 875//
                   333 58005 87620=
202107162100 AAXX 16214 67665 42980 11106 10118 20100 48584 81030
                   333 58005 81360=
202107161200 AAXX 16124 67665 NIL=
202107160900 AAXX 16094 67665 42480 70917 10176 20096 48606 875//
                   333 59034 87618 91029=
202107160600 AAXX 16064 67665 32380 71012 10140 20113 48595 70200 875//
                   333 10220 20/// 58018 87610=
202107151800 AAXX 15184 67665 42980 01207 10148 20094 48582 70200
                   333 10242 58025=
202107151500 AAXX 15154 67665 42780 31112 10205 20098 48577 81130
                   333 58020 81850 83360
                   555 10242=
202107151200 AAXX 15124 67665 42680 50914 10217 20105 48584 70222 85200
                   333 58024 85840=
202107150900 AAXX 15094 67665 42580 60813 10203 20108 48596 86500
                   333 58020 86620 91027=
202107150600 AAXX 15064 67665 32480 71109 10146 20118 48579 87530
                   333 10260 20//0 58019 87610 82360
                   555 00/// 91026=
202107150300 AAXX 15034 67665 42980 01306 10123 20090 48560
                   333 58016 555 91024=
202107150000 AAXX 15004 67665 42980 00000 10135 20067 48557
                   333 58009 555 91024=
202107142100 AAXX 14214 67665 42980 01404 10139 20060 48561
                   333 58011 555 91024=
202107141200 AAXX 14124 67665 NIL=
202107140900 AAXX 14094 67665 42580 30708 10234 20084 48581 81530
                   333 58008 81625 82360=
202107140600 AAXX 14064 67665 42980 61405 10174 20103 48564 86360
                   333 10263 20//0 59001 86360=
202107140300 AAXX 14034 67665 42980 01403 10147 20102 48549
                   333 58000=
202107140000 AAXX 14004 67665 42980 01903 10132 20091 48547
                   333 59002=
202107132100 AAXX 13214 67665 42980 00000 10147 20092 48551
                   333 59010=
202107131500 AAXX 13154 67665 42780 40705 10245 20061 48540 84100
                   333 59019 84850 555 10263 91021=
202107131200 AAXX 13124 67665 42680 50903 10259 20084 48552 85500
                   333 59024 85635 555 91021=
202107121800 AAXX 12184 67665 42980 09902 10157 20093 48561
                   333 10239 59028=
202107121500 AAXX 12154 67665 42680 21010 10221 20076 48558 81530
                   333 59023 81645 82360=
202107121200 AAXX 12124 67665 42680 50709 10229 20075 48571 83530
                   333 59015 83635 85360=
202107120600 AAXX 12064 67665 32980 11207 10142 20106 48580 81030
                   333 10234 20//0 59002 81360
                   555 00///=
202107120300 AAXX 12034 67665 42980 01503 10103 20084 48562 70200
                   333 58001=
202107120000 AAXX 12004 67665 42980 01802 10111 20083 48570 70200
                   333 58003=
202107112100 AAXX 11214 67665 42980 01503 10118 20080 48583 70200
                   333 58009=
202107110900 AAXX 11094 67665 42580 50913 10195 20094 48598 85500
                   333 58004 85625 555 91028=
202107101800 AAXX 10184 67665 42980 01404 10145 20055 48574 70200
                   333 10230 58001=
202107101500 AAXX 10154 67665 41980 11209 10225 20028 48571 70400 81030
                   333 58002 81360 555 10230=
202107101200 AAXX 10124 67665 42980 00809 10229 20031 48579 70200 80001
                   333 59001 81080=
202107100600 AAXX 10064 67665 32980 01203 10113 20074 48574
                   333 10230 20//0 59010
                   555 00/// 91026=
202107100300 AAXX 10034 67665 42980 00903 10069 20047 48554
                   333 59016 555 91025=
202107100000 AAXX 10004 67665 42980 01003 10090 20047 48557
                   333 59021 555 91025=
202107091800 AAXX 09184 67665 42980 01205 10132 20061 48570
                   333 10230 20//0 59013=
202107091500 AAXX 09154 67665 42980 01111 10205 20036 48566 70200
                   333 59018=
202107091200 AAXX 09124 67665 42980 01009 10227 20032 48580
                   333 59013=
202107090900 AAXX 09094 67665 42980 00914 10195 20021 48563 70200
                   333 59011=
202107090600 AAXX 09064 67665 32980 09902 10125 20063 48586
                   333 10207 20//0 59008=
202107082100 AAXX 08214 67665 42980 00000 10097 20052 48584
                   333 58009=
202107081800 AAXX 08184 67665 42980 41104 10154 20070 48586 84030
                   333 58013 84360 555 91027=
202107081500 AAXX 08154 67665 42780 40506 10194 20061 48581 84500
                   333 58011 84650 555 10207 91026=
202107081200 AAXX 08124 67665 42680 60911 10193 20060 48587 86500
                   333 58018 86635 555 91026=
202107071800 AAXX 07184 67665 42980 21504 10136 20068 48572 82030
                   333 10220 59002 82360=
202107071500 AAXX 07154 67665 42980 41013 10188 20053 84030
                   333 58003 84359=
202107071200 AAXX 07124 67665 42680 50913 10212 20048 48572 85500
                   333 59004 85640=
202107070900 AAXX 07094 67665 42580 51016 10180 20079 48590 85500
                   333 59006 85620 555 91027=
202107070600 AAXX 07064 67665 32980 00804 10113 20072 48574 70200
                   333 10228 20/// 59004
                   555 00///=
202107070300 AAXX 07034 67665 42980 01306 10100 20034 48555 70200
                   333 59002=
202107070000 AAXX 07004 67665 42980 01503 10088 20054 48549 70200
                   333 58004=
202107062100 AAXX 06214 67665 42980 01106 10121 20064 48571 70200
                   333 58011=
202107060900 AAXX 06094 67665 42480 31012 10198 20091 48599 83500
                   333 58020 83618=
202107060600 AAXX 06064 67665 32980 01106 10129 20080 48581
                   333 10252 20/// 58019 91027=
202107051800 AAXX 05184 67665 42980 01204 10149 20035 48564 70200
                   333 10255 58006=
202107051500 AAXX 05154 67665 42980 01011 10242 21030 48558 70200
                   333 58004 555 10255=
202107051200 AAXX 05124 67665 42980 01109 10252 20014 48560 70200
                   333 59002=
202107050600 AAXX 05064 67665 32980 01601 10118 20058 48562
                   333 10256 20/// 58001
                   555 00/// 91025=
202107050300 AAXX 05034 67665 42980 01502 10060 20026 48542
                   333 58001 555 91023=
202107050000 AAXX 05004 67665 42980 01702 10090 20023 48547
                   333 59002 555 91023=
202107042100 AAXX 04214 67665 42980 02001 10095 20026 48556
                   333 59007 555 91024=
202107041800 AAXX 04184 67665 42980 01405 10157 20025 48559 70200
                   333 10256 59010=
202107041500 AAXX 04154 67665 42980 01106 10246 21018 48555 70200
                   333 59013 555 10256=
202107041200 AAXX 04124 67665 42980 01106 10243 20016 48561 70200
                   333 59010=
202107040900 AAXX 04094 67665 42980 00812 10209 20015 48578
                   333 59014=
202107040600 AAXX 04064 67665 32980 01402 10119 20054 48561
                   333 10258 20//0 59018=
202107040300 AAXX 04034 67665 42980 01502 10056 20027 48541
                   333 59006=
202107040000 AAXX 04004 67665 42980 01701 10073 20033 48546
                   333 59007=
202107032100 AAXX 03214 67665 42980 01704 10102 20038 48562
                   333 59004=
202107031800 AAXX 03184 67665 42980 01405 10146 20059 48567
                   333 58000 555 91025=
202107031500 AAXX 03154 67665 42980 01108 10238 21018 48567
                   333 59001 555 10258 91023=
202107031200 AAXX 03124 67665 42980 00908 10245 21019 48572
                   333 58005 555 91024=
202107021800 AAXX 02184 67665 42980 01003 10155 20017 48567
                   333 10267 59001=
202107021500 AAXX 02154 67665 42980 01210 10242 20010 48568
                   333 59002 555 10267=
202107021200 AAXX 02124 67665 42980 01110 10260 21008 48569
                   333 59001=
202107020900 AAXX 02094 67665 42980 00813 10236 20018 48589
                   333 58000 555 91026=
202107020600 AAXX 02064 67665 32980 01502 10147 20058 48569 70200
                   333 10277 20//0 59010
                   555 00///=
202107020300 AAXX 02034 67665 42980 01902 10094 20040 48550 70200
                   333 59008=
202107020000 AAXX 02004 67665 42980 00000 10116 20045 48557 70200
                   333 58002=
202107012100 AAXX 01214 67665 42980 00000 10130 20021 48564 70200
                   333 58002=
202107010900 AAXX 01094 67665 42980 01205 10241 20025 48589
                   333 5//// 555 91026=
202107010600 AAXX 01064 67665 32980 00000 10164 20068 48584
                   333 10270 20//0 58008
                   555 00/// 91026=
202107010000 AAXX 01004 67665 42980 00000 10116 20045 48557 70200
                   333 58002=

################################################################################
#  SYNOPS from 67666, Lusaka City Airport (Zambia) | 15-25-00S | 028-28-00E | 1280 m
################################################################################
202107300600 AAXX 30064 67666 32980 11211 10149 20055 48581 80001
                   333 10210 20111 58016 81080
                   555 00/// 91027=
202107280600 AAXX 28064 67666 32480 30913 10110 20055 48563 70322 81530
                   333 10200 20070 59017 81610 82360
                   555 00/// 91025=
202107270600 AAXX 27064 67666 32480 31115 10110 20075 48579 82530
                   333 10170 20082 59017 82610 81360 91027=
202107230600 AAXX 23064 67666 32980 02706 10159 20015 48564
                   333 10259 20135 59018
                   555 00/// 91025=
202107211200 AAXX 21124 67666 42780 41005 10232 20086 48575 84200
                   333 58014 84850 91025=
202107210900 AAXX 21094 67666 NIL=
202107210600 AAXX 21064 67666 32980 01005 1//// 20079 48573
                   333 10230 20130 58008
                   555 00/// 91026=
202107161200 AAXX 16124 67666 42680 70915 10175 20094 48578 84830
                   333 58009 81635 84840 86360 91026=
202107160900 AAXX 16094 67666 42580 71216 10160 20095 48585 84830
                   333 84620 82825 85360 91028=
202107160600 AAXX 16064 67666 32480 70913 10135 20109 48586 878//
                   333 10250 20130 58011 85612 84815 91027=
202107150900 AAXX 15094 67666 42580 51010 10200 20110 48577 85800
                   333 5//// 82610 84820 91026=
202107150600 AAXX 15064 67666 32380 41012 10148 20116 48562 84500
                   333 10252 20140 5//// 84609 91025=
202107141200 AAXX 14124 67666 NIL=
202107110900 AAXX 11094 67666 NIL=
202107070600 AAXX 07064 67666 31975 00312 10130 20075 48571 70522
                   333 10228 20120 59003 91025=
202107060600 AAXX 06064 67666 31975 00914 10140 20085 48575 70522
                   333 10250 20101 58016 91026=
202107050600 AAXX 05064 67666 31975 01011 10150 20050 48560 70522
                   333 10250 20100 58001
                   555 00/// 91024=
202107011200 AAXX 01124 67666 42980 01209 10252 20032 48558 70500
                   333 58006 91022=
202107010900 AAXX 01094 67666 42980 00910 10232 20040 48580
                   333 58002 91025=
202107010600 AAXX 01064 67666 31975 00000 10160 20045 48572 70522
                   333 10260 20102 59004 91025=

################################################################################
#  SYNOPS from 67667, Mount Makulu (Zambia) | 15-33S | 028-15E | 1213 m
################################################################################
202107300600 AAXX 30064 67667 31970 31403 10145 20088 48642 70500 80002
                   333 10242 20072 58017 83082
                   555 00///=
202107280900 AAXX 28094 67667 41670 50910 10183 20083 48633 70522
                   333 59016 85830=
202107280600 AAXX 28064 67667 31570 10910 10120 20082 48613 70500 81100
                   333 10222 20058 5//// 81825=
202107270600 AAXX 27064 67667 31570 40915 10125 20081 48642 70511 82102
                   333 10205 20065 59015 82825 83082=
202107230600 AAXX 23064 67667 31970 00901 10162 20072 48627 70500
                   333 10265 20066 5////
                   555 00///=
202107221200 AAXX 22124 67667 41970 00901 10240 20090 48/// 70500
                   333 5////=
202107211200 AAXX 21124 67667 41670 20902 10246 20120 48/// 70500 82100
                   333 5//// 82830=
202107210900 AAXX 21094 67667 41970 00805 10228 20116 48637 70500
                   333 58013=
202107210600 AAXX 21064 67667 31970 00902 10162 20114 48640 70500
                   333 10249 20110 59040
                   555 00///=
202107161200 AAXX 16124 67667 NIL=
202107160900 AAXX 16094 67667 41670 70912 10162 20110 48652 70522 87500
                   333 58015 87630=
202107160600 AAXX 16064 67667 31670 70912 10142 20115 48642 70522 87500
                   333 10236 20109 58015 87630=
202107150900 AAXX 15094 67667 NIL=
202107150600 AAXX 15064 67667 31670 10908 10162 20135 48632 70500 81100
                   333 10265 20110 58016 81830=
202107141200 AAXX 14124 67667 NIL=
202107110900 AAXX 11094 67667 NIL=
202107091200 AAXX 09124 67667 41970 00902 10224 20160 48625 70500
                   333 5////=
202107070600 AAXX 07064 67667 31970 00902 10132 20098 48628 70500
                   333 10282 20084 58005=
202107060600 AAXX 06064 67667 31970 00906 10150 20122 48533 70500
                   333 10287 20084 59016=
202107050600 AAXX 05064 67667 31980 00901 10154 20082 48615
                   333 10280 20040 58003
                   555 00///=
202107010900 AAXX 01094 67667 NIL=
202107010600 AAXX 01064 67667 32980 00903 10172 20093 48630
                   333 10281 20050 58003
                   555 00///=

################################################################################
#  SYNOPS from 67673, Petauke (Zambia) | 14-15S | 031-17E | 1035 m
################################################################################
202107300900 AAXX 30094 67673 42584 51806 10220 20120 48/// 85100
                   333 5//// 85830=
202107270600 AAXX 27064 67673 12580 30906 10140 20105 48/// 69904 82131
                   333 10205 20//0 5//// 82825 83360 82080=
202107230600 AAXX 23064 67673 32980 73604 10190 20159 48/// 8703/
                   333 10290 2//// 5//// 87360=
202107210900 AAXX 21094 67673 42580 43602 10240 20142 48/// 84100
                   333 5//// 84830=
202107210600 AAXX 21064 67673 32980 00801 10206 20167 48///
                   333 10270 2//// 5////=
202107161200 AAXX 16124 67673 NIL=
202107160900 AAXX 16094 67673 NIL=
202107150900 AAXX 15094 67673 NIL=
202107150600 AAXX 15064 67673 32580 43604 10196 20140 48/// 84100
                   333 10285 2//// 5//// 84825=
202107141200 AAXX 14124 67673 42684 50000 10270 20145 48/// 85230
                   333 5//// 85835 84360=
202107130600 AAXX 13064 67673 32980 30503 10220 20159 48/// 83030
                   333 10260 20//0 5//// 83360
                   555 00///=
202107110900 AAXX 11094 67673 NIL=
202107060600 AAXX 06064 67673 31584 40906 10176 20090 48/// 70500 82130
                   333 10270 20/// 5//// 82825 84360=
202107011200 AAXX 01124 67673 41975 00503 10280 20120 48/// 70500
                   333 5////=
202107010900 AAXX 01094 67673 41975 01002 10260 20110 48/// 70500
                   333 5////=

################################################################################
#  SYNOPS from 67731, Senanga (Zambia) | 16-06S | 023-16E | 1027 m
################################################################################
202107300900 AAXX 30094 67731 42980 318// 10211 20053 48/// 80002
                   333 58013 83080=
202107300600 AAXX 30064 67731 32980 418// 10137 20087 48/// 80002
                   333 10252 20089 58002 84080
                   555 00035=
202107280600 AAXX 28064 67731 32980 307// 10098 20044 48/// 80002
                   333 10258 20069 59020 83080
                   555 00007=
202107270600 AAXX 27064 67731 32980 027// 10131 20069
                   555 00024=
202107230600 AAXX 23064 67731 32980 409// 10138 20071 48/// 80002
                   333 10276 20089 59005 84080
                   555 00029=
202107210900 AAXX 21094 67731 NIL=
202107161200 AAXX 16124 67731 42580 318// 10260 20064 48/// 70300 83100
                   333 58013 83825=
202107160900 AAXX 16094 67731 42980 003// 10229 20048 48///
                   333 58014=
202107160600 AAXX 16064 67731 32980 512// 10137 20079 48/// 85030
                   333 10272 20114 59001 85360
                   555 00079=
202107150900 AAXX 15094 67731 42980 409// 10230 20021 48/// 83030
                   333 59013 83361 83080=
202107150600 AAXX 15064 67731 32980 509// 10144 20060 48/// 85032
                   333 10273 20121 59004 85360 84080
                   555 00080=
202107141200 AAXX 14124 67731 NIL=
202107110900 AAXX 11094 67731 NIL=
202107091200 AAXX 09124 67731 42980 008// 10242 20053 48///
                   333 59010=
202107070600 AAXX 07064 67731 32980 011// 10109 20066 48///
                   333 10275 20100 58007
                   555 00065=
202107060600 AAXX 06064 67731 32980 005// 10106 20033 48///
                   333 10285 20085 58003
                   555 00037=
202107050600 AAXX 05064 67731 32980 012// 10101 20019 48///
                   333 10285 20091 58001
                   555 00049=
202107011200 AAXX 01124 67731 42980 018// 10286 20046 48///
                   333 58006=
202107010900 AAXX 01094 67731 NIL=
202107010600 AAXX 01064 67731 32975 006// 10114 20045 48/// 70500
                   333 10295 20075 58009
                   555 00049=

################################################################################
#  SYNOPS from 67741, Sesheke (Zambia) | 17-28S | 024-18E | 949 m
################################################################################
202107210900 AAXX 21094 67741 NIL=
202107161200 AAXX 16124 67741 NIL=
202107160900 AAXX 16094 67741 NIL=
202107150900 AAXX 15094 67741 NIL=
202107150600 AAXX 15064 67741 NIL=
202107141200 AAXX 14124 67741 NIL=
202107110900 AAXX 11094 67741 NIL=
202107070600 AAXX 07064 67741 32980 00901 10124 20//0 48564
                   333 10268 20034 58001=
202107010900 AAXX 01094 67741 42980 01201 10251 20//0 48592
                   333 5////=
202107010600 AAXX 01064 67741 32980 10000 10112 20//0 48562 80001
                   333 10304 20038 58006 81080
                   555 00///=

################################################################################
#  SYNOPS from 67743, Livingstone (Zambia) | 17-49S | 025-49E | 985 m
################################################################################
202107230600 AAXX 23064 67743 31975 31404 10117 21040 48581 70500 80001
                   333 10268 20055 59007 83080
                   555 00/// 91027=
202107221200 AAXX 22124 67743 41975 01208 10262 20015 48591 70500
                   333 58004 91025=
202107210900 AAXX 21094 67743 41675 12102 10220 20082 48608 70500 81100
                   333 58016 81830 91028=
202107161200 AAXX 16124 67743 NIL=
202107160900 AAXX 16094 67743 42580 50713 10190 20112 48602 83530
                   333 58012 83625 83360 91028=
202107160600 AAXX 16064 67743 32980 61208 10132 20109 48587 70222 86030
                   333 10255 59002 555 00/// 91028=
202107151200 AAXX 15124 67743 42680 41107 10230 20122 48574 82130
                   333 58012 82835 84360 91024=
202107150900 AAXX 15094 67743 42680 61211 10190 20113 48590 81130
                   333 58014 81825 86360 91027=
202107150600 AAXX 15064 67743 32980 61308 10145 20104 48573 86030
                   333 10275 20095 58010 86360
                   555 00/// 91026=
202107141200 AAXX 14124 67743 NIL=
202107110900 AAXX 11094 67743 NIL=
202107091200 AAXX 09124 67743 42980 01208 10230 20074 48577 70200
                   333 58008 91024=
202107090900 AAXX 09094 67743 42980 01107 10200 20093 48603 70200
                   333 58003 555 91028=
202107070600 AAXX 07064 67743 31959 13003 10110 20045 48571 70500
                   333 10250 20069 58000 91026=
202107050600 AAXX 05064 67743 32980 00000 10130 20050 48557
                   333 10276 20033 58000
                   555 00/// 91024=
202107040900 AAXX 04094 67743 42980 01204 10223 20062 48579
                   333 59004 91025=
202107040600 AAXX 04064 67743 32980 00000 10112 20054 48553
                   333 10288 20024 59008
                   555 00/// 91024=
202107010900 AAXX 01094 67743 NIL=

################################################################################
#  SYNOPS from 67751, Magoye (Zambia) | 16-00S | 027-36E | 1018 m
################################################################################
202107300600 AAXX 30064 67751 32980 11202 10129 20075 80001
                   333 10//0 20059 5//// 81080
                   555 00///=
202107280600 AAXX 28064 67751 32980 11403 10107 20051 48/// 80001
                   333 10//0 20034 5//// 81080=
202107270600 AAXX 27064 67751 32980 01202 10122 20085 48/// 83001
                   333 10//0 20068 5//// 83180=
202107230600 AAXX 23064 67751 32980 11809 10168 20008 48/// 81031
                   333 10//0 20052 5//// 81360 81080
                   555 00///=
202107210900 AAXX 21094 67751 42880 10602 10250 20073 81100
                   333 5//// 81859=
202107210600 AAXX 21064 67751 32980 01804 10135 20070 48///
                   333 1//// 20075 5////=
202107161200 AAXX 16124 67751 42680 71302 10205 20102 48/// 8701/
                   333 5//// 87460=
202107160900 AAXX 16094 67751 42580 50402 10197 20100 48/// 70222 85070
                   333 5//// 85360=
202107150900 AAXX 15094 67751 42580 50403 10216 20120 48/// 70322 85400
                   333 5//// 555 85638=
202107150600 AAXX 15064 67751 32980 00902 10185 20120 48/// 70200
                   333 10//0 20106 5////
                   555 00///=
202107141200 AAXX 14124 67751 NIL=
202107110900 AAXX 11094 67751 NIL=
202107081200 AAXX 08124 67751 42980 70603 10211 20082 48/// 87030
                   333 5//// 87360=
202107011200 AAXX 01124 67751 42980 01908 10273 20058=
202107010900 AAXX 01094 67751 NIL=

################################################################################
#  SYNOPS from 67753, Choma (Zambia) | 16-50S | 027-04E | 1213 m
################################################################################
202107280600 AAXX 28064 67753 31980 00000 10085 20035 48565 70500
                   333 10201 20020 59016
                   555 00///=
202107270600 AAXX 27064 67753 32480 60000 10100 20067 48577 70522 86600
                   333 10181 20024 59021 86710=
202107230600 AAXX 23064 67753 31980 10000 10109 21009 48578 70500 80001
                   333 10244 20054 59010 81080
                   555 00///=
202107221200 AAXX 22124 67753 41980 03505 10239 20011 48572 70500
                   333 58004=
202107211200 AAXX 21124 67753 41780 12702 10244 20076 48572 70500 81100
                   333 58015 81856=
202107210900 AAXX 21094 67753 41680 11104 10220 20095 48599 70500 81100
                   333 58015 81848=
202107210600 AAXX 21064 67753 41980 10000 10125 20076 48579 70500 80001
                   333 10239 20054 58009 81080
                   555 00///=
202107161200 AAXX 16124 67753 42680 52008 10201 20106 48577 85200
                   333 58008 85838=
202107160900 AAXX 16094 67753 42580 52708 10172 20110 48594 85500
                   333 58010 85625=
202107160600 AAXX 16064 67753 32480 62503 10146 20125 48592 86500
                   333 10231 20098 58013 86615
                   555 00///=
202107150900 AAXX 15094 67753 41680 62608 10184 20121 48585 70522 86100
                   333 58021 86838=
202107150600 AAXX 15064 67753 31980 10000 10144 20120 48572 70500 81030
                   333 10254 20090 58019 81360
                   555 00///=
202107141200 AAXX 14124 67753 NIL=
202107110900 AAXX 11094 67753 41680 10606 10199 20096 48587 70500 81100
                   333 59002 81840=
202107091200 AAXX 09124 67753 42980 02605 10214 20084 48569
                   333 59010=
202107081200 AAXX 08124 67753 41680 52705 1//// 20095 48578 70522 85200
                   333 58014 85840=
202107070600 AAXX 07064 67753 31980 00000 10094 20060 48567
                   333 10231 20046 59001=
202107060600 AAXX 06064 67753 31980 00000 10111 20074 48569 70500
                   333 10259 20048 58016=
202107050600 AAXX 05064 67753 31980 00000 10096 20028 48558 70500
                   333 10259 20021 58002
                   555 00///=
202107040900 AAXX 04094 67753 41980 00906 10230 20056 48571 70500
                   333 59012=
202107011200 AAXX 01124 67753 42980 02705 10256 20066 48563
                   333 58008=
202107010900 AAXX 01094 67753 NIL=
202107010600 AAXX 01064 67753 32980 00000 10132 20070 48561
                   333 10269 20062 58002
                   555 00///=

################################################################################
#  SYNOPS from 67855, Lupaki (Zambia) | 17-03-00S | 024-46-00E | 1000 m
################################################################################
202107300900 AAXX 30094 67855 42980 52608 10224 20085 3//// 48/// 80002
                   333 5//// 85080=
202107221500 AAXX 22154 67855 42980 03204 10249 21019 3//// 48///
                   333 5////=
202107210900 AAXX 21094 67855 42980 02701 10200 20058 3//// 48///
                   333 5////=
202107201500 AAXX 20154 67855 42680 11502 10228 20049 3//// 48/// 81100
                   333 5//// 81840=
202107200900 AAXX 20094 67855 42980 13502 10210 20055 3//// 48/// 81030
                   333 5//// 81360=
202107191500 AAXX 19154 67855 42980 00301 10126 20041 3//// 48///
                   333 5////=
202107190900 AAXX 19094 67855 42980 01103 10178 20042 3//// 48///
                   333 5////=
202107171500 AAXX 17154 67855 42980 22502 10212 20066 3//// 48/// 82030
                   333 5//// 82360=
202107170900 AAXX 17094 67855 42575 72404 10181 20068 3//// 48/// 875//
                   333 5//// 87620=
202107161500 AAXX 16154 67855 42980 51902 10198 20102 3//// 48/// 85030
                   333 5//// 85360=
202107140900 AAXX 14094 67855 42980 50903 10228 20053 3//// 48/// 85030
                   333 5//// 85360=
202107130900 AAXX 13094 67855 42980 03203 10214 20072 3//// 48///
                   333 5////=
202107121500 AAXX 12154 67855 42980 10503 10250 20078 3//// 48/// 81030
                   333 5//// 81360=
202107120900 AAXX 12094 67855 42980 03504 10225 20084 3//// 48///
                   333 5////=
202107090900 AAXX 09094 67855 42980 03202 10195 20068 3//// 48///
                   333 5////=
202107081500 AAXX 08154 67855 42980 01701 10230 20058 3//// 48///
                   333 5////=
202107061500 AAXX 06154 67855 42980 03002 10232 20052 3//// 48///
                   333 5////=
202107060900 AAXX 06094 67855 42980 02506 10198 20769 3//// 48///
                   333 5////=
202107031500 AAXX 03154 67855 42980 01302 10278 20072 3//// 48///
                   333 5////=
202107020900 AAXX 02094 67855 42980 01304 10248 20038 3//// 48///
                   333 5////=
