################################################################################
# Query made at 04/15/2022 02:04:22 UTC
# Country like Zamb*
# Time interval: from 09/01/2009 05:30  to 10/01/2009 06:30  UTC
################################################################################

################################################################################
#  SYNOPS from 67403, Kawambwa (Zambia) | 09-48S | 029-05E | 1323 m
################################################################################
200909300600 AAXX 30064 67403 32980 10904 10211 20110 48552 81030
                   333 10329 20121 58006 81361=
200909290600 AAXX 29064 67403 32980 10907 10221 20180 48543 80001
                   333 10296 20120 58000 81080=
200909220600 AAXX 22064 67403 32970 00901 10220 20091 48543
                   333 10329 20151 59002=
200909150600 AAXX 15064 67403 31965 00904 10223 20098 48543 70500
                   333 10324 20164 59009=
200909100600 AAXX 10064 67403 NIL=
200909040600 AAXX 04064 67403 31975 01806 10200 20087 48550 70500
                   333 10304 20145 58001=

################################################################################
#  SYNOPS from 67413, Mbala (Zambia) | 08-51S | 031-20E | 1673 m
################################################################################
200909300600 AAXX 30064 67413 31970 51318 10205 20111 48557 70500 80001
                   333 10315 20160 58006 85080=
200909250600 AAXX 25064 67413 31970 01209 10222 20104 48532 70500
                   333 10304 20160 59017=
200909240600 AAXX 24064 67413 31970 00606 10214 20081 48551 70500
                   333 10305 20153 58010=
200909220600 AAXX 22064 67413 32980 11312 10195 20108 48540 80001
                   333 10300 20130 59007 81080=
200909150900 AAXX 15094 67413 42980 00000 10275 20083 48535
                   333 59008=
200909150600 AAXX 15064 67413 32980 11011 10220 20111 48545 81030
                   333 10310 20149 59006 81359=
200909100600 AAXX 10064 67413 NIL=
200909040600 AAXX 04064 67413 NIL 67462 32980 01202 10210 20107 48///
                   333 10270 20120 5////=

################################################################################
#  SYNOPS from 67441, Mwinilunga (Zambia) | 11-45S | 024-26E | 1361 m
################################################################################
200910010600 AAXX 01064 67441 31960 10000 10205 20130 48564 70500 80001
                   333 10315 20/// 59008 81080=
200909300900 AAXX 30094 67441 41670 20000 10275 20150 48567 70500 82101
                   333 58008 82835 81080=
200909300600 AAXX 30064 67441 31958 10000 10190 20158 48572 70500 80001
                   333 10335 20/// 58013 81080=
200909290600 AAXX 29064 67441 31960 10000 10190 20102 48559 70500 81030
                   333 10/// 20/// 5////=
200909250900 AAXX 25094 67441 41970 40408 10290 20095 48552 70521 80007
                   333 59007 84280=
200909250600 AAXX 25064 67441 31958 00000 10185 20135 48551 70500
                   333 10335 20/// 59008=
200909240900 AAXX 2409/ 67441 41670 13403 B10285 20133 48559 70500 81100
                   333 5/// 81840=
200909240600 AAXX 24064 67441 31960 00000 10170 20099 48559 70500
                   333 10335 20/// 58005=
200909220900 AAXX 22094 67441 41970 01005 10270 20101 48564 70500
                   333 58000=
200909220600 AAXX 22064 67441 31960 00000 10155 20110 48557 70500
                   333 10315 20/// 58012=
200909211200 AAXX 21124 67441 31958 20000 10180 20164 48569 70500 82030
                   333 10312 20/// 58010 82360=
200909180600 AAXX 18064 67441 11965 73404 10175 20151 48544 60244 70522 87070
                   333 10335 20/// 5//// 87360=
200909170900 AAXX 17094 67441 41970 62503 10260 20159 48551 70500 86030
                   333 58003 86360=
200909150900 AAXX 15094 67441 41965 02004 10290 20107 48554 70500
                   333 59010=
200909150600 AAXX 15064 67441 31960 00000 10164 20067 48560 70500
                   333 10325 20/// 59010=
200909141200 AAXX 14124 67441 NIL=
200909140600 AAXX 14064 67441 31960 10000 10175 20114 48570 70500 81030
                   333 10322 20/// 58003 81360=
200909100900 AAXX 10094 67441 41965 70609 10276 20105 48564 70522 87030
                   333 58014 87360=
200909100600 AAXX 10064 67441 11965 70000 10215 20124 48558 69904 70522 8707/
                   333 10315 20/// 58006 87360=
200909070600 AAXX 07064 67441 31960 10000 10190 20102 48557 70500 80001
                   333 10310 20/// 58022 81080=
200909040600 AAXX 04064 67441 31960 00000 10120 20060 48572 70500
                   333 10310 20/// 58002=
200909030900 AAXX 03094 67441 31965 01506 10270 20048 48577 70500
                   333 59008=
200909030600 AAXX 03064 67441 31960 00000 10160 20029 48570 70500
                   333 10310 20/// 59007=
200909010600 AAXX 01064 67441 NIL=

################################################################################
#  SYNOPS from 67461, Mansa (Zambia) | 11-06S | 028-51E | 1382 m
################################################################################
200910010600 AAXX 01064 67461 NIL=
200909300600 AAXX 30064 67461 31965 21105 10220 20130 48544 70500 80001
                   333 10315 20170 58002 82080=
200909290600 AAXX 29064 67461 31965 10802 10242 20131 48541 70500 80001
                   333 10325 20161 58015 81080=
200909250600 AAXX 25064 67461 31965 30905 10230 20120 48518 70500 80001
                   333 10340 20148 59012 83080=
200909240600 AAXX 24064 67461 31965 11205 10202 20123 48527 70500 80001
                   333 10331 20152 59001 81080=
200909220900 AAXX 22094 67461 NIL=
200909220600 AAXX 22064 67461 31965 00908 10220 20117 48527 70500
                   333 10319 20138 59015=
200909211200 AAXX 21124 67461 31965 31104 10227 20137 48542 70500 80001
                   333 10287 20151 58018=
200909180600 AAXX 18064 67461 31965 41802 10226 20169 48549 70500 80001
                   333 10347 20062 58008 84080=
200909150600 AAXX 15064 67461 31970 00802 10210 20110 48540 70500
                   333 10313 20100 59006=
200909141200 AAXX 14124 67461 NIL=
200909140600 AAXX 14064 67461 31965 21405 10216 20088 48551 70500 80001
                   333 10307 20145 58001 82080=
200909100600 AAXX 10064 67461 31965 00905 10205 20105 48540 70500
                   333 10317 20167 58009=
200909070600 AAXX 07064 67461 31970 10901 10185 20116 48530 70500 81030
                   333 10291 20132 59025 81362=
200909040600 AAXX 04064 67461 31970 00702 10182 20120 48556 70500
                   333 10305 20115 58000=
200909030600 AAXX 03064 67461 31965 00903 10166 20106 48555 70500
                   333 10297 20110 59004=
200909010600 AAXX 01064 67461 NIL=

################################################################################
#  SYNOPS from 67475, Kasama (Zambia) | 10-13S | 031-08E | 1382 m
################################################################################
200910010600 AAXX 01064 67475 31968 41218 10217 20123 48544 70522 80001
                   333 10312 20147 59015 84082=
200909300900 AAXX 30094 67475 41770 30918 10270 20113 48547 70500 83102
                   333 58011 83850 83080=
200909300600 AAXX 30064 67475 31970 21710 10220 20130 48559 70500 80001
                   333 10320 20155 58011 82082=
200909290600 AAXX 29064 67475 31970 00309 10230 20112 48549 70500
                   333 10327 20148 58011=
200909280900 AAXX 28094 67475 41970 00910 10210 20093 48531 70500
                   333 59003=
200909250600 AAXX 25064 67475 31970 00606 10237 20057 48534 70500
                   333 10326 20142 59004=
200909240900 AAXX 2409/ 67475 41975 01068 10290 20086 48535 70500
                   333 59003 Q1021.1=
200909240600 AAXX 24064 67475 31970 00710 10225 20107 48537 70500
                   333 10322 20136 59002=
200909230900 AAXX 23094 67475 41970 01215 10285 20043 48565 70500
                   333 59001=
200909220900 AAXX 22094 67475 NIL=
200909220600 AAXX 22064 67475 31970 00909 10210 20084 48537 70500
                   333 10308 20139 59007=
200909211200 AAXX 21124 67475 31970 60407 10212 20121 48544 70500 80002
                   333 10321 20143 58008 86280=
200909210900 AAXX 2109/ 67475 41970 71206 10270 20104 48535 70522 80008
                   333 58003 87280=
200909180600 AAXX 18064 67475 31975 00908 10218 20123 48528 70500
                   333 10329 20152 58006=
200909170900 AAXX 17094 67475 41975 00207 10286 20124 48419 70500
                   333 59007 Q1019.9=
200909160900 AAXX 16094 67475 41970 01209 10285 20122 48528 70500
                   333 59006=
200909150900 AAXX 15094 67475 41975 00206 10275 20118 48533 70500
                   333 59007=
200909150600 AAXX 15064 67475 31975 00613 10212 20094 48536 70500
                   333 10312 20135 59010=
200909141200 AAXX 14124 67475 NIL=
200909140600 AAXX 14064 67475 31975 00209 10200 20116 48545 70500
                   333 10312 20125 59006=
200909100600 AAXX 10064 67475 31965 00915 10193 20123 48544 70500
                   333 10306 20132 58004=
200909070900 AAXX 07091 67475 31970 00806 10257 20101 48543 70500
                   333 59012=
200909070600 AAXX 07064 67475 31970 00306 10200 20115 48544 70510
                   333 10288 20115 59010=
200909040600 AAXX 04064 67475 31970 00612 10199 20102 48557 70500
                   333 10290 20121 58003=
200909030900 AAXX 03094 67475 41970 01611 10250 20072 48554 70500
                   333 59002=
200909030600 AAXX 03064 67475 31970 00606 10190 20092 48552 70500
                   333 10288 20130 59001=
200909010600 AAXX 01064 67475 31970 00910 10175 20047 48562 70500
                   333 10287 20099 58005=

################################################################################
#  SYNOPS from 67476, Misamfu (Zambia) | 10-06S | 031-15E | 1536 m
################################################################################
200909100600 AAXX 10064 67476 NIL=
200909040600 AAXX 04064 67476 NIL=

################################################################################
#  SYNOPS from 67477, Mpika (Zambia) | 11-54S | 031-26E | 1400 m
################################################################################
200910010600 AAXX 01064 67477 31966 01116 10200 20144 48541 70500
                   333 10279 20158 59025=
200909300600 AAXX 30064 67477 31470 61216 10187 20134 48565 70522 85010
                   333 10300 20173 58009 85819 82080=
200909290600 AAXX 29064 67477 31965 00905 10235 20104 48548 70500
                   333 10310 20131 58015=
200909250900 AAXX 25094 67477 41868 10109 10284 2096 48526 70500 81100
                   333 59015 81857=
200909250600 AAXX 25064 67477 31965 00904 10239 20115 48534 70500
                   333 10304 20120 59011=
200909240600 AAXX 24064 67477 31970 01211 10246 20084 48546 70500
                   333 10305 20157 58008=
200909220900 AAXX 22094 67477 NIL=
200909220600 AAXX 22064 67477 31975 01008 10234 20083 48537 70500
                   333 10290 20139 59009=
200909211200 AAXX 21124 67477 31974 40806 10224 20114 48546 70511 80001
                   333 10283 20158 58013 84080=
200909210900 AAXX 2109/ 67477 41874 41006 10265 20094 48534 70500 81101
                   333 59005 81857 84080=
200909180600 AAXX 18064 67477 31962 00802 10224 20118 48530 70500
                   333 10309 20160 58004=
200909160900 AAXX 16094 67477 41975 00708 10277 20104 48522 70500
                   333 59012=
200909150600 AAXX 15064 67477 NIL=
200909141200 AAXX 14124 67477 NIL=
200909140600 AAXX 14064 67477 31976 11208 10213 20093 48543 70500 80001
                   333 10285 20147 59005 81080=
200909100900 AAXX 10094 67477 41975 01013 10255 20075 48540 70500
                   333 58004=
200909100600 AAXX 10064 67477 31975 00914 10207 20100 48538 70500
                   333 10286 20157 59003=
200909070600 AAXX 07064 67477 31970 00912 10202 20091 48546 70500
                   333 10270 20150 59014=
200909040600 AAXX 04064 67477 31975 01207 10210 20082 48567 70500
                   333 10269 20131 58001=
200909030600 AAXX 03064 67477 31972 00908 10195 20070 48554 70500
                   333 10257 20100 59012=
200909010600 AAXX 01064 67477 31970 01303 10167 21012 48568 70500
                   333 10261 20095 58012=

################################################################################
#  SYNOPS from 67481, Isoka (Zambia) | 10-07S | 032-38E | 1360 m
################################################################################
200909300600 AAXX 30064 67481 31975 32110 10205 20143 48/// 70500 81101
                   333 10320 20156 5//// 81523 83080=
200909290600 AAXX 29064 67481 31975 01206 10250 20114 48/// 70500
                   333 10435 20150 5////=
200909250600 AAXX 25064 67481 31975 08001 10239 20125 48/// 70500
                   333 10335 20166 5////=
200909220600 AAXX 22064 67481 31965 00905 10208 20107 48524 70500
                   333 10319 20147 59015=
200909100600 AAXX 10064 67481 NIL=
200909040600 AAXX 04064 67481 31975 00202 10201 20103 48/// 70500
                   333 10306 20124 5////=

################################################################################
#  SYNOPS from 67531, Zambezi (Zambia) | 13-32S | 023-07E | 1077 m
################################################################################
200910010600 AAXX 01064 67531 31978 71305 10209 20161 48/// 69914 70522 8707/
                   333 10350 20145 5//// 87361=
200909300600 AAXX 30064 67531 31965 10605 10240 20134 48/// 70500 81030
                   333 10366 20196 5//// 81363=
200909290600 AAXX 29064 67531 31965 11208 10240 20220 48/// 70500 80002
                   333 10362 20141 5//// 81080=
200909250600 AAXX 25064 67531 31965 00403 10236 20095 48/// 70500
                   333 10371 20154 5////=
200909240600 AAXX 24064 67531 31965 00405 10239 20100 48/// 70500
                   333 10371 20154 5////=
200909220900 AAXX 22094 67531 NIL=
200909220600 AAXX 22064 67531 31965 01205 10230 20111 48/// 70500
                   333 10339 20141 5////=
200909211200 AAXX 21124 67531 31970 00000 10225 20170 48/// 70500
                   333 10346 20154 5////=
200909180600 AAXX 18064 67531 31978 30404 10229 20136 48/// 70500 81032
                   333 10352 20177 5//// 81362=
200909150600 AAXX 15064 67531 31960 00906 10225 20082 48/// 70500
                   333 10356 20132 5////=
200909141200 AAXX 14124 67531 NIL=
200909140600 AAXX 14064 67531 31965 10905 10216 20076 48/// 70500 81030
                   333 10349 20123 5//// 81363=
200909100600 AAXX 10064 67531 31970 01401 10202 20131 48/// 70500
                   333 10346 20119 5////=
200909070600 AAXX 07064 67531 31970 11304 10223 20100 48/// 70500 80001
                   333 10252 20147 5//// 81082=
200909040600 AAXX 04064 67531 31960 01204 10172 20055 48/// 70500
                   333 10330 20110 5////=
200909030600 AAXX 03064 67531 NIL=
200909010600 AAXX 01064 67531 NIL=

################################################################################
#  SYNOPS from 67541, Kasempa (Zambia) | 13-32S | 025-51E | 1234 m
################################################################################
200910010600 AAXX 01064 67541 31970 00000 10215 20157 48533 70500
                   333 10/// 20/// 59009=
200909300600 AAXX 30064 67541 NIL=
200909250600 AAXX 25064 67541 31970 006// 10254 20136 48542 70500
                   333 10/// 20/// 58009=
200909240600 AAXX 24064 67541 NIL=
200909220900 AAXX 22094 67541 NIL=
200909220600 AAXX 22064 67541 31970 00000 10197 20123 48528 70500
                   333 10/// 20/// 59007=
200909211200 AAXX 21124 67541 31970 106// 10224 20172 48538 70522 81030
                   333 10/// 20/// 58000 81362=
200909180600 AAXX 18064 67541 NIL=
200909150600 AAXX 15064 67541 NIL=
200909141200 AAXX 14124 67541 NIL=
200909140600 AAXX 14064 67541 NIL=
200909100600 AAXX 10064 67541 NIL=
200909070600 AAXX 07064 67541 31970 00000 10222 20144 48541 70500
                   333 10/// 20156 59014=
200909040600 AAXX 04064 67541 NIL=
200909030600 AAXX 03064 67541 31970 00000 10164 20091 48540 70500
                   333 10/// 20076 59012=
200909010600 AAXX 01064 67541 NIL=

################################################################################
#  SYNOPS from 67543, Kabompo (Zambia) | 13-36S | 024-12E | 1075 m
################################################################################
200909100600 AAXX 10064 67543 NIL=
200909040600 AAXX 04064 67543 NIL=

################################################################################
#  SYNOPS from 67551, Solwezi (Zambia) | 12-11S | 026-23E | 1386 m
################################################################################
200909300600 AAXX 30064 67551 31965 70905 10199 20125 48542 70522 80007
                   333 10333 20176 58023 87280=
200909290600 AAXX 29064 67551 31965 00907 10209 20076 48527 70500
                   333 10352 20166 58007=
200909250600 AAXX 25064 67551 31965 00906 10210 20089 48524 70500
                   333 10330 20135 59007=
200909240600 AAXX 24064 67551 31965 00804 10210 20096 48531 70500
                   333 10325 20135 58004=
200909150600 AAXX 15064 67551 31965 00903 10200 20102 48534 70500
                   333 10325 20120 58001=
200909100600 AAXX 10064 67551 31965 40806 10220 20109 48532 70511 84030
                   333 10314 20184 58000 84362=
200909040600 AAXX 04064 67551 31965 00000 10178 20001 48550 70500
                   333 10296 20078 58000=

################################################################################
#  SYNOPS from 67561, Ndola (Zambia) | 13-00S | 028-39E | 1269 m
################################################################################
200910010600 AAXX 01064 67561 31970 30808 10210 20129 48542 70500 80001
                   333 10318 20154 59015 83080=
200909300600 AAXX 30064 67561 31958 01210 10220 20166 48554 70400
                   333 10333 20178 58011=
200909290600 AAXX 29064 67561 31958 00804 10230 20105 48548 70400
                   333 10345 20158 58014=
200909251200 AAXX 25124 67561 41775 41006 10325 20080 48504 70500 81201
                   333 5//// 82080=
200909250600 AAXX 25064 67561 31960 10811 10240 20101 48532 70500 80001
                   333 10342 20169 59006 81080=
200909240600 AAXX 24064 67561 31958 00000 10226 20115 48537 70400
                   333 10330 20165 59003=
200909230600 AAXX 23064 67561 31960 00806 10228 20069 70500
                   333 10334 20154 58000=
200909220900 AAXX 22094 67561 NIL=
200909220600 AAXX 22064 67561 31959 00906 10206 20108 48538 70400
                   333 10319 20147 59007=
200909211200 AAXX 21124 67561 31965 00808 10220 20129 48546 70500
                   333 10319 20146 58011=
200909210600 AAXX 21064 67561 41965 00808 10220 20129 48546 70500
                   333 10319 20140 58011=
200909181200 AAXX 18124 67561 41960 00000 10340 20090 48492 70500
                   333 59001=
200909180600 AAXX 18064 67561 31940 00000 10209 20099 48526 70400
                   333 10350 20156 58007=
200909171500 AAXX 17154 67561 41960 10000 10326 20095 48481 70500 81100
                   333 58001 81858=
200909171200 AAXX 17124 67561 41959 01105 10336 20082 48493 70500
                   333 59003=
200909170900 AAXX 17094 67561 41956 20610 10296 20082 48522 70400 80001
                   333 59001 82080 Q1019.0=
200909161500 AAXX 16154 67561 41960 10000 10328 20100 48481 70500 81400
                   333 59012 81659=
200909161200 AAXX 16124 67561 41860 20106 10327 20088 48496 70500 82200
                   333 59001 82857=
200909160600 AAXX 16064 67561 31956 00804 10206 20092 48520 70400
                   333 10332 20143 59018=
200909150600 AAXX 15064 67561 31965 00503 10200 20094 48536 70500
                   333 10301 20135 59010=
200909141200 AAXX 14124 67561 41975 00000 10310 20064 48510
                   333 59017=
200909140900 AAXX 14094 67561 41975 61010 10284 20089 48546 70500 80008
                   333 59011 86280 91021=
200909140600 AAXX 14064 67561 31975 40000 10204 20122 48547 70500 80002
                   333 10320 20168 59005 84080=
200909130600 AAXX 13064 67561 31958 11010 10220 20106 48533 70400 800001
                   333 10316 20145 59005 81080
                   555 00/// BB107 BB107 CC145 DD/// Q1021.1=
200909120600 AAXX 12064 67561 31958 00000 10146 20093 48516 70400
                   333 10//0 20//0 59005
                   555 00/// Q1019.5=
200909111200 AAXX 11124 67561 41770 41106 10300 20053 48513 70500 84200
                   333 59010 84856=
200909100900 AAXX 10094 67561 41975 01208 10270 20112 48542 70500
                   333 5////=
200909100600 AAXX 10064 67561 31970 00000 10195 20108 48537 70500
                   333 10325 20150 58003=
200909070900 AAXX 07094 67561 41760 20605 10277 20085 48551 70500 82100
                   333 59016 82850=
200909070600 AAXX 07064 67561 31960 20907 10215 20099 48536 70500 80001
                   333 10300 20161 59019 82080=
200909040600 AAXX 04064 67561 31957 01305 10179 20081 48554 70400
                   333 10299 20116 58001=
200909031200 AAXX 03124 67561 41960 00907 10293 20031 48531 70500
                   333 59009 555 91020=
200909030600 AAXX 03064 67561 31935 01007 10186 20077 48554 70400
                   333 10298 20127 59010=
200909011200 AAXX 01124 67561 41960 00000 10284 21012 48545 70500
                   333 58013=
200909010600 AAXX 01064 67561 31958 00000 10155 21001 48573 70400
                   333 10305 20090 58012=

################################################################################
#  SYNOPS from 67563, Kafironda (Zambia) | 12-36S | 028-07E | 1243 m
################################################################################
200909290600 AAXX 29064 67563 31970 00808 10244 20110 48/// 70500
                   333 10352 20136 58011=
200909250600 AAXX 25064 67563 31970 01204 10255 20110 48/// 70500 80001
                   333 10319 20183 59008 81080=
200909240600 AAXX 24064 67563 31970 03602 10222 20110 48/// 70500
                   333 10326 20092 58001=
200909220900 AAXX 22094 67563 41970 03005 10190 20100 48/// 70500
                   333 58001=
200909220600 AAXX 22064 67563 31970 00903 10230 20090 48/// 70500
                   333 10330 20104 59008=
200909150900 AAXX 15094 67563 41970 01504 10295 20100 48/// 70500
                   333 58001=
200909150600 AAXX 15064 67563 31970 01206 10235 20090 48/// 70500
                   333 10328 20084 59014=
200909100600 AAXX 10064 67563 31970 00903 10230 20010 48/// 70500
                   333 10320 20125 58010=
200909040600 AAXX 04064 67563 31970 01202 10170 20090 48/// 70500
                   333 10303 20060 58006=

################################################################################
#  SYNOPS from 67571, Serenje (Zambia) | 13-14S | 030-13E | 1384 m
################################################################################
200909300600 AAXX 30064 67571 11565 51206 10194 20136 48561 69904 70522 81108
                   333 10304 20164 58017 81823 85280=
200909290600 AAXX 29064 67571 31965 00906 10234 20091 48543 70500
                   333 10324 20175 58014=
200909250600 AAXX 25064 67571 31970 10607 10236 20110 48534 70500 80001
                   333 10319 20183 59008 81080=
200909240900 AAXX 2409/ 67571 41670 50302 10282 20105 48536 70-511 85100
                   333 59001 85835=
200909240600 AAXX 24064 67571 31970 00605 10239 20092 48544 70500
                   333 10315 20178 58004=
200909230900 AAXX 23094 67571 41670 10306 10292 20070 48536 70500 81100
                   333 59002 81830=
200909220900 AAXX 22094 67571 41970 00604 10275 20088 48536 70500
                   333 59007=
200909210900 AAXX 2109/ 67571 41960 01205 10255 20096 48545 70500
                   333 59001=
200909150600 AAXX 15064 67571 31975 00906 10220 20094 48535 70500
                   333 10300 20178 59013=
200909100600 AAXX 10064 67571 31975 00905 10215 20096 48542 70500
                   333 10303 20164 58010=
200909040600 AAXX 04064 67571 31975 00912 10198 20082 48561 70500
                   333 10274 20015 58006=

################################################################################
#  SYNOPS from 67575, Mkushi (Zambia) | 13-38S | 029-53E | 1237 m
################################################################################
200909300600 AAXX 30064 67575 31465 10907 10215 20139 48530 70500 81102
                   333 10310 20180 58014 81815 81080=
200909250600 AAXX 25064 67575 31965 10906 10239 20108 48490 70500 80002
                   333 10328 20167 59007 81080=
200909220600 AAXX 22064 67575 31965 00606 10232 20103 48492 70500
                   333 10299 20151 59016=

################################################################################
#  SYNOPS from 67580, Msekera (Zambia) | 13-39S | 032-34E | 1025 m
################################################################################
200909300600 AAXX 30064 67580 31570 60912 10220 20142 48/// 70522 81108
                   333 10314 20180 58018 81825 86280=
200909290600 AAXX 29064 67580 31965 71209 10250 20155 48/// 70522 87030
                   333 10336 20209 58018 87360=
200909250900 AAXX 25094 67580 41775 20908 10138 20131 48/// 70500 82100
                   333 59011 82856=
200909250600 AAXX 25064 67580 31975 00906 10270 20144 48/// 70500
                   333 10338 20203 59007=
200909240900 AAXX 2409/ 67580 41775 50608 10307 20124 48/// 70510 85100
                   333 58000 85856=
200909240600 AAXX 24064 67580 31975 11206 10275 20142 48/// 70500 80001
                   333 10330 20192 58000 81080=
200909230900 AAXX 23094 67580 41770 20909 10310 20123 48/// 70500 82100
                   333 58005 82856=
200909220600 AAXX 22064 67580 31975 01502 10254 20132 48/// 70500
                   333 10314 20153 59018=
200909210900 AAXX 2109/ 67580 41975 60307 10290 20104 48/// 70522 80008
                   333 58005 86280=
200909180900 AAXX 18094 67580 41975 00303 10318 20101 48/// 70500 33 58001=
200909170900 AAXX 17094 67580 41970 00906 10315 20096 48/// 70500
                   333 59004=
200909150900 AAXX 15094 67580 41970 00000 10300 20097 48/// 70500
                   333 59010=
200909150600 AAXX 15064 67580 31975 00905 10252 20113 48/// 70500
                   333 10325 20180 59008=
200909141200 AAXX 14124 67580 41875 51604 10312 20101 48/// 70500 85100
                   333 5//// 85857=
200909100600 AAXX 10064 67580 31970 00904 10252 20115 48/// 70500
                   333 10317 20190 58008=
200909070900 AAXX 07094 67580 41670 20912 10289 20106 485// 70500 82100
                   333 59022 82837=
200909040600 AAXX 04064 67580 31475 10911 10240 20090 48/// 70500 81100
                   333 10296 20157 58006 81818=
200909030900 AAXX 03094 67580 41682 30908 10275 20099 48/// 70500 83100
                   333 59007 83845=

################################################################################
#  SYNOPS from 67581, Chipata (Zambia) | 13-33S | 032-35E | 1028 m
################################################################################
200910010600 AAXX 01064 67581 31970 01410 10224 20137 48561 70500
                   333 10308 20171 59019=
200909300600 AAXX 30064 67581 NIL=
200909290600 AAXX 29064 67581 31965 31009 10265 20149 48569 70500 82032
                   333 10342 20225 58017 82360 81080=
200909280600 AAXX 28064 67581 31970 10805 10266 20101 48553 70500 81030
                   333 10341 20221 58005 81360=
200909251200 AAXX 25124 67581 41970 10606 10332 20122 48528 70500 81100
                   333 58000 81856=
200909250600 AAXX 25064 67581 31970 00610 10265 20125 48545 70500
                   333 10335 20216 59011=
200909241200 AAXX 24124 67581 41665 40901 10327 20133 48526 70511 83160
                   333 59005 83840 81360=
200909240600 AAXX 24064 67581 31965 00703 10276 20142 48557 70500
                   333 10335 20223 58000=
200909230600 AAXX 23064 67581 31965 00905 10270 20121 48555 70500
                   333 10337 20201 58004=
200909221200 AAXX 22124 67581 41870 10904 10331 20085 48527 70500 81100
                   333 59019 81858=
200909220900 AAXX 22094 67581 NIL=
200909220600 AAXX 22064 67581 32980 00806 10253 20112 48549
                   333 10320 20176 59015=
200909211200 AAXX 21124 67581 31965 01006 10241 20107 48560 70500
                   333 10300 20176 59003=
200909180900 AAXX 18094 67581 41970 00703 10315 20106 48539 70500
                   333 58004 Q1017.7=
200909180600 AAXX 18064 67581 31970 00709 10263 20102 48538 70500
                   333 10327 20227 58005=
200909170900 AAXX 17094 67581 41975 00604 10322 20103 48536 70500
                   333 59009 Q1017.2=
200909160900 AAXX 16094 67581 41970 01405 10305 20101 48542 70500
                   333 59008=
200909160600 AAXX 16064 67581 31975 00810 10260 20116 48539 70500
                   333 10339 20215 59018=
200909150900 AAXX 15094 67581 41975 00806 10290 20106 48548 70500
                   333 59010=
200909150600 AAXX 15064 67581 31980 00710 10252 20115 48554 70500
                   333 10327 20206 59005=
200909141200 AAXX 14124 67581 41665 30803 10312 20103 48532 70500 82160
                   333 59006 82845 81362=
200909140600 AAXX 14064 67581 31965 00606 10252 20113 48559 70500
                   333 10323 20193 59017=
200909111200 AAXX 11124 67581 41670 40804 10305 20111 48523 70500 82160
                   333 59016 82845 82361=
200909100600 AAXX 10064 67581 32980 00812 10250 20114 48565
                   333 10318 20212 58006=
200909070900 AAXX 07094 67581 41675 10312 10280 20106 48567 70500 81100
                   333 59020 81840=
200909070600 AAXX 07064 67581 31975 00815 10239 20101 48560 70500
                   333 10306 20169 59020=
200909040600 AAXX 04064 67581 31975 00615 10235 20089 48577 70500
                   333 10295 20172 58006=
200909030600 AAXX 03064 67581 32980 01002 10232 20111 48571
                   333 10292 20153 59011=
200909010600 AAXX 01064 67581 32980 01208 10203 20046 48573
                   333 10301 20151 58004=

################################################################################
#  SYNOPS from 67583, Lundazi (Zambia) | 12-17S | 033-12E | 1143 m
################################################################################
200909300600 AAXX 30064 67583 31570 11507 10220 20150 48/// 70500 81500
                   333 10334 20135 5//// 81625=
200909290600 AAXX 29064 67583 31970 01203 10246 20140 48/// 70500
                   333 10334 20165 5////=
200909250600 AAXX 25064 67583 32980 00603 10250 20147 48///
                   333 10326 20146 5////=
200909240600 AAXX 24064 67583 31975 01204 10250 20147 48/// 70500
                   333 10332 20165 5////=
200909220600 AAXX 22064 67583 32980 00903 10247 20109 48///
                   333 10307 20133 5///=
200909210900 AAXX 2109/ 67583 41675 61503 10283 20104 70500 81408
                   333 5//// 81840 86280=
200909150600 AAXX 15064 67583 31970 00301 10215 20135 48/// 70500
                   333 10335 20140 5////=
200909100600 AAXX 10064 67583 31975 01104 10225 20131 48/// 70500
                   333 10307 20150 5////=
200909040600 AAXX 04064 67583 31970 20904 10274 20126 48/// 70500 82030
                   333 10293 20143 5//// 82360=

################################################################################
#  SYNOPS from 67599, Mfuwe (Zambia) | 13-16S | 031-56E | 568 m
################################################################################
200909300600 AAXX 30064 67599 31956 01506 10258 20172 48589 70500
                   333 10372 20204 59019=
200909280600 AAXX 28064 67599 31957 40000 10283 20164 48557 70511 80001
                   333 10390 20190 59005 84080=
200909280000 AAXX 28004 67599 41957 20812 10355 20139 48561 70500 80002
                   333 59007 82080=
200909251500 AAXX 25154 67599 41958 21010 10355 20168 48523 70500 80001
                   333 59006 82080=
200909250900 AAXX 25094 67599 41758 11115 10353 20187 48522 70500
                   333 59010 81856 Q1015.7=
200909250600 AAXX 25064 67599 31970 31008 1028 20166 48551 70500
                   333 10390 20 214 59009 Q1017.8=
200909241500 AAXX 24154 67599 41958 30910 10360 20174 48531 70500 83030
                   333 59014 83360=
200909241200 AAXX 24124 67599 41858 41008 10380 20187 48541 70522 84200
                   333 59019 84858=
200909240600 AAXX 24064 67599 31956 00000 10272 20179 48485 70500
                   333 10380 20180 59010=
200909230900 AAXX 23094 67599 41957 01010 10350 20172 48585 70500
                   333 58016=
200909230600 AAXX 23064 67599 31950 00000 10270 20154 48565 70500
                   333 10379 20165 58011=
200909220900 AAXX 22094 67599 41957 00708 10335 20161 48561 70500
                   333 59018=
200909220600 AAXX 22064 67599 31957 01208 10260 20150 48551 70500
                   333 10360 20145 59015=
200909211500 AAXX 21154 67599 41958 20910 10342 20157 48535 70500 80001
                   333 59015 84180=
200909210600 AAXX 21064 67599 31956 40000 10237 20144 48558 70500 80001
                   333 10360 20155 59009 84080=
200909200600 AAXX 20064 67599 31959 01412 20265 20191 48537 70500
                   333 10393 20198 58042 Q1021.0=
200909181200 AAXX 18124 67599 41957 00000 10378 20162 48524 70500
                   333 59011=
200909180600 AAXX 18064 67599 31957 01108 10263 20148 70500
                   333 10390 20150 59011 Q1016.7=
200909170900 AAXX 17094 67599 41957 00907 10335 20161 48556 70500
                   333 58002 Q1016.6=
200909161500 AAXX 16154 67599 41957 00000 10350 20172 48507 70500
                   333 59012=
200909161200 AAXX 16124 67599 41957 01008 10362 20165 48524 70500
                   333 59012=
200909160900 AAXX 16094 67599 41957 02806 10328 20165 48550 70500
                   333 59009=
200909150600 AAXX 15064 67599 31958 01705 10235 20144 48546 70500
                   333 10365 20155 59021=
200909141200 AAXX 14124 67599 41857 20405 10350 20152 48557 70522 82100
                   333 58007 82858=
200909130600 AAXX 13064 67599 41958 01508 10248 20152 48569 70500
                   333 10365 20220 58021
                   555 00/// Q1022.0=
200909111500 AAXX 11154 67599 41958 40000 10340 20178 48523 70522 84030
                   333 59005 84360=
200909111200 AAXX 11124 67599 41958 50206 10330 20154 48541 70522 85030
                   333 59003 85360=
200909100900 AAXX 10094 67599 41775 11208 10320 20162 48577 70500 81100
                   333 58001 81850=
200909100600 AAXX 10064 67599 31958 01007 10262 20156 48569 70500
                   333 10376 20220 58008=
200909070900 AAXX 07094 67599 41658 10705 10154 48574 70500 81100
                   333 59025 81845=
200909070600 AAXX 07064 67599 31958 00000 10250 20145 48569 70500
                   333 10350 59016=
200909040600 AAXX 04064 67599 31957 10000 10240 20144 48605 70500 81100
                   333 10350 20/// 58010 81857=
200909030900 AAXX 03094 67599 41659 10607 10315 20122 48592 70500 81100
                   333 59012 81850=
200909011200 AAXX 01124 67599 41957 01505 10330 20071 48586 70500
                   333 58005=

################################################################################
#  SYNOPS from 67625, Kalabo (Zambia) | 14-51S | 022-42E | 1033 m
################################################################################
200909300600 AAXX 30064 67625 31970 11211 10232 20116 48/// 70500 81030
                   333 10320 20176 58021 81360=
200909290600 AAXX 29064 67625 31970 31210 10242 20101 48/// 70500 81031
                   333 10365 20183 59002 81360 83080=
200909250600 AAXX 25064 67625 31970 00807 10246 20104 48/// 70500
                   333 10370 20170 58001=
200909240600 AAXX 24064 67625 31975 03605 10203 20100 48/// 70500
                   333 10366 20148 58000=
200909220600 AAXX 22064 67625 31970 00810 10228 20128 48/// 70500
                   333 10337 20170 59008=
200909150600 AAXX 15064 67625 31975 20912 10228 20095 48/// 70500 80001
                   333 10360 20166 59004 82080=

################################################################################
#  SYNOPS from 67633, Mongu (Zambia) | 15-15S | 023-09E | 1052 m
################################################################################
200910010600 AAXX 01064 67633 11970 70000 10192 20167 48537 60094 70500 84032
                   333 10340 20183 58005 84360 87280=
200909300900 AAXX 30094 67633 41965 00912 10302 20139 48549 70500
                   333 58022=
200909300600 AAXX 30064 67633 31965 00000 10220 20166 48537 70500
                   333 10378 20185 58022=
200909290600 AAXX 29064 67633 31970 10907 10245 20085 48519 70500 80003
                   333 10374 20188 59010 81080=
200909280900 AAXX 28094 67633 41970 00904 10324 20103 48539 70500
                   333 59005=
200909250900 AAXX 25094 67633 41970 20910 10232 20105 48514 70500 80002
                   333 59013 82080 Q1016.1=
200909250600 AAXX 25064 67633 31970 33301 10245 20111 48518 70500 80002
                   333 10381 20170 59003 83080=
200909240600 AAXX 24064 67633 31970 00908 10252 20084 48523 70500
                   333 10375 20218 59006=
200909230900 AAXX 23094 67633 41970 00907 10330 20099 48533 70500
                   333 59011=
200909220900 AAXX 22094 67633 NIL=
200909220600 AAXX 22064 67633 31970 30906 10240 20114 48530 70500 83030
                   333 10350 20204 59010 83360=
200909211200 AAXX 21124 67633 31970 10903 10230 20120 48537 70500 81030
                   333 10350 20205 58024 81360=
200909210900 AAXX 2109/ 67633 41970 00606 10289 20120 48547 70500
                   333 58016=
200909180600 AAXX 18064 67633 31970 40909 10250 20138 48517 70500 80002
                   333 10375 20215 58010 84080=
200909150900 AAXX 15094 67633 41970 10904 10318 20083 48534 70500 80002
                   333 58021 81080=
200909150600 AAXX 15064 67633 31970 10908 10230 20072 48522 70500 80002
                   333 10369 20190 59021 81080=
200909141200 AAXX 14124 67633 41770 10903 10355 20077 48521 70500 81100
                   333 59010 81850=
200909100600 AAXX 10064 67633 31970 00905 10225 20071 48518 70500
                   333 10357 20177 58002=
200909071200 AAXX 07124 67633 41770 52704 10328 20073 48524 70522 85200
                   333 59019 85850=
200909070900 AAXX 0709/ 67633 41970 10904 10300 20086 48553 70500 81100
                   333 59021 81840=
200909070600 AAXX 07064 67633 31970 30904 10215 20091 48538 70511 83030
                   333 10328 20175 59022 83361=
200909040600 AAXX 04064 67633 31970 01006 10180 20040 48549 70500
                   333 10330 20145 58008=
200909030900 AAXX 03094 67633 41970 00908 10296 21043 48565 70500
                   333 59014=
200909030600 AAXX 03064 67633 31970 30908 10183 20017 48541 70500 80001
                   333 10330 20130 59012 83080=
200909010600 AAXX 01064 67633 31970 00904 10187 20005 48556 70500
                   333 10330 20142 58005=

################################################################################
#  SYNOPS from 67641, Kaoma (Zambia) | 14-48S | 024-48E | 1213 m
################################################################################
200910010600 AAXX 01064 67641 11975 70901 10209 20163 48534 60114 70522 87030
                   333 10340 20182 58001 87361=
200909300600 AAXX 30064 67641 31975 00301 10232 20145 48538 70500
                   333 10365 20205 58011=
200909250600 AAXX 25064 67641 31975 00801 10255 20128 48518 70500
                   333 10366 20158 59005=
200909240600 AAXX 24064 67641 31975 00801 10211 20102 48518 70500
                   333 10354 20147 58000=
200909220900 AAXX 22094 67641 NIL=
200909220600 AAXX 22064 67641 31975 00801 10203 20120 48514 70500
                   333 10332 20148 59024=
200909211200 AAXX 21124 67641 31975 03602 10221 20140 48540 70511
                   333 10336 20175 58023=
200909180600 AAXX 18064 67641 NIL=
200909150600 AAXX 15064 67641 NIL=
200909141200 AAXX 14124 67641 NIL=
200909140600 AAXX 14064 67641 NIL=
200909100600 AAXX 10064 67641 31975 00101 10170 20092 48521 70500
                   333 10344 20129 58006=
200909070600 AAXX 07064 67641 31975 00301 10158 20104 48526 70500
                   333 10318 20136 59018=
200909040600 AAXX 04064 67641 31975 00201 10157 20067 48538 70500
                   333 10319 20084 58004=
200909030600 AAXX 03064 67641 31975 00301 10152 20060 48534 70500
                   333 10320 20075 59012 59012=
200909010600 AAXX 01064 67641 NIL=

################################################################################
#  SYNOPS from 67655, Mumbwa (Zambia) | 15-04S | 027-11E | 1216 m
################################################################################
200909250600 AAXX 25064 67655 31960 30808 10238 20122 48538 70500 80008
                   333 10340 20185 59013 83177 Q1010.7=
200909230600 AAXX 23064 67655 31970 00706 10238 20113 48548 70500
                   333 10335 20172 59004=
200909220600 AAXX 22064 67655 31975 10908 10217 20112 48543 70500 80001
                   333 10317 20147 59015 81078=
200909160600 AAXX 16064 67655 31970 00810 10222 20085 48524 70500
                   333 10320 20150 59016=
200909150600 AAXX 15064 67655 31970 00807 10235 20100 48541 70500
                   333 10322 20150 59012=
200909111200 AAXX 11124 67655 41560 10910 10313 20075 48517 70500 81500
                   333 59008 81635=
200909070600 AAXX 07064 67655 31775 60610 10209 20116 48553 70522 86030
                   333 10294 20155 59023 86358=
200909040600 AAXX 04064 67655 32980 00906 10215 20140 48572
                   333 10296 20090 59002=

################################################################################
#  SYNOPS from 67662, Kabwe Agric (Zambia) | 14-24S | 028-30E | 1165 m
################################################################################
200909040600 AAXX 04064 67662 NIL=

################################################################################
#  SYNOPS from 67663, Kabwe (Zambia) | 14-27S | 028-28E | 1206 m
################################################################################
200910010600 AAXX 01064 67663 31960 10904 10198 20139 48537 70500 80002
                   333 10303 20152 59016 81080=
200909300600 AAXX 30064 67663 31960 11006 10210 20146 48553 70500 81030
                   333 10320 20175 58016 81360=
200909290600 AAXX 29064 67663 31960 00804 10241 20121 48541 70500
                   333 10345 20193 58013=
200909250600 AAXX 25064 67663 31960 10903 10236 20141 48535 70500 80002
                   333 10334 20176 59005 81080=
200909240600 AAXX 24064 67663 31960 00901 10231 20148 48539 70500
                   333 10333 20175 59001=
200909220900 AAXX 22094 67663 NIL=
200909220600 AAXX 22064 67663 31960 00902 10210 20134 48537 70500
                   333 10290 20158 59016=
200909211200 AAXX 21124 67663 31960 21404 10204 20143 48535 70500 80002
                   333 10295 20160 58003 82080=
200909180600 AAXX 18064 67663 31960 10303 10225 20112 48521 70500
                   333 10343 20183 58014 81360=
200909150600 AAXX 15064 67663 31960 00000 10183 20010 48528 70500
                   333 10300 20158 59019=
200909141200 AAXX 14124 67663 NIL=
200909140600 AAXX 14064 67663 31960 20903 10207 20132 48543 70500 80002
                   333 10314 20105 59009 82080=
200909100600 AAXX 10064 67663 31960 00902 10218 20100 48527 70500
                   333 10313 20180 58002=
200909070600 AAXX 07064 67663 31965 30802 10208 20118 48515 70500 83030
                   333 10288 20159 59020 83360=
200909040600 AAXX 04064 67663 31965 00904 10205 20071 48551 70500
                   333 10294 20148 58004=
200909030600 AAXX 03064 67663 31965 00906 10186 20074 48538 70500
                   333 10282 20120 59031=
200909010600 AAXX 01064 67663 31965 00902 10172 20003 48568 70500
                   333 10282 20109 58013=

################################################################################
#  SYNOPS from 67665, Lusaka Internationalairport (Zambia) | 15-19S | 028-27E | 1152 m
################################################################################
200910010600 AAXX 01064 67665 32370 10808 10186 20178 48560 81500
                   333 10280 20/// 59011 81709=
200910010400 AAXX 01044 67665 42980 11005 10151 20151 48545 81030
                   333 59016 81360=
200910010300 AAXX 01034 67665 42980 01005 10146 20146 48538
                   333 59019=
200910010000 AAXX 01004 67665 41970 01103 10164 20160 48560 70500
                   333 59015=
200909302100 AAXX 30214 67665 41970 00806 10178 20162 48553 70500
                   333 59005=
200909301800 AAXX 30184 67665 41980 00707 10210 20164 48550 70500
                   333 10280 58002=
200909301200 AAXX 30124 67665 41659 30511 10269 20170 48549 70522 83100
                   333 58013 83833 Q1021.4=
200909300900 AAXX 30094 67665 41558 30513 10242 20174 48575 70500 83500
                   333 58016 83621=
200909300600 AAXX 30064 67665 31959 00614 10201 20170 48573 70500
                   333 10304 20178 58012=
200909291800 AAXX 29184 67665 41959 00910 10223 20177 48549 70500
                   333 10304 58014 Q1022.1=
200909291500 AAXX 29154 67665 41959 10912 10279 20183 48535 70500 81100
                   333 58016 81855 Q1019.6=
200909291200 AAXX 29124 67665 41659 30610 10295 20091 48540 70500 83500
                   333 58019 83648 Q1019.9=
200909290900 AAXX 29094 67665 41659 20514 10276 20186 48564 70500 82500
                   333 58019 82640=
200909290600 AAXX 29064 67665 31959 10910 10229 20192 48565 70500 80001
                   333 10349 20175 58017 81080=
200909281800 AAXX 28184 67665 41959 11204 10244 20096 48532 70500 80001
                   333 10349 58002 81080=
200909281500 AAXX 28154 67665 41957 10712 10320 20119 48524 70500 59001 81080=
200909281200 AAXX 28124 67665 41959 00608 10337 20110 48526 70500
                   333 59005=
200909280900 AAXX 28094 67665 41958 20910 10312 20117 48549 70500 80002
                   333 59005 82080=
200909280600 AAXX 28064 67665 31958 20905 10231 20131 48549 70500 80002
                   333 10332 20160 59001 82080=
200909271200 AAXX 27124 67665 41959 60509 10321 20117 48529 70522 80008
                   333 58002 86080 Q1018.3=
200909270900 AAXX 27094 67665 41959 40310 10302 20146 48554 70500 80002
                   333 59006 84080=
200909270400 AAXX 27044 67665 41960 30804 10163 20138 48528 70500 80002
                   333 58012 83080=
200909270300 AAXX 27034 67665 41980 01003 10175 20142 48528 70500
                   333 58014=
200909261800 AAXX 26184 67665 42970 11004 10202 20137 48537 70500 80001
                   333 58006 81080 Q1021.1=
200909261200 AAXX 26124 67665 41959 00606 10317 20131 48525 70500
                   333 58006=
200909260900 AAXX 26094 67665 41959 00413 10290 20119 48548 70500
                   333 58002=
200909260600 AAXX 26064 67665 31959 00810 10230 20148 48538 70500
                   333 10332 20//0 59008=
200909260400 AAXX 26044 67665 41959 01105 10176 20144 48519 70500
                   333 59010 Q1019.2=
200909251800 AAXX 25184 67665 41959 00904 10239 20122 48524 70500
                   333 10332 59007=
200909251500 AAXX 25154 67665 41859 10208 10324 20134 48520 70500 81100
                   333 59008 81857=
200909251200 AAXX 25124 67665 41859 10208 10324 20134 48520 70500 81100
                   333 59008 81857=
200909250900 AAXX 25094 67665 41959 00109 10292 20163 48546 70500
                   333 59009 Q1020.7=
200909250600 AAXX 25064 67665 31960 00906 10216 20172 48545 70500
                   333 10326 20167 59011=
200909250400 AAXX 25044 67665 41960 01303 10173 20149 48528 70500
                   333 59010=
200909250300 AAXX 25034 67665 41960 01105 10170 20144 48521 70500
                   333 59009=
200909241800 AAXX 24184 67665 42980 00604 10231 20123 48529
                   333 103265 59006=
200909241500 AAXX 24154 67665 41959 10707 10316 20145 48523 70500 81100
                   333 59003 81858=
200909241200 AAXX 24124 67665 41759 30808 10308 20135 48527 70522 83100
                   333 59007 83850=
200909240600 AAXX 24064 67665 31959 00805 10207 20168 48554 70500
                   333 10320 20156 58001=
200909231500 AAXX 23154 67665 41970 20407 10303 20126 48545 70500 82100
                   333 58005 82850 Q1018.2=
200909231200 AAXX 23124 67665 41760 20707 10309 20124 48534 70500 82100
                   333 59007 82815 Q1019.1=
200909230900 AAXX 23094 67665 41959 00410 10287 20114 48560 70500
                   333 58003=
200909230600 AAXX 23064 67665 31959 00806 10212 20148 48553 70500
                   333 10325 20164 58006=
200909221200 AAXX 22124 67665 41759 41006 10314 20111 48531 70500 84100
                   333 59009 84850 Q1018.8=
200909220900 AAXX 22094 67665 41959 02006 10284 20152 48556 70500
                   333 59012=
200909220600 AAXX 22064 67665 31959 00804 10203 20147 48546 70500
                   333 10310 20144 59019=
200909211800 AAXX 21184 67665 41959 00903 10217 20135 48542 70500
                   333 10310 58000=
200909211500 AAXX 21154 67665 41959 00707 10294 200135 48530 70500
                   333 59005=
200909211200 AAXX 21124 67665 41959 10607 10294 20012 48538 70500 80001
                   333 58000 81080=
200909210900 AAXX 21094 67665 41959 00309 10261 20151 48565 70500
                   333 59001=
200909210600 AAXX 21064 67665 31959 00907 10197 20172 48564 70500 80001
                   333 10287 20150 58011 82080
                   555 00145 Q1024.1=
200909201200 AAXX 20124 67665 41659 10408 10276 20169 48535 70500 81100
                   333 58021 81842=
200909200900 AAXX 20094 67665 41659 20514 10243 20184 48563 70500 82100
                   333 58005 82825 Q1023.4=
200909200600 AAXX 20064 67665 31458 10614 10198 20184 48552 70521 81500
                   333 10347 20182 58008 81612
                   555 00156 Q1022.9=
200909200400 AAXX 20044 67665 41959 00710 10180 20180 48543 70500
                   333 58037 Q1022.0=
200909192100 AAXX 19214 67665 42970 00805 10204 20087 48536
                   333 58021 Q1020.9=
200909191200 AAXX 19124 67665 41958 00706 10340 20103 48523 70500
                   333 58009=
200909190900 AAXX 19094 67665 41958 10309 N10309 20092 48550 70500 80001
                   333 58005 81080 Q1020.6=
200909190600 AAXX 19064 67665 31958 21003 10236 20109 48533 70500 80002
                   333 10344 20162 58007 82080
                   555 00155 Q1020.1=
200909190400 AAXX 19044 67665 41959 01304 10157 20104 48505 70500 59002=
200909190300 AAXX 19034 67665 41958 01504 10169 20096 48498 70500
                   333 59008=
200909190000 AAXX 19004 67665 41957 01503 10191 20094 48499 70500
                   333 59008=
200909182100 AAXX 18214 67665 41956 01504 10193 20105 48515 70500
                   333 59002=
200909181800 AAXX 18184 67665 41957 01102 10252 20099 48510 70500
                   333 10344 58002=
200909181500 AAXX 18154 67665 41958 60703 10323 20110 48501 70500 80002
                   333 58002 86280=
200909181200 AAXX 18124 67665 41958 00204 10330 20099 48513 70500
                   333 58001=
200909180900 AAXX 18094 67665 41957 23105 10296 20094 48539 70500
                   333 59004 82080 Q1020.0=
200909180600 AAXX 18064 67665 31956 21003 10200 20109 48523 70500 80002
                   333 10340 20169 58003 82080=
200909171800 AAXX 17184 67665 41958 00503 10245 20110 48508 70500
                   333 10340 59001=
200909171500 AAXX 17154 67665 41958 00204 10321 20095 48499 70500
                   333 59005=
200909171200 AAXX 17124 67665 41958 00205 10329 20096 48512 70500
                   333 59004=
200909170900 AAXX 17094 67665 4441958 00409 10301 20089 48530 70500
                   333 59006 Q1019.3=
200909170600 AAXX 17064 67665 31959 01005 10231 20079 48529 70500
                   333 10334 20173 59002
                   555 00140 Q1019.7=
200909161800 AAXX 16184 67665 41958 01004 10233 20115 48507 70500
                   333 10334 59025=
200909161500 AAXX 16154 67665 41958 13602 10316 20086 48504 70500 81030
                   333 59010 81360=
200909161200 AAXX 16124 67665 41858 10605 10322 20096 48514 70500 81100
                   333 59012 81857=
200909160900 AAXX 16094 67665 41958 00909 10290 20120 48540 70500
                   333 59012 Q1020.0=
200909160600 AAXX 16064 67665 31957 00906 10210 20084 48538 70500
                   333 10317 20150 59010
                   555 00145 Q1020.9=
200909150900 AAXX 15094 67665 41958 00407 10282 20113 48551 70500
                   333 59014=
200909150600 AAXX 15064 67665 31959 01005 10216 20115 48549 70500
                   333 10314 20146 59012=
200909150400 AAXX 15044 67665 41959 01204 10155 20102 48530 70500
                   333 59011=
200909150300 AAXX 15034 67665 42980 01204 10153 20099 48521
                   333 59015=
200909150000 AAXX 15004 67665 42980 01603 10163 20078 48524
                   333 59014=
200909142100 AAXX 14214 67665 42980 00602 10171 20085 48535
                   333 59012=
200909141200 AAXX 14124 67665 41770 10808 10300 20123 48537 70500 81100
                   333 59007 81850=
200909140600 AAXX 14064 67665 31970 20904 10168 20168 48555 70500 80001
                   333 10313 20142 59010 82080=
200909140400 AAXX 14044 67665 41975 00805 10138 20138 48539 70500
                   333 59013 Q1022.1=
200909131800 AAXX 13184 67665 42975 31001 10215 20163 48547 70500 80001
                   333 59001 83080 Q1022.0=
200909131200 AAXX 13124 67665 41959 21004 10299 20136 48541 70500 82030
                   333 59002 82362=
200909130600 AAXX 13064 67665 42980 00806 10179 20122 48566
                   333 10309 20137 58012
                   555 00105 Q1024.5=
200909130400 AAXX 13044 67665 42980 01004 10140 20122 48551
                   333 58020=
200909130300 AAXX 13034 67665 42980 00903 10145 20128 48546
                   333 58021=
200909122100 AAXX 12214 67665 41970 01204 10176 20120 48556 70500
                   333 58020=
200909121800 AAXX 12184 67665 42980 01205 10203 20127 48541
                   333 10309 58020=
200909121500 AAXX 12154 67665 41970 10812 10287 20114 48538 70500 81002
                   333 58015 81080 Q1019.8=
200909121200 AAXX 12124 67665 41960 00610 10296 20139 48546 70500
                   333 58016 Q1020.6=
200909120900 AAXX 12094 67665 41959 40711 10258 20158 48571 70500 80002
                   333 59020 84080 Q1023.9=
200909120600 AAXX 12064 67665 31959 51008 10201 20116 48551 70500 80002
                   333 10316 20150 59003 85080
                   555 00106 Q1023.1=
200909111800 AAXX 11184 67665 41959 01104 10219 20085 48530 70500
                   333 10316 59008=
200909111500 AAXX 11154 67665 41958 00811 10293 20045 48523 70500
                   333 59011=
200909111200 AAXX 11124 67665 41760 10913 10303 20105 48530 81100
                   333 59014 81850=
200909110900 AAXX 11094 67665 41970 00307 10268 20141 48552 70500
                   333 59016 Q1021.7=
200909110600 AAXX 11064 67665 31970 00907 10192 20134 48545 70500
                   333 10306 20144 59013
                   555 00129 Q1022.0=
200909101200 AAXX 10124 67665 41758 20907 10294 20114 48543 70511 82100
                   333 58007 82850 555 Q1020.3=
200909100900 AAXX 10094 67665 41958 00413 10274 20129 48568 70500
                   333 58009=
200909100600 AAXX 10064 67665 31958 00906 10210 20106 48560 70500
                   333 10313 20149 58010=
200909091800 AAXX 09184 67665 41980 31103 10223 20112 48540 70500 83030
                   333 58003 83360=
200909091500 AAXX 09154 67665 41980 20604 10289 20105 48534 70500 82030
                   333 58007 82360=
200909091200 AAXX 09124 67665 41675 41103 10289 20085 48536 70522 84200
                   333 58004 84840=
200909090900 AAXX 09094 67665 41970 00411 10282 20126 48560 70500
                   333 58003 Q1022.5=
200909090600 AAXX 09064 67665 31960 01103 10216 20104 48551 70500
                   333 10311 20161 58003
                   555 00130 Q1022.4=
200909090400 AAXX 09044 67665 41970 51403 10161 20099 48535 70500 85030
                   333 58006 85360=
200909090300 AAXX 09034 67665 42970 41003 10158 20104 48537 70500 84030
                   333 58005 84360=
200909090000 AAXX 09004 67665 42970 10402 10161 20079 48530 81030
                   333 59012 81360=
200909071200 AAXX 07124 67665 41770 40306 10275 20119 48535 70522 84230
                   333 59022 84856 82358=
200909070900 AAXX 07094 67665 41670 20309 10256 20136 48573 70521 81130
                   333 59017 81830 82360=
200909070600 AAXX 07064 67665 31970 21004 10188 20132 48554 70500 82030
                   333 10288 20156 59019 82360=
200909070400 AAXX 07044 67665 42980 11404 10151 20121 48539 81030
                   333 59021 81360=
200909070300 AAXX 07034 67665 42980 11503 10157 20123 48540 81030
                   333 59015 81360=
200909070000 AAXX 07004 67665 42980 41403 10159 20121 48545 84030
                   333 59011 84360=
200909062100 AAXX 06214 67665 42980 11204 10176 20125 48558 81030
                   333 59011 81360=
200909040900 AAXX 04094 67665 41570 20309 10262 20109 48587 70500 82100
                   333 58009 82825=
200909040600 AAXX 04064 67665 31980 01014 10193 20105 48573 70500
                   333 10290 20127 58004=
200909031200 AAXX 03124 67665 41970 00606 10271 20089 48554 70500
                   333 59008 Q1021.9=
200909030900 AAXX 03094 67665 41975 00309 10247 20090 48577 70500
                   333 59012=
200909030600 AAXX 03064 67665 31975 00805 10171 20080 48566 70500
                   333 10284 20082 59015=
200909030400 AAXX 03044 67665 41970 01505 10111 20051 48548 70500
                   333 59014=
200909030300 AAXX 03034 67665 41970 01403 10099 20034 48551 70500
                   333 59013=
200909030000 AAXX 03004 67665 41970 01403 10106 20045 48544 70500
                   333 59013=
200909022100 AAXX 02214 67665 41980 01304 10140 20036 48562 70500
                   333 59001=
200909021200 AAXX 02124 67665 41970 00707 10273 20059 48562 70500
                   333 59013=
200909020900 AAXX 02094 67665 41970 00811 10246 20076 48589 70500
                   333 59006=
200909020600 AAXX 02064 67665 31970 01203 10166 20049 48580 70500
                   333 10287 20078 59007=
200909020400 AAXX 02044 67665 41975 01304 10070 20036 48556
                   333 59001 Q1025.3=
200909020300 AAXX 02034 67665 42980 01603 10092 20025 48551
                   333 59001 Q1024.5=
200909011800 AAXX 01184 67665 42980 01005 10170 21025 48571 70500
                   333 10289 58013=
200909011500 AAXX 01154 67665 42980 00713 10261 21023 48570
                   333 58009=
200909011200 AAXX 01124 67665 41970 00813 10279 21002 48576 70500
                   333 58012=
200909010600 AAXX 01064 67665 31970 00704 10166 20033 48585 70500
                   333 10285 20100 58012=

################################################################################
#  SYNOPS from 67666, Lusaka City Airport (Zambia) | 15-25S | 028-19E | 1280 m
################################################################################
200909300600 AAXX 30064 67666 31970 00915 10194 20152 48564 70500
                   333 10290 20165 58013=
200909290600 AAXX 29064 67666 31972 01008 10225 10172 48554 70500
                   333 10336 20200 59004=
200909280600 AAXX 28064 67666 31970 20910 10245 20150 48541 70500 80001
                   333 10325 20200 59002 82080=
200909280000 AAXX 2800/ 67666 41975 20912 10305 20160 48590 70500 80001
                   333 59006 82080=
200909250900 AAXX 25094 67666 41979 01911 10280 20186 48535 70500
                   333 59008 Q1020.0=
200909250600 AAXX 25064 67666 31970 01010 10224 20185 48538 70500
                   333 10316 20190 59009 Q1020.9=
200909240900 AAXX 2409/ 67666 41978 00408 10275 20164 48543 70500
                   333 59004 Q1020.9=
200909240600 AAXX 24064 67666 31975 00908 10220 20157 48/// 70500
                   333 10310 20186 58001=
200909230900 AAXX 23094 67666 41975 00909 10275 20150 48547 70500
                   333 59001=
200909230600 AAXX 23064 67666 31970 00912 10227 20144 48547 70500
                   333 10318 20195 58004=
200909221200 AAXX 22124 67666 41670 40903 10300 20133 48522 70500 82101
                   333 59008 82835 83080=
200909220900 AAXX 22094 67666 41979 00906 10270 20144 48547 70500
                   333 59010=
200909220600 AAXX 22064 67666 31975 00913 10215 20129 48541 70500
                   333 10299 20168 59018=
200909210600 AAXX 21064 67666 31978 10914 10190 20134 48557 70500 80001
                   333 10275 20185 58014 81080=
200909200600 AAXX 20064 67666 31570 10913 10198 20153 48544 70500 81100
                   333 10337 20168 59019 81820
                   555 00/// Q1021.8=
200909180900 AAXX 18094 67666 41975 11903 10283 20135 48527 70500 80001
                   333 58005 81080 Q1019.1=
200909180600 AAXX 18064 67666 31959 00901 10240 20103 48529 70500
                   333 10325 20205 58006 Q1019.8=
200909170900 AAXX 17094 67666 41975 00810 10290 20150 48525 70500
                   333 59006 Q1018.5=
200909160600 AAXX 16064 67666 31970 00912 10216 20134 48530 70500
                   333 10306 20175 59018=
200909150600 AAXX 15064 67666 31970 00906 10216 20132 48547 70500
                   333 10303 20170 59006=
200909111200 AAXX 11124 67666 42780 11211 10300 20144 48521 81100
                   333 59012 81856=
200909100600 AAXX 10064 67666 31970 00910 10218 20116 48554 70500
                   333 10299 20185 58009=
200909070900 AAXX 07094 67666 42680 20910 10250 20127 48558 81130
                   333 59011 81830 82360=
200909070600 AAXX 07064 67666 31970 30906 10205 20120 48540 70500 83030
                   333 10275 20154 58022 83361=
200909040600 AAXX 04064 67666 31975 00907 10200 20094 48567 70500
                   333 10281 20120 58008=
200909030900 AAXX 03094 67666 42980 00910 10236 20098 48563
                   333 59012=
200909011200 AAXX 01124 67666 42980 00912 10266 20034 48562
                   333 58018=

################################################################################
#  SYNOPS from 67667, Mount Makulu (Zambia) | 15-33S | 028-15E | 1213 m
################################################################################
200909300600 AAXX 30064 67667 31970 21212 10210 20137 48/// 70500 80001
                   333 10310 20174 5//// 82080=
200909250600 AAXX 25064 67667 31970 00904 10245 20130 48/// 70500
                   333 10330 20190 5////=
200909240600 AAXX 24064 67667 31970 00905 10237 20141 48/// 70500
                   333 10325 20195 5////=
200909150600 AAXX 15064 67667 31970 00901 10230 20122 48/// 70500
                   333 10325 20170 5////=
200909111200 AAXX 11124 67667 41670 41504 10310 20063 48534 70500 84100
                   333 59013 84840=
200909040600 AAXX 04064 67667 NIL=

################################################################################
#  SYNOPS from 67673, Petauke (Zambia) | 14-15S | 031-17E | 1035 m
################################################################################
200909300600 AAXX 30064 67673 31560 61409 10221 20150 48587 70510 86500
                   333 10310 20174 58018 86620=
200909290600 AAXX 29064 67673 31960 61507 10233 20171 48573 70522 86030
                   333 10350 20215 58016 86362=
200909280000 AAXX 2800/ 67673 41970 10506 10317 20078 47564 70500 80001
                   333 59002 81080=
200909250600 AAXX 25064 67673 31965 01205 10266 20140 48551 70500
                   333 10344 20203 59018=
200909240600 AAXX 24064 67673 31970 00903 10250 20147 48566 70500
                   333 10334 20193 58000=
200909230900 AAXX 23094 67673 41670 10905 10297 20125 48574 70500 81100
                   333 58013 81830=
200909220900 AAXX 22094 67673 41970 03605 10298 20085 48561 70500
                   333 59011=
200909220600 AAXX 22064 67673 31970 00805 10260 20122 48554 70500
                   333 10316 20189 59020=
200909210900 AAXX 2109/ 67673 41970 00907 1-285 2--94 48569 70500
                   333 59013=
200909150900 AAXX 15094 67673 41970 03603 10296 20080 48562 70500
                   333 59003=
200909150600 AAXX 15064 67673 31970 00504 10253 20095 48564 70500
                   333 10322 20188 59006=
200909100600 AAXX 10064 67673 31970 01406 10247 20108 48569 70500
                   333 10329 20182 58009=
200909040600 AAXX 04064 67673 31970 10905 10244 20106 48591 70500 81030
                   333 10305 20185 58007 81360=
200909030900 AAXX 03094 67673 41670 23605 10275 20073 48585 70500 82100
                   333 59003 82832=

################################################################################
#  SYNOPS from 67731, Senanga (Zambia) | 16-06S | 023-16E | 1027 m
################################################################################
200909300600 AAXX 30064 67731 31975 00701 10238 20163 48/// 70500
                   333 10375 20180 5////=
200909250600 AAXX 25064 67731 31970 01002 10251 20136 48/// 70500
                   333 10365 20185 5////=
200909220600 AAXX 22064 67731 31970 00902 10231 20171 48/// 70500
                   333 10359 20179 5////=
200909150600 AAXX 15064 67731 32980 40902 10270 20090 48/// 80008
                   333 10350 20200 5//// 84080=
200909040600 AAXX 04064 67731 31978 00902 10219 20071 48/// 70500
                   333 10321 20149 5////=

################################################################################
#  SYNOPS from 67741, Sesheke (Zambia) | 17-28S | 024-18E | 949 m
################################################################################
200909300600 AAXX 30064 67741 12980 70907 10279 20163 48559 60264 87070
                   333 10345 20185 58019 87362=
200909240600 AAXX 24064 67741 31970 10404 10255 20104 48529 70500 81032
                   333 10368 20129 59002 81363 81080=
200909150600 AAXX 15064 67741 31970 20903 10230 20095 48537 70500 80002
                   333 10350 20103 59013 82080=

################################################################################
#  SYNOPS from 67743, Livingstone (Zambia) | 17-49S | 025-49E | 985 m
################################################################################
200910010600 AAXX 01064 67743 31970 30609 10238 20142 48555 70521 83030
                   333 10310 20198 59018 83360=
200909300600 AAXX 30064 67743 31670 61010 10213 20138 48566 70500 82270
                   333 10325 20209 58016 82835 85360=
200909290600 AAXX 29064 67743 31970 01009 10240 20167 48557 70500
                   333 10360 20220 58014=
200909281200 AAXX 28124 67743 41965 21008 10345 20111 48529 70500 80001
                   333 58001 82080=
200909280900 AAXX 28094 67743 41965 20908 10310 20125 48554 70500 80001
                   333 59001 83080=
200909280600 AAXX 28064 67743 31965 01306 10246 20132 48545 70500
                   333 10355 20210 590004=
200909251200 AAXX 25124 67743 41959 31505 10315 20146 48521 70522 83030
                   333 58014 83360=
200909250600 AAXX 25064 67743 11959 71803 10239 20124 48531 69904 70521 87070
                   333 10270 20231 59004 87360=
200909241200 AAXX 24124 67743 41959 42904 10360 20099 48516 70500 84200
                   333 59007 84857=
200909240600 AAXX 24064 67743 31959 00905 10240 20114 48535 70500
                   333 10363 20190 59009=
200909230900 AAXX 23094 67743 41959 00510 10315 20124 48547 70500
                   333 59003=
200909220900 AAXX 22094 67743 NIL=
200909220600 AAXX 22064 67743 31970 30804 10228 20131 48544 70500 80002
                   333 10348 20174 59011 83080=
200909211500 AAXX 21154 67743 41970 41607 10331 20115 48524 70500 82101
                   333 59004 82857 82080=
200909211200 AAXX 21124 67743 41970 10906 10338 20118 48534 70500 80002
                   333 59005 82080=
200909210600 AAXX 21064 67743 31970 01604 10201 20155 48549 70500
                   333 10315 20177 58006=
200909180600 AAXX 18064 67743 31970 40000 10240 20108 48516 70500 80002
                   333 10374 20200 58006 84080=
200909170900 AAXX 17094 67743 41958 03408 10326 20060 48526 70500
                   333 59011 Q1016.5=
200909161500 AAXX 16154 67743 41975 00908 10345 20056 48489 70500
                   333 58021=
200909161200 AAXX 16124 67743 41970 20709 10350 20032 48510 70500 80001
                   333 59014 82080=
200909160900 AAXX 16094 67743 41965 00710 10330 20024 48538 70500
                   333 59018=
200909160600 AAXX 16064 67743 31965 00906 10225 20042 48513 70500
                   333 10355 20145 59027=
200909150900 AAXX 15094 67743 41959 00507 10314 20047 48552 70500
                   333 59012=
200909150600 AAXX 15064 67743 31959 11004 10214 20080 48537 70500 80001
                   333 10350 20154 59011 81080=
200909141200 AAXX 14124 67743 41970 60506 10331 20065 48534 70500 80004
                   333 59005 86080=
200909140600 AAXX 14064 67743 31970 01103 10222 20113 48549 70500
                   333 10350 20166 59004=
200909111200 AAXX 11124 67743 41959 00906 10340 20068 48522 70500
                   333 59018=
200909100900 AAXX 10094 67743 41970 00511 10306 20091 48568 70500
                   333 58018=
200909100600 AAXX 10064 67743 31970 10808 10235 20060 48556 70500 83030
                   333 10354 20175 58014 83360=
200909070600 AAXX 07064 67743 31970 00806 10203 20067 48549 70500
                   333 10320 20149 59025=
200909040600 AAXX 04064 67743 31970 00906 10143 20034 48555 70500
                   333 10322 20069 58001=
200909030900 AAXX 03094 67743 41970 00710 10275 20069 48579
                   333 59013=
200909030600 AAXX 03064 67743 31965 01302 10155 20041 48553 70500
                   333 10320 20120 59017=
200909011500 AAXX 01154 67743 42980 00714 10302 21010 48572
                   333 58011=
200909010600 AAXX 01064 67743 31975 00803 10165 20031 48575 70500
                   333 10320 20115 58007=

################################################################################
#  SYNOPS from 67751, Magoye (Zambia) | 16-00S | 027-36E | 1018 m
################################################################################
200909040600 AAXX 04064 67751 NIL=

################################################################################
#  SYNOPS from 67753, Choma (Zambia) | 16-50S | 027-04E | 1213 m
################################################################################
200910010600 AAXX 01064 67753 31958 70915 10199 20127 48/// 70522 80008
                   333 10271 20168 5//// 87280=
200909300600 AAXX 30064 67753 31458 50925 10194 20153 48/// 70521 85500
                   333 10289 20175 5//// 85612=
200909250600 AAXX 25064 67753 31960 10907 10219 20128 48/// 70500 81030
                   333 10331 20162 5//// 81360=
200909240600 AAXX 24064 67753 31960 03605 10226 20117 48/// 70500
                   333 10321 20166 5////=
200909230600 AAXX 23064 67753 31960 00907 10221 20126 48/// 70500
                   333 10324 20128 58///=
200909220900 AAXX 22094 67753 NIL=
200909220600 AAXX 22064 67753 31960 06004 10229 20137 48/// 70500
                   333 10311 20121 5////=
200909211200 AAXX 21124 67753 NIL=
200909180600 AAXX 18064 67753 31960 03108 10229 20099 48/// 70500
                   333 10339 20177 5////=
200909150600 AAXX 15064 67753 NIL=
200909141200 AAXX 14124 67753 NIL=
200909140600 AAXX 14064 67753 31960 71003 10175 20132 48/// 70522 80008
                   333 10311 20119 5//// 87280=
200909100600 AAXX 10064 67753 31960 00912 10219 20104 48/// 70500
                   333 10301 20154 5////=
200909070600 AAXX 07064 67753 31960 30905 10195 20071 48/// 70500 83030
                   333 10286 20118 5//// 83360=
200909040600 AAXX 04064 67753 NIL=
200909030600 AAXX 03064 67753 NIL=
200909010600 AAXX 01064 67753 NIL=

################################################################################
#  SYNOPS from 67855, Lupaki (Zambia) | 17-03-00S | 024-46-00E | 1000 m
################################################################################
200909280600 AAXX 28064 67855 31965 71701 10238 20129 38/// 48/// 70522 80002
                   333 20150 5//// 87080=
200909160600 AAXX 16064 67855 31970 00000 10178 20037 3//// 48/// 70500
                   333 20099 5////=
