################################################################################
# Query made at 04/15/2022 01:55:43 UTC
# Country like Zamb*
# Time interval: from 10/01/2010 05:30  to 10/31/2010 06:30  UTC
################################################################################

################################################################################
#  SYNOPS from 67413, Mbala (Zambia) | 08-51S | 031-20E | 1673 m
################################################################################
201010180600 AAXX 18064 67413 31970 21012 10220 20110 48530 70500 81031
                   333 10300 20155 59005 81360 82080=
201010010900 AAXX 01094 67413 41670 31204 10255 20076 48530 70500 83100
                   333 5//// 83840=

################################################################################
#  SYNOPS from 67441, Mwinilunga (Zambia) | 11-45S | 024-26E | 1361 m
################################################################################
201010280600 AAXX 28064 67441 31965 700// 10200 20157 48537 70522 80008
                   333 10332 20//0 58000 87280=
201010270600 AAXX 27064 67441 11970 700// 10183 20168 48537 69954 70522 8703/
                   333 10305 20//0 59003 87360=
201010260600 AAXX 26064 67441 11970 70000 10200 20171 48545 69904 70522 8703/
                   333 10310 20//0 58009 87360=
201010190600 AAXX 19064 67441 31970 100// 10220 20184 48538 70500 80001
                   333 10345 20//0 59019 81080=
201010181200 AAXX 18124 67441 41670 209// 10309 20096 48519 70500 82100
                   333 5//// 82840=
201010180600 AAXX 18064 67441 11970 600// 10200 20177 48549 60024 70522 86080
                   333 10327 20/// 58009 86360=
201010150600 AAXX 15064 67441 31970 030// 10205 20157 48546 70500
                   333 10290 20//0 58001=
201010141200 AAXX 14124 67441 41675 736// 10235 20138 48510 71799 81933
                   333 59002 81930 85835 83360 81080=
201010140900 AAXX 14094 67441 41657 100// 10275 20177 48534 70500 81100
                   333 59012 81830=
201010130600 AAXX 13064 67441 11970 00000 10187 20160 48546 60114 70500
                   333 10340 20//0 58008
                   555 00/// 20990=
201010121200 AAXX 12124 67441 41670 400// 10338 20147 48475 70500 84100
                   333 59018=
201010111200 AAXX 11124 67441 41670 536// 10322 20142 48516 71792 81933
                   333 5//// 81930 84835 81362 81080=
201010110900 AAXX 11094 67441 41665 127// 10281 20175 48537 70500 81100
                   333 81835=
201010110600 AAXX 11064 67441 11960 00000 10190 20158 48539 60044 70500
                   333 10326 20/// 59008=
201010081200 AAXX 08124 67441 41965 015// 10330 20070 48533 70500
                   333 58002=
201010080900 AAXX 08094 67441 41965 015// 10295 20049 48535 70700
                   333 5////=
201010060600 AAXX 06064 67441 31956 10170 20115 48562 70522 85030
                   333 58016 85360=
201010050600 AAXX 05064 67441 31960 00/// 10187 20077 48546 70500
                   333 10352 20/// 58005=
201010041200 AAXX 04124 67441 41670 100// 10345 20055 48515 70500 81100
                   333 5//// 81840=
201010040600 AAXX 04064 67441 31960 00000 10206 20088 48547 70500
                   333 10340 20/// 58002=
201010010600 AAXX 01064 67441 31965 000// 10190 20091 48547 70500
                   333 20//0 59012=

################################################################################
#  SYNOPS from 67461, Mansa (Zambia) | 11-06S | 028-51E | 1382 m
################################################################################
201010300600 AAXX 30064 67461 31965 00904 10240 20145 48517 70500
                   333 10345 20162 58006
                   555 00/// 20000 91018=
201010270600 AAXX 27064 67461 31970 31105 10254 20135 48518 70500 80001
                   333 10350 20155 58010 83080=
201010261200 AAXX 26124 67461 41765 40504 10333 20127 48476 70500 84200
                   333 58023 84857=
201010260600 AAXX 26064 67461 31965 23603 10246 20183 48506 70500 80001
                   333 70335 82080=
201010210600 AAXX 21064 67461 31965 61204 10250 20116 48514 70522 80008
                   333 10334 20170 59008 86280=
201010190600 AAXX 19064 67461 32965 30903 10205 20128 48520 70510 81031
                   333 10330 20166 58009 81364 83080=
201010180600 AAXX 18064 67461 31965 20906 10235 20116 48519 70522 80001
                   333 10335 20152 58020 82080=
201010150900 AAXX 15094 67461 41765 13603 10304 20159 48504 70500 81100
                   333 59008 81857=
201010150600 AAXX 15064 67461 31965 00902 10244 20141 48501 70500
                   333 10345 20158 59003=
201010140900 AAXX 14094 67461 41965 01706 10305 20015 48512 70500
                   333 59007 91017=
201010121200 AAXX 12124 67461 41680 40000 10339 20116 48485 70522 84201
                   333 59003 84858 82080=
201010110900 AAXX 11094 67461 41965 10000 10313 20134 48507 70500 81100
                   333 59011 81856=
201010081200 AAXX 08124 67461 41970 00915 10318 20020 48517 70500
                   333 59006=
201010070900 AAXX 07094 67461 41965 11013 10294 20041 48547 70500 80001
                   333 58006 81080 91020=
201010051200 AAXX 05124 67461 41665 10806 10318 20088 48502 70500 81100
                   333 58012 81856=
201010050600 AAXX 05064 67461 31965 00904 10236 20084 48530 70500
                   333 10345 20148 58013=
201010040600 AAXX 04064 67461 31965 00902 10240 20080 48517 70500
                   333 10336 20140 59003=
201010010900 AAXX 01094 67461 41965 00910 10275 20064 48526 70500
                   333 59010=
201010010600 AAXX 01064 67461 31965 00906 10216 20102 48582 70500=

################################################################################
#  SYNOPS from 67475, Kasama (Zambia) | 10-13S | 031-08E | 1382 m
################################################################################
201010270600 AAXX 27064 67475 31975 00914 10261 20099 48527 70500
                   333 10349 20162 58020=
201010260900 AAXX 26094 67475 11806 10311 20062 48502 70500 81100
                   333 58000 81858=
201010191200 AAXX 19124 67475 41970 51214 10315 20056 48477 70522 85100
                   333 59017 85859=
201010180600 AAXX 18064 67475 31970 60912 10249 20130 48526 70522 80002
                   333 10335 20176 59013 86080=
201010150900 AAXX 15094 67475 41870 13607 10308 20136 48505 70500 81100
                   333 59005 81856=
201010140900 AAXX 14094 67475 41970 00506 10298 20084 48509 70500
                   333 5//// 91018=
201010121200 AAXX 12124 67475 41970 41812 10335 20010 48478 70500 84100
                   333 59004 84849=
201010111200 AAXX 11124 67475 41970 51306 10330 20063 48481 70522 85100
                   333 59006 81849=
201010110900 AAXX 11094 67475 41870 10805 10307 20122 48509 70500 81100
                   333 59009 81857=
201010110600 AAXX 11064 67475 31970 01204 10248 20086 48511 70500
                   333 10331 20156 59006=
201010081200 AAXX 08124 67475 41975 11809 10315 20013 48509 70500
                   333 81100 59007 81859=
201010080900 AAXX 08094 67475 41975 01106 10287 20075 48544 70700
                   333 59002=
201010051200 AAXX 05124 67475 31965 11108 10306 20052 48503 70500 81100
                   333 58008 81959=
201010050600 AAXX 05064 67475 31970 01310 10246 20086 48522
                   333 10330 20146 58010=
201010041200 AAXX 04124 67475 41970 01208 10316 20001 48494 70500
                   333 59003=
201010010900 AAXX 01094 67475 41870 11214 10267 20046 48567 70500 81100
                   333 59008 81858=

################################################################################
#  SYNOPS from 67477, Mpika (Zambia) | 11-54S | 031-26E | 1400 m
################################################################################
201010280600 AAXX 28064 67477 31770 10908 10254 20101 48515 81100
                   333 10320 20163 59005 81857=
201010260600 AAXX 26064 67477 31970 00903 10265 20086 48503 70500
                   333 10330 20167 58003=
201010180600 AAXX 18064 67477 31675 51003 10220 20137 48532 70522 81101
                   333 10311 20154 58001 81832 85080=
201010150600 AAXX 15064 67477 31940 00000 10245 20101 48516 70500
                   333 10325 20188 59002=
201010140900 AAXX 14094 67477 41965 00908 10296 20017 48505 70500
                   333 5////=
201010130600 AAXX 13064 67477 31956 01004 10256 20085 48585 70500
                   333 10344 20166 58008
                   555 00124=
201010120600 AAXX 12064 67477 31495 00904 10266 20090 48517 70500
                   333 10341 20186 58001=
201010110600 AAXX 11064 67477 31950 00606 10259 20073 48516 70500
                   333 10337 20059 59001=
201010080900 AAXX 08094 67477 41804 01090 10279 20070 48548 70500 81100
                   333 59007 81858=
201010050600 AAXX 05064 67477 31950 00908 10236 20093 48544 70500
                   333 10320 20127 58014=
201010041200 AAXX 04124 67477 41965 01204 10317 20031 48496 70500
                   333 5////=
201010040600 AAXX 04064 67477 31960 00606 10236 20068 48529 70500
                   333 10301 20131 58002=
201010010900 AAXX 01094 67477 41865 10907 10260 20047 48531 70500 81100
                   333 59010 81857=

################################################################################
#  SYNOPS from 67531, Zambezi (Zambia) | 13-32S | 023-07E | 1077 m
################################################################################
201010281200 AAXX 28124 67531 41878 70000 10342 20136 48/// 70522 81108
                   333 59001 81857 87280=
201010280900 AAXX 28094 67531 41978 70607 10325 20139 48/// 70522 80008
                   333 59011 87280=
201010270600 AAXX 27064 67531 32980 73603 10235 20165 48/// 8707/
                   333 01316 20193 59013 87460=
201010260900 AAXX 26094 67531 42980 73305 10270 20162 48/// 82038
                   333 5//// 82460 87280=
201010260600 AAXX 26064 67531 12980 73304 10206 20177 48/// 60114 8702/
                   333 10345 20195 58014 87460=
201010210600 AAXX 21064 67531 31978 10103 10248 20162 48/// 70510 80001
                   333 10374 20186 58011 81080=
201010191200 AAXX 19124 67531 42980 12102 10355 20056 48/// 81010
                   333 59022 81360=
201010190600 AAXX 19064 67531 31978 00910 10250 20096 48/// 70500
                   333 10350 20187 59020=
201010181200 AAXX 18124 67531 41878 31404 10336 20118 48/// 70521 82132
                   333 5//// 82858 81361 81080=
201010180600 AAXX 18064 67531 11978 02702 10225 20166 48/// 69904 70500
                   333 10351 20175 58015=
201010150600 AAXX 15064 67531 11978 63503 10232 20158 48/// 60014 70522 86080
                   333 10370 20177 59001 86360=
201010141200 AAXX 14124 67531 41878 32901 10350 20132 48/// 70500 83100
                   333 59013 83858=
201010130600 AAXX 13064 67531 31978 10307 10230 20121 48/// 70500 81030
                   333 10373 20175 58009 81361
                   555 00///=
201010120600 AAXX 12064 67531 11978 10288 20160 48/// 60024 70500 81030
                   333 10370 20185 58704 81361=
201010111200 AAXX 11124 67531 41975 43401 10355 20104 48/// 70511 84200
                   333 5//// 84858=
201010110900 AAXX 11094 67531 41975 00105 10315 20172 48/// 70500 333=
201010110600 AAXX 11064 67531 31975 03602 10241 20163 48/// 70500
                   333 10372 20162 5////=
201010060600 AAXX 06064 67531 31975 10905 10244 20088 48/// 70500 81030
                   333 10380 20180 59022 81361=
201010051200 AAXX 05124 67531 41975 11803 10369 20054 48/// 70500 81030
                   333 58002 81360=
201010050600 AAXX 05064 67531 31975 00810 10260 20066 48/// 70500
                   333 10373 20160 58001=
201010041200 AAXX 04124 67531 41975 01603 10359 20071 48/// 70500
                   333 5////=
201010040600 AAXX 04064 67531 31975 01005 10240 20066 48/// 70500
                   333 10365 20142 5////=
201010010900 AAXX 01094 67531 41975 01109 10294 20106 48/// 70500
                   333 59015=

################################################################################
#  SYNOPS from 67541, Kasempa (Zambia) | 13-32S | 025-51E | 1234 m
################################################################################
201010180600 AAXX 18064 67541 NIL=

################################################################################
#  SYNOPS from 67561, Ndola (Zambia) | 13-00S | 028-39E | 1269 m
################################################################################
201010281200 AAXX 28124 67561 41965 30504 10336 20093 48487 70511 83100
                   333 58006 83858=
201010270600 AAXX 27064 67561 31960 30510 10244 20103 48521 70500 80002
                   333 10351 20188 58012 83080 91019=
201010261200 AAXX 26124 67561 41860 40105 10336 20111 48474 70500 84200
                   333 58004 84857=
201010260600 AAXX 26064 67561 31958 00507 10235 20104 48508 70400
                   333 10350 20184 58002=
201010250900 AAXX 25094 67561 41960 00105 10308 20095 48504 70500
                   333 59003=
201010250600 AAXX 25064 67561 31960 00405 10244 20103 48507 70500
                   333 10340 20164 59003=
201010201500 AAXX 20153 67561 41975 41507 10322 20081 48478 70500 84030
                   333 59001 84360=
201010201200 AAXX 20124 67561 41875 20903 10326 20098 48589 70500 82100
                   333 58001 82857=
201010200900 AAXX 20094 67561 41770 00708 10312 20099 48517 70500 81100
                   333 59003 81856=
201010200600 AAXX 20064 67561 31960 00615 10246 20103 48521 70500
                   333 10328 20162 59006=
201010190600 AAXX 19064 67561 31960 00809 10233 20142 48525 70500
                   333 10334 20165 59006=
201010181200 AAXX 18124 67561 41975 51008 10302 20096 48500 70522 85200
                   333 59001 85858=
201010180600 AAXX 18064 67561 31960 31960 10244 20144 48533 70500
                   333 10344 20161 58010=
201010150600 AAXX 15064 67561 31959 00505 10222 20084 48511 70400
                   333 10340 20160 59008=
201010141200 AAXX 14124 67561 41960 00605 10330 20072 48483 70500
                   333 59010=
201010140900 AAXX 14094 67561 41958 00610 10304 48513 70400
                   333 59011 91017=
201010111200 AAXX 11124 67561 41960 15005 10343 20186 48/// 70500 81100
                   333 5//// 81859=
201010110600 AAXX 11064 67561 31960 00000 10233 20117 48515 70500
                   333 10356 20170 58001=
201010101200 AAXX 10124 67561 41860 50000 10346 20082 48487 70522 85200
                   333 59012 85857=
201010051500 AAXX 05154 67561 41958 49902 10300 20101 48498 70400 84060=
201010051200 AAXX 05124 67561 41958 49903 10314 20102 48504 70400 84200
                   333 58010 84858=
201010050600 AAXX 05064 67561 31957 00000 10234 20117 48534 70400
                   333 10348 20161 58007=
201010040600 AAXX 04064 67561 31959 00809 10223 20092 48527 70400
                   333 10340 20148 58003=

################################################################################
#  SYNOPS from 67580, Msekera (Zambia) | 13-39S | 032-34E | 1025 m
################################################################################
201010280900 AAXX 28094 67580 41775 50606 10320 20143 48/// 70522 85100
                   333 59004 85856=
201010270600 AAXX 27064 67580 31975 20604 10282 20129 48/// 70500 80001
                   333 10367 20127 58026 82080=
201010260900 AAXX 26094 67580 41975 01203 10332 20114 48/// 70500
                   333 58000=
201010260600 AAXX 26064 67580 31960 10306 10287 20132 48/// 70500 80001
                   333 10354 20208 58002 81080=
201010210600 AAXX 21064 67580 31975 70604 10278 20152 48/// 60522 80008
                   333 10339 20216 59002 87280=
201010190600 AAXX 19064 67580 31575 11110 10242 20154 48/// 70500 81100
                   333 10310 20174 59008 81827=
201010180600 AAXX 18064 67580 31575 71508 10232 20164 48/// 70522 81208
                   333 10338 20194 58001 81820 87280=
201010150900 AAXX 15094 67580 41975 01106 10332 20114 48/// 70500
                   333 59014=
201010150600 AAXX 15064 67580 31975 00606 10285 20119 48/// 70500
                   333 10359 20222 59017=
201010120600 AAXX 12064 67580 31975 01208 10299 20136 48/// 70500
                   333 10374 20241 58000=
201010080900 AAXX 08094 67580 41775 30904 10307 20127 48/// 70500 83100
                   333 59016 83856=
201010070900 AAXX 07094 67580 41770 11007 10285 20130 48/// 70500 81100
                   333 58009 81856=
201010060600 AAXX 06064 67580 31970 01111 10241 20121 48/// 70500
                   333 10334 20334 58012=
201010010900 AAXX 01094 67580 41775 60908 10277 20106 48/// 70510 86200
                   333 59023 86850=
201010010600 AAXX 01064 67580 31975 10908 10247 20125 48/// 70500 81030
                   333 10301 20157 59015 81360=

################################################################################
#  SYNOPS from 67581, Chipata (Zambia) | 13-33S | 032-35E | 1028 m
################################################################################
201010260600 AAXX 26064 67581 32980 00405 10276 20129 48522
                   333 10353 20/// 58003=
201010250600 AAXX 25064 67581 31980 00805 10270 20141 48519 70500
                   333 10360 20210 59025=
201010180600 AAXX 18064 67581 31670 51406 10240 20162 48550 70522 81102
                   333 10372 20200 58006 81835 85080=
201010110600 AAXX 11064 67581 31970 01209 10291 20116 48529 70500
                   333 10362 20199 59004=
201010050600 AAXX 05064 67581 31970 01406 10262 20142 48556 70500
                   333 10356 20218 58008=
201010040600 AAXX 04064 67581 31970 00303 10276 20105 48542 70500
                   333 10342 20203 59010=

################################################################################
#  SYNOPS from 67599, Mfuwe (Zambia) | 13-16S | 031-56E | 568 m
################################################################################
201010280900 AAXX 28094 67599 41870 50408 10351 20171 48552 70522 85200
                   333 59004 85857=
201010280600 AAXX 28064 67599 31957 01510 10306 20177 48546 70500
                   333 10404 20226 59012=
201010260600 AAXX 26064 67599 31958 00307 10310 20147 48538 70500
                   333 10400 20178 58000=
201010210600 AAXX 21064 67599 31959 31007 10296 20149 48549 70521 80001
                   333 10391 20205 59004 83080=
201010200600 AAXX 20064 67599 31359 00810 10304 20158 48555 70500
                   333 10378 20199 59012=
201010190600 AAXX 19064 67599 32980 31611 10272 20182 48557 83030
                   333 10368 20226 59009 83360=
201010171500 AAXX 17154 67599 41859 70915 10360 20146 48540 70522 81231
                   333 58029 81858 82360 87080=
201010160600 AAXX 16064 67599 31958 21007 10300 20162 48545 70500
                   333 10411 20175 58005 82080 91016=
201010150900 AAXX 15094 67599 41957 00109 10361 20157 48531 70500
                   333 59008=
201010150600 AAXX 15064 67599 31957 00806 10303 20164 48514 70500
                   333 10406 20176 59014=
201010141200 AAXX 14124 67599 41965 01017 10401 20119 48515 70500
                   333 59023=
201010140900 AAXX 14094 67599 41959 01214 10374 20120 48552 70500
                   333 59014 91014=
201010130600 AAXX 13064 67599 31956 01112 10309 20144 48558 70500
                   333 10424 20194 58017=
201010111200 AAXX 11124 67599 41957 10000 10406 20144 48517 70500 81030
                   333 59013 81362=
201010110900 AAXX 11094 67599 41957 00000 10371 20166 48547 70500
                   333 59010=
201010090600 AAXX 09064 67599 31958 01904 10285 20174 48554 70500
                   333 10382 20188 59032=
201010081200 AAXX 08124 67599 41758 41208 10370 20161 48563 70522 84200
                   333 59010 84857=
201010080900 AAXX 08094 67599 41959 01109 10327 20178 48586 70500
                   333 59008=
201010060600 AAXX 06064 67599 31970 01610 10267 20152 48579 70500
                   333 10375 20184 58013=
201010010600 AAXX 01064 67599 31958 00000 10245 20131 48502 70500
                   333 59021=

################################################################################
#  SYNOPS from 67633, Mongu (Zambia) | 15-15S | 023-09E | 1052 m
################################################################################
201010260600 AAXX 26064 67633 11760 73606 10235 20166 48507 60114 70522 8197/
                   333 10362 20194 58005 81957 87460=
201010250600 AAXX 25064 67633 11760 73608 10244 20148 48502 60014 70522 8193/
                   333 10373 20216 59001 81956 87361=
201010191200 AAXX 19124 67633 41860 21306 10373 20053 48485 70500 82200
                   333 59029 82857=
201010181200 AAXX 18124 67633 41860 30306 10356 20137 48508 70500 83200
                   333 58007 83857=
201010180600 AAXX 18064 67633 31960 73501 10249 20164 48560 70592 81938
                   333 10375 20234 58020 81956 86360 82080=
201010150900 AAXX 15094 67633 41960 63505 10278 20173 48599 70500 85032
                   333 58002 85361 83080=
201010150600 AAXX 15064 67633 11960 70304 10233 20163 48498 60074 70522 8703/
                   333 10375 20202 59002 97360=
201010120600 AAXX 12064 67633 31960 00601 20136 48510 76050
                   333 10385 20207 58010 91016=
201010110600 AAXX 11064 67633 31960 03604 10254 20114 48502 70500
                   333 10385 20212 59001=
201010081200 AAXX 08124 67633 41860 30908 10357 20057 48529 70500 83100
                   333 58000 83857=
201010070900 AAXX 07094 67633 41960 00912 10330 20001 48545 70500
                   333 59008 91020=
201010060600 AAXX 06064 67633 31960 02601 10249 20090 48531 70500
                   333 10375 20212 58018=
201010050600 AAXX 05064 67633 31960 00908 10247 20060 48515 70500
                   333 10385 20210 59002=
201010040600 AAXX 04064 67633 31960 00904 10254 20070 48517 70500
                   333 10376 20198 59001=

################################################################################
#  SYNOPS from 67641, Kaoma (Zambia) | 14-48S | 024-48E | 1213 m
################################################################################
201010260600 AAXX 26064 67641 31482 42614 10245 20149 48500 72999 81932
                   333 10371 20200 58007 81930 82361 82080=
201010180600 AAXX 18064 67641 32982 30604 10239 20137 48519 83030
                   333 10350 20180 58012 83361=
201010110600 AAXX 11064 67641 32982 00601 10239 20123 48499
                   333 10374 20151 59003=
201010050600 AAXX 05064 67641 32980 01002 10240 20072 48512
                   333 10367 20114 58016=
201010040600 AAXX 04064 67641 32982 00802 10219 20100 48504
                   333 10358 20159 5////=

################################################################################
#  SYNOPS from 67655, Mumbwa (Zambia) | 15-04S | 027-11E | 1216 m
################################################################################
201010270600 AAXX 27064 67655 11975 31406 10260 20148 48523 69904 70500 80001
                   333 10362 20224 59016 83080=
201010260600 AAXX 26064 67655 31475 60000 10257 20138 48505 70500 86400
                   333 10347 20197 58009 86620=
201010210600 AAXX 21064 67655 31775 30905 10254 20106 48525 70500 83030
                   333 10345 20194 59006 83359=
201010180600 AAXX 18064 67655 31975 00910 10223 20160 48538 70500
                   333 10355 20170 58012=

################################################################################
#  SYNOPS from 67663, Kabwe (Zambia) | 14-27S | 028-28E | 1206 m
################################################################################
201010260600 AAXX 26064 67663 31965 10903 10265 20098 48495 70500 81030
                   333 10360 20200 58002 81360=
201010180600 AAXX 18064 67663 31465 30906 10212 20162 48532 70500 83500
                   333 10324 20172 58008 83619=
201010110600 AAXX 11064 67663 31965 00801 10266 20094 48514 70500
                   333 10351 20187 59005=
201010050600 AAXX 05064 67663 31965 00805 10238 20112 48535 70500
                   333 10343 20180 58007=
201010040600 AAXX 04064 67663 31965 00901 10244 20088 48528 70500
                   333 10334 20163 58000=

################################################################################
#  SYNOPS from 67665, Lusaka Internationalairport (Zambia) | 15-19S | 028-27E | 1152 m
################################################################################
201010310600 AAXX 31064 67665 31960 10701 10265 20156 48563 70500 81030
                   333 10356 20/// 58019 81360
                   555 00200 91022=
201010301200 AAXX 30124 67665 41760 50909 10345 20149 48516 70522 85230
                   333 58016 81956 85856 81361=
201010300900 AAXX 30094 67665 41960 10409 10316 20143 48536 70510 81100
                   333 58011 81850=
201010300600 AAXX 30064 67665 31960 00910 10270 20144 48544 70500
                   333 10365 20180 58015
                   555 00179 91020=
201010291500 AAXX 29154 67665 41960 20811 10337 20121 48500 70500 82030
                   333 59004 82360=
201010291200 AAXX 29124 67665 41760 40607 10344 20120 48502 70522 83101
                   333 59007 83857 81080=
201010290400 AAXX 29044 67665 41980 11105 10187 29134 48509 70500 80001
                   333 59006 81080=
201010290300 AAXX 29034 67665 41960 01004 10189 20139 48504 70500
                   333 59008=
201010282100 AAXX 28214 67665 41960 01304 10223 20124 48517 70500
                   333 58002=
201010281800 AAXX 28184 67665 41959 00904 10263 20145 48511 70500
                   333 10340 58007=
201010281500 AAXX 28154 67665 41959 20506 10322 20136 48501 70501 82100
                   333 58006 82858=
201010281200 AAXX 28124 67665 41759 40508 10330 20131 48509 70522 84100
                   333 58005 84850=
201010280900 AAXX 28094 67665 41559 13612 10309 20155 48532 70500 81100
                   333 59002 81825=
201010280600 AAXX 28064 67665 31960 00608 10242 20183 48530 70500
                   333 10350 20181 59007=
201010271500 AAXX 27154 67665 41759 10811 10327 20140 48496 70500
                   333 58002 81856 81360=
201010270900 AAXX 27094 67665 41958 00412 10319 20159 48532 70500
                   333 58012 91018=
201010270600 AAXX 27064 67665 11957 20810 10252 20185 48538 69904 70500 81031
                   333 20193 58028 81360 81080=
201010270400 AAXX 27044 67665 41959 31006 10199 20159 48519 70510 80002
                   333 58028 83080=
201010270300 AAXX 27034 67665 41960 21004 10204 20156 48513 70500 82030
                   333 58028 82360=
201010270000 AAXX 27004 67665 41960 21204 10213 20158 48499 70500 82030
                   333 58018 82360=
201010262100 AAXX 26214 67665 41960 21402 10227 20148 48508 70500 82030
                   333 58013 82360=
201010261800 AAXX 26184 67665 41959 01002 10236 20175 48492 70500
                   333 10340 58007=
201010261500 AAXX 26154 67665 41759 61205 10246 20182 48485 70929 81931
                   333 58014 81956 83857 85360 82080=
201010261200 AAXX 26124 67665 41660 73308 10291 20129 48500 71722 81932
                   333 58019 81940 84845 86360 84280=
201010260900 AAXX 26094 67665 41860 13107 10327 20118 48521 70500 81130
                   333 58005 81856 81362=
201010260600 AAXX 26064 67665 31959 33606 10270 20120 48513 70511 83030
                   333 10360 20185 58000 83362=
201010250900 AAXX 25094 67665 41958 03409 10322 20112 48514 70500
                   333 59005=
201010250600 AAXX 25064 67665 31958 00303 10265 20116 48507 70500
                   333 10350 20198 59007=
201010241500 AAXX 24154 67665 41958 20302 10332 20141 48479 70500 82200
                   333 58002 82858=
201010241200 AAXX 24124 67665 41958 51005 10339 20127 48491 70500 85100
                   333 58002 85856=
201010240600 AAXX 24064 67665 31959 12305 10240 20134 48516 70500 80001
                   333 10354 20165 58006 81080
                   555 00170=
201010231800 AAXX 23184 67665 41960 11203 10259 20096 48484 70500 81030
                   333 10354 59004 81360=
201010230600 AAXX 23064 67665 31959 00305 10270 20101 48514 70500
                   333 10355 20161 59006=
201010230400 AAXX 23044 67665 41975 31204 10163 20079 48484 70500 80001
                   333 59010 83080=
201010230300 AAXX 23034 67665 42980 01304 10154 20095 48478
                   333 59008=
201010221200 AAXX 22120 67665 42660 21108 10336 20090 48486 70510 82200
                   333 59020 82840=
201010220900 AAXX 22094 67665 41959 00408 10321 20109 48517 70500
                   333 59017 81820 81080 91017=
201010220600 AAXX 22064 67665 31959 00807 10268 20111 48520 70500
                   333 10346 20145 59015
                   555 00161 91018=
201010211500 AAXX 21154 67665 41860 20808 10326 20079 48508 70500 82200
                   333 58000 82860 91014=
201010211200 AAXX 21124 67665 41760 40909 10323 20109 48505 70500 84200
                   333 59004 84856 91015=
201010210900 AAXX 21094 67665 41960 10309 10310 20125 48533 70522 81030
                   333 58000 81360=
201010210600 AAXX 21064 67665 31960 40807 10250 20127 48532 70500 84031
                   333 10340 20170 58007 84360 81080=
201010210400 AAXX 21044 67665 42980 21304 10184 20124 48515 70300 81031
                   333 58003 81360 81080=
201010210300 AAXX 21034 67665 42980 01006 10187 20119 48508 70200
                   333 58007=
201010210000 AAXX 21004 67665 42980 01103 10186 20118 48498
                   333 58012=
201010201800 AAXX 20184 67665 41960 01103 10251 20109 48506 70500
                   333 10340 59002=
201010201500 AAXX 20153 67665 41960 10408 10326 20105 48497 70500 81030
                   333 59002 81360=
201010201200 AAXX 20124 67665 41770 30807 10330 20123 48511 70500 83100
                   333 58002 83856=
201010200900 AAXX 20094 67665 42680 10208 10310 20114 48533 81100
                   333 59006 81845=
201010200600 AAXX 20064 67665 32980 00907 10240 20121 48537
                   333 10320 20160 59009=
201010200300 AAXX 20034 67665 42980 01203 10172 20139 48510
                   333 59019=
201010200000 AAXX 20004 67665 42980 01403 10165 20112 48491
                   333 59025=
201010192100 AAXX 19214 67665 42980 01203 10198 20129 48509
                   333 59023=
201010191200 AAXX 19124 67665 41660 40107 10305 20135 48506 70511 84200
                   333 59023 84849 91016=
201010190900 AAXX 19094 67665 41959 10410 10284 20144 48536 70510 81100
                   333 59023 81830 91019=
201010190600 AAXX 19064 67665 31959 10510 10214 20154 48539 70500 81030
                   333 10305 20150 59013 81360=
201010181800 AAXX 18184 67665 41959 00805 10223 20166 48527 70500
                   333 10305 59004=
201010181500 AAXX 18154 67665 41959 30706 10285 20133 48522 70500 83100
                   333 59002 83858=
201010181200 AAXX 18124 67665 41759 50308 10290 20174 48527 70500 85100
                   333 59001 85856=
201010180900 AAXX 18094 67665 41658 30511 10255 20161 48554 70500 83100
                   333 58008 83830 91022=
201010180600 AAXX 18064 67665 31959 60909 10205 20161 48552 70522 86800
                   333 10312 20165 58011 82815 84618=
201010171800 AAXX 17184 67665 41980 00907 10241 20182 48533 70500
                   333 10312 58029=
201010171500 AAXX 17154 67665 41959 10810 10292 20102 48524 70500 81030
                   333 58019 81360=
201010171200 AAXX 17124 67665 41758 30710 10297 20154 48529 70511 81131
                   333 58031 81850 82360 81080=
201010161800 AAXX 16184 67665 41958 01104 10252 20109 48506 70500
                   333 10351 58014=
201010161200 AAXX 16124 67665 41956 40508 10338 20101 48503 70521 84030
                   333 58014 84360=
201010160900 AAXX 16094 67665 41956 30608 10315 20085 48528 70510 83030
                   333 58009 83360=
201010160600 AAXX 16064 67665 31957 01006 10254 20105 48520 70500
                   333 10365 20105 58004
                   555 00105 91018=
201010150900 AAXX 15094 67665 41958 00208 10322 20100 48518 70500
                   333 59007 91017=
201010150600 AAXX 15064 67665 31959 01103 10240 20114 48515 70500
                   333 10350 20171 59012=
201010150400 AAXX 15044 67665 41958 11403 10168 20105 48500 70500 80001
                   333 59010 81080 91017=
201010150300 AAXX 15034 67665 41960 01303 10176 20095 48491 70500
                   333 59014 91016=
201010150000 AAXX 15004 67665 41960 01303 10193 20084 48487 70500
                   333 59020 91015=
201010142100 AAXX 14214 67665 41960 01604 10217 20070 48500 70500
                   333 59013 91016=
201010141200 AAXX 14124 67665 41959 00408 10336 20033 48498 70500
                   333 59008=
201010140900 AAXX 14094 67665 41959 03613 10318 20046 48526 70500
                   333 59007 91018=
201010131500 AAXX 13154 67665 41959 00508 10339 20057 48501 70500
                   333 58011 91015=
201010130900 AAXX 13094 67665 41957 00413 10340 20103 48535 70500
                   333 58013 91018=
201010130600 AAXX 13064 67665 31958 00607 10277 20104 40537 70500
                   333 10374 20180 58014
                   555 00175 91019=
201010130000 AAXX 13004 67665 41958 01503 10197 20054 48501 70500
                   333 58003=
201010122100 AAXX 12214 67665 41957 01403 10223 20068 48510
                   333 59002=
201010121200 AAXX 12124 67665 41859 10310 10362 20071 48502 70500 81100
                   333 58002 81856 91014=
201010120900 AAXX 12094 67665 41958 00208 10340 20096 48522 70500
                   333 59003 91017=
201010120600 AAXX 12064 67665 31959 00804 10272 20099 48531 70500
                   333 10364 20175 59005
                   555 00160 91018=
201010111500 AAXX 11154 67665 41959 20507 10344 20090 48491 82030
                   333 59002 82360=
201010111200 AAXX 11124 67665 41959 10505 10354 20151 48499 70500 81100
                   333 59009 81858=
201010110900 AAXX 11094 67665 41959 00406 10324 20113 48523 70500
                   333 59011=
201010110600 AAXX 11064 67665 31959 00806 10255 20104 48525 70500
                   333 10355 20108 59011=
201010101800 AAXX 10184 67665 41980 01103 10258 20079 48507 70500
                   333 10355 59016=
201010101500 AAXX 10154 67665 41980 00604 10335 20090 48505 70500
                   333 58024=
201010101200 AAXX 10124 67665 41980 00805 10349 20077 48508 70500
                   333 58015=
201010100600 AAXX 10064 67665 32960 00906 10246 20116 48533 70500
                   333 10340 20149 59014=
201010090900 AAXX 09094 67665 41960 00405 10295 20148 48559 70500
                   333 59027 91020=
201010090600 AAXX 09064 67665 31960 00707 10220 20157 48545 70500
                   333 10325 20136 59031
                   555 00135 91021=
201010090300 AAXX 09034 67665 41960 01304 10158 20141 48522 70500
                   333 59027=
201010090000 AAXX 09004 67665 41960 00905 10171 20138 48521 70500
                   333 59029=
201010082100 AAXX 08214 67665 41960 01403 10199 20133 48540 70500
                   333 59030=
201010081200 AAXX 08124 67665 41859 40809 10316 20136 48543 70511 84100
                   333 59009 84856=
201010080900 AAXX 08094 67665 41959 00309 10270 20162 48572 70500
                   333 59007 91023=
201010080600 AAXX 08064 67665 31957 00708 10209 20176 48573 70500
                   333 10335 20140 58003
                   555 00146 91025=
201010071500 AAXX 07154 67665 41959 00609 10301 20075 48543 70500
                   333 91020=
201010071200 AAXX 07124 67665 41759 10610 10312 20106 48550 70500 81100
                   333 81850 91020=
201010070900 AAXX 07094 67665 41959 00509 10285 20100 48582 70500
                   333 58011 91024=
201010070600 AAXX 07064 67665 31959 00808 10219 20112 48570 70500
                   333 10325 20145 58012
                   555 00140=
201010070400 AAXX 07044 67665 41959 00905 10155 20102 48550 70500
                   333 58008=
201010061200 AAXX 06124 67665 41959 20509 10308 20121 48545 70500 82100
                   333 58017 82856=
201010060900 AAXX 06094 67665 41959 00512 10270 20141 48568 70500
                   333 59011=
201010060600 AAXX 06064 67665 31959 00711 10210 20123 48559 70500
                   333 10325 20158 58011
                   555 00135=
201010051500 AAXX 05154 67665 41958 00909 10301 20085 48525 70500
                   333 58018=
201010051200 AAXX 05124 67665 41859 10409 10305 20123 48528 70500 81100
                   333 58016 81857=
201010050900 AAXX 05094 67665 41959 00411 10282 20117 48559 70500
                   333 58026=
201010050600 AAXX 05064 67665 31959 00611 10229 20130 48555 70500
                   333 10340 20176 58017=
201010041500 AAXX 04154 67665 41957 10709 10320 20099 48509 70500 81030
                   333 58000 81360=
201010041200 AAXX 04124 67665 41858 10907 10335 20054 48516 70500 81100
                   333 58002 81858=
201010040600 AAXX 04064 67665 31958 00902 10246 20101 48539 70500
                   333 10339 20154 58000=
201010030600 AAXX 03064 67665 31958 00806 10235 20107 48539 70500
                   333 10320 20145 59003
                   555 00142 91020=
201010020900 AAXX 02094 67665 41559 20508 10280 20107 48481 70500 82100
                   333 59015 82835 91020=
201010020600 AAXX 02064 67665 31959 00906 10236 20109 48542 70500
                   333 10310 20145 59015
                   555 00150 91021=
201010020400 AAXX 02044 67665 41959 31304 10155 20091 48518 70500 83030
                   333 59018 83360=
201010020300 AAXX 02034 67665 41959 01404 10154 20089 48513 70500
                   333 59017=
201010020000 AAXX 02004 67665 41959 01403 10170 20087 48509 70500
                   333 59019=
201010012100 AAXX 01214 67665 41959 01302 10193 20095 48523 70500
                   333 59027=
201010011800 AAXX 01184 67665 41959 00603 10211 20189 48523 70500
                   333 59025=
201010011500 AAXX 01154 67665 41959 00707 10287 20090 48516 70500
                   333 58023 91017=
201010011200 AAXX 01124 67665 41659 10310 10289 20105 48524 70500 81100
                   333 58002 81845 91018=
201010010900 AAXX 01094 67665 41659 20310 10275 20101 48556 82100
                   333 59020 82830=
201010010600 AAXX 01064 67665 31959 00707 10210 20183 48553 70500
                   333 10291 20140 59016
                   555 00150=

################################################################################
#  SYNOPS from 67666, Lusaka City Airport (Zambia) | 15-25S | 028-19E | 1280 m
################################################################################
201010280900 AAXX 28094 67666 42780 10715 10295 20147 48525 81100
                   333 58003 81850=
201010280600 AAXX 28064 67666 31979 00914 10245 20160 48523 70500
                   333 10340 20190 59007=
201010270600 AAXX 27064 67666 11978 10912 10255 20163 48530 69904 70500 81030
                   333 10340 20210 58039 81360=
201010260900 AAXX 26094 67666 41679 20905 10311 20123 48512 82200
                   333 58002 82830=
201010260600 AAXX 26064 67666 31960 20704 10265 20116 48506 70510 82030
                   333 10350 20185 58003 82362=
201010210600 AAXX 21064 67666 31910 31208 10250 20101 48525 70500
                   333 10326 20200 59003=
201010190600 AAXX 19064 67666 31979 10912 10215 20152 48533 70500 81100
                   333 10300 20160 5//// 81820=
201010150900 AAXX 15094 67666 41978 00906 10315 20085 48508 70500
                   333 59009=
201010150600 AAXX 15064 67666 31970 00408 10260 20110 48510 70500
                   333 10336 20200 59012=
201010141200 AAXX 14124 67666 42980 00906 10325 20060 48489
                   333 59010=
201010140900 AAXX 14094 67666 41975 00914 10305 20055 48516 70500
                   333 59007 91017=
201010121200 AAXX 12124 67666 42780 10903 10355 20089 48499 81100
                   333 58001 81856=
201010120600 AAXX 12064 67666 31978 00903 10283 20074 48517 70500
                   333 10340 20180 59004 91017=
201010111200 AAXX 11124 67666 42680 11003 10345 20111 48493 81100
                   333 5//// 81850=
201010110900 AAXX 11094 67666 41980 00903 10320 20105 48515 70500 333=
201010081200 AAXX 08124 67666 42980 30906 10310 20114 48532 83100
                   333 59010 83840=
201010080900 AAXX 08094 67666 42975 00904 10268 20137 48553
                   333 59011=
201010060600 AAXX 06064 67666 31680 00909 10207 20121 48553 70500
                   333 10310 20175 58006=

################################################################################
#  SYNOPS from 67673, Petauke (Zambia) | 14-15S | 031-17E | 1035 m
################################################################################
201010280900 AAXX 28094 67673 41670 50804 10314 20123 48544 70522 85200
                   333 59003 85835=
201010270600 AAXX 27064 67673 31970 00905 10275 20166 48559 70500
                   333 10376 20200 58030=
201010260900 AAXX 26094 67673 41970 03605 10328 20086 48529 70500
                   333 5////=
201010260600 AAXX 26064 67673 31970 00508 10280 20092 48529 70500
                   333 10365 20226 58001=
201010191200 AAXX 19124 67673 41670 50804 10310 20085 48519 70522 85200
                   333 59019 85845=
201010190600 AAXX 19064 67673 31970 00904 10230 20151 48556 70500
                   333 10315 20185 59005=
201010150900 AAXX 15094 67673 41970 00904 10330 20070 48531 70500
                   333 59014=
201010150600 AAXX 15064 67673 32970 00205 10268 20091 48534 70500
                   333 10370 20224 59013=
201010141200 AAXX 14124 67673 41970 00202 10355 20064 48510 70500
                   333 59005=
201010140900 AAXX 14094 67673 41970 00707 10326 20057 48545 70500
                   333 59006=
201010120600 AAXX 12064 67673 31970 00205 1/290 20085 48527 70500
                   333 10375 20138 59006=
201010060600 AAXX 06064 67673 31970 00911 10230 20123 48575 70500
                   333 10322 20194 58005=
201010010900 AAXX 01094 67673 41670 51206 10286 20071 48556 70522 85100
                   333 59022 85835=

################################################################################
#  SYNOPS from 67743, Livingstone (Zambia) | 17-49S | 025-49E | 985 m
################################################################################
201010300600 AAXX 30064 67743 11770 71004 10257 20164 48533 69904 70220 82171
                   333 10380 20//0 58008 82856 84460 83080
                   555 91018=
201010281200 AAXX 28124 67743 41759 40508 10330 20131 48509 70522 84100
                   333 58005 84850=
201010280600 AAXX 28064 67743 31965 02705 10247 20169 48524 70500
                   333 10378 20//0 59009=
201010270600 AAXX 27064 67743 11959 62510 10270 20147 48529 69904 70500 82031
                   333 10400 20//0 58029 82360 83080 91018=
201010261500 AAXX 26154 67743 41760 73509 10321 20129 48486 71799 8297/
                   333 58027 82956 84856 85359=
201010261200 AAXX 26124 67743 41760 32206 10380 20115 48487 70500 82230
                   333 58012 82856 81360=
201010260600 AAXX 26064 67743 11595 40000 10267 20155 48501 69904 70500 84030
                   333 10400 20//0 58012 84360=
201010250900 AAXX 25094 67743 41759 33410 10374 20124 48498 70500 81130
                   333 59013 81856 82360=
201010250600 AAXX 25064 67743 31959 33406 10287 20121 48491 70500 83030
                   333 10386 20/// 59011 83360=
201010241200 AAXX 24124 67743 41759 11804 10369 20090 48479 70500 81100
                   333 59008 81856=
201010220600 AAXX 22064 67743 31965 00805 10280 20105 48510 70500
                   333 10400 2//// 59010 91015=
201010201500 AAXX 20153 67743 41760 41504 10363 20066 48485 70500 84160
                   333 59006 84856 82360=
201010200900 AAXX 20094 67743 41960 00803 10335 20094 48525 70500
                   333 59001=
201010200600 AAXX 20064 67743 31960 00806 10274 20100 48524 70500
                   333 10374 2//// 59002=
201010191200 AAXX 19124 67743 41959 11508 10367 20033 48497 70500 81100
                   333 59026 81857=
201010190600 AAXX 19064 67743 31960 00708 10246 20148 48523 70500
                   333 10361 20//0 58000=
201010181500 AAXX 18154 67743 41765 11006 10348 20049 48510 70500 81100
                   333 59000 81857=
201010181200 AAXX 18124 67743 41765 51208 10349 20098 48540 70500 84100
                   333 59006 84857=
201010180600 AAXX 18064 67743 31965 01108 10245 20143 48545 70500
                   333 10350 20/// 58003=
201010171500 AAXX 17154 67743 41960 10910 10334 20142 48511 70500
                   333 58018 81858=
201010161200 AAXX 16124 67743 41959 00704 10354 20066 48506 70500
                   333 58022=
201010160600 AAXX 16064 67743 31959 21609 10227 21004 48516 70500 81030
                   333 10379 20//0 58026 82360
                   555 00/// 91017=
201010150900 AAXX 15094 67743 41959 01604 10328 20107 48510 70500
                   333 59008=
201010150600 AAXX 15064 67743 11959 11805 10275 20109 48500 69904 70500 81030
                   333 10387 20//0 59012 81360=
201010141200 AAXX 14124 67743 41959 01911 10378 20064 48487 70500
                   333 59006=
201010130600 AAXX 13064 67743 31959 01204 10286 20076 48520
                   333 10408 20//0 58005
                   555 91016=
201010120600 AAXX 12064 67743 31959 00304 10294 20038 48751 70500
                   333 10405 20/// 58003
                   555 00/// 91016=
201010111500 AAXX 11154 67743 41959 11209 10390 20050 48482 70500 81060
                   333 59007 81359=
201010111200 AAXX 11124 67743 41959 01104 10399 20054 48491 70500
                   333 59015=
201010110900 AAXX 11094 67743 41959 00104 10365 20052 48517 70500
                   333 58012=
201010110600 AAXX 11064 67743 31959 01405 10263 20031 48507
                   333 10395 20/// 59009=
201010101500 AAXX 10154 67743 41758 11211 10372 20060 48486 70500 81100
                   333 59027 81856=
201010101200 AAXX 10124 67743 41958 01704 10380 20080 48503 70500
                   333 59022=
201010090600 AAXX 09064 67743 31959 01003 10264 20099 48540 70500
                   333 10369 20//0 59026=
201010081200 AAXX 08124 67743 859 11306 10355 20075 48542 70500 81100
                   333 59006 81857=
201010070900 AAXX 07094 67743 41959 00806 10325 20062 48578 70500
                   333 58007 91022=
201010060600 AAXX 06064 67743 31959 01008 10238 20076 48555 70500
                   333 10364 20//0 58011=
201010051500 AAXX 05154 67743 41959 01310 10339 20050 48518 70500
                   333 58014=
201010041500 AAXX 04154 67743 41958 01113 10360 20053 48508 70500
                   333 58000=
201010040600 AAXX 04064 67743 31958 00804 10250 20077 48528 70500
                   333 10370 20/// 58004=
201010010600 AAXX 01064 67743 31960 01502 10220 20086 48550 70500
                   333 10341=

################################################################################
#  SYNOPS from 67753, Choma (Zambia) | 16-50S | 027-04E | 1213 m
################################################################################
201010270600 AAXX 27064 67753 11960 70906 10254 20153 69904 70500 80008
                   333 10356 20207 87280=
201010260900 AAXX 26094 67753 41960 00610 10332 20130 48/// 70500=
201010260600 AAXX 26064 67753 31960 00910 10274 20133 48/// 70500
                   333 10363 20191 5////=
201010210600 AAXX 21064 67753 31960 10610 10266 20128 48/// 70500 81080
                   333 10343 20187 5//// 81360=
201010201200 AAXX 20124 67753 41960 10907 10338 20127 48/// 70500 81100
                   333 5//// 81858=
201010191200 AAXX 19124 67753 41960 11807 10326 20100 48/// 70500 81100
                   333 5//// 81858=
201010190600 AAXX 19064 67753 31960 00608 10229 20153 48/// 70500
                   333 10314 20151 5////=
201010180600 AAXX 18064 67753 31960 00912 10211 20152 48/// 70500
                   333 10304 20155 5////=
201010150600 AAXX 15064 67753 31960 02706 10258 20102 48/// 70500
                   333 10344 20188 5////=
201010141200 AAXX 14124 67753 41960 03512 10336 20104 48/// 70500
                   333 5////=
201010140900 AAXX 14094 67753 41960 03625 10309 20101 70500=
201010130600 AAXX 13064 67753 31960 00910 10274 20112 48/// 70500
                   333 10389 20189 555 00///=
201010110600 AAXX 11064 67753 31960 00908 10261 20100 48/// 70500
                   333 10353 20147 5////=
201010060600 AAXX 06064 67753 31960 00915 10236 20103 48/// 70500
                   333 10//0 20//0=

################################################################################
#  SYNOPS from 67855, Lupaki (Zambia) | 17-03-00S | 024-46-00E | 1000 m
################################################################################
201010310600 AAXX 31064 67855 NIL=
201010301200 AAXX 30124 67855 42980 73303 10350 20122 3//// 48/// 82208
                   333 5//// 82858 87280=
201010291200 AAXX 29124 67855 42880 50901 10354 20133 3//// 48/// 82230
                   333 5//// 82857 83360=
201010290600 AAXX 29064 67855 NIL=
201010281200 AAXX 28124 67855 NIL=
201010280600 AAXX 28064 67855 32980 70303 10242 20149 38/// 48/// 8703/
                   333 20200 5//// 87360=
201010271200 AAXX 27124 67855 NIL=
201010261200 AAXX 26124 67855 NIL=
201010251200 AAXX 25124 67855 41970 43602 10384 20120 3//// 48/// 70511 84100
                   333 5//// 84858=
201010250600 AAXX 25064 67855 NIL=
201010241200 AAXX 24124 67855 NIL=
201010240600 AAXX 24064 67855 NIL=
201010231200 AAXX 23124 67855 41970 53303 10378 20101 3//// 48/// 70511 82130
                   333 5//// 82858 83360=
201010230600 AAXX 23064 67855 NIL=
201010221200 AAXX 22124 67855 NIL=
201010220600 AAXX 22064 67855 NIL=
201010201200 AAXX 20124 67855 41970 32002 10358 20085 3//// 48/// 70511 83100
                   333 5//// 83858=
201010200600 AAXX 20064 67855 31970 61002 10236 20064 3//// 48/// 70522 86030
                   333 20126 5//// 86360=
201010191200 AAXX 19124 67855 41970 30602 10350 20135 3//// 48/// 70500 83100
                   333 5//// 83858=
201010190600 AAXX 19064 67855 31970 10703 10230 20146 3//// 48/// 70500 80001
                   333 20165 5//// 81080=
201010181200 AAXX 18124 67855 NIL=
201010180600 AAXX 18064 67855 31970 01403 10226 20140 3//// 48/// 70500
                   333 20110 5////=
201010161200 AAXX 16124 67855 41870 22702 10360 20124 3//// 48/// 70500 82100
                   333 5//// 82857=
201010160600 AAXX 16064 67855 31960 01503 10224 20159 3//// 48/// 70500
                   333 20148 5////=
201010151200 AAXX 15124 67855 41950 62703 10362 20104 3//// 48/// 70500 86030
                   333 5//// 86360=
201010150600 AAXX 15064 67855 NIL=
201010141200 AAXX 14124 67855 41960 03309 10372 20070 3//// 48/// 70500
                   333 5////=
201010140600 AAXX 14064 67855 31960 00404 10256 20088 3//// 48/// 70500
                   333 20170 5////=
201010131200 AAXX 13124 67855 NIL=
201010130600 AAXX 13064 67855 31950 00704 10284 20093 3//// 48/// 70500
                   333 20254 5////=
201010121200 AAXX 12124 67855 41870 20604 10402 20062 38/// 48/// 70500 82100
                   333 5//// 82857=
201010120600 AAXX 12064 67855 31960 00000 10194 20129 38/// 48/// 70500
                   333 20150 5////=
201010111200 AAXX 11124 67855 42880 13503 10392 20066 3//// 48/// 81100
                   333 5//// 81857=
201010110600 AAXX 11064 67855 31970 00603 10280 20074 3//// 48/// 70500
                   333 20154 5////=
201010101200 AAXX 10124 67855 NIL=
201010100600 AAXX 10064 67855 31970 03303 10250 20103 3//// 48/// 70500
                   333 20124 5////=
201010091200 AAXX 09124 67855 NIL=
201010090600 AAXX 09064 67855 NIL=
201010081200 AAXX 08124 67855 NIL=
201010080600 AAXX 08064 67855 31960 00602 10226 20148 38/// 48/// 70500
                   333 20158 5////=
201010071200 AAXX 07124 67855 42880 20603 10352 20085 3//// 48/// 82100
                   333 5//// 82857=
201010070600 AAXX 07064 67855 31970 01503 10202 20145 3//// 48/// 70500
                   333 20154 5////=
201010061200 AAXX 06124 67855 42980 01204 10352 20056 3//// 48///
                   333 5////=
201010060600 AAXX 06064 67855 31960 00804 10218 20116 3//// 48/// 70500
                   333 20143 5////=
201010051200 AAXX 05124 67855 NIL=
201010050600 AAXX 05064 67855 NIL=
201010041200 AAXX 04124 67855 42980 11706 10382 20045 38/// 48/// 81100
                   333 5//// 81859=
201010040600 AAXX 04064 67855 31970 00702 10252 20046 3//// 48/// 70500
                   333 20135 5////=
201010031200 AAXX 03124 67855 NIL=
201010030600 AAXX 03064 67855 31970 00000 10202 20099 3//// 48/// 70500
                   333 20140 5////=
201010021200 AAXX 02124 67855 42975 00302 10354 20078 3//// 48///
                   333 5////=
201010020600 AAXX 02064 67855 31970 02001 10202 20063 3//// 48/// 70500
                   333 20112 5////=
201010011200 AAXX 01124 67855 42980 01304 10338 20061 38/// 48///
                   333 5////=
201010010600 AAXX 01064 67855 31970 01201 10192 20081 38/// 48/// 70500
                   333 20110 5////=
