################################################################################
# Query made at 04/14/2022 16:31:50 UTC
# Country like Zamb*
# Time interval: from 02/01/2012 05:30  to 03/02/2012 05:30  UTC
################################################################################

################################################################################
#  SYNOPS from 67403, Kawambwa (Zambia) | 09-48S | 029-05E | 1323 m
################################################################################
201202140600 AAXX 14064 67403 12980 80000 10188 20180 48530 69904 8807/
                   333 10304 20157 59002 88362=

################################################################################
#  SYNOPS from 67413, Mbala (Zambia) | 08-51S | 031-20E | 1673 m
################################################################################
201202080600 AAXX 08064 67413 12480 60000 10200 20177 48516 60024 81132
                   333 10280 20129 58004 81815 83360 83080
                   555 00135 20029 91022=
201202020600 AAXX 02064 67413 32980 70105 10180 20166 48535 8707/
                   333 10250 20140 5//// 87459
                   555 00120 20020=

################################################################################
#  SYNOPS from 67441, Mwinilunga (Zambia) | 11-45S | 024-26E | 1361 m
################################################################################
201203010600 AAXX 01064 67441 12280 70600 10183 20178 48528 69904 846//
                   333 19285 29/// 59002 87709=
201202270600 AAXX 27064 67441 12380 80000 10180 20172 48528 60034 886//
                   333 10260 20/// 58002 88709=
201202240600 AAXX 24064 67441 11/01 90000 10178 20178 48523 60064 74344 89///
                   333 10275 20/// 5////=
201202230600 AAXX 23064 67441 12480 70000 10180 20172 48/// 60384 81138
                   333 10302 20/// 5//// 81818 83360 87280=
201202200900 AAXX 20094 67441 42680 80000 10230 20152 48557 81130
                   333 5//// 81830 86362=
201202150600 AAXX 15064 67441 12980 70000 10178 20173 48536 60014 8707/
                   333 10260 20/// 58000 87360=
201202140600 AAXX 14064 67441 11970 80000 10177 20174 48536 60124 76166 8802/
                   333 10280 20/// 58011 88458=
201202130600 AAXX 13064 67441 12980 70000 10251 20175 48525 60044 8707/
                   333 10260 20/// 59005 87360=
201202081200 AAXX 08124 67441 42682 60000 10279 20176 48504 82131
                   333 59003 82835 85362 81080=
201202080600 AAXX 08064 67441 11480 70000 10185 20177 48529 60224 72166 8113/
                   333 10290 20//0 58002 81818 87360
                   555 00/// 20990=
201202070600 AAXX 07064 67441 12480 70000 10185 20177 48527 69904 8113/
                   333 10295 20/// 59007 81818 87360=
201202020600 AAXX 02064 67441 12980 70000 10200 20185 48539 69904 87031
                   333 10275 20//0 59008 87360 81080
                   555 00/// 20990=

################################################################################
#  SYNOPS from 67461, Mansa (Zambia) | 11-06S | 028-51E | 1382 m
################################################################################
201203010600 AAXX 01064 67461 11580 80000 10190 20183 48501 60174 71562 8357/
                   333 10280 20170 58007 83625 88461=
201202270600 AAXX 27064 67461 32980 73501 10190 20181 48504 8357/
                   333 10240 20170 58011 83620 87462=
201202240600 AAXX 24064 67461 32580 73603 10206 20192 48506 8257/
                   333 10300 20165 58001 82642 87462=
201202150600 AAXX 15064 67461 12980 70000 10186 20171 48509 60214 8707/
                   333 10285 20165 59002 87461=
201202140600 AAXX 14064 67461 11560 83603 10176 20176 48509 60134 76166 8357/
                   333 10295 20169 58011 82620 88461=
201202130600 AAXX 13064 67461 NIL=
201202070600 AAXX 07064 67461 12580 73604 10195 20179 48509 60014 8257/
                   333 10292 20170 58004 82620 87462=
201202030600 AAXX 03064 67461 32980 31502 10211 20195 48516 80001
                   333 10290 20164 58000 83080=
201202020600 AAXX 02064 67461 12580 40000 10204 20189 48516 60024 70222 83530
                   333 10264 20161 58005 83617 82362
                   555 00/// 20000=

################################################################################
#  SYNOPS from 67475, Kasama (Zambia) | 10-13S | 031-08E | 1382 m
################################################################################
201202270600 AAXX 27064 67475 11480 72903 10177 20171 48505 60504 72842 8357/
                   333 10245 20155 58006 83610 87460=
201202210600 AAXX 2106/ 67475 32480 30903 10207 20173 48524 81101
                   333 10272 20148 59022 81815 83080=
201202150600 AAXX 15064 67475 12380 71703 10175 20175 48/// 60324 876//
                   333 10285 20160 5//// 87706=
201202140600 AAXX 14064 67475 12920 73604 10200 20177 48512 60084 8707/
                   333 10295 20174 59002 87460=
201202130600 AAXX 13064 67475 32570 72706 10233 20177 48515 83532
                   333 10289 20195 58008 83620 84360 87080=
201202070600 AAXX 07064 67475 12580 71804 10200 20177 48506 60134 83572
                   333 10295 20164 59003 83612 84460 87280=

################################################################################
#  SYNOPS from 67476, Misamfu (Zambia) | 10-06S | 031-15E | 1536 m
################################################################################
201202270600 AAXX 27064 67476 12480 70804 10180 20171 48/// 60464 8357/
                   333 10262 20195 5//// 83618 86459=

################################################################################
#  SYNOPS from 67477, Mpika (Zambia) | 11-54S | 031-26E | 1400 m
################################################################################
201202270600 AAXX 27064 67477 12480 70000 10190 20175 48501 60044 8113/
                   333 10223 20150 58002 81812 87360=
201202250600 AAXX 25064 67477 11480 80801 10185 20176 48513 60284 70262 8557/
                   333 10270 20149 58020 85610 88360=
201202231200 AAXX 23124 67477 41680 72303 10276 20181 48456 72992 83267
                   333 59024 81940 83840 81361 87280=
201202230600 AAXX 23064 67477 12480 73001 10206 20187 48489 69954 81107
                   333 10280 20139 59015 81810 87280=
201202210600 AAXX 2106/ 67477 32480 41207 10200 20177 48524 82101
                   333 10252 20138 59018 82815 82080=
201202140600 AAXX 14064 67477 32980 71002 10218 20188 48503 84037
                   333 10284 20162 59010 84361 87280=
201202130600 AAXX 13064 67477 32480 63103 10199 20185 48513 81136
                   333 10290 20146 58001 81813 81361 86080=
201202070600 AAXX 07064 67477 12480 60000 10214 20178 48508 60244 84132
                   333 10275 20150 58001 84814 81361 82080=

################################################################################
#  SYNOPS from 67531, Zambezi (Zambia) | 13-32S | 023-07E | 1077 m
################################################################################
201203010600 AAXX 01064 67531 12980 10301 10200 20187 48/// 60014 81082
                   333 10260 20156 5//// 81361 81081=
201202270600 AAXX 27064 67531 12380 73605 10197 20185 48/// 69914 876//
                   333 10297 20197 58001 87706=
201202240600 AAXX 24064 67531 11480 61804 10203 20184 48/// 60274 72162 81578
                   333 10310 20171 58006 81610 83360 85280=
201202230600 AAXX 23064 67531 12980 73602 10216 20193 48/// 69904 87070
                   333 10324 20174 5//// 87360=
201202221200 AAXX 22124 67531 42680 61501 10310 20198 48/// 86200
                   333 59010 86847=
201202210600 AAXX 2106/ 67531 12380 43405 10201 20188 48/// 60014 82170
                   333 10281 20170 59004 82810 83360=
201202200900 AAXX 20094 67531 42580 70902 10250 20194 48/// 8113/
                   333 5//// 81821 87361=
201202150600 AAXX 15064 67531 12380 70902 10204 20191 48/// 60204 8167/
                   333 10280 20182 58002 81706 87460=
201202141200 AAXX 14124 67531 41680 80302 10215 20195 48/// 76066 8272/
                   333 58036 82707 88460=
201202140600 AAXX 14064 67531 11380 80603 10201 20194 48/// 60064 76066 8677/
                   333 10314 20190 5//// 86706 88460=
201202130600 AAXX 13064 67531 NIL=
201202081200 AAXX 08124 67531 42780 50905 10320 20195 48/// 85202
                   333 59019 85850 81080=
201202080600 AAXX 08064 67531 32980 70902 10220 20191 48/// 8707/
                   333 10297 20173 59006 87360
                   555 00/// 20994=
201202070600 AAXX 07064 67531 12980 73602 10210 20196 48/// 69944 8707/
                   333 10280 20186 58006 87460=
201202030600 AAXX 03064 67531 32980 10301 10202 20185 48/// 80001
                   333 10294 20153 58002 81081=
201202020600 AAXX 02064 67531 12980 70000 10204 20176 48/// 60094 8707/
                   333 10295 20182 58006 87360
                   555 00/// 20990=

################################################################################
#  SYNOPS from 67541, Kasempa (Zambia) | 13-32S | 025-51E | 1234 m
################################################################################
201202140600 AAXX 14064 67541 NIL=
201202130600 AAXX 13064 67541 NIL=
201202070600 AAXX 07064 67541 NIL=

################################################################################
#  SYNOPS from 67561, Ndola (Zambia) | 13-00S | 028-39E | 1269 m
################################################################################
201202270600 AAXX 27064 67561 11360 70000 10198 20179 48503 60044 70522 86632
                   333 10279 20170 58004 86708 85360 83080=
201202250600 AAXX 25064 67561 11260 80000 10188 20178 48525 60704 72192 8677/
                   333 10290 20174 58026 819// 88459=
201202241500 AAXX 2415/ 67561 41659 80000 10190 20175 48458 79522 86278
                   333 59005 81940 86840 86459 87280=
201202241200 AAXX 24124 67561 42580 70000 10294 20183 48463 86208
                   333 59002 86830 87280=
201202240600 AAXX 24064 67561 11970 79903 10205 20182 48492 60044 70592 83038
                   333 10312 20176 58008 83360 87280=
201202231200 AAXX 23124 67561 41560 69903 10290 20183 48565 70522 86202
                   333 59011 86840 82080=
201202230600 AAXX 23064 67561 31960 60605 10216 20198 48485 70522 81338
                   333 10300 20173 58037 81615 81360 86280=
201202210600 AAXX 2106/ 67561 31975 70000 10201 20179 48525 70522 87030
                   333 10268 20166 59011 87360=
201202150600 AAXX 15064 67561 11359 80000 10180 20174 48520 60224 76166 8377/
                   333 10286 20170 83706 87459=
201202140600 AAXX 14064 67561 31370 70000 10205 20188 48512 72992 8367/
                   333 10284 20191 58007 85708 81959 87460=
201202130600 AAXX 13064 67561 11960 79903 10183 20173 48502 60064 70522 86038
                   333 10283 20170 58006 86360 87280=
201202081200 AAXX 08124 67561 41560 79902 10193 20179 48477 79592 85238
                   333 58004 81930 83830 81359 86280=
201202070600 AAXX 07064 67561 32280 70607 10214 20187 48511 85638
                   333 10285 20/// 59003 85705 84360 86280=

################################################################################
#  SYNOPS from 67563, Kafironda (Zambia) | 12-36S | 028-07E | 1243 m
################################################################################
201202270600 AAXX 27064 67563 12980 71601 10204 20190 48/// 60014 87070
                   333 10290 20178 58005 87358=
201202150600 AAXX 15064 67563 11975 80000 10182 20180 48/// 60074 76066 8802/
                   333 10294 20175 58001 88460=
201202141200 AAXX 14124 67563 41675 52704 10257 20160 48/// 70522 83231
                   333 58015 83850 83362 82080=
201202140900 AAXX 14094 67563 41575 73004 10240 20170 48/// 70522 87500
                   333 58012 87630=
201202140600 AAXX 14064 67563 11475 82103 10207 20190 48/// 60024 76066 886//
                   333 10295 20187 58011 88704=
201202080600 AAXX 08064 67563 11375 63302 10197 20190 48/// 69904 70522 85631
                   333 10300 20166 58000 85703 82358 83080
                   555 00/// 00165 20000=
201202020600 AAXX 02064 67563 11980 53501 10187 20180 48/// 60274 70522 85070
                   333 10275 20171 58002 85358
                   555 00170 20992=

################################################################################
#  SYNOPS from 67571, Serenje (Zambia) | 13-14S | 030-13E | 1384 m
################################################################################
201202270600 AAXX 27064 67571 11175 83602 10186 20181 48481 60054 74244 886//
                   333 10258 20166 58014 88702=

################################################################################
#  SYNOPS from 67580, Msekera (Zambia) | 13-39S | 032-34E | 1025 m
################################################################################
201202270600 AAXX 27064 67580 12980 70000 10214 20198 48/// 69904 875//
                   333 10277 20/// 58012 87618=
201202150600 AAXX 15064 67580 12480 72703 10215 20194 48/// 60044 81538
                   333 10295 20/// 58014 81617 82361 87280=
201202140600 AAXX 14064 67580 12980 51503 10244 20196 48/// 60234 82031
                   333 10285 20/// 59004 82361 84080=

################################################################################
#  SYNOPS from 67581, Chipata (Zambia) | 13-33S | 032-35E | 1028 m
################################################################################
201202270600 AAXX 27064 67581 12580 71806 10214 20196 48512 60254 85570
                   333 10277 20182 58013 85620 87460=
201202250600 AAXX 25064 67581 11470 81603 10199 20186 48515 60204 76366 8357/
                   333 10307 20189 58021 83510 88459=
201202241200 AAXX 24124 67581 42680 51803 10299 20182 48479 85272
                   333 58003 85840 82460 81080=
201202240600 AAXX 24064 67581 32680 30803 10256 20181 48505 81138
                   333 10311 20178 58012 81835 83360 81080=
201202231200 AAXX 23124 67581 42780 73605 10302 20172 48478 87208
                   333 59014 87856 85280=
201202210600 AAXX 2106/ 67581 32682 40902 10241 20166 48535 81132
                   333 10288 20190 59021 81835 83360 81080=
201202150600 AAXX 15064 67581 12580 72703 10212 20187 48521 60094 81532
                   333 10306 20175 58012 81525 83360 87080=
201202140600 AAXX 14064 67581 12980 73005 10234 20191 48512 60184 80008
                   333 10289 20191 59004 87280=
201202130600 AAXX 13064 67581 32680 61203 10242 20202 48518 81138
                   333 10307 20182 58000 81830 83360 85280=
201202070600 AAXX 07064 67581 12980 41604 10242 20195 48512 69904 84030
                   333 10309 20190 59009 84360=

################################################################################
#  SYNOPS from 67583, Lundazi (Zambia) | 12-17S | 033-12E | 1143 m
################################################################################
201202270600 AAXX 27064 67583 12580 63601 10215 20192 48/// 60074 81538
                   333 10270 20170 5//// 81625 82360 85280=

################################################################################
#  SYNOPS from 67599, Mfuwe (Zambia) | 13-16S | 031-56E | 568 m
################################################################################
201202270600 AAXX 27064 67599 12370 70000 10235 20219 48522 60044 8357/
                   333 10295 20209 58011 83709 87460=
201202261200 AAXX 26124 67599 41480 73610 10260 20224 48487 79596 829//
                   333 59033 82915 87820=
201202250600 AAXX 25064 67599 11350 83003 10205 20203 48531 60254 76266 8277/
                   333 10348 20200 58043 82704 819// 88458=
201202200900 AAXX 20094 67599 42580 40604 10244 20216 48563 84200
                   333 58013 84820 91020=
201202200600 AAXX 20064 67599 11359 80000 10205 20197 48555 74044 887//
                   333 10255 20190 58027 88703
                   555 00/// 20001 91021=
201202151200 AAXX 15124 67599 42680 50000 10300 20231 48520 70122 84202
                   333 59021 84835 83080 91013=
201202150600 AAXX 15064 67599 12380 70000 10221 20209 48525 60534 877//
                   333 10341 20201 59018 87709=
201202140900 AAXX 14094 67599 42680 73406 10298 20226 48527 70322 83202
                   333 59005 83830 87080=
201202070900 AAXX 07094 67599 42580 60907 10295 20232 48533 862//
                   333 58001 86825=

################################################################################
#  SYNOPS from 67633, Mongu (Zambia) | 15-15S | 023-09E | 1052 m
################################################################################
201202270600 AAXX 27064 67633 12980 40901 10227 20208 48489 69904 84030
                   333 10285 20191 59009 84360=
201202240600 AAXX 24064 67633 11980 70000 10192 20183 48492 60464 72162 8707/
                   333 10313 20180 58018 87460=
201202230600 AAXX 23064 67633 32980 42004 10246 20214 48481 81032
                   333 10302 20205 59021 81360 84080=
201202210600 AAXX 2106/ 67633 11480 73002 10204 20197 48512 60334 76066 8457/
                   333 10269 20183 59012 84615 87460=
201202150600 AAXX 15064 67633 12380 70304 10213 20196 48499 60034 8263/
                   333 10255 20198 58003 82706 87360=
201202140600 AAXX 14064 67633 12480 70903 10215 20207 48496 60314 8267/
                   333 10360 20172 58007 82710 87460=
201202130600 AAXX 13064 67633 12980 70801 10220 20198 48491 69904 85038
                   333 10280 20198 59004 85360 86280=
201202070600 AAXX 07064 67633 32980 60903 10220 20194 48494 85032
                   333 10300 20190 58008 85360 83080=

################################################################################
#  SYNOPS from 67641, Kaoma (Zambia) | 14-48S | 024-48E | 1213 m
################################################################################
201202270600 AAXX 27064 67641 32980 10801 10210 20195 48488 81530
                   333 10305 20179 58000 81630 81360=
201202210600 AAXX 2106/ 67641 11582 80402 10200 20192 48516 69974 75055 8553/
                   333 10271 20185 58004 85640 86360=
201202150600 AAXX 15064 67641 12482 70702 10217 20202 48503 69904 82530
                   333 10282 20192 58009 82630 86360=
201202140600 AAXX 14064 67641 12582 70000 10206 20191 48493 60064 82530
                   333 10304 20190 58006 82640 86360=
201202130600 AAXX 13064 67641 NIL=
201202070600 AAXX 07064 67641 NIL=

################################################################################
#  SYNOPS from 67655, Mumbwa (Zambia) | 15-04S | 027-11E | 1216 m
################################################################################
201202150600 AAXX 15064 67655 11960 80402 10190 20184 48524 60274 75162 8807/
                   333 10290 20/// 58010 88359=
201202080600 AAXX 08064 67655 32480 60805 10214 20206 48507 81671
                   333 10286 20//0 59007 81715 83358 85278
                   555 00/// 91018=

################################################################################
#  SYNOPS from 67663, Kabwe (Zambia) | 14-27S | 028-28E | 1206 m
################################################################################
201202140600 AAXX 14064 67663 32480 70000 10219 20200 48510 84530
                   333 10286 20189 58004 84619 86360=
201202130600 AAXX 13064 67663 NIL=
201202070600 AAXX 07064 67663 NIL=

################################################################################
#  SYNOPS from 67665, Lusaka Internationalairport (Zambia) | 15-19S | 028-27E | 1152 m
################################################################################
201203011200 AAXX 01124 67665 42680 61802 10277 20220 48487 86200
                   333 59001 81938 86840=
201203010900 AAXX 01094 67665 42580 72902 10247 20215 48505 70322 85230
                   333 58000 85825 82360=
201203010600 AAXX 01064 67665 12480 62802 10207 20207 48501 69904 81130
                   333 10286 20177 58001 81815 86360=
201202292100 AAXX 29214 67665 42980 12601 10189 20189 48493 81030
                   333 58000 81360=
201202291200 AAXX 29124 67665 41665 61504 10263 20222 48484 71622 86200
                   333 59012 81937 86839=
201202290900 AAXX 29094 67665 42580 63102 10247 20225 48505 86200
                   333 59018 86825=
201202290600 AAXX 29064 67665 12480 50502 10207 20191 48500 60014 84530
                   333 10295 20172 59022 84610 82360=
201202290400 AAXX 29044 67665 41980 50000 10187 20187 48590 74100 82032
                   333 59022 82360 83080 91015=
201202281800 AAXX 28184 67665 42780 20000 10208 20208 48492 81030
                   333 10295 59005 81956 81360=
201202281500 AAXX 28154 67665 41680 70503 10223 20215 48481 71799 82232
                   333 59001 81945 81845 83360 85080=
201202280600 AAXX 28064 67665 32980 33402 10226 20188 48523 83031
                   333 10285 20166 58008 83360 81080=
201202280400 AAXX 2804/ 67665 42980 31302 10167 20167 48509 83080
                   333 58016 87360=
201202280300 AAXX 28034 67665 42980 12801 10181 20181 48502 80001
                   333 58011 81080=
201202272100 AAXX 27214 67665 42980 01702 10192 20192 48508
                   333 58008=
201202271800 AAXX 27184 67665 41780 31402 10215 20215 48498 71300 81932
                   333 10285 58010 81957 81360 83080 91016=
201202271200 AAXX 27124 67665 41680 50703 10279 20206 48495 71622 85202
                   333 59005 81940 85840 82080 91015=
201202270900 AAXX 27094 67665 42680 60804 10257 20211 48518 85802
                   333 58005 84830 82635 82080=
201202270600 AAXX 27064 67665 32980 50701 10215 20200 48514 81032
                   333 10280 20162 58004 81360 85080=
201202270300 AAXX 27034 67665 42980 00000 10171 20171 48491 83030
                   333 59007 83360=
201202270000 AAXX 27004 67665 42980 21602 10186 20186 48495 82030
                   333 59003 82360=
201202261800 AAXX 26184 67665 42980 11201 10214 20199 48487 81030
                   333 10280 59011 81360=
201202261200 AAXX 26124 67665 41680 61103 10262 20196 48491 71622 86200
                   333 59025 81935 86840=
201202251800 AAXX 25184 67665 42980 51101 10211 20211 48498 70222 83032
                   333 58009 83360 85080=
201202251200 AAXX 25124 67665 42680 60504 10250 20216 48512 70222 85232
                   333 58017 85830 82360 84080=
201202250900 AAXX 25094 67665 42480 70603 10237 20223 48532 86232
                   333 58024 85215 82360 85280=
201202250600 AAXX 25064 67665 11357 71102 10202 20201 48525 60024 74044 83632
                   333 10250 20174 58022 83605 84360 85280=
201202241500 AAXX 2415/ 67665 42780 61701 10239 20232 48475 81932
                   333 58022 81950 83850 83360 86280=
201202241200 AAXX 24124 67665 41480 71701 10206 20206 48491 79596 81932
                   333 58026 83715 81925 83360 86280=
201202240900 AAXX 24094 67665 42480 72103 10235 20228 48508 70222 81930
                   333 58013 81920 84825 85360=
201202240600 AAXX 24064 67665 12480 72902 10206 20206 48501 84830
                   333 10310 20185 58012 84612 82813 86360=
201202240400 AAXX 24044 67665 42980 61601 10195 20195 48485 86030
                   333 58006 86360=
201202240300 AAXX 24034 67665 42980 70000 10195 20195 48480 87030
                   333 58006 87360=
201202232100 AAXX 23214 67665 41780 41001 10218 20218 48487 71311 81932
                   333 58001 81950 82360 83080=
201202231800 AAXX 23184 67665 41980 41301 10234 20234 48478 71722 81932
                   333 10310 58005 81960 83360 84080=
201202231200 AAXX 23124 67665 42680 50903 10300 20214 48475 85201
                   333 58019 85850 81080=
201202230900 AAXX 23094 67665 42680 41202 10275 20226 48500 83130
                   333 59017 83838 81360=
201202230600 AAXX 23064 67665 12980 11202 10225 20210 48492 69904 81030
                   333 10302 20171 59022 81360=
201202221500 AAXX 22154 67665 41780 61902 10247 20234 48472 72992 81902
                   333 59018 81950 81850 86280=
201202221200 AAXX 22124 67665 42680 50703 10294 20215 48493 85200
                   333 59019 85840=
201202220600 AAXX 22064 67665 32980 31402 10226 20190 48512 80001
                   333 10290 20160 59024 83080=
201202220300 AAXX 22034 67665 42980 02802 10178 20278 48488
                   333 59027=
201202220000 AAXX 22004 67665 42980 01901 10180 20180 48502
                   333 58026=
201202212100 AAXX 21214 67665 42980 00401 10194 20194 48504
                   333 59027=
201202211800 AAXX 21184 67665 41780 21602 10220 20220 48499 71300 81931
                   333 10280 59027 81956 81360 81080 91016=
201202211500 AAXX 21154 67665 42780 40903 10277 83200
                   333 59023 81950 83850
                   555 10280 91014=
201202211200 AAXX 21124 67665 42680 60902 10273 20216 48510 86200
                   333 59016 86842 91016=
201202210900 AAXX 21094 67665 42680 60706 10256 20213 48539 86800
                   333 59015 84830 83635=
201202210600 AAXX 21064 67665 32480 41003 10209 20190 48535 84530
                   333 10276 20169 59010 83617 82360=
201202210400 AAXX 2104/ 67665 42380 41202 10180 20180 48519 8253/
                   333 59009 82706 85360=
201202210300 AAXX 2103/ 67665 42980 21302 10186 20186 48512 82030
                   333 59012 82360=
201202202100 AAXX 20214 67665 42980 51602 10198 20198 48531 85030
                   333 59021 85360=
201202200900 AAXX 20094 67665 42480 70901 10227 20192 48550 86832
                   333 58010 82712 84815 82360 82080 91022=
201202200600 AAXX 20064 67665 12380 80501 10219 20213 48546 60534 70222 8663/
                   333 10265 20169 58014 86707 87360
                   555 00/// 91021=
201202191800 AAXX 19184 67665 41578 70102 10222 20222 48541 76196 8193/
                   333 58040 81925 87360=
201202191500 AAXX 19154 67665 42580 70701 10254 20203 48515 82531
                   333 58033 82625 84830 83360 83080=
201202191200 AAXX 19124 67665 42480 73402 10237 20211 48527 8457/
                   333 58035 84618 82820 84360=
201202190900 AAXX 19094 67665 41365 70402 10209 20209 48538 72562 8567/
                   333 58023 85709 87459=
201202190600 AAXX 19064 67665 12380 70801 10199 20199 48529 69964 8267/
                   333 10295 20134 58020 82707 87360=
201202181200 AAXX 18124 67665 41680 61503 10255 20241 48495 72522 85230
                   333 59006 85835 84360=
201202180900 AAXX 18094 67665 42480 70601 10243 20229 48519 82530
                   333 59002 82615 85825 85360=
201202180000 AAXX 18004 67665 41959 21601 10181 20181 48495 74244 82030
                   333 58001 82360=
201202172100 AAXX 17214 67665 41/00 91301 10211 20211 48498 74742 8////
                   333 59015=
201202171200 AAXX 17124 67665 42470 72503 10220 20213 48491 8227/
                   333 58006 82815 87460=
201202170900 AAXX 17094 67665 41360 72705 10203 20203 48516 72162 8567/
                   333 58002 85708 87459=
201202170600 AAXX 17064 67665 11358 82904 10218 20218 48515 60154 76266 8677/
                   333 10291 20186 59001 86707 88459=
201202170400 AAXX 17044 67665 41358 82703 10201 20201 48500 76066 8577/
                   333 59004 85706 88459 91016=
201202170300 AAXX 17034 67665 41358 72603 10198 20198 48495 76022 8577/
                   333 59013 85706 87459=
201202161800 AAXX 16184 67665 42780 71403 10225 20225 48501 81932
                   333 10291 59002 81950 86360 82080=
201202161500 AAXX 16154 67665 42780 72802 10278 20206 48482 82202
                   333 59008 81950 82850 87080=
201202161200 AAXX 16124 67665 42680 62803 10279 20230 48497 83202
                   333 59015 83840 85080=
201202160600 AAXX 16064 67665 32980 71302 10216 20178 48515 82032
                   333 10276 20178 59018 82360 87280=
201202152100 AAXX 15214 67665 41380 32703 10210 20210 48526 71321 81931
                   333 58019 819// 81607 83360 81080=
201202151800 AAXX 15184 67665 42780 21702 10222 20222 48503 81031
                   333 10276 59002 81956 81360 81080 91016=
201202151500 AAXX 15154 67665 42680 22903 10260 20218 48488 82101
                   333 59002 82840 81080
                   555 10276 91014=
201202151200 AAXX 15124 67665 42580 62902 10249 20214 48508 84232
                   333 58002 84825 81360 82080 91017=
201202150900 AAXX 15094 67665 42460 73302 10217 20210 48527 8553/
                   333 58009 85610=
201202150600 AAXX 15064 67665 11360 83501 10188 20188 48530 60204 76166 8573/
                   333 10250 20175 58016 85704 88359=
201202150400 AAXX 1504/ 67665 41359 73602 10219 20219 48517 76196 8193/
                   333 81950 86702 84360=
201202150300 AAXX 1503/ 67665 41480 73403 10193 20193 48510 79666 81932
                   333 58012 81950 84710 84360 82080=
201202150000 AAXX 15004 67665 41979 10201 20201 48506 74422 82032
                   333 58006 82360 84080=
201202142100 AAXX 14214 67665 42980 51402 10201 20201 48506 70222 80002
                   333 58004 85080=
201202141200 AAXX 14124 67665 41560 61501 10208 20208 48501 76166 81931
                   333 58014 81925 85460 83080 91016=
201202140900 AAXX 14094 67665 41480 72804 10214 20214 48517 79666 81931
                   333 58000 85710 81915 83360 83080=
201202140600 AAXX 14064 67665 31359 61301 10241 20241 48519 74144 83681
                   333 10285 20174 58002 83607 83359 82080=
201202131800 AAXX 13184 67665 42780 41002 10222 20222 48489 81232
                   333 58005 81950 81360 82080=
201202131200 AAXX 13124 67665 42680 50702 10262 20213 48490 82102
                   333 58002 82830 85080=
201202130900 AAXX 13094 67665 42480 71002 10209 20209 48517 84532
                   333 58013 84515 83360 86280=
201202130600 AAXX 13064 67665 12380 79902 10193 20182 48511 60264 8167/
                   333 10304 20159 59005 81607 87360=
201202121200 AAXX 12124 67665 42680 52904 10295 20201 48492 84201
                   333 59003 84848 83080=
201202120900 AAXX 12094 67665 42580 52903 10281 20193 48513 70500 82202
                   333 58000 82825 85080=
201202120600 AAXX 12064 67665 32480 53003 10215 20201 48510 10311 20178 58013 81815 83360
                   83080=
201202120400 AAXX 1204/ 67665 42980 63002 10181 20181 48496 86030
                   333 58007 86360=
201202112100 AAXX 11214 67665 42/60 33002 10220 20220 48508 70511 81932
                   333 58021 81360 83080=
201202110600 AAXX 11064 67665 12970 12704 10221 20207 48497 60014 81030
                   333 10298 20161 59003 81360=
201202110400 AAXX 1104/ 67665 42980 32702 10192 20192 48490 83031
                   333 59003 83360 81080 91015=
201202110300 AAXX 11034 67665 42980 52702 10185 20185 48488 85030
                   333 59002 85360 91015=
201202110000 AAXX 11004 67665 42980 22901 10191 20191 48483 81032
                   333 59011 81360 81080=
201202102100 AAXX 10214 67665 42980 20000 10196 20196 48485 81032
                   333 59008 81360 81080 91015=
201202101800 AAXX 10184 67665 41780 40000 10206 20206 48472 71300 81932
                   333 10298 59016 81956 82360 83080=
201202101500 AAXX 10154 67665 41660 63504 10234 20227 48468 79599 82232
                   333 59008 81945 81845 85360 81080=
201202101200 AAXX 10124 67665 42680 60801 10295 20209 48483 86201
                   333 59020 81935 86835 81080=
201202100600 AAXX 10064 67665 32380 42901 10207 20194 48497 81531
                   333 10290 20175 59016 81707 81360 84080=
201202100300 AAXX 10034 67665 42480 73002 10199 20990 48494 87530
                   333 59008 87510 81360=
201202100000 AAXX 10004 67665 42980 21801 10184 20184 48492 82030
                   333 59008 82360=
201202092100 AAXX 09214 67665 42980 01701 10188 20188 48490
                   333 59012=
201202091800 AAXX 09184 67665 41780 30000 10209 20209 48488 71300 81032
                   333 10290 59009 81956 81360 82080 91015=
201202091500 AAXX 09154 67665 42680 31202 10247 20233 48478 81032
                   333 59010 81945 81360 82080
                   555 10290 91013=
201202091200 AAXX 09124 67665 41660 61604 10238 20214 48497 71722 81930
                   333 59002 81930 86835 82360 91015=
201202090900 AAXX 09094 67665 42580 60602 10253 20239 48516 86232
                   333 59004 86825 81360 81080=
201202090600 AAXX 09064 67665 12480 70902 10203 20203 48513 72162 85530
                   333 10272 20165 58003 85610 86360=
201202090400 AAXX 09044 67665 42980 71502 10199 20199 48501 70322 86030
                   333 59002 86360 82080=
201202090300 AAXX 09034 67665 42980 51402 10190 20190 48500 70322 85030
                   333 59001 85360=
201202090000 AAXX 09004 67665 42980 30000 10182 20182 48496 82031
                   333 58005 82360 82080=
201202082100 AAXX 08214 67665 42980 31303 10187 20187 48503 82031
                   333 58001 82360 82080=
201202081800 AAXX 08184 67665 42980 43101 10214 20214 48497 83031
                   333 10272 59002 83360 82080=
201202081200 AAXX 08124 67665 42680 70602 10257 20206 48501 83232
                   333 59001 83835 83360 87280=
201202080900 AAXX 08094 67665 42580 60805 10254 20226 48509 70222 85531
                   333 59001 85620 83360 81080 91018=
201202080600 AAXX 08064 67665 32380 60702 10215 20206 48512 72842 83532
                   333 10285 20175 59009 83609 85360 82080
                   555 00/// 91017=
201202071200 AAXX 07124 67665 42680 70904 10265 20223 48504 71662 86232
                   333 59005 81935 85835 82360 83080=
201202070900 AAXX 07094 67665 42680 10264 20221 48522 86231
                   333 59006 86820 82360 82080=
201202070600 AAXX 07064 67665 32380 61002 10217 20193 48521 82532
                   333 10264 20178 59002 83608 85360 85280=
201202061200 AAXX 06124 67665 42680 70102 10242 20205 48505 83232
                   333 59003 81935 83835 86360 81080=
201202060900 AAXX 06094 67665 42580 63503 10237 20215 48526 84232
                   333 81925 85825 82360 82080=
201202060600 AAXX 06064 67665 12380 73202 10196 20196 48521 69904 70322 84730
                   333 10273 20182 58001 84709 81915 84360=
201202060400 AAXX 06044 67665 42380 62904 10188 20188 48509 83730
                   333 59002 83706 819// 84360=
201202052100 AAXX 05214 67665 42980 21201 10199 20199 48510 82032
                   333 59012 82360 81080=
201202051200 AAXX 05124 67665 42480 70803 10241 20232 48508 72122 83830
                   333 58001 82615 83818 85360=
201202050900 AAXX 05094 67665 42480 60606 10240 20225 48525 86530
                   333 59009 86618 83360=
201202050600 AAXX 05064 67665 12380 70804 10190 20190 48510 876//
                   333 10268 20148 59006 87708=
201202050400 AAXX 0504/ 67665 41359 61501 10216 20216 48511 74122 81632
                   333 59004 81706 85360 82080=
201202050000 AAXX 05004 67665 42980 30000 10200 20200 48506 83031
                   333 59005 83360 81080=
201202042100 AAXX 04214 67665 42780 40000 10202 20202 48522 84030
                   333 58000 81956 84360=
201202041800 AAXX 04184 67665 42680 51001 10205 20205 48510 81932
                   333 59007 81948 81848 82360 85080=
201202041500 AAXX 04154 67665 42680 70902 10225 20225 48491 81932
                   333 59012 81940 81840 86280=
201202041200 AAXX 04124 67665 41560 60000 10193 20193 48501 76096 85230
                   333 59001 81925 85825 83360=
201202040900 AAXX 0409/ 67665 42480 70603 10239 20194 48532 8653/
                   333 58002 86615 84360=
201202040400 AAXX 0404/ 67665 42958 41001 10216 20216 48518 74422 84360=
201202032100 AAXX 03214 67665 42980 70402 10204 20204 48522 80002
                   333 59003 87280=
201202030900 AAXX 03094 67665 42680 60802 10274 20221 48535 86200
                   333 58002 86830=
201202030600 AAXX 03064 67665 32980 30000 10231 20217 48535 83031
                   333 10290 20175 58016 83360 81080=
201202021800 AAXX 02184 67665 42680 60902 10213 20213 48509 71322 81902
                   333 58003 81940 82840 84080=
201202020600 AAXX 02064 67665 32380 22902 10206 20181 48516 81630
                   333 10296 20166 58004 81708 81360
                   555 00///=
201202012100 AAXX 01214 67665 42680 50103 10276 20212 48510 70292 81902
                   333 58010 81930 85830 82080=
201202011200 AAXX 01124 67665 42680 63304 10277 20213 48500 86230
                   333 59001 86840 82360=
201202010900 AAXX 01094 67665 42480 62803 10261 20218 48524 70322 83432
                   333 58003 82620 84820 83360 82080=
201202010600 AAXX 01064 67665 31959 52903 10212 20183 48513 74144 82032
                   333 10298 20180 58002 82360 84080=

################################################################################
#  SYNOPS from 67666, Lusaka City Airport (Zambia) | 15-25S | 028-19E | 1280 m
################################################################################
201202270600 AAXX 27064 67666 32980 50409 10216 20170 48507 80001
                   333 10/// 20163 58005 85080=
201202141200 AAXX 14124 67666 41580 71602 10222 20192 48496 72582 8126/
                   333 58017 81825 86360=
201202140900 AAXX 14094 67666 41580 72705 10215 20185 48513 71722 8652/
                   333 58006 829// 85615 83460=
201202140600 AAXX 14064 67666 32980 82707 10203 20189 48513 8802/
                   333 10/// 20185 58006 88460=

################################################################################
#  SYNOPS from 67673, Petauke (Zambia) | 14-15S | 031-17E | 1035 m
################################################################################
201202270600 AAXX 27064 67673 31580 70403 10223 20198 48517 72842 84531
                   333 10286 20190 58006 84620 85362 81080=
201202150600 AAXX 15064 67673 12584 82406 10207 20192 48525 60904 8657/
                   333 10322 20187 58013 86620 88462=
201202141200 AAXX 14124 67673 42680 40403 10307 20178 48498 84232
                   333 59006 82840 81360 81080=
201202140900 AAXX 14094 67673 42680 30603 10286 20194 48525 83101
                   333 59011 83835 81080=
201202140600 AAXX 14064 67673 32984 71503 10242 20194 48518 81038
                   333 10306 20200 59013 81362 87280=
201202080600 AAXX 08064 67673 12580 20905 10242 20195 48519 60034 81131
                   333 10293 20192 58001 81820 81362 81080
                   555 00/// 20007=
201202020600 AAXX 02064 67673 12884 20205 10224 20194 48524 60354 82020=

################################################################################
#  SYNOPS from 67743, Livingstone (Zambia) | 17-49S | 025-49E | 985 m
################################################################################
201202270600 AAXX 27064 67743 32780 30000 10221 20190 48476 81130
                   333 10314 20181 59006 81856 81360=
201202250900 AAXX 25094 67743 42680 70907 10264 20199 48530 85532
                   333 59001 84630 82830 83360 82080=
201202250600 AAXX 25064 67743 11530 81610 10205 20203 48513 60014 74042 845//
                   333 10244 20191 58003 85625=
201202241200 AAXX 24124 67743 41659 81803 10222 20206 48500 76062 8217/
                   333 58035 82840 87460=
201202240600 AAXX 24064 67743 41659 81803 10222 20206 48500 76062 8217/
                   333 58035 82840 87460=
201202231200 AAXX 23124 67743 42780 22706 10314 20192 48482 71722 81901
                   333 59006 81950 81850 81080=
201202230600 AAXX 23064 67743 31680 50805 10225 20188 48483 79992 83532
                   333 10335 20194 59023 83635 84360 81075=
201202221200 AAXX 22124 67743 42680 31803 10316 20193 48496 83200
                   333 59015 83845=
201202210600 AAXX 2106/ 67743 32680 31010 10218 20194 48526 81131
                   333 10300 20183 58015 81845 81360 81080=
201202200900 AAXX 20094 67743 42580 61510 10225 20195 48546 84801
                   333 59800 81820 84625 81080
                   555 91020=
201202150600 AAXX 15064 67743 12480 70603 10208 20189 60044 8147/
                   333 10328 20205 58000 82620 85360 81080=
201202140600 AAXX 14064 67743 12580 70102 10204 20184 48505 69994 81582
                   333 10310 20178 58010 81620 84459 81080=
201202130600 AAXX 13064 67743 12380 80903 10208 20203 48501 60024 8357/
                   333 10291 20202 58011 83615 87360=
201202070600 AAXX 07064 67743 12480 71504 10213 20204 48510 60024 82572
                   333 10318 20186 58006 81612 81815 83459 84080=
201202020600 AAXX 02064 67743 12980 33005 10218 20184 48509 69904 82041
                   333 10312 20190 58007 82359 81075
                   555 00///=

################################################################################
#  SYNOPS from 67753, Choma (Zambia) | 16-50S | 027-04E | 1213 m
################################################################################
201202270600 AAXX 27064 67753 32960 30408 10226 20186 48/// 83030
                   333 10278 20149 5//// 83360=
201202221200 AAXX 22124 67753 42680 41104 10293 20204 48/// 84200
                   333 5//// 84835=
201202210600 AAXX 2106/ 67753 12460 40906 10219 20199 48/// 60024 84800
                   333 10254 20174 5//// 83615 81820=
201202150600 AAXX 15064 67753 12560 80000 10182 20182 48/// 60234 8457/
                   333 10274 20166 5//// 84620 86360=
201202140600 AAXX 14064 67753 11540 82706 10173 20170 48/// 69994 76060 8553/
                   333 10251 20172 5//// 85620 87360=
201202130600 AAXX 13064 67753 NIL=
201202070600 AAXX 07064 67753 12560 60804 10203 20192 48/// 60034 83532
                   333 10282 20168 5//// 83620 82360 85080=

################################################################################
#  SYNOPS from 67855, Lupaki (Zambia) | 17-03-00S | 024-46-00E | 1000 m
################################################################################
201203011800 AAXX 01184 67855 NIL=
201203011200 AAXX 01124 67855 42780 52003 10310 20120 3//// 48/// 85200
                   333 5//// 85850=
201203010600 AAXX 01064 67855 32980 52001 10186 20161 3//// 48/// 80001
                   333 20148 5//// 85080=
201202291800 AAXX 29184 67855 NIL=
201202291200 AAXX 29124 67855 42780 21301 10314 20148 38/// 48/// 82201
                   333 5//// 82850=
201202290600 AAXX 29064 67855 32980 51701 10186 20153 3//// 48/// 80001
                   333 20148 5//// 85080=
201202281800 AAXX 28184 67855 NIL=
201202281200 AAXX 28124 67855 42780 53301 10290 20179 3//// 48/// 85200
                   333 5//// 85850=
201202280600 AAXX 28064 67855 12980 12001 10182 20166 38/// 48/// 60024 80001
                   333 20148 5//// 81080=
201202181200 AAXX 18124 67855 41680 40601 10310 20154 3//// 48/// 72161 84230
                   333 5//// 84850=
201202180600 AAXX 18064 67855 32380 70601 10226 20194 3//// 48/// 8167/
                   333 20205 5//// 81707 87460=
201202171200 AAXX 17124 67855 42780 60704 10308 20162 38/// 48/// 83201
                   333 5//// 83850 86080=
201202170600 AAXX 17064 67855 12380 71801 10206 20204 3//// 48/// 60014 81601
                   333 20179 5//// 81707 87080=
201202161800 AAXX 16184 67855 NIL=
201202161200 AAXX 16124 67855 41680 73104 10300 20210 3//// 48/// 71798 86273
                   333 5//// 81935 85840 87080=
201202160600 AAXX 16064 67855 12980 50301 10210 20204 3//// 48/// 69904 85071
                   333 20184 5//// 85460=
201202151800 AAXX 15184 67855 NIL=
201202151200 AAXX 15124 67855 42780 50303 10310 20189 38/// 48/// 85200
                   333 5//// 85850=
201202150600 AAXX 15064 67855 12980 73603 10232 20192 38/// 48/// 60154 82031
                   333 20196 5//// 82360 87080=
201202141800 AAXX 14184 67855 NIL=
201202141200 AAXX 14124 67855 41780 60701 10296 20189 3//// 48/// 72582 86260
                   333 5//// 86850=
201202140600 AAXX 14064 67855 11980 50603 10226 20198 3//// 48/// 60014 72162 82031
                   333 20190 5//// 82360 85080=
201202131200 AAXX 13124 67855 41780 73602 10296 20176 3//// 48/// 70342 82231
                   333 5//// 82850 87080=
201202130600 AAXX 13064 67855 11370 70301 10218 20201 3//// 48/// 60344 74042 85671
                   333 20185 5//// 85460 87080=
201202121800 AAXX 12184 67855 NIL=
201202121200 AAXX 12124 67855 NIL=
201202120600 AAXX 12064 67855 11570 73001 10228 20194 3//// 48/// 69904 70522 81231
                   333 20183 5//// 81820 87080=
201202111800 AAXX 11184 67855 NIL=
201202111200 AAXX 11124 67855 41680 53102 10272 20213 3//// 48/// 72598 82262
                   333 5//// 82830 85080=
201202110600 AAXX 11064 67855 32980 63202 10236 20195 86081
                   333 20174 5//// 86360=
201202101200 AAXX 10124 67855 42780 43403 10322 20186 3//// 48/// 84231
                   333 5//// 84850=
201202091800 AAXX 09184 67855 NIL=
201202091200 AAXX 09124 67855 42780 63602 10310 20192 38/// 48/// 86201
                   333 5//// 86850=
201202090600 AAXX 09064 67855 11370 10601 10220 20208 3//// 48/// 60214 74040 81630
                   333 20188 5//// 81707=
201202081200 AAXX 08124 67855 41680 63301 10294 20199 3//// 48/// 72998 86230
                   333 5//// 85840=
201202080600 AAXX 08064 67855 11370 30604 10224 20196 3//// 48/// 69904 70500 81630
                   333 20190 5//// 81707 83360=
201202071800 AAXX 07184 67855 NIL=
201202071200 AAXX 07124 67855 42780 63602 10290 20183 3//// 48/// 83231
                   333 5//// 83850 86360=
201202070600 AAXX 07064 67855 11970 70602 10204 20193 38/// 48/// 60174 72162 8707/
                   333 20185 5//// 87460=
201202061800 AAXX 06184 67855 NIL=
201202061200 AAXX 06124 67855 41570 71901 10250 20204 38/// 48/// 71798 82233
                   333 5//// 81925 85830 87080=
201202060600 AAXX 06064 67855 11970 70301 10220 20198 3//// 48/// 60154 70522 8707/
                   333 20193 5//// 87460=
201202051200 AAXX 05124 67855 NIL=
201202050600 AAXX 05064 67855 11370 61801 10204 20199 3//// 48/// 60504 72164 86630
                   333 20189 5//// 86707=
201202041800 AAXX 04184 67855 NIL=
201202041200 AAXX 04124 67855 42780 60601 10324 20185 3//// 48/// 86231
                   333 5//// 86850=
201202040600 AAXX 04064 67855 11970 60901 10232 20203 38/// 48/// 60014 72162 86081
                   333 20199 5//// 86360=
201202031800 AAXX 03184 67855 NIL=
201202031200 AAXX 03124 67855 42780 51603 10322 20168 38/// 48/// 85231
                   333 5//// 85850=
201202030600 AAXX 03064 67855 11980 60701 10196 20184 3//// 48/// 60024 70522 86071
                   333 20167 5//// 86460=
201202021200 AAXX 02124 67855 41680 70602 10246 20200 3//// 48/// 71798 84273
                   333 5//// 81930 83840 87080=
201202020600 AAXX 02064 67855 11970 40301 10220 20194 3//// 48/// 60044 70500 84032
                   333 20190 5//// 81360 84080=
201202011200 AAXX 01124 67855 42780 32701 10324 20184 3//// 48/// 83201
                   333 5//// 83850=
201202010600 AAXX 01064 67855 11970 51203 10228 20150 38/// 48/// 69904 70522 85072
                   333 20187 5//// 85460=
