################################################################################
# Query made at 04/14/2022 03:24:00 UTC
# Country like Zamb*
# Time interval: from 03/01/2016 05:30  to 03/31/2016 06:30  UTC
################################################################################

################################################################################
#  SYNOPS from 67403, Kawambwa (Zambia) | 09-48S | 029-05E | 1323 m
################################################################################
201603310600 AAXX 31064 67403 32975 60000 10210 20197 48525 81531
                   333 10/// 20181 59002 81614 86360 82080=
201603300600 AAXX 30064 67403 32980 61803 10229 20178 48528 70222 81530
                   333 10/// 20196 59002 81612 86360=
201603290600 AAXX 29064 67403 12880 80907 10207 20186 48528 69924 70262 8197/
                   333 10/// 20189 58013 81958 87360=
201603150600 AAXX 15064 67403 12980 60902 10213 20195 48524 60034 86031
                   333 10/// 20179 59003 86360 82080=
201603140600 AAXX 14064 67403 12475 40905 10223 20203 48526 69924 70322 81531
                   333 10/// 20187 59006 81610 84360 82080=
201603110600 AAXX 11064 67403 11475 82703 10188 20184 48543 60384 72996 8557/
                   333 10/// 20175 58031 85613 87360 819//=
201603090600 AAXX 09064 67403 11360 80902 10202 20198 48523 60034 70542 8663/
                   333 10/// 20176 58000 86707 87360=
201603070600 AAXX 07064 67403 12980 60905 10219 20189 48509 60074 83087
                   333 10/// 20182 58001 83360 86280=
201603040900 AAXX 04094 67403 NIL=
201603040600 AAXX 04064 67403 11980 40906 10216 20200 48530 60104 72022 84081
                   333 10/// 20178 58007 84360 81080=
201603030600 AAXX 03064 67403 11370 82706 10215 20202 48513 60314 75020 8458/
                   333 1//// 2//// 59003 84614 87360=
201603010600 AAXX 01064 67403 12380 20905 10217 20198 48538 60074 70360 81681
                   333 10/// 20174 58008 81708 82360 81080=

################################################################################
#  SYNOPS from 67413, Mbala (Zambia) | 08-51S | 031-20E | 1673 m
################################################################################
201603290600 AAXX 29064 67413 NIL=
201603150600 AAXX 15064 67413 NIL=
201603140600 AAXX 14064 67413 NIL=
201603110600 AAXX 11064 67413 11980 81008 10175 20159 48542 60094 78086 8807/
                   333 10270 20///=
201603070600 AAXX 07064 67413 NIL=
201603040900 AAXX 04094 67413 NIL=
201603040600 AAXX 04064 67413 NIL=
201603030600 AAXX 03064 67413 NIL=

################################################################################
#  SYNOPS from 67441, Mwinilunga (Zambia) | 11-45S | 024-26E | 1361 m
################################################################################
201603300600 AAXX 30064 67441 12482 700// 10195 20188 48555 69904 8113/
                   333 10305 20/// 59002 81818 87360=
201603290600 AAXX 29064 67441 32982 732// 10205 20190 48557 8703/
                   333 10295 20/// 59004 87360=
201603150600 AAXX 15064 67441 NIL=
201603140600 AAXX 14064 67441 12982 700// 10225 20196 48558 69904 87035
                   333 10305 20/// 59004=
201603110600 AAXX 11064 67441 12982 700// 10180 20172 48550 69904 8703/
                   333 10275 20//0 58004 87360=
201603070600 AAXX 07064 67441 12382 715// 10195 20180 48/// 60234 8463/
                   333 10305 20/// 5////=
201603040900 AAXX 04094 67441 NIL=
201603040600 AAXX 04064 67441 NIL=
201603030600 AAXX 03064 67441 12382 727// 10205 20190 48545 69904 8577/
                   333 10285 20/// 59003=
201603010600 AAXX 01064 67441 12958 700// 10193 20188 48566 60774 74044 8707/
                   333 10300 20/// 5//// 87360=

################################################################################
#  SYNOPS from 67461, Mansa (Zambia) | 11-06S | 028-51E | 1382 m
################################################################################
201603310600 AAXX 31064 67461 32980 71007 10209 20184 48530 82038
                   333 10301 20175 58006 82360 87280 91020=
201603300600 AAXX 30064 67461 32980 51103 10230 20210 48527 82031
                   333 10306 20190 59006 82360 83080 91019=
201603290600 AAXX 29064 67461 12980 70000 10204 20190 48530 60464 8707/
                   333 10318 20185 58008 87460 91020=
201603150600 AAXX 15064 67461 32980 70803 10225 20195 48532 85038
                   333 10295 20187 58001 85360=
201603140600 AAXX 14064 67461 12980 31004 10228 20202 48531 60024 81101
                   333 10290 20192 59007 81818 83080 91020=
201603110600 AAXX 11064 67461 12980 80000 10195 20188 48528 60014 8807/
                   333 10297 20175 58003=
201603070600 AAXX 07064 67461 12980 70000 10202 20191 48511 60154 8707/
                   333 10310 20180 59004=
201603040900 AAXX 04094 67461 NIL=
201603040600 AAXX 04064 67461 11480 70902 10205 20205 48528 60184 72844 8657/
                   333 10281 20180=
201603030600 AAXX 03064 67461 12980 70000 10240 20205 48510 60054 86031
                   333 10302 20180 59007 86360 84080 91017=
201603010600 AAXX 01064 67461 12480 82703 10188 20184 48544 60294 8357/
                   333 10285 20185 58008 83612 87460 87280 91021=

################################################################################
#  SYNOPS from 67475, Kasama (Zambia) | 10-13S | 031-08E | 1382 m
################################################################################
201603310600 AAXX 31064 67475 32460 61210 10215 20188 48529 85531
                   333 10291 20170 59006 85615 81360 83080 91021=
201603301200 AAXX 30124 67475 42760 51210 10275 20190 48501 84271
                   333 59002 81950 83850 81363=
201603300900 AAXX 30094 67475 42660 51212 10273 20191 48529 83231
                   333 59006 83835 82361 81080 91020=
201603300600 AAXX 30064 67475 32360 41210 10229 20189 48536 81778
                   333 10280 20174 5//// 81708 81360 84280 91021=
201603290600 AAXX 29064 67475 11260 2//// 10189 20186 48/// 60114 71622 8277/
                   333 10292 20175 5//// 82704 87459=
201603150600 AAXX 15064 67475 12460 70207 10202 20194 48515 60054 70322 875//
                   333 10290 20170 59007 87610 91021=
201603140900 AAXX 14094 67475 42660 40909 10262 20187 48536 84201
                   333 59012 84840 81080 91021=
201603140600 AAXX 14064 67475 32360 70404 10205 20197 48544 847//
                   333 10262 20173 59001 84708 87615 91022=
201603110600 AAXX 11064 67475 12460 82007 10194 20189 48/// 60024 70222 876//
                   333 10306 20189=
201603090600 AAXX 09064 67475 12470 80512 10194 20185 48537 60074 70322 8367/
                   333 10294 20169 58015 83620 87459 91022=
201603070600 AAXX 07064 67475 12470 70914 10233 20195 48526 69914 70322 83278
                   333 10308 20181 59008 83820 84460 85280 91020=
201603040900 AAXX 04094 67475 NIL=
201603040600 AAXX 04064 67475 11960 70000 10199 20191 48540 60014 71422 8707/
                   333 10292 20159 58022 87359 91022=
201603030600 AAXX 03064 67475 32760 70602 10233 20188 48519 81978
                   333 10314 20180 59010 81956 83356 83359 86280
                   91020=
201603010600 AAXX 01064 67475 32480 40804 10229 20195 48551 70322 82201
                   333 10301 20174 58000 82820 83080 91023=

################################################################################
#  SYNOPS from 67476, Misamfu (Zambia) | 10-06S | 031-15E | 1536 m
################################################################################
201603310600 AAXX 31064 67476 32580 51402 10211 20192 48/// 83531
                   333 10292 20176 59006 83628 83360 81080=
201603290600 AAXX 29064 67476 12980 70000 10193 20185 48/// 60124 87072
                   333 10267 20176 5//// 87459 82080=
201603150600 AAXX 15064 67476 32980 21501 10218 20194 48/// 82030
                   333 10293 20172 59006 82360=
201603140600 AAXX 14064 67476 12580 81001 10202 20196 48/// 69904 885//
                   333 10273 20169 5//// 88630=
201603110600 AAXX 11064 67476 NIL=
201603070600 AAXX 07064 67476 12680 51503 10227 20198 48/// 69904 84502
                   333 10302 20189 5//// 84630 82080=
201603040900 AAXX 04094 67476 NIL=
201603040600 AAXX 04064 67476 32980 70000 10189 20181 48/// 60054 86062
                   333 10281 20168 58022 86360 82080=
201603030600 AAXX 03064 67476 32980 51502 10232 20195 48/// 84062
                   333 10300 20190 59010 84360 82080=

################################################################################
#  SYNOPS from 67477, Mpika (Zambia) | 11-54S | 031-26E | 1400 m
################################################################################
201603300600 AAXX 30064 67477 12480 71206 10215 20/// 48531 60014 84531
                   333 10275 20187 59010 84610 85359 82080=
201603290600 AAXX 29064 67477 11380 80000 10174 20//0 48546 72125 8897/
                   333 10300 20169 58017 81912 88460=
201603150600 AAXX 15064 67477 NIL=
201603140600 AAXX 14064 67477 12480 31207 10230 20/// 48545 69904 70300 81131
                   333 10277 20188 59006 81820 81358 81358 82080=
201603110600 AAXX 11064 67477 12480 60903 10219 20/// 48533 69904 82131
                   333 10294 20168 58002 82814 83359 84080=
201603070600 AAXX 07064 67477 32480 20906 10222 20/// 48524 82500
                   333 10280 20186 59019 82614=
201603040900 AAXX 04094 67477 NIL=
201603040600 AAXX 04064 67477 12480 71204 10217 2//// 48541 69904 82570
                   333 10255 20179 58012 82614 86459=
201603030600 AAXX 03064 67477 11480 80000 10204 2//// 48529 60434 76062 8557/
                   333 10290 20190 58001 85610 84459=
201603010600 AAXX 01064 67477 31480 61208 10216 20/// 48554 72842 85530
                   333 10262 20189 58001 85612 82359=

################################################################################
#  SYNOPS from 67481, Isoka (Zambia) | 10-07S | 032-38E | 1360 m
################################################################################
201603310600 AAXX 31064 67481 12380 72402 10209 20198 48/// 69964 84678
                   333 10295 20190=
201603300600 AAXX 30064 67481 32980 52703 10218 20195 48/// 85080
                   333 10289 20180 59006 85361=
201603290600 AAXX 29064 67481 12480 72401 10230 20203 48/// 60334 8329/
                   333 10290 20170 58012 83811 87361=
201603150600 AAXX 15064 67481 32980 53303 10235 20186 48/// 85031
                   333 10306 20180 59007 85360=
201603140600 AAXX 14064 67481 32480 63003 10217 20199 48/// 86500
                   333 10277 20195 59004=
201603110600 AAXX 11064 67481 12480 60000 10205 20190 48/// 60014 81130
                   333 10300 20185 58004=
201603070600 AAXX 07064 67481 32480 63002 10230 20188 48/// 81101
                   333 10300 20183 59008 81815 86080=
201603040900 AAXX 04094 67481 NIL=
201603040600 AAXX 04064 67481 12480 10000 10223 20189 48/// 60054 81110
                   333 10300 20189 58022 81814 81361=
201603030600 AAXX 03064 67481 32480 33401 10221 20186 48/// 81280
                   333 10301 20170 59010 81815 83361=
201603010600 AAXX 01064 67481 32480 50000 10210 20195 48/// 83101
                   333 10314 20175 58000 83810 84080=

################################################################################
#  SYNOPS from 67531, Zambezi (Zambia) | 13-32S | 023-07E | 1077 m
################################################################################
201603310600 AAXX 31064 67531 12980 60904 10230 20210 48/// 69904 70222 82038
                   333 10317 20177=
201603300600 AAXX 30064 67531 12980 51201 10220 20208 48/// 60084 70222 82038
                   333 10317 20173=
201603290600 AAXX 29064 67531 12980 60902 10240 20220 48/// 69904 70222 84038
                   333 10305 20194=
201603150600 AAXX 15064 67531 11380 70000 10209 20203 48/// 60014 72166 8167/
                   333 10307 20195=
201603140600 AAXX 14064 67531 32980 20000 10233 20208 48/// 81032
                   333 10320 20174 5//// 81362=
201603110600 AAXX 11064 67531 12380 70502 10200 20194 48/// 60234 70222 8367/
                   333 10302 20173=
201603070600 AAXX 07064 67531 32480 70502 10222 20197 48/// 70222 8257/
                   333 10326 20184 5////=
201603040900 AAXX 04094 67531 NIL=
201603040600 AAXX 04064 67531 12980 60905 10228 20202 48/// 60054 70222 84032
                   333 10290 20196 5//// 84362 83081=
201603030600 AAXX 03064 67531 12980 70301 10214 20201 48/// 69904 70222 8707/
                   333 10310 20190=
201603010600 AAXX 01064 67531 12380 71502 10216 20200 48/// 69924 8167/
                   333 10285 20186 5////=

################################################################################
#  SYNOPS from 67541, Kasempa (Zambia) | 13-32S | 025-51E | 1234 m
################################################################################
201603290600 AAXX 29064 67541 NIL=
201603150600 AAXX 15064 67541 NIL=
201603140600 AAXX 14064 67541 NIL=
201603110600 AAXX 11064 67541 11370 70000 10189 20182 48515 60014 76062 8253/
                   333 10/// 20///=
201603070600 AAXX 07064 67541 NIL=
201603040900 AAXX 04094 67541 NIL=
201603040600 AAXX 04064 67541 NIL=
201603030600 AAXX 03064 67541 NIL=

################################################################################
#  SYNOPS from 67543, Kabompo (Zambia) | 13-36S | 024-12E | 1075 m
################################################################################
201603310600 AAXX 31064 67543 12975 6//00 10213 20204 48/// 60074 80007
                   333 10322 20175 5//// 86280=
201603300600 AAXX 30064 67543 12980 5//00 10217 20204 48/// 69904 82045
                   333 10328 20174 5//// 82360 84280=
201603290600 AAXX 29064 67543 12380 7//00 10208 20206 48/// 60024 876//
                   333 10302 20176 5////=
201603150600 AAXX 15064 67543 12380 7//00 10215 20208 48/// 60034 8367/
                   333 10318 20186 5//// 83707 87360=
201603140600 AAXX 14064 67543 32980 5//00 10226 20210 48/// 82045
                   333 10318 20172 5//// 82360=
201603110600 AAXX 11064 67543 12375 7//00 10188 20188 48/// 60064 8365/
                   333 10330 20175 5////=
201603070600 AAXX 07064 67543 11330 8//00 10187 20183 48/// 60124 76169 887//
                   333 10320 20170=
201603040900 AAXX 04094 67543 NIL=
201603040600 AAXX 04064 67543 12380 7//00 10209 20193 48/// 69904 8163/
                   333 10300 20177=
201603030600 AAXX 03064 67543 11980 7//00 10211 20205 48/// 60214 72122 8707/
                   333 10312 20185=

################################################################################
#  SYNOPS from 67551, Solwezi (Zambia) | 12-11S | 026-23E | 1386 m
################################################################################
201603310600 AAXX 31064 67551 32980 40804 10201 20178 48526 80002
                   333 10300 20172 59004 82080=
201603300600 AAXX 30064 67551 32980 62004 10219 20182 48532 86030
                   333 10301 20180 58007 86362=
201603290600 AAXX 29064 67551 NIL=
201603150600 AAXX 15064 67551 12480 71804 10204 20185 48532 60024 84530
                   333 10285 20173 58001=
201603140600 AAXX 14064 67551 NIL=
201603110600 AAXX 11064 67551 NIL=
201603070600 AAXX 07064 67551 11304 83203 10180 20180 48532 60384 79696 8197/
                   333 10306 20171=
201603040900 AAXX 04094 67551 NIL=
201603040600 AAXX 04064 67551 NIL=
201603030600 AAXX 03064 67551 32475 71504 10198 20186 48515 69954 8677/
                   333 10293 20183 59010=

################################################################################
#  SYNOPS from 67561, Ndola (Zambia) | 13-00S | 028-39E | 1269 m
################################################################################
201603300600 AAXX 30064 67561 31959 60000 10210 20195 48536 70422 85038
                   333 10301 20185 58004=
201603290600 AAXX 29064 67561 11359 70000 10211 20202 48532 60014 72842 82638
                   333 10299 20193 58004 82709 86360 87280 91020=
201603150600 AAXX 15064 67561 NIL=
201603140600 AAXX 14064 67561 NIL=
201603110600 AAXX 11064 67561 NIL=
201603070600 AAXX 07064 67561 11360 60000 10214 20194 48513 60164 70522 82538
                   333 10300 20189=
201603040900 AAXX 04094 67561 NIL=
201603040600 AAXX 04064 67561 NIL=
201603030600 AAXX 03064 67561 11256 82104 10190 20188 48508 60134 76166 8677/
                   333 10297 20185=
201603010600 AAXX 01064 67561 11360 72305 10210 20195 48556 60294 72842 8667/
                   333 10296 20186=

################################################################################
#  SYNOPS from 67563, Kafironda (Zambia) | 12-36S | 028-07E | 1243 m
################################################################################
201603310600 AAXX 31064 67563 32360 20000 10185 20185 48/// 72844 81502
                   333 10310 20180 5////=
201603290600 AAXX 29064 67563 NIL=
201603150600 AAXX 15064 67563 NIL=
201603140600 AAXX 14064 67563 11960 70000 10205 20188 48/// 69994 70222 87030
                   333 10300 20170=
201603110600 AAXX 11064 67563 11360 73601 10200 20185 48/// 60064 70222 85530
                   333 10260 20175 5//// 85608 81360=
201603070600 AAXX 07064 67563 32970 70000 10225 20188 48/// 70222 87030
                   333 10300 20185 5//// 87360=
201603040900 AAXX 04094 67563 NIL=
201603040600 AAXX 04064 67563 NIL=
201603030600 AAXX 03064 67563 NIL=

################################################################################
#  SYNOPS from 67571, Serenje (Zambia) | 13-14S | 030-13E | 1384 m
################################################################################
201603310600 AAXX 31064 67571 32982 01205 10200 20161 48522
                   333 10284 20135 59004=
201603290600 AAXX 29064 67571 11278 73302 10196 20193 48532 69904 72842 8569/
                   333 10296 20185 59009 85705 87360=
201603150600 AAXX 15064 67571 12482 40904 10234 20196 48533 69904 70200 81501
                   333 10304 20175 59006 81615 81080=
201603140600 AAXX 14064 67571 12982 71202 10210 20192 48532 70222 8703/
                   333 10298 20181 59007 87360=
201603110600 AAXX 11064 67571 32982 70902 10220 20177 48523 70222 85038
                   333 10305 20172 58009 85360 86280=
201603090600 AAXX 09064 67571 12382 72702 10205 20190 48522 60054 70222 81638
                   333 10297 20176 58010 81707 81360 87280=
201603070900 AAXX 07094 67571 42582 50905 10270 20203 48515 85231
                   333 59009 85827 81360 81080=
201603070600 AAXX 07064 67571 12482 21205 10230 20193 48523 60074 70100 81531
                   333 10293 20190 59006 81615 81360 81080=
201603040900 AAXX 04094 67571 42582 60905 10256 20197 48535 70322 86830
                   333 58020 85625 81827 81360=
201603040600 AAXX 04064 67571 12280 70905 10200 20192 48532 69954 70222 876//
                   333 10278 20182=
201603030600 AAXX 03064 67571 11982 71204 10196 20185 48512 60254 72162 8707/
                   333 10288 20179 59007 87360=
201603011200 AAXX 01124 67571 41682 73602 10270 20190 48515 71799 86208
                   333 58001 81935 86835 87280=
201603010600 AAXX 01064 67571 12482 71208 10211 20191 48542 60114 70222 875//
                   333 10275 20190 58002 87615=

################################################################################
#  SYNOPS from 67575, Mkushi (Zambia) | 13-38-00S | 029-26-00E | 1237 m
################################################################################
201603300600 AAXX 30064 67575 12480 70602 10225 20197 48/// 60354 70222 82572
                   333 10310 20170=
201603290600 AAXX 29064 67575 NIL=
201603150600 AAXX 15064 67575 NIL=
201603140600 AAXX 14064 67575 NIL=
201603110600 AAXX 11064 67575 NIL=
201603070600 AAXX 07064 67575 NIL=
201603040900 AAXX 04094 67575 NIL=
201603040600 AAXX 04064 67575 NIL=
201603030600 AAXX 03064 67575 12380 72702 10215 20188 48/// 60214 70222 82772
                   333 10310 20185 5//// 82708 83360 82080=

################################################################################
#  SYNOPS from 67580, Msekera (Zambia) | 13-39S | 032-34E | 1025 m
################################################################################
201603310600 AAXX 31064 67580 32980 01204 10220 20171 48///
                   333 10315 20/// 58002=
201603300900 AAXX 30094 67580 42780 21204 10290 20160 48/// 81101
                   333 58006 81850 81080=
201603300600 AAXX 30064 67580 32980 21002 10244 20194 48/// 80001
                   333 10325 20/// 58004 82080=
201603290600 AAXX 29064 67580 32980 52602 10240 20211 48/// 81038
                   333 10320 20//0 58008 81361 85280=
201603150600 AAXX 15064 67580 32580 41202 10252 20214 48/// 81131
                   333 10330 20/// 59006 81826 82360 82080=
201603140900 AAXX 14094 67580 42680 70902 10285 20214 48/// 87201
                   333 5//// 87840 82082=
201603140600 AAXX 14064 67580 12980 10000 10240 20211 48/// 60254 81031
                   333 10276 20/// 59003 81361 81080=
201603110900 AAXX 11094 67580 42780 40903 10305 20216 48/// 83131
                   333 5//// 83850 81361 81080=
201603110600 AAXX 11064 67580 12980 30000 10253 20209 48/// 69954 83030
                   333 10324 20/// 59001 83360=
201603090600 AAXX 09064 67580 32980 60000 10245 20209 48/// 80008
                   333 10314 20/// 58004 86280=
201603070900 AAXX 07094 67580 42680 70903 10295 20220 48/// 87201
                   333 5//// 87842 81080=
201603070600 AAXX 07064 67580 12580 32702 10248 20215 48/// 69934 82131
                   333 10322 20/// 59007 82824 81361 81080=
201603040900 AAXX 04094 67580 NIL=
201603040600 AAXX 04064 67580 12980 60000 10249 20223 48/// 60334 86031
                   333 10308 2//// 58014=
201603030600 AAXX 03064 67580 12580 70000 10218 20206 48/// 60374 85530
                   333 10329 2//// 59001 85622 83360=
201603021200 AAXX 02124 67580 42780 72703 10303 20214 48/// 87200
                   333 59030 87850=
201603011200 AAXX 01124 67580 41675 70000 10235 20214 48/// 71796 8197/
                   333 5//// 81945 83845 87459=
201603010600 AAXX 01064 67580 12580 70905 10240 20210 48/// 69934 8483/
                   333 10304 20/// 5//// 82820 82623 87360=

################################################################################
#  SYNOPS from 67581, Chipata (Zambia) | 13-33S | 032-35E | 1028 m
################################################################################
201603300600 AAXX 30064 67581 32980 11608 10250 20183 48548 81030
                   333 10300 20160 58000 81360=
201603290600 AAXX 29064 67581 32680 72702 10242 20210 48548 81102
                   333 10274 20146 58011 81840=
201603150600 AAXX 15064 67581 32580 51604 10255 20208 48549 83131
                   333 10310 20175 59009 83828=
201603140600 AAXX 14064 67581 12480 13604 10252 20211 48558 60074 81130
                   333 10250 20151 59003=
201603110600 AAXX 11064 67581 12980 30906 10256 20198 48535 60034 82030
                   333 10260 20172 58002 83360 91020=
201603070600 AAXX 07064 67581 12480 50806 10253 20206 48540 69904 85500
                   333 10280 20175 59006 85610 91019=
201603040900 AAXX 04094 67581 NIL=
201603040600 AAXX 04064 67581 12580 63605 10259 20218 48561 60164 82130
                   333 10280 20157 58013=
201603030600 AAXX 03064 67581 12580 63606 10219 20203 48556 60094 86530
                   333 10285 20166 58000=
201603010600 AAXX 01064 67581 32680 71204 10236 20204 48561 8217/
                   333 10270 20176 58001 82840 87360 91022=

################################################################################
#  SYNOPS from 67583, Lundazi (Zambia) | 12-17S | 033-12E | 1143 m
################################################################################
201603310600 AAXX 31064 67583 32980 01504 10225 20188 70100
                   333 10/// 20/// 59001=
201603300600 AAXX 30064 67583 32980 21403 10237 20192 48/// 70200 81031
                   333 10/// 20/// 59005 81360 82080=
201603290600 AAXX 29064 67583 12980 72701 10225 20203 48/// 60084 70220 83038
                   333 10/// 20/// 58008 83359 87280=
201603150600 AAXX 15064 67583 32980 21801 10248 20191 48/// 70222 81031
                   333 10/// 20/// 5//// 81359 81080=
201603140600 AAXX 14064 67583 12980 20901 10240 20204 48/// 60014 70220 81031
                   333 10/// 20/// 58000 81360 81080=
201603110600 AAXX 11064 67583 12580 30901 10235 20197 48/// 69904 81531
                   333 10/// 20/// 58000 81620 82360 82080=
201603090600 AAXX 09064 67583 12980 61801 10245 20189 48/// 69904 84035
                   333 10/// 20/// 58010 84360 85280=
201603070600 AAXX 07064 67583 12680 20901 10252 20207 48/// 60014 81530
                   333 10/// 20/// 5//// 81629 81360=
201603040900 AAXX 04094 67583 NIL=
201603040600 AAXX 04064 67583 12380 60901 10207 20200 48/// 60024 70222 8173/
                   333 10/// 20///=
201603030600 AAXX 03064 67583 32480 71501 10235 20206 48/// 70222 8173/
                   333 10/// 20/// 59004=
201603010600 AAXX 01064 67583 12480 10000 10242 20214 60014 70120 81231
                   333 1//// 2//// 59002 81812 81360 81080=

################################################################################
#  SYNOPS from 67599, Mfuwe (Zambia) | 13-16S | 031-56E | 568 m
################################################################################
201603310600 AAXX 31064 67599 32980 00000 10222 20189 48533
                   333 10351 20174 58006 91018=
201603301500 AAXX 30154 67599 42780 21803 10330 20169 48521 82101 333=
201603301200 AAXX 30124 67599 42780 40000 10340 20194 48535 84201
                   333 58010 84856 81080 91013=
201603300900 AAXX 30094 67599 42680 20000 10308 20214 48556 81131 333=
201603300600 AAXX 30064 67599 32980 20000 10250 20233 48538 81031
                   333 10350 20214 58001 81360 81080 91017=
201603290600 AAXX 29064 67599 32980 70000 20229 48538 83032
                   333 10360 58015 83360 87280 91017=
201603271500 AAXX 27154 67599 42880 20000 10334 20223 48515 82100=
201603270900 AAXX 27094 67599 42680 30000 10305 20221 48549 83100
                   333 59010 83840 91017=
201603270600 AAXX 27064 67599 32980 20000 10245 20209 48535 82030
                   333 10335 20200 59014 82360
                   555 00/// 91017=
201603260900 AAXX 26094 67599 42680 30000 10292 20212 48555 83100
                   333 59012 83839 91018=
201603230600 AAXX 23064 67599 11275 80000 10225 20218 48518 60984 76066=
201603211200 AAXX 21124 67599 42680 40000 10330 20242 48516 84102
                   333 59015 84840 82080 91012=
201603210600 AAXX 21064 67599 12380 80000 10232 20222 48527 60054 887//=
201603201500 AAXX 20154 67599 42980 70000 10244 20217 48500 8197/=
201603201200 AAXX 20124 67599 41680 71805 10240 20226 8197/=
201603200900 AAXX 20094 67599 41680 72706 10308 20243 48540 71722 86902=
201603200600 AAXX 20064 67599 32980 60000 10258 20228 48523 81032
                   333 10360 20235 59009 81360 86080
                   555 000// 91019=
201603170600 AAXX 17064 67599 11375 80000 10235 20221 48556 60024 75062 8457/=
201603160600 AAXX 16064 67599 32980 71805 10255 20221 48543 82032
                   333 10352 20220 58006 82360 87080 91018=
201603150600 AAXX 15064 67599 32980 60000 10260 20224 48542 86030
                   333 10355 20230 59009 86360 91017=
201603140600 AAXX 14064 67599 32480 20000 10246 20226 48543 81130
                   333 10300 20210 59007 81810 81360 91018=
201603130600 AAXX 13064 67599 12375 70000 10230 20223 48546 60414 70322 8377/=
201603120600 AAXX 12064 67599 12980 70000 10260 20224 48548 69904 8703/
                   333 10349=
201603110600 AAXX 11064 67599 12980 30000 10250 20221 48531 60014 83030
                   333 10361 20205 58002 83360 91016=
201603100600 AAXX 10064 67599 32980 30905 10255 48529 83030
                   333 10349 20210=
201603091500 AAXX 09154 67599 41780 50908 10340 20233 48512 71792 84902
                   333 58012 81950 83856 82080=
201603091200 AAXX 09124 67599 42680 40000 10310 20230 83201 333=
201603090900 AAXX 09094 67599 42680 50000 10288 20220 85501
                   333 58020 86610 85828 83080 91017=
201603090600 AAXX 09064 67599 12480 60000 10245 20224 48535 60014 86501 333=
201603081500 AAXX 08154 67599 42880 40904 10340 20205 48501 81901
                   333 58010 81956 84080=
201603080900 AAXX 08094 67599 42680 50605 10320 20215 48542 84101 333=
201603080600 AAXX 08064 67599 32980 30905 10270 20221 48529 80001 333=
201603071200 AAXX 07124 67599 42780 50303 10332 20233 48518 85200
                   333 59007 85856 91012=
201603070600 AAXX 07064 67599 12980 20000 10256 20233 48529 60034 81031 333=
201603050900 AAXX 05094 67599 42680 61405 10305 20229 48559 70222 862//=
201603040900 AAXX 04094 67599 NIL=
201603040600 AAXX 04064 67599 32980 60000 10255 20227 48545 8603/ 333=
201603031200 AAXX 03124 67599 42680 43404 10225 20227 48511 84200 333=
201603030600 AAXX 03064 67599 12380 70000 10242 20218 48528 60024 8463/
                   333 10338 20225 59001 83608 819// 87359 91016=
201603021200 AAXX 02124 67599 41680 43503 10325 20227 48511 84200 333=
201603011500 AAXX 01154 67599 41680 70000 10243 20232 48506 72992 8297/
                   333 59002 81938 81845 87460 91014=
201603011200 AAXX 01124 67599 42680 63604 10332 20225 48537 85231 333=
201603010900 AAXX 01094 67599 42580 70000 10295 20223 48560 83230
                   333 10343=
201603010600 AAXX 01064 67599 32380 70000 10250 20229 48577 81530
                   333 10343 20230 59002 81606 87360 91019=

################################################################################
#  SYNOPS from 67625, Kalabo (Zambia) | 14-51S | 022-42E | 1033 m
################################################################################
201603310600 AAXX 31064 67625 32982 50304 10262 20222 48/// 83034
                   333 10324 20203 5//// 83360 85075=
201603290600 AAXX 29064 67625 NIL=
201603150600 AAXX 15064 67625 11482 70104 10200 20200 48/// 60024 79552 84633
                   333 10279 20196 59006 84710 81914 85360 87075=
201603140900 AAXX 14094 67625 42482 71910 10226 20202 48/// 84204
                   333 5//// 83716 81920 84820=
201603140600 AAXX 14064 67625 32982 70802 10244 20220 48/// 84034
                   333 10307 20214 59004 84360 87075=
201603110900 AAXX 11094 67625 42682 31005 10270 20190 48/// 83133
                   333 59008 83832 81360 82075=
201603110600 AAXX 11064 67625 12482 50903 10234 20204 48/// 69904 84033
                   333 10302 20200 58013 81710 84360 85075=
201603091200 AAXX 09124 67625 42682 52904 10297 20226 48/// 84202
                   333 5//// 84833 85075=
201603090600 AAXX 09064 67625 32982 70301 10221 20204 48/// 84034
                   333 10284 20195 58010 84360=
201603070900 AAXX 07094 67625 41482 82601 10209 20206 48/// 76366 84623
                   333 5//// 84710 87460=
201603070600 AAXX 07064 67625 32982 70301 10231 20216 48/// 86073
                   333 10310 20204 59003 86360 87075=
201603040900 AAXX 04094 67625 41382 83608 10202 20199 48/// 75186 82623
                   333 58031 82709 87460 87075=
201603040600 AAXX 04064 67625 11382 70804 10222 20215 48/// 60164 72052 83673
                   333 10296 20209 58021 83708 86360 87075=
201603030600 AAXX 03064 67625 12382 70305 10230 20220 48/// 60014 87632
                   333 10289 20215 59034 87709 84360 86075=
201603021200 AAXX 02124 67625 42582 70901 10249 20208 48/// 81133
                   333 5//// 81820 83361 87075=

################################################################################
#  SYNOPS from 67633, Mongu (Zambia) | 15-15S | 023-09E | 1052 m
################################################################################
201603300600 AAXX 30064 67633 12980 30903 10242 20224 48531 60134 70200 83030
                   333 10326 20210 58003 83361 91019=
201603290600 AAXX 29064 67633 NIL=
201603150600 AAXX 15064 67633 12980 73604 10215 20203 48526 60054 70222 87070
                   333 10305 20203=
201603140600 AAXX 14064 67633 32980 60804 10249 20211 48521 70222 85038
                   333 10317 20213 59023=
201603110600 AAXX 11064 67633 NIL=
201603070600 AAXX 07064 67633 32980 70302 10238 20207 48511 70222 8707/
                   333 10320 20223 59008 87460 91016=
201603040900 AAXX 04094 67633 NIL=
201603040600 AAXX 04064 67633 12980 70903 10220 20200 48510 60274 70222 85038
                   333 10293 20210 58018 85360 87280 91017=
201603030600 AAXX 03064 67633 12980 70302 10243 20211 48496 60054 70222 8707/
                   333 10296 20215=
201603010600 AAXX 01064 67633 12980 73605 10213 20198 48524 60284 70222 8707/
                   333 10297 20198=

################################################################################
#  SYNOPS from 67641, Kaoma (Zambia) | 14-48S | 024-48E | 1213 m
################################################################################
201603310600 AAXX 31064 67641 32982 33502 10226 20203 48515 81032
                   333 10/// 20195 59005 81360 83080 91017=
201603300600 AAXX 30064 67641 12682 41901 10226 20218 48520 69904 82502
                   333 10/// 20207 58007 82630 82080 91017=
201603290600 AAXX 29064 67641 32982 71201 10232 20209 48514 86032
                   333 10/// 20206 58004 86360 81080 91017=
201603150600 AAXX 15064 67641 12680 71801 10210 20204 48500 60084 85530
                   333 10/// 20200 58010 85630 82360 91016=
201603140600 AAXX 14064 67641 32980 50601 10236 20214 48493 83031
                   333 10/// 20210 59030 83360=
201603110600 AAXX 11064 67641 11982 80801 10197 20189 48507 60374 72166 8703/
                   333 10/// 20195 58004 87360 91016=
201603070600 AAXX 07064 67641 11680 70602 10227 20211 48512 69924 72162 82530
                   333 10//0 20215 59008 82630 87360 91017=
201603040900 AAXX 04094 67641 NIL=
201603040600 AAXX 04064 67641 12980 70000 10216 20202 48500 60064 85031
                   333 10/// 20204 58012=
201603030600 AAXX 03064 67641 32980 72201 10226 20212 48481 87030
                   333 10/// 20215 59025 87360=
201603010600 AAXX 01064 67641 11680 70000 10205 20198 48536 60104 72055 8553/
                   333 10/// 20199=

################################################################################
#  SYNOPS from 67655, Mumbwa (Zambia) | 15-04S | 027-11E | 1216 m
################################################################################
201603290600 AAXX 29064 67655 NIL=
201603150600 AAXX 15064 67655 NIL=
201603140600 AAXX 14064 67655 NIL=
201603110600 AAXX 11064 67655 NIL=
201603070600 AAXX 07064 67655 NIL=
201603040900 AAXX 04094 67655 NIL=
201603040600 AAXX 04064 67655 NIL=
201603030600 AAXX 03064 67655 NIL=

################################################################################
#  SYNOPS from 67659, Kafue Polder (Zambia) | 15-46S | 027-55E | 978 m
################################################################################
201603310600 AAXX 31064 67659 32980 12005 10230 20189 48/// 70222 80002
                   333 10315 20/// 5//// 81080=
201603290600 AAXX 29064 67659 NIL=
201603150600 AAXX 15064 67659 NIL=
201603140600 AAXX 14064 67659 NIL=
201603110600 AAXX 11064 67659 NIL=
201603070600 AAXX 07064 67659 NIL=
201603040900 AAXX 04094 67659 NIL=
201603040600 AAXX 04064 67659 NIL=
201603030600 AAXX 03064 67659 11370 82004 10214 20210 48/// 60074 70222 86510
                   333 10302 2////=

################################################################################
#  SYNOPS from 67662, Kabwe Agric (Zambia) | 14-24S | 028-30E | 1165 m
################################################################################
201603300600 AAXX 30064 67662 12980 70903 10217 20199 48/// 69904 87030
                   333 10310 20/// 5//// 87360=
201603290600 AAXX 29064 67662 12480 63002 10215 20202 48/// 60084 83130
                   333 10294 20/// 5////=
201603150600 AAXX 15064 67662 12980 50000 10229 20211 48/// 60064 85030
                   333 10299 20/// 5//// 85360=
201603140600 AAXX 14064 67662 12980 70000 10216 20206 48/// 60114 87030
                   333 10295 20/// 5////=
201603110600 AAXX 11064 67662 12980 80000 10198 20184 48/// 69994 8807/
                   333 10295 2//// 5//// 88460=
201603090600 AAXX 09064 67662 32980 60000 10227 20204 48/// 86030
                   333 10283 20/// 5//// 86360=
201603070600 AAXX 07064 67662 12480 70903 10232 20208 48/// 60064 83532
                   333 10301 20///=
201603040900 AAXX 04094 67662 NIL=
201603040600 AAXX 04064 67662 12380 71802 10212 20194 48/// 60074 85630
                   333 10295 20/// 5//// 85708 87360=
201603030600 AAXX 03064 67662 32380 83603 10208 20194 8167/
                   333 10295 20/// 81708 88360=
201603010600 AAXX 01064 67662 12380 80000 10198 20186 48/// 60064 8567/
                   333 10294 20/// 5////=

################################################################################
#  SYNOPS from 67663, Kabwe (Zambia) | 14-27S | 028-28E | 1206 m
################################################################################
201603310600 AAXX 31064 67663 32980 00805 10210 20180 48532 70200
                   333 10314 20171 58008=
201603300600 AAXX 30064 67663 32980 61705 10217 20197 48525 84032
                   333 10312 20201 58004 84360 84080=
201603290600 AAXX 29064 67663 12580 53305 10212 20201 48520 60014 83532
                   333 10292 20195 58013 83620 82360 81080=
201603150600 AAXX 15064 67663 12480 51304 10234 20209 48545 60024 83532
                   333 10290 20189 58000 83619 83360 81080=
201603140600 AAXX 14064 67663 12980 70604 10218 20201 48544 69924 87080
                   333 10281 20196 58000=
201603110600 AAXX 11064 67663 12480 72004 10193 20188 48535 60054 8357/
                   333 10306 20179 58014=
201603070600 AAXX 07064 67663 12580 50804 10228 20211 48520 69904 81530
                   333 10292 20193 59002=
201603040900 AAXX 04094 67663 NIL=
201603040600 AAXX 04064 67663 12980 50904 10211 20193 48535 60204 85070
                   333 10295 20182 58012 85450=
201603030600 AAXX 03064 67663 12480 80505 10209 20195 48523 60014 8157/
                   333 10302 20194 58000=
201603010600 AAXX 01064 67663 11380 81807 10193 20184 48552 60244 70262 8577/
                   333 10297 20181 58003 85707 88460=

################################################################################
#  SYNOPS from 67665, Lusaka Internationalairport (Zambia) | 15-19S | 028-27E | 1152 m
################################################################################
201603310600 AAXX 31064 67665 32980 01104 10205 20183 48544 70200
                   333 10295 20//0 59001=
201603310300 AAXX 31034 67665 42980 01401 10170 20163 48526 70200
                   333 58003=
201603302100 AAXX 30214 67665 42980 21402 10196 20173 48533 70300 80001
                   333 58004 82080=
201603301800 AAXX 30184 67665 42980 22003 10219 20172 48525=
201603301500 AAXX 30154 67665 42580 41111 10275 20223 48528 70122 83201 333=
201603301200 AAXX 30124 67665 42580 50912 10280 20216 48535 70222 84231
                   333 58011 84830 82360 82080=
201603300900 AAXX 30094 67665 42480 70710 10259 20209 48555 70222 8683/
                   333 58001 84820 83622 83360=
201603291800 AAXX 29184 67665 42880 41402 10219 20189 48519 71322 81930
                   333 10315 59017 81957 83360=
201603291500 AAXX 29154 67665 42680 51302 10285 20188 48514 70122 83202
                   333 59013 83840 83080=
201603291200 AAXX 29124 67665 42580 53502 10295 20184 48526 70222 85200
                   333 59005 85828=
201603290600 AAXX 29064 67665 NIL=
201603290000 AAXX 29004 67665 42980 62504 10196 20179 48524 86030
                   333 58003 86359=
201603282100 AAXX 28214 67665 42980 62703 10207 20195 48532 86030
                   333 58000 86359=
201603280900 AAXX 28094 67665 42680 42805 10280 20200 48548 70320 83231
                   333 59002 84830 82360 82080=
201603280600 AAXX 28064 67665 32580 33104 10223 20161 48532 81532
                   333 10280 20//0 59010 81625 82360 81080=
201603280000 AAXX 28004 67665 42980 41502 10188 20164 83032
                   333 59006 83360 81080=
201603272100 AAXX 27214 67665 42980 62602 10202 20171 48532 85032
                   333 59006 85360 82080=
201603271800 AAXX 27184 67665 42680 70802 10212 20162 48522 82932
                   333 59005 82950 82360 86080=
201603271500 AAXX 27154 67665 42680 71402 10239 20189 48516 82932
                   333 58001 82940 82360 87080=
201603271200 AAXX 27124 67665 42680 72602 10270 20188 48526 82932
                   333 59001 82932 85835 83360 82080=
201603270900 AAXX 27094 67665 42580 63403 10236 20165 48553 70200 84230
                   333 58002 84825 86360=
201603261800 AAXX 26184 67665 42980 11206 10208 20173 48527 81031
                   333 59014 81360 81080=
201603261500 AAXX 26154 67665 42680 20909 10262 20194 48517 81131
                   333 59004 81840 81360 81080=
201603261200 AAXX 26124 67665 42580 30609 10265 20199 48530 81101
                   333 59009 81828 83080=
201603260900 AAXX 26094 67665 42480 40711 10245 20193 48553 81101
                   333 59012 81820 84080=
201603260600 AAXX 26064 67665 32980 70905 10190 20158 48543 70221 86036
                   333 10271 20//0 59001 86359 84080=
201603250900 AAXX 25094 67665 42480 70807 10227 20201 48561 875//
                   333 58017 87618=
201603250600 AAXX 25064 67665 32380 51007 10190 20167 48548 83530
                   333 58010 83610 82360=
201603250000 AAXX 25004 67665 42980 61009 10178 20152 38528 70222 86030
                   333 58010 86360=
201603242100 AAXX 24214 67665 42980 61004 10190 20161=
201603241800 AAXX 24184 67665 42980 70607 10205 20165 48529 70122 8703/
                   333 58013 87358=
201603241200 AAXX 24124 67665 42580 70812 10244 20200 48523 70222 8316/
                   333 59011 83830 87358=
201603240900 AAXX 24094 67665 42460 70712 10229 20192 48545 70222 86831
                   333 58008 84615 83820 84360 83080=
201603240600 AAXX 24064 67665 12460 60909 10196 20178 48540 69934 70222 84530
                   333 10260 20//0 58009 84612 86459=
201603240300 AAXX 24034 67665 42960 60910 10182 20174 48521 70222 86030
                   333 58009 86459=
201603232100 AAXX 23214 67665 42960 51003 10196 20181 48527 70222 84030
                   333 58012 84360=
201603231800 AAXX 23184 67665 42980 61105 10211 20188 48521 70222 86030
                   333 58017 86360 91019=
201603231500 AAXX 23154 67665 42480 81109 10239 20207 48505 70122 85230
                   333 58016 85818 86360 91016=
201603231200 AAXX 23124 67665 42480 81210 10230 20201=
201603221500 AAXX 22154 67665 41659 71506 10235 20235 48489 78088 829//
                   333 59015 82935 86840=
201603221200 AAXX 22124 67665 42680 71904 10274 20233 48508 872//
                   333 59012 87835=
201603220900 AAXX 22094 67665 42580 70302 10266 20222 48535 70222 86206
                   333 59005 86825 87080=
201603220600 AAXX 22064 67665 32580 72703 10210 20197 48531 82507
                   333 59/// 82707 86280=
201603220000 AAXX 22004 67665 42/80 62906 10192 20167 48519 81930
                   333 58008 819// 86360=
201603210900 AAXX 21094 67665 42460 73207 10226 20203=
201603210600 AAXX 21064 67665 41360 80000 10198 20183 48535 72522 81672
                   333 58002 81706 86360 88080=
201603201800 AAXX 20184 67665 41680 61503 10225 20195 48516 71792 82962
                   333 58002 82948 82360 85080=
201603200900 AAXX 20094 67665 42460 71204 10229 20207 48535 70222 84170
                   333 58006 84815 86360=
201603180900 AAXX 18094 67665 42580 63106 10267 20217 48550 85202
                   333 59020 85830 81080=
201603180600 AAXX 18064 67665 12380 42903 10218 20172 48548 82130
                   333 59009 82815 83080=
201603180300 AAXX 18034 67665 42980 02303 10181 20140 48525 70200
                   333 59004=
201603180000 AAXX 18004 67665 42980 01002 10186 20143 48526 70200
                   333 58005=
201603172100 AAXX 17214 67665 42980 01601 10191 20146 48541 70200
                   333 58004=
201603171800 AAXX 17184 67665 42980 00302 10212 20162 48519 70102
                   333 59002=
201603170600 AAXX 17064 67665 12470 71303 10201 20184 48554 60284 70222 8457/
                   333 10270 20//0 58001 84610 87359=
201603170300 AAXX 17034 67665 42980 20000 10187 20173 48530 70200 80002
                   333 59001 82080=
201603162100 AAXX 16214 67665 42980 31702 10188 20172 48537 70200 80002
                   333 58002 83080=
201603161800 AAXX 16184 67665 42480 41404 10205 20161 48530 70222 82032
                   333 58005 82359 84080=
201603161200 AAXX 16124 67665 42480 61308 10244 20196 48532=
201603151800 AAXX 15184 67665 42760 41603 10215 20201 48526 71322 81962
                   333 10285 59007 81958 82360 83080=
201603151500 AAXX 15154 67665 42760 61204 10230 20201 48510 72999 81932
                   333 59004 81950 82360 83080=
201603151200 AAXX 15124 67665 41680 63204 10227 20187 48520 71792 81930
                   333 59008 81930 85835 84360=
201603150900 AAXX 15094 67665 42580 70607 10265 20265 48546 70322 878//
                   333 58000 86825 82626=
201603150600 AAXX 15064 67665 NIL=
201603150300 AAXX 15034 67665 42980 21303 10193 20161 48531 82030
                   333 58003 82360=
201603150000 AAXX 15004 67665 42980 22202 10207 20167 48534 82030
                   333 59001 82360=
201603142100 AAXX 14214 67665 42980 31204 10214 20175 48540 82032
                   333 59002 82360 81080=
201603141200 AAXX 14124 67665 42680 60210 10288 20209 48535 85231
                   333 59001 85835 83360 81080=
201603140900 AAXX 14094 67665 42580 50712 10271 20211 48555=
201603140600 AAXX 14064 67665 NIL=
201603131800 AAXX 13184 67665 42980 30903 10223 20189 48533 70100 80002
                   333 10310 58002 82080=
201603131500 AAXX 13154 67665 42780 40905 10271 20171 48532 70222 84202
                   333 58002 84850 82080=
201603131200 AAXX 13124 67665 42680 60809 10271 20173 48533 70222 85232
                   333 58005 85840 82360 84080=
201603130900 AAXX 13094 67665 42580 51104 10234 20183 48549 70200 82131
                   333 59006 82828 82360 84080=
201603121500 AAXX 12154 67665 42680 61009 10273 20209 48520 70122 85232
                   333 59003 85840 81360 83080=
201603121200 AAXX 12124 67665 42680 60412 10289 20194 48531 70222 86232
                   333 58001 86840 81360 83080=
201603120600 AAXX 12064 67665 32980 70907 10224 20194 48540 70222 80081
                   333 10304 20//0 59003 81360 87080=
201603120300 AAXX 12034 67665 42980 31203 10193 20158 48516 70300 83030
                   333 58007 83360=
201603120000 AAXX 12004 67665 42980 21003 10199 20161 48527 70200 82030
                   333 58016 82360=
201603111800 AAXX 11184 67665 42780 42002 10222 20161 48512 81962
                   333 58001 81956 82360 82080=
201603111500 AAXX 11154 67665 42680 40408 10271 20197 48513 82902
                   333 58007 8294/ 84080=
201603111200 AAXX 11124 67665 42680 50609 10263 20197 48526 83102
                   333 58017 83830 85080=
201603110600 AAXX 11064 67665 42480 73512 10201 20181 48547 70321=
201603110300 AAXX 11034 67665 32980 30000 10192 20169 48518 70200 83031=
201603102100 AAXX 10214 67665 42980 31402 10199 20188 48531 70200 83031
                   333 58004 83359 81080=
201603101800 AAXX 10184 67665 42980 41303 10222 20189 48510 70222 83032
                   333 58002 83359 82080=
201603101200 AAXX 10124 67665 42680 70207 10282 20217 48508 70282 86201
                   333 58001 86840 83080=
201603100600 AAXX 10064 67665 12580 61803 10215 20201 48529 69944 70222 82132
                   333 10312 20//0 59006 82820 83360 84080=
201603100300 AAXX 10034 67665 42970 41502 10196 20187 48513 70222 84030
                   333 59002 84360=
201603092100 AAXX 09214 67665 42960 41003 10208 20193 48525 70222 84030
                   333 59001 84360=
201603090900 AAXX 09094 67665 42580 60606 10270 20235 48536 70222 86201
                   333 58002 86830 81080=
201603081800 AAXX 08184 67665 42460 61303 10212 20194 48506 70222 81278
                   333 59004 81815 86459 86280=
201603081500 AAXX 08154 67665 42461 63604 10230 20213 48493 70122 82278
                   333 58009 82815 86459 86280=
201603081200 AAXX 08124 67665 41360 71604 10215 20212 48514 72999 82978=
201603080900 AAXX 08094 67665 42580 70207 10258 20229 48533 86202
                   333 58001 86820 81080=
201603080600 AAXX 08064 67665 12380 81003 10204 20195 48523 60204 70322 8267/
                   333 59009 82706 87459=
201603080300 AAXX 08034 67665 42980 71803 10193 20184 48505 8707/
                   333 59011 87459=
201603080000 AAXX 08004 67665 42/80 71003 10192 20183 48500 8297/
                   333 59011 829// 86459=
201603071200 AAXX 07124 67665 42680 50308 10289 20194 48500 85201
                   333 59027 85840 81080=
201603070900 AAXX 07094 67665 42580 50406 10260 20193 48532 70300 84131
                   333 59012 84828 82360 81080=
201603070600 AAXX 07064 67665 NIL=
201603061800 AAXX 06184 67665 41680 61703 10222 20192 48523 71322 82932
                   333 59023 82950 83360 84080=
201603061500 AAXX 06154 67665 41680 71107 10245 20224 48509 71482 82902
                   333 59026 82932 84835 83080=
201603061200 AAXX 06124 67665 42580 70715 10271 20257 48525 82900
                   333 59018 82920 85825=
201603051200 AAXX 05124 67665 41460 71403 10219 20212 48536 879//
                   333 58010 82928 86830=
201603050600 AAXX 05064 67665 12480 71007 10212 20198 48553 83530
                   333 58007 83618 85360=
201603050300 AAXX 05034 67665 42980 31002 10205 20183 48535 70200 83030
                   333 58007 83360=
201603042100 AAXX 04214 67665 42980 40803 10206 20182 48543 70122 84030
                   333 58012 84360=
201603040900 AAXX 04094 67665 42460 70706 10244 20208 48549 70222 86630
                   333 58023 86720 85360=
201603040600 AAXX 04064 67665 NIL=
201603040300 AAXX 04034 67665 41258 50705 10186 20185=
201603032100 AAXX 03214 67665 41780 51502 10208 20180 48532 71322 81930
                   333 58011 81957 84360=
201603031800 AAXX 03184 67665 41780 50904 10210 20191 48516 71322 81932
                   333 58000 81957 84360 82080=
201603031500 AAXX 03154 67665 42680 51007 10236 20186 48500 70222 84232
                   333 39006 84845 83360 82080=
201603031200 AAXX 03124 67665 42580 60809 10244 20194 48507 70222 85230
                   333 58000 85825 84360=
201603030600 AAXX 03064 67665 NIL=
201603021800 AAXX 02184 67665 42480 31004 10214 20182 48516 70210 82231=
201603021500 AAXX 02154 67665 42480 60906 10245 20212 48507=
201603021200 AAXX 02124 67665 42680 72703 10244 20167 48509 79522 85330
                   333 59031 81930 85832 86360=
201603020900 AAXX 02094 67665 42680 73405 10250 20169 48537 70222 84530
                   333 59026 84630=
201603020300 AAXX 02034 67665 42980 61202 10194 20177 48518 86070
                   333 59026 86459=
201603020000 AAXX 02004 67665 42980 31102 10195 20180 48523 83070
                   333 59/// 83459=
201603012100 AAXX 01214 67665 42980 40903 10202 20187 48541 84030
                   333 59013 84360=
201603010900 AAXX 01094 67665 42460 82902 10225 20198 48560 70266=
201603010600 AAXX 01064 67665 11354 82406 10189 20189 48564 76366 887//
                   333 58009 88707=

################################################################################
#  SYNOPS from 67666, Lusaka City Airport (Zambia) | 15-25-00S | 028-28-00E | 1280 m
################################################################################
201603310600 AAXX 31064 67666 32980 00908 10219 20169 48530
                   333 10271 20//0 59002 91020=
201603300600 AAXX 30064 67666 32480 60907 10220 20197 48540 83630
                   333 10285 2//// 58004 83709 84359 91021=
201603290600 AAXX 29064 67666 32980 42704 10225 20193 48731 84030
                   333 10230 20/// 58006 84360=
201603150600 AAXX 15064 67666 32980 70912 10234 20197 48542 81538
                   333 10293 20//0 58000 81613 82358 87278 91021=
201603140600 AAXX 14064 67666 32980 20905 10223 20197 48541 80001
                   333 10275 20/// 59002 82080 91021=
201603110600 AAXX 11064 67666 32980 70901 10205 20183 48532 81030
                   333 10285 20/// 58015 87359 91020=
201603070600 AAXX 07064 67666 32480 60907 10227 20205 48522 84530
                   333 10275 20//0 59008 84608 91019=
201603040900 AAXX 04094 67666 NIL=
201603040600 AAXX 04064 67666 11480 70906 10200 20188 48538 60204 75022 83578
                   333 10248 2//// 58018 83610 85458 86277 91021=
201603030600 AAXX 03064 67666 12380 80809 10216 20200 48523 69904 70320 8663/
                   333 10281=
201603010600 AAXX 01064 67666 11380 81205 10187 20167 48556 60274 76122 887//
                   333 10270 20/// 58005 88707 91023=

################################################################################
#  SYNOPS from 67667, Mount Makulu (Zambia) | 15-33S | 028-15E | 1213 m
################################################################################
201603310600 AAXX 31064 67667 32980 10905 10222 20165 48/// 80001
                   333 10290 20175 59004 81080=
201603300600 AAXX 30064 67667 32580 50908 10235 20182 48/// 81102
                   333 10310 20198 58006 81825=
201603290600 AAXX 29064 67667 12980 43505 10230 20182 48/// 60024 80002
                   333 10275 20177 58006 84080=
201603150600 AAXX 15064 67667 32580 50906 10240 20204 48/// 81102
                   333 10295 20180 59001 81825=
201603140600 AAXX 14064 67667 32980 20804 10241 20202 48/// 80002
                   333 10286 20190 59001 82080=
201603110600 AAXX 11064 67667 11680 83502 10210 20188 48/// 60024 71522 84538
                   333 10302 20175=
201603070600 AAXX 07064 67667 12580 40910 10240 20179 48/// 60084 81102
                   333 10292 20185 58012 81825 84080=
201603040900 AAXX 04094 67667 NIL=
201603040600 AAXX 04064 67667 12980 60901 10210 20176 48/// 60104 80002
                   333 10258 20176 58017 86080=
201603030600 AAXX 03064 67667 12580 70905 10220 20198 48/// 60024 86502
                   333 10275 20197 5//// 86625 86080=
201603010600 AAXX 01064 67667 11580 83002 10185 20179 48/// 60204 76162 86508
                   333 10266 20175 58004 86625 88280=

################################################################################
#  SYNOPS from 67673, Petauke (Zambia) | 14-15S | 031-17E | 1035 m
################################################################################
201603310600 AAXX 31064 67673 32980 00902 10245 20176 48554
                   333 10//0 20175 58013=
201603300600 AAXX 30064 67673 32980 50902 10230 20200 48550 84031
                   333 10/// 20205 58007 84360=
201603290600 AAXX 29064 67673 12584 40000 10272 20224 48557 69904 81101
                   333 10/// 20215=
201603241200 AAXX 24124 67673 42684 80501 10246 20178 48538 8513/
                   333 58019 85832 88360=
201603150600 AAXX 15064 67673 32680 40902 10250 20206 48555 81130
                   333 10/// 20190 59002 81830=
201603140600 AAXX 14064 67673 32980 40000 10250 20214 48557 81130
                   333 10/// 20190 58005 81830=
201603110900 AAXX 11094 67673 42680 33601 10290 20203 48557 83101
                   333 58024 83835 81080=
201603110600 AAXX 11064 67673 12680 13502 10262 20201 48540 69904 81101
                   333 10/// 20200 59006 81830 81080=
201603090600 AAXX 09064 67673 12980 60000 10235 20205 48537 60014 83038
                   333 10/// 20200 58000 83360 85280=
201603070600 AAXX 07064 67673 12680 10802 10255 20217 48541 69904 81101
                   333 1//// 20196 59003 81830 81080=
201603040900 AAXX 04094 67673 41680 63601 10280 20214 48565 71522 86231
                   333 58028 86835 85360 83080=
201603040600 AAXX 04064 67673 12584 50000 10245 20217 48562 60034 84131
                   333 1//// 20200 58019 84828 85360 82080=
201603030600 AAXX 03064 67673 32580 73603 10220 20197 48539 8153/
                   333 1//// 20200 59006 81625 87360=
201603021200 AAXX 02124 67673 42680 40000 10290 20205 48518 84200
                   333 59032 84835=
201603011200 AAXX 01124 67673 41680 60801 10247 20207 48542 72992 85231
                   333 59002 81930 85830 86360 82080=
201603010600 AAXX 01064 67673 12584 50801 10240 20208 48572 60564 85531
                   333 1//// 20203 59004 85628 83360 81080=

################################################################################
#  SYNOPS from 67731, Senanga (Zambia) | 16-06S | 023-16E | 1027 m
################################################################################
201603310600 AAXX 31064 67731 32480 429// 10249 20205 48/// 70222 83530
                   333 10331 20209 59006=
201603300600 AAXX 30064 67731 32980 211// 10247 20216 48/// 70200 81021
                   333 10310 20216 58001 81460 81080=
201603290600 AAXX 29064 67731 32980 514// 10247 20216 48/// 70222 83021
                   333 10307 20212 59010=
201603150600 AAXX 15064 67731 12580 701// 10229 20206 48/// 69904 70322 81921
                   333 10262 20200=
201603140600 AAXX 14064 67731 12480 715// 10260 20200 48/// 60034 70222 83138
                   333 10302 20174 58011 83814 84360 86280=
201603110600 AAXX 11064 67731 12580 510// 10215 20201 48/// 69904 70122 81521
                   333 10236 20195=
201603070600 AAXX 07064 67731 32680 823// 10243 20209 48/// 70322 82952
                   333 10310 20208 5////=
201603040900 AAXX 04094 67731 NIL=
201603040600 AAXX 04064 67731 12580 516// 10232 20204 48/// 60014 70122 81921
                   333 10263 20203 58026 81927 81630 82460 81080=
201603030600 AAXX 03064 67731 NIL=
201603010600 AAXX 01064 67731 11460 809// 10200 20191 48/// 60184 76166 8357/
                   333 10339 20154=

################################################################################
#  SYNOPS from 67741, Sesheke (Zambia) | 17-28S | 024-18E | 949 m
################################################################################
201603310600 AAXX 31064 67741 32980 10801 10253 20215 48535 80001
                   333 10340 20206 59007 81080=
201603300600 AAXX 30064 67741 32980 20000 10258 20232 48537 82031
                   333 10330 20202 58005 82362=
201603290600 AAXX 29064 67741 12980 50000 10240 20212 48533 60014 85030
                   333 10329 20220 5//// 85362=
201603150600 AAXX 15064 67741 NIL=
201603140600 AAXX 14064 67741 NIL=
201603110600 AAXX 11064 67741 12680 63601 10229 20219 48533 60444 84530
                   333 10312 20209 58010 84610 84362=
201603090600 AAXX 09064 67741 12680 60901 10218 20212 48519 60034 81530
                   333 10306 20204 58006 81635 86362=
201603070600 AAXX 07064 67741 12980 70000 10224 20217 48510 60114 8707/
                   333 10318 20205 5//// 87362=
201603040900 AAXX 04094 67741 NIL=
201603040600 AAXX 04064 67741 12680 60201 10245 20219 48533 60024 83530
                   333 10318 20208 58016=
201603030600 AAXX 03064 67741 32680 60000 10238 20226 48523 86500
                   333 10319 20204 59010 86635=
201603010600 AAXX 01064 67741 12680 70801 10222 20/// 48548 60274 875//
                   333 10240 20209 58005=

################################################################################
#  SYNOPS from 67743, Livingstone (Zambia) | 17-49S | 025-49E | 985 m
################################################################################
201603290600 AAXX 29064 67743 NIL=
201603150600 AAXX 15064 67743 NIL=
201603140600 AAXX 14064 67743 NIL=
201603110600 AAXX 11064 67743 NIL=
201603070600 AAXX 07064 67743 NIL=
201603040900 AAXX 04094 67743 NIL=
201603040600 AAXX 04064 67743 NIL=
201603030600 AAXX 03064 67743 NIL=

################################################################################
#  SYNOPS from 67751, Magoye (Zambia) | 16-00S | 027-36E | 1018 m
################################################################################
201603310600 AAXX 31064 67751 32980 00802 10235 20192
                   333 10/// 20169 59001=
201603300600 AAXX 30064 67751 12980 40000 10230 20202 48/// 60034 84030
                   333 10/// 20200 59004 84360=
201603290600 AAXX 29064 67751 NIL=
201603150600 AAXX 15064 67751 32980 20802 10245 20214 48/// 80001
                   333 10//0 20202 58004 82080=
201603140600 AAXX 14064 67751 NIL=
201603110600 AAXX 11064 67751 12980 60401 10218 20194 48/// 60024 70222 86070
                   333 10/// 20181 59014 86360=
201603070600 AAXX 07064 67751 12980 54501 10260 20233 48/// 69904 70222 85040
                   333 10//0 20185 5//// 86360=
201603040900 AAXX 04094 67751 NIL=
201603040600 AAXX 04064 67751 12980 63601 10232 20202 48/// 60014 70222 86070
                   333 10/// 20191 59017 86360=
201603030600 AAXX 03064 67751 12380 80000 10218 20206 48/// 60094 885//
                   333 10/// 20201 58003=
201603010600 AAXX 01064 67751 11980 83602 10200 20217 48/// 60354 76366 8801/
                   333 10/// 20190 59004 88460=

################################################################################
#  SYNOPS from 67753, Choma (Zambia) | 16-50S | 027-04E | 1213 m
################################################################################
201603310600 AAXX 31064 67753 32560 40610 10205 20188 48/// 84100
                   333 10290 20163 5//// 84825=
201603300600 AAXX 30064 67753 32560 10606 10231 20213 48542 81100
                   333 10304 20180 58009=
201603290600 AAXX 29064 67753 32960 63104 10213 20207 48530 85031
                   333 10286 20191 5//// 85360=
201603150600 AAXX 15064 67753 NIL=
201603140600 AAXX 14064 67753 32560 10512 10232 20/// 48542 81131
                   333 10281 20181 59005 81825=
201603110600 AAXX 11064 67753 11560 80000 10200 20191 48529 69974 70500 8117/
                   333 10281 20181 58013 81820 87360=
201603070600 AAXX 07064 67753 32560 30000 10228 20205 48523 82830
                   333 10285 20195 59017 81620=
201603040900 AAXX 04094 67753 NIL=
201603040600 AAXX 04064 67753 11560 70911 10210 20196 48530 60094 70500 8253/
                   333 10260 20190 58019 82620 85360=
201603030600 AAXX 03064 67753 32560 70000 10206 20202 48511 8485/
                   333 10272 20185 59007 82620 82825 83360=
201603010600 AAXX 01064 67753 32560 70000 10196 20192 48549 69904 8583/
                   333 10260 20185 5////=

################################################################################
#  SYNOPS from 67855, Lupaki (Zambia) | 17-03-00S | 024-46-00E | 1000 m
################################################################################
201603310600 AAXX 31064 67855 NIL=
201603301800 AAXX 30184 67855 NIL=
201603301200 AAXX 30124 67855 42775 50000 10316 20193 3//// 48/// 85200
                   333 5//// 85850=
201603300600 AAXX 30064 67855 32975 00000 10200 20192 3//// 48///
                   333 20168 5////=
201603291800 AAXX 29184 67855 NIL=
201603291200 AAXX 29124 67855 42775 42001 10332 20167 3//// 48/// 81108
                   333 5//// 81856 84280=
201603290600 AAXX 29064 67855 12975 10000 10208 20203 3//// 48/// 60164 80001
                   333 20184 5//// 81080=
201603281800 AAXX 28184 67855 NIL=
201603281200 AAXX 28124 67855 42775 50000 10310 20196 3//// 48/// 85230
                   333 5//// 85850=
201603280600 AAXX 28064 67855 32975 10000 10218 20196 3//// 48/// 81031
                   333 20183 5//// 81360=
201603271800 AAXX 27184 67855 NIL=
201603271200 AAXX 27124 67855 42775 62002 10328 20198 3//// 48/// 85238
                   333 5//// 85850 86280=
201603270600 AAXX 27064 67855 NIL=
201603261800 AAXX 26184 67855 NIL=
201603261200 AAXX 26124 67855 42775 63401 10290 20184 3//// 48/// 84101
                   333 5//// 84850 86080=
201603260600 AAXX 26064 67855 NIL=
201603251200 AAXX 25124 67855 42775 62001 10296 20163 3//// 48/// 81131
                   333 5//// 81850 86360=
201603250600 AAXX 25064 67855 12975 70302 10202 20160 3//// 48/// 69904 8707/
                   333 20163 5//// 87360=
201603241800 AAXX 24184 67855 NIL=
201603241200 AAXX 24124 67855 42775 70902 10280 20197 3//// 48/// 8327/
                   333 5//// 83840 87360=
201603240600 AAXX 24064 67855 11975 70701 10204 20190 3//// 48/// 60014 70262 8707/
                   333 20198 5//// 87360=
201603231800 AAXX 23184 67855 NIL=
201603231200 AAXX 23124 67855 42675 70701 10270 20216 3//// 48/// 8557/
                   333 5//// 85635 87360=
201603230600 AAXX 23064 67855 32575 71303 10214 20169 3//// 48/// 84571
                   333 20188 5//// 83620 85360 87080=
201603221800 AAXX 22184 67855 NIL=
201603221200 AAXX 22124 67855 41770 51903 10296 20193 3//// 48/// 71581 85202
                   333 5//// 85850=
201603220600 AAXX 22064 67855 11975 30000 10200 20188 3//// 48/// 69904 70140 81031
                   333 20171 5//// 81360 83080=
201603211800 AAXX 21184 67855 NIL=
201603211200 AAXX 21124 67855 41775 71902 10294 20203 3//// 48/// 72582 83208
                   333 5//// 83850 87280=
201603210600 AAXX 21064 67855 NIL=
201603201800 AAXX 20184 67855 NIL=
201603201200 AAXX 20124 67855 42675 73402 10286 20183 3//// 48/// 83232
                   333 5//// 83840 87080=
201603200600 AAXX 20064 67855 11975 70000 10204 21993 48/// 60314 70262 8707/
                   333 20196 5//// 87360=
201603191200 AAXX 19124 67855 41670 63402 10306 20209 3//// 48/// 71798 85233
                   333 5//// 81930 84835 86080=
201603190600 AAXX 19064 67855 31975 60000 10220 20212 3//// 48/// 70342 81031
                   333 20194 5//// 81360 86080=
201603181800 AAXX 18184 67855 NIL=
201603180600 AAXX 18064 67855 32975 70000 10220 20209 3//// 48/// 83032
                   333 20193 5//// 83360 87080=
201603171800 AAXX 17184 67855 NIL=
201603171200 AAXX 17124 67855 42775 53602 10302 20206 3//// 48/// 85201
                   333 5//// 85850 83080=
201603170600 AAXX 17064 67855 12975 50000 10192 20186 3//// 48/// 60174 80001
                   333 20174 5//// 85080=
201603161800 AAXX 16184 67855 NIL=
201603161200 AAXX 16124 67855 41670 70303 10220 20208 3//// 48/// 79598 84273
                   333 5//// 81925 84830 87458=
201603160600 AAXX 16064 67855 12975 70304 10222 20196 3//// 48/// 69904 80008
                   333 20194 5//// 87280=
201603151800 AAXX 15184 67855 NIL=
201603151200 AAXX 15124 67855 42775 61802 10302 20193 3//// 48/// 84231
                   333 5//// 84850=
201603150600 AAXX 15064 67855 12575 50903 10222 20197 3//// 48/// 60244 81531
                   333 20203 5//// 81620 83360 85080=
201603141200 AAXX 14124 67855 NIL=
201603140600 AAXX 14064 67855 12975 50702 10222 20205 3//// 48/// 69904 85070
                   333 20188 5//// 85360=
201603131800 AAXX 13184 67855 NIL=
201603131200 AAXX 13124 67855 42775 50602 10304 20199 3//// 48/// 85231
                   333 5//// 85850=
201603130600 AAXX 13064 67855 12975 50000 10204 20199 3//// 48/// 60064 85030
                   333 20195 5//// 85360=
201603121800 AAXX 12184 67855 NIL=
201603121200 AAXX 12124 67855 NIL=
201603120600 AAXX 12064 67855 11970 73601 10202 20199 3//// 48/// 60094 76166 8707/
                   333 20195 5//// 87458=
201603111200 AAXX 11124 67855 41670 70000 10238 20222 3//// 48/// 79598 85273
                   333 5//// 81925 84830 87458=
201603110600 AAXX 11064 67855 11575 70000 10216 20201 3//// 48/// 60084 8127/
                   333 20195 5//// 81820 87360=
201603101800 AAXX 10184 67855 NIL=
201603101200 AAXX 10124 67855 41670 73303 10206 20191 3//// 48/// 79598 84273
                   333 5//// 81925 83830 87458=
201603100600 AAXX 10064 67855 12975 50302 10230 20198 3//// 48/// 69904 85031
                   333 20198 5//// 85360 83080=
201603091800 AAXX 09184 67855 NIL=
201603091200 AAXX 09124 67855 42775 70404 10314 20193 3//// 48/// 84202
                   333 5//// 84850 87080=
201603090600 AAXX 09064 67855 32975 70000 10208 20194 3//// 48/// 81032
                   333 20192 5//// 81360 87080=
201603081200 AAXX 08124 67855 42675 70000 10264 20204 3//// 48/// 83202
                   333 5//// 83840 87080=
201603080600 AAXX 08064 67855 11575 80000 10208 20199 3//// 48/// 60024 70362 8357/
                   333 20199 5//// 83620 88360=
201603071200 AAXX 07124 67855 41670 70301 10302 20202 3//// 48/// 71792 85233
                   333 5//// 81930 84835=
201603070600 AAXX 07064 67855 12975 43601 10220 20214 3//// 48/// 60034 81530
                   333 20212 5//// 81620 84360=
201603061800 AAXX 06184 67855 NIL=
201603061200 AAXX 06124 67855 NIL=
201603060600 AAXX 06064 67855 12975 60301 10220 20194 3//// 48/// 69904 86070
                   333 20202 5//// 86360=
201603051800 AAXX 05184 67855 NIL=
201603050600 AAXX 05064 67855 32975 70000 10226 20184 3//// 48/// 8707/
                   333 20218 5//// 87360=
201603041800 AAXX 04184 67855 NIL=
201603041200 AAXX 04124 67855 42775 70302 10296 20195 3//// 48/// 83272
                   333 5//// 8350 85459 87080=
201603040600 AAXX 04064 67855 32975 70601 10218 20180 3//// 48/// 8707/
                   333 20184 5//// 87459=
201603031200 AAXX 03124 67855 42775 40403 10316 20148 3//// 48/// 84200
                   333 5//// 84850=
201603030600 AAXX 03064 67855 32975 01801 10208 20169 3//// 48///
                   333 20149 5////=
201603021200 AAXX 02124 67855 42775 42003 10306 20155 3//// 48/// 84200
                   333 5//// 84850=
201603020600 AAXX 02064 67855 32975 60000 10214 20190 3//// 48/// 86070
                   333 20196 5//// 86360=
201603011800 AAXX 01184 67855 NIL=
201603011200 AAXX 01124 67855 NIL=
201603010600 AAXX 01064 67855 NIL=
