################################################################################
# Query made at 04/14/2022 12:21:13 UTC
# Country like Zamb*
# Time interval: from 10/01/2013 05:30  to 10/31/2013 06:30  UTC
################################################################################

################################################################################
#  SYNOPS from 67403, Kawambwa (Zambia) | 09-48S | 029-05E | 1323 m
################################################################################
201310310600 AAXX 31060 67403 NIL=
201310310000 AAXX 31004 67403 NIL=
201310301800 AAXX 30184 67403 NIL=
201310301500 AAXX 30154 67403 NIL=
201310301200 AAXX 30120 67403 NIL=
201310300900 AAXX 30094 67403 NIL=
201310300600 AAXX 30061 67403 NIL=
201310300300 AAXX 30034 67403 NIL=
201310292100 AAXX 29214 67403 NIL=
201310291800 AAXX 29184 67403 NIL=
201310291500 AAXX 29154 67403 NIL=
201310291200 AAXX 29124 67403 NIL=
201310290900 AAXX 29094 67403 NIL=
201310290600 AAXX 29064 67403 NIL=
201310281800 AAXX 28184 67403 NIL=
201310281200 AAXX 28124 67403 NIL=
201310280900 AAXX 28090 67403 NIL=
201310280600 AAXX 28060 67403 NIL=
201310280300 AAXX 28034 67403 NIL=
201310272100 AAXX 27214 67403 NIL=
201310271800 AAXX 27184 67403 NIL=
201310271500 AAXX 27154 67403 NIL=
201310271200 AAXX 27120 67403 NIL=
201310270900 AAXX 27094 67403 NIL=
201310270600 AAXX 27060 67403 NIL=
201310270300 AAXX 27034 67403 NIL=
201310270000 AAXX 27004 67403 NIL=
201310262100 AAXX 26214 67403 NIL=
201310261500 AAXX 26154 67403 NIL=
201310261200 AAXX 26120 67403 NIL=
201310260900 AAXX 26094 67403 NIL=
201310260600 AAXX 26060 67403 NIL=
201310260300 AAXX 26034 67403 NIL=
201310260000 AAXX 26004 67403 NIL=
201310252100 AAXX 25214 67403 NIL=
201310251800 AAXX 25184 67403 NIL=
201310251200 AAXX 25124 67403 NIL=
201310250900 AAXX 25094 67403 NIL=
201310250600 AAXX 25060 67403 NIL=
201310250000 AAXX 25004 67403 NIL=
201310242100 AAXX 24214 67403 NIL=
201310241800 AAXX 24184 67403 NIL=
201310241500 AAXX 24154 67403 NIL=
201310241200 AAXX 24120 67403 NIL=
201310240600 AAXX 24060 67403 NIL=
201310232100 AAXX 23214 67403 NIL=
201310231800 AAXX 23184 67403 NIL=
201310231500 AAXX 23154 67403 NIL=
201310231200 AAXX 23120 67403 NIL=
201310230900 AAXX 23094 67403 NIL=
201310230600 AAXX 23060 67403 NIL=
201310230300 AAXX 23034 67403 NIL=
201310230000 AAXX 23004 67403 NIL=
201310221800 AAXX 22184 67403 NIL=
201310221500 AAXX 22150 67403 NIL=
201310221200 AAXX 22120 67403 NIL=
201310220900 AAXX 22094 67403 NIL=
201310220600 AAXX 22064 67403 NIL=
201310220300 AAXX 22034 67403 NIL=
201310220000 AAXX 22004 67403 NIL=
201310212100 AAXX 21214 67403 NIL=
201310211800 AAXX 21184 67403 NIL=
201310211500 AAXX 21154 67403 NIL=
201310211200 AAXX 21120 67403 NIL=
201310210900 AAXX 21094 67403 NIL=
201310210600 AAXX 21064 67403 NIL=
201310210300 AAXX 21034 67403 NIL=
201310210000 AAXX 21004 67403 NIL=
201310201800 AAXX 20184 67403 NIL=
201310201500 AAXX 20154 67403 NIL=
201310201200 AAXX 20124 67403 NIL=
201310200600 AAXX 20064 67403 NIL=
201310191800 AAXX 19184 67403 NIL=
201310190900 AAXX 19094 67403 NIL=
201310190600 AAXX 19061 67403 NIL=
201310181500 AAXX 18150 67403 NIL=
201310181200 AAXX 18121 67403 NIL=
201310180900 AAXX 18094 67403 NIL=
201310180600 AAXX 18064 67403 NIL=
201310180300 AAXX 18034 67403 NIL=
201310180000 AAXX 18004 67403 NIL=
201310171800 AAXX 17184 67403 NIL=
201310171500 AAXX 17154 67403 NIL=
201310171200 AAXX 17124 67403 NIL=
201310170900 AAXX 17094 67403 NIL=
201310170600 AAXX 17060 67403 NIL=
201310161200 AAXX 16124 67403 NIL=
201310160900 AAXX 16094 67403 NIL=
201310151200 AAXX 15124 67403 NIL=
201310150900 AAXX 15094 67403 NIL=
201310150600 AAXX 15061 67403 NIL=
201310141200 AAXX 14124 67403 NIL=
201310140900 AAXX 14094 67403 NIL=
201310140600 AAXX 14060 67403 NIL=
201310131200 AAXX 13120 67403 NIL=
201310130900 AAXX 13090 67403 NIL=
201310130600 AAXX 13060 67403 NIL=
201310122100 AAXX 12214 67403 NIL=
201310121500 AAXX 12154 67403 NIL=
201310121200 AAXX 12121 67403 NIL=
201310120900 AAXX 12094 67403 NIL=
201310120600 AAXX 12060 67403 NIL=
201310120300 AAXX 12034 67403 NIL=
201310112100 AAXX 11214 67403 NIL=
201310111800 AAXX 11184 67403 NIL=
201310111500 AAXX 11154 67403 NIL=
201310111200 AAXX 11120 67403 NIL=
201310110900 AAXX 11094 67403 NIL=
201310110600 AAXX 11061 67403 NIL=
201310110300 AAXX 11034 67403 NIL=
201310101800 AAXX 10184 67403 NIL=
201310101500 AAXX 10154 67403 NIL=
201310101200 AAXX 10124 67403 NIL=
201310100900 AAXX 10094 67403 NIL=
201310100600 AAXX 10064 67403 NIL=
201310100300 AAXX 10034 67403 NIL=
201310100000 AAXX 10004 67403 NIL=
201310091800 AAXX 09184 67403 NIL=
201310091500 AAXX 09154 67403 NIL=
201310091200 AAXX 09124 67403 NIL=
201310090900 AAXX 09094 67403 NIL=
201310090600 AAXX 09061 67403 NIL=
201310081200 AAXX 08120 67403 NIL=
201310080900 AAXX 08090 67403 NIL=
201310080600 AAXX 08060 67403 NIL=
201310071200 AAXX 07120 67403 NIL=
201310070900 AAXX 07094 67403 NIL=
201310070600 AAXX 07060 67403 NIL=
201310061200 AAXX 06120 67403 NIL=
201310060600 AAXX 06060 67403 NIL=
201310060000 AAXX 06004 67403 NIL=
201310051800 AAXX 05184 67403 NIL=
201310051500 AAXX 05154 67403 NIL=
201310051200 AAXX 05120 67403 NIL=
201310050900 AAXX 05094 67403 NIL=
201310050600 AAXX 05060 67403 NIL=
201310050300 AAXX 05034 67403 NIL=
201310041800 AAXX 04184 67403 NIL=
201310041500 AAXX 04154 67403 NIL=
201310041200 AAXX 04120 67403 NIL=
201310040900 AAXX 04094 67403 NIL=
201310040600 AAXX 04064 67403 NIL=
201310040300 AAXX 04034 67403 NIL=
201310040000 AAXX 04004 67403 NIL=
201310032100 AAXX 03214 67403 NIL=
201310031800 AAXX 03184 67403 NIL=
201310031500 AAXX 03154 67403 NIL=
201310031200 AAXX 03121 67403 NIL=
201310030900 AAXX 03094 67403 NIL=
201310030600 AAXX 03064 67403 NIL=
201310030300 AAXX 03034 67403 NIL=
201310030000 AAXX 03004 67403 NIL=
201310021800 AAXX 02184 67403 NIL=
201310021200 AAXX 02120 67403 NIL=
201310020900 AAXX 02094 67403 NIL=
201310020600 AAXX 02060 67403 NIL=
201310011800 AAXX 01184 67403 NIL=
201310011500 AAXX 01154 67403 NIL=
201310011200 AAXX 01124 67403 NIL=
201310010900 AAXX 01094 67403 NIL=
201310010600 AAXX 01064 67403 NIL=

################################################################################
#  SYNOPS from 67413, Mbala (Zambia) | 08-51S | 031-20E | 1673 m
################################################################################
201310310600 AAXX 31064 67413 32480 30000 10215 20176 48530 82101
                   333 10280 20//0 59012 82810 81080
                   555 00/// 91023=
201310310000 AAXX 31004 67413 NIL=
201310301800 AAXX 30184 67413 NIL=
201310301500 AAXX 30154 67413 NIL=
201310301200 AAXX 30120 67413 NIL=
201310300900 AAXX 30094 67413 NIL=
201310300600 AAXX 30064 67413 12980 50000 10206 20110 48543 69904 81082
                   333 10290 20/// 58006 81359 84080
                   555 00/// 91025=
201310300300 AAXX 30034 67413 NIL=
201310292100 AAXX 29214 67413 NIL=
201310291800 AAXX 29184 67413 NIL=
201310291500 AAXX 29154 67413 NIL=
201310291200 AAXX 29124 67413 NIL=
201310290900 AAXX 29094 67413 NIL=
201310290600 AAXX 29064 67413 12580 40000 10210 20167 48535 60034 81330
                   333 10300 20/// 59009 81920 84360
                   555 00/// 91023=
201310281800 AAXX 28184 67413 NIL=
201310281200 AAXX 28124 67413 NIL=
201310280900 AAXX 28094 67413 42580 20000 10270 20144 48535 82200
                   333 5//// 82820 91024=
201310280600 AAXX 28064 67413 32980 10000 10230 20138 48520 80001
                   333 10310 20/// 59002 81080
                   555 00/// 91020=
201310280300 AAXX 28034 67413 NIL=
201310272100 AAXX 27214 67413 NIL=
201310271800 AAXX 27184 67413 NIL=
201310271500 AAXX 27154 67413 NIL=
201310271200 AAXX 27120 67413 NIL=
201310270900 AAXX 27094 67413 NIL=
201310270600 AAXX 27060 67413 NIL=
201310270300 AAXX 27034 67413 NIL=
201310270000 AAXX 27004 67413 NIL=
201310262100 AAXX 26214 67413 NIL=
201310261500 AAXX 26154 67413 NIL=
201310261200 AAXX 26120 67413 NIL=
201310260900 AAXX 26094 67413 NIL=
201310260600 AAXX 26060 67413 NIL=
201310260300 AAXX 26034 67413 NIL=
201310260000 AAXX 26004 67413 NIL=
201310252100 AAXX 25214 67413 NIL=
201310251800 AAXX 25184 67413 NIL=
201310251200 AAXX 25124 67413 NIL=
201310250900 AAXX 25094 67413 42480 41007 10260 20100 48531 81102
                   333 59010 81810 83080 91023=
201310250600 AAXX 25064 67413 32980 30910 10210 20160 48543 80002
                   333 10295 20/// 59004 83080
                   555 00/// 20018 91024=
201310250000 AAXX 25004 67413 NIL=
201310242100 AAXX 24214 67413 NIL=
201310241800 AAXX 24184 67413 NIL=
201310241500 AAXX 24154 67413 NIL=
201310241200 AAXX 24120 67413 NIL=
201310240600 AAXX 24060 67413 NIL=
201310232100 AAXX 23214 67413 NIL=
201310231800 AAXX 23184 67413 NIL=
201310231500 AAXX 23154 67413 NIL=
201310231200 AAXX 23120 67413 NIL=
201310230900 AAXX 23094 67413 NIL=
201310230600 AAXX 23064 67413 32980 10000 10230 20151 48538 81080
                   333 10290 20/// 58001=
201310230300 AAXX 23034 67413 NIL=
201310230000 AAXX 23004 67413 NIL=
201310221800 AAXX 22184 67413 NIL=
201310221500 AAXX 22150 67413 NIL=
201310221200 AAXX 22120 67413 NIL=
201310220900 AAXX 22094 67413 NIL=
201310220600 AAXX 22064 67413 32980 20000 10220 20153 48531 82080
                   333 10300 20/// 58004 82359 91023=
201310220300 AAXX 22034 67413 NIL=
201310220000 AAXX 22004 67413 NIL=
201310212100 AAXX 21214 67413 NIL=
201310211800 AAXX 21184 67413 NIL=
201310211500 AAXX 21154 67413 NIL=
201310211200 AAXX 21120 67413 NIL=
201310210900 AAXX 21094 67413 NIL=
201310210600 AAXX 21064 67413 32980 00910 10225 20104 48526
                   333 10295 20/// 59007 91023=
201310210300 AAXX 21034 67413 NIL=
201310210000 AAXX 21004 67413 NIL=
201310201800 AAXX 20184 67413 NIL=
201310201500 AAXX 20154 67413 NIL=
201310201200 AAXX 20124 67413 NIL=
201310200600 AAXX 20064 67413 NIL=
201310191800 AAXX 19184 67413 NIL=
201310190900 AAXX 19094 67413 NIL=
201310190600 AAXX 19061 67413 NIL=
201310181500 AAXX 18150 67413 NIL=
201310181200 AAXX 18121 67413 NIL=
201310180900 AAXX 18094 67413 NIL=
201310180600 AAXX 18064 67413 32480 10905 10240 20115 48539 81100
                   333 10295 20/// 58000 81815 91024=
201310180300 AAXX 18034 67413 NIL=
201310180000 AAXX 18004 67413 NIL=
201310171800 AAXX 17184 67413 NIL=
201310171500 AAXX 17154 67413 NIL=
201310171200 AAXX 17124 67413 NIL=
201310170900 AAXX 17094 67413 NIL=
201310170600 AAXX 17064 67413 32980 21012 10215 20105 48540 80001
                   333 10296 20/// 59018 81080 91024=
201310161200 AAXX 16124 67413 NIL=
201310160900 AAXX 16094 67413 NIL=
201310151200 AAXX 15124 67413 NIL=
201310150900 AAXX 15094 67413 NIL=
201310150600 AAXX 15064 67413 31980 51012 10210 20090 48558 70500
                   333 10310 20/// 58015 81358 84080
                   555 00/// 91026=
201310141200 AAXX 14124 67413 NIL=
201310140900 AAXX 14094 67413 42480 41008 10280 20115 48534 82230
                   333 58000 82812 82360 91024=
201310140600 AAXX 14064 67413 12980 31010 10220 20112 48542 69904 83030
                   333 10260 20/// 58000 83360
                   555 00/// Q1025.2=
201310131200 AAXX 13120 67413 NIL=
201310130900 AAXX 13090 67413 NIL=
201310130600 AAXX 13060 67413 NIL=
201310122100 AAXX 12214 67413 NIL=
201310121500 AAXX 12154 67413 NIL=
201310121200 AAXX 12121 67413 NIL=
201310120900 AAXX 12094 67413 NIL=
201310120600 AAXX 12060 67413 NIL=
201310120300 AAXX 12034 67413 NIL=
201310112100 AAXX 11214 67413 NIL=
201310111800 AAXX 11184 67413 NIL=
201310111500 AAXX 11154 67413 NIL=
201310111200 AAXX 11120 67413 NIL=
201310110900 AAXX 11094 67413 NIL=
201310110600 AAXX 11061 67413 NIL=
201310110300 AAXX 11034 67413 NIL=
201310101800 AAXX 10184 67413 NIL=
201310101500 AAXX 10154 67413 NIL=
201310101200 AAXX 10124 67413 NIL=
201310100900 AAXX 10094 67413 NIL=
201310100600 AAXX 10064 67413 32980 30910 10215 20124 48543 80001
                   333 10285 20/// 58002 83080 91024=
201310100300 AAXX 10034 67413 NIL=
201310100000 AAXX 10004 67413 NIL=
201310091800 AAXX 09184 67413 NIL=
201310091500 AAXX 09154 67413 NIL=
201310091200 AAXX 09124 67413 NIL=
201310090900 AAXX 09094 67413 NIL=
201310090600 AAXX 09061 67413 NIL=
201310081200 AAXX 08120 67413 NIL=
201310080900 AAXX 08090 67413 NIL=
201310080600 AAXX 08064 67413 32980 01015 10255 20153 48572
                   333 10368 20210 58022 91023=
201310071200 AAXX 07120 67413 NIL=
201310070900 AAXX 07094 67413 NIL=
201310070600 AAXX 07060 67413 NIL=
201310061200 AAXX 06120 67413 NIL=
201310060600 AAXX 06060 67413 NIL=
201310060000 AAXX 06004 67413 NIL=
201310051800 AAXX 05184 67413 NIL=
201310051500 AAXX 05154 67413 NIL=
201310051200 AAXX 05120 67413 NIL=
201310050900 AAXX 05094 67413 NIL=
201310050600 AAXX 05060 67413 NIL=
201310050300 AAXX 05034 67413 NIL=
201310041800 AAXX 04184 67413 NIL=
201310041500 AAXX 04154 67413 NIL=
201310041200 AAXX 04120 67413 NIL=
201310040900 AAXX 04094 67413 NIL=
201310040600 AAXX 04064 67413 11980 80913 10165 20141 48554 69944 75122 8807/
                   333 10260 20//0 5//// 88360 91025=
201310040300 AAXX 04034 67413 NIL=
201310040000 AAXX 04004 67413 NIL=
201310032100 AAXX 03214 67413 NIL=
201310031800 AAXX 03184 67413 NIL=
201310031500 AAXX 03154 67413 NIL=
201310031200 AAXX 03121 67413 NIL=
201310030900 AAXX 03094 67413 NIL=
201310030600 AAXX 03064 67413 NIL=
201310030300 AAXX 03034 67413 NIL=
201310030000 AAXX 03004 67413 NIL=
201310021800 AAXX 02184 67413 NIL=
201310021200 AAXX 02120 67413 NIL=
201310020900 AAXX 02094 67413 NIL=
201310020600 AAXX 02064 67413 32480 71012 10160 20126 48546 87500
                   333 10280 20/// 59004
                   555 00/// 91026=
201310011800 AAXX 01184 67413 NIL=
201310011500 AAXX 01154 67413 NIL=
201310011200 AAXX 01124 67413 NIL=
201310010900 AAXX 01094 67413 NIL=
201310010600 AAXX 01064 67413 31975 30913 10190 20122 48548 70500 82031
                   333 10290 20/// 59001 82359 81080 91025=

################################################################################
#  SYNOPS from 67441, Mwinilunga (Zambia) | 11-45S | 024-26E | 1361 m
################################################################################
201310310600 AAXX 31064 67441 11970 727// 10185 20162 48546 60344 70522 8707/
                   333 10315 20/// 59005 87360=
201310310000 AAXX 31004 67441 NIL=
201310301800 AAXX 30184 67441 NIL=
201310301500 AAXX 30154 67441 NIL=
201310301200 AAXX 30120 67441 NIL=
201310300900 AAXX 30094 67441 NIL=
201310300600 AAXX 30061 67441 NIL=
201310300300 AAXX 30034 67441 NIL=
201310292100 AAXX 29214 67441 NIL=
201310291800 AAXX 29184 67441 NIL=
201310291500 AAXX 29154 67441 NIL=
201310291200 AAXX 29124 67441 NIL=
201310290900 AAXX 29094 67441 NIL=
201310290600 AAXX 29064 67441 NIL=
201310281800 AAXX 28184 67441 NIL=
201310281200 AAXX 28124 67441 NIL=
201310280900 AAXX 28090 67441 NIL=
201310280600 AAXX 28060 67441 NIL=
201310280300 AAXX 28034 67441 NIL=
201310272100 AAXX 27214 67441 NIL=
201310271800 AAXX 27184 67441 NIL=
201310271500 AAXX 27154 67441 NIL=
201310271200 AAXX 27120 67441 NIL=
201310270900 AAXX 27094 67441 NIL=
201310270600 AAXX 27060 67441 NIL=
201310270300 AAXX 27034 67441 NIL=
201310270000 AAXX 27004 67441 NIL=
201310262100 AAXX 26214 67441 NIL=
201310261500 AAXX 26154 67441 NIL=
201310261200 AAXX 26120 67441 NIL=
201310260900 AAXX 26094 67441 NIL=
201310260600 AAXX 26060 67441 NIL=
201310260300 AAXX 26034 67441 NIL=
201310260000 AAXX 26004 67441 NIL=
201310252100 AAXX 25214 67441 NIL=
201310251800 AAXX 25184 67441 NIL=
201310251200 AAXX 25124 67441 NIL=
201310250900 AAXX 25094 67441 NIL=
201310250600 AAXX 25064 67441 31970 109// 10210 20171 48560 70500 80004
                   333 10285 20/// 59007 81080=
201310250000 AAXX 25004 67441 NIL=
201310242100 AAXX 24214 67441 NIL=
201310241800 AAXX 24184 67441 NIL=
201310241500 AAXX 24154 67441 NIL=
201310241200 AAXX 24120 67441 NIL=
201310240600 AAXX 24060 67441 NIL=
201310232100 AAXX 23214 67441 NIL=
201310231800 AAXX 23184 67441 NIL=
201310231500 AAXX 23154 67441 NIL=
201310231200 AAXX 23120 67441 NIL=
201310230900 AAXX 23094 67441 NIL=
201310230600 AAXX 23060 67441 NIL=
201310230300 AAXX 23034 67441 NIL=
201310230000 AAXX 23004 67441 NIL=
201310221800 AAXX 22184 67441 NIL=
201310221500 AAXX 22150 67441 NIL=
201310221200 AAXX 22120 67441 NIL=
201310220900 AAXX 22094 67441 NIL=
201310220600 AAXX 22064 67441 11970 829// 10184 20170 48545 60194 76166 8802/
                   333 10320 20/// 58013 88460=
201310220300 AAXX 22034 67441 NIL=
201310220000 AAXX 22004 67441 NIL=
201310212100 AAXX 21214 67441 NIL=
201310211800 AAXX 21184 67441 NIL=
201310211500 AAXX 21154 67441 NIL=
201310211200 AAXX 21120 67441 NIL=
201310210900 AAXX 21094 67441 NIL=
201310210600 AAXX 21064 67441 NIL=
201310210300 AAXX 21034 67441 NIL=
201310210000 AAXX 21004 67441 NIL=
201310201800 AAXX 20184 67441 NIL=
201310201500 AAXX 20154 67441 NIL=
201310201200 AAXX 20124 67441 NIL=
201310200600 AAXX 20064 67441 NIL=
201310191800 AAXX 19184 67441 NIL=
201310190900 AAXX 19094 67441 NIL=
201310190600 AAXX 19061 67441 NIL=
201310181500 AAXX 18150 67441 NIL=
201310181200 AAXX 18121 67441 NIL=
201310180900 AAXX 18094 67441 NIL=
201310180600 AAXX 18064 67441 NIL=
201310180300 AAXX 18034 67441 NIL=
201310180000 AAXX 18004 67441 NIL=
201310171800 AAXX 17184 67441 NIL=
201310171500 AAXX 17154 67441 NIL=
201310171200 AAXX 17124 67441 NIL=
201310170900 AAXX 17094 67441 NIL=
201310170600 AAXX 17060 67441 NIL=
201310161200 AAXX 16124 67441 NIL=
201310160900 AAXX 16094 67441 NIL=
201310151200 AAXX 15124 67441 NIL=
201310150900 AAXX 15094 67441 NIL=
201310150600 AAXX 15061 67441 NIL=
201310141200 AAXX 14124 67441 NIL=
201310140900 AAXX 14094 67441 NIL=
201310140600 AAXX 14060 67441 NIL=
201310131200 AAXX 13120 67441 NIL=
201310130900 AAXX 13090 67441 NIL=
201310130600 AAXX 13060 67441 NIL=
201310122100 AAXX 12214 67441 NIL=
201310121500 AAXX 12154 67441 NIL=
201310121200 AAXX 12121 67441 NIL=
201310120900 AAXX 12094 67441 NIL=
201310120600 AAXX 12060 67441 NIL=
201310120300 AAXX 12034 67441 NIL=
201310112100 AAXX 11214 67441 NIL=
201310111800 AAXX 11184 67441 NIL=
201310111500 AAXX 11154 67441 NIL=
201310111200 AAXX 11120 67441 NIL=
201310110900 AAXX 11094 67441 NIL=
201310110600 AAXX 11061 67441 NIL=
201310110300 AAXX 11034 67441 NIL=
201310101800 AAXX 10184 67441 NIL=
201310101500 AAXX 10154 67441 NIL=
201310101200 AAXX 10124 67441 NIL=
201310100900 AAXX 10094 67441 NIL=
201310100600 AAXX 10064 67441 NIL=
201310100300 AAXX 10034 67441 NIL=
201310100000 AAXX 10004 67441 NIL=
201310091800 AAXX 09184 67441 NIL=
201310091500 AAXX 09154 67441 NIL=
201310091200 AAXX 09124 67441 NIL=
201310090900 AAXX 09094 67441 NIL=
201310090600 AAXX 09061 67441 NIL=
201310081200 AAXX 08120 67441 NIL=
201310080900 AAXX 08090 67441 NIL=
201310080600 AAXX 08060 67441 NIL=
201310071200 AAXX 07120 67441 NIL=
201310070900 AAXX 07094 67441 NIL=
201310070600 AAXX 07064 67441 31670 304// 10205 20134 48560 70500 81130
                   333 10320 20/// 58003 81830 83360=
201310061200 AAXX 06120 67441 NIL=
201310060600 AAXX 06060 67441 NIL=
201310060000 AAXX 06004 67441 NIL=
201310051800 AAXX 05184 67441 NIL=
201310051500 AAXX 05154 67441 NIL=
201310051200 AAXX 05120 67441 NIL=
201310050900 AAXX 05094 67441 NIL=
201310050600 AAXX 05060 67441 NIL=
201310050300 AAXX 05034 67441 NIL=
201310041800 AAXX 04184 67441 NIL=
201310041500 AAXX 04154 67441 NIL=
201310041200 AAXX 04120 67441 NIL=
201310040900 AAXX 04094 67441 NIL=
201310040600 AAXX 04064 67441 31975 00000 10180 20073 48563 70500
                   333 10295 20/// 58003
                   555 00///=
201310040300 AAXX 04034 67441 NIL=
201310040000 AAXX 04004 67441 NIL=
201310032100 AAXX 03214 67441 NIL=
201310031800 AAXX 03184 67441 NIL=
201310031500 AAXX 03154 67441 NIL=
201310031200 AAXX 03121 67441 NIL=
201310030900 AAXX 03094 67441 NIL=
201310030600 AAXX 03064 67441 NIL=
201310030300 AAXX 03034 67441 NIL=
201310030000 AAXX 03004 67441 NIL=
201310021800 AAXX 02184 67441 NIL=
201310021200 AAXX 02120 67441 NIL=
201310020900 AAXX 02094 67441 NIL=
201310020600 AAXX 02060 67441 NIL=
201310011800 AAXX 01184 67441 NIL=
201310011500 AAXX 01154 67441 NIL=
201310011200 AAXX 01124 67441 NIL=
201310010900 AAXX 01094 67441 NIL=
201310010600 AAXX 01064 67441 NIL=

################################################################################
#  SYNOPS from 67461, Mansa (Zambia) | 11-06S | 028-51E | 1382 m
################################################################################
201310310600 AAXX 31064 67461 NIL=
201310310000 AAXX 31004 67461 NIL=
201310301800 AAXX 30184 67461 NIL=
201310301500 AAXX 30154 67461 NIL=
201310301200 AAXX 30120 67461 NIL=
201310300900 AAXX 30094 67461 NIL=
201310300600 AAXX 30061 67461 NIL=
201310300300 AAXX 30034 67461 NIL=
201310292100 AAXX 29214 67461 NIL=
201310291800 AAXX 29184 67461 NIL=
201310291500 AAXX 29154 67461 NIL=
201310291200 AAXX 29124 67461 NIL=
201310290900 AAXX 29094 67461 NIL=
201310290600 AAXX 29064 67461 NIL=
201310281800 AAXX 28184 67461 NIL=
201310281200 AAXX 28124 67461 NIL=
201310280900 AAXX 28090 67461 NIL=
201310280600 AAXX 28060 67461 NIL=
201310280300 AAXX 28034 67461 NIL=
201310272100 AAXX 27214 67461 NIL=
201310271800 AAXX 27184 67461 NIL=
201310271500 AAXX 27154 67461 NIL=
201310271200 AAXX 27120 67461 NIL=
201310270900 AAXX 27094 67461 NIL=
201310270600 AAXX 27060 67461 NIL=
201310270300 AAXX 27034 67461 NIL=
201310270000 AAXX 27004 67461 NIL=
201310262100 AAXX 26214 67461 NIL=
201310261500 AAXX 26154 67461 NIL=
201310261200 AAXX 26120 67461 NIL=
201310260900 AAXX 26094 67461 NIL=
201310260600 AAXX 26060 67461 NIL=
201310260300 AAXX 26034 67461 NIL=
201310260000 AAXX 26004 67461 NIL=
201310252100 AAXX 25214 67461 NIL=
201310251800 AAXX 25184 67461 NIL=
201310251200 AAXX 25124 67461 NIL=
201310250900 AAXX 25094 67461 NIL=
201310250600 AAXX 25060 67461 NIL=
201310250000 AAXX 25004 67461 NIL=
201310242100 AAXX 24214 67461 NIL=
201310241800 AAXX 24184 67461 NIL=
201310241500 AAXX 24154 67461 NIL=
201310241200 AAXX 24120 67461 NIL=
201310240600 AAXX 24060 67461 NIL=
201310232100 AAXX 23214 67461 NIL=
201310231800 AAXX 23184 67461 NIL=
201310231500 AAXX 23154 67461 NIL=
201310231200 AAXX 23120 67461 NIL=
201310230900 AAXX 23094 67461 NIL=
201310230600 AAXX 23060 67461 NIL=
201310230300 AAXX 23034 67461 NIL=
201310230000 AAXX 23004 67461 NIL=
201310221800 AAXX 22184 67461 NIL=
201310221500 AAXX 22150 67461 NIL=
201310221200 AAXX 22120 67461 NIL=
201310220900 AAXX 22094 67461 NIL=
201310220600 AAXX 22064 67461 NIL=
201310220300 AAXX 22034 67461 NIL=
201310220000 AAXX 22004 67461 NIL=
201310212100 AAXX 21214 67461 NIL=
201310211800 AAXX 21184 67461 NIL=
201310211500 AAXX 21154 67461 NIL=
201310211200 AAXX 21120 67461 NIL=
201310210900 AAXX 21094 67461 NIL=
201310210600 AAXX 21064 67461 31975 30905 10240 20171 48501 70500 80001
                   333 10305 20160 5//// 83080
                   555 00/// 91017=
201310210300 AAXX 21034 67461 NIL=
201310210000 AAXX 21004 67461 NIL=
201310201800 AAXX 20184 67461 NIL=
201310201500 AAXX 20154 67461 NIL=
201310201200 AAXX 20124 67461 NIL=
201310200600 AAXX 20064 67461 NIL=
201310191800 AAXX 19184 67461 NIL=
201310190900 AAXX 19094 67461 NIL=
201310190600 AAXX 19061 67461 NIL=
201310181500 AAXX 18150 67461 NIL=
201310181200 AAXX 18121 67461 NIL=
201310180900 AAXX 18094 67461 NIL=
201310180600 AAXX 18064 67461 NIL=
201310180300 AAXX 18034 67461 NIL=
201310180000 AAXX 18004 67461 NIL=
201310171800 AAXX 17184 67461 NIL=
201310171500 AAXX 17154 67461 NIL=
201310171200 AAXX 17124 67461 NIL=
201310170900 AAXX 17094 67461 NIL=
201310170600 AAXX 17060 67461 NIL=
201310161200 AAXX 16124 67461 NIL=
201310160900 AAXX 16094 67461 NIL=
201310160600 AAXX 16064 67461 31980 10908 10235 20172 48538 70500 80001
                   333 10345 20172 58006 81080
                   555 00/// 91022=
201310151200 AAXX 15124 67461 NIL=
201310150900 AAXX 15094 67461 NIL=
201310150600 AAXX 15061 67461 NIL=
201310141200 AAXX 14124 67461 NIL=
201310140900 AAXX 14094 67461 NIL=
201310140600 AAXX 14064 67461 31975 10904 10234 20169 48509 70500 80001
                   333 10340 20165 58007 81080
                   555 00/// 91019=
201310131200 AAXX 13120 67461 NIL=
201310130900 AAXX 13090 67461 NIL=
201310130600 AAXX 13060 67461 NIL=
201310122100 AAXX 12214 67461 NIL=
201310121500 AAXX 12154 67461 NIL=
201310121200 AAXX 12121 67461 NIL=
201310120900 AAXX 12094 67461 NIL=
201310120600 AAXX 12060 67461 NIL=
201310120300 AAXX 12034 67461 NIL=
201310112100 AAXX 11214 67461 NIL=
201310111800 AAXX 11184 67461 NIL=
201310111500 AAXX 11154 67461 NIL=
201310111200 AAXX 11120 67461 NIL=
201310110900 AAXX 11094 67461 NIL=
201310110600 AAXX 11061 67461 NIL=
201310110300 AAXX 11034 67461 NIL=
201310101800 AAXX 10184 67461 NIL=
201310101500 AAXX 10154 67461 NIL=
201310101200 AAXX 10124 67461 NIL=
201310100900 AAXX 10094 67461 NIL=
201310100600 AAXX 10064 67461 31975 20912 10235 20128 48519 70500 80001
                   333 10320 20158 58000 82080
                   555 91020=
201310100300 AAXX 10034 67461 NIL=
201310100000 AAXX 10004 67461 NIL=
201310091800 AAXX 09184 67461 NIL=
201310091500 AAXX 09154 67461 NIL=
201310091200 AAXX 09124 67461 NIL=
201310090900 AAXX 09094 67461 NIL=
201310090600 AAXX 09061 67461 NIL=
201310081200 AAXX 08120 67461 NIL=
201310080900 AAXX 08090 67461 NIL=
201310080600 AAXX 08060 67461 NIL=
201310071200 AAXX 07120 67461 NIL=
201310070900 AAXX 07094 67461 NIL=
201310070600 AAXX 07064 67461 31975 40908 10239 20143 48519 70500 80001
                   333 10332 20171 59004 84080
                   555 00/// 91020=
201310061200 AAXX 06120 67461 NIL=
201310060600 AAXX 06060 67461 NIL=
201310060000 AAXX 06004 67461 NIL=
201310051800 AAXX 05184 67461 NIL=
201310051500 AAXX 05154 67461 NIL=
201310051200 AAXX 05120 67461 NIL=
201310050900 AAXX 05094 67461 NIL=
201310050600 AAXX 05060 67461 NIL=
201310050300 AAXX 05034 67461 NIL=
201310041800 AAXX 04184 67461 NIL=
201310041500 AAXX 04154 67461 NIL=
201310041200 AAXX 04120 67461 NIL=
201310040900 AAXX 04094 67461 NIL=
201310040600 AAXX 04064 67461 32980 31103 10206 20100 48534 70200 80001
                   333 10294 20150 59002 83080 91020=
201310040300 AAXX 04034 67461 NIL=
201310040000 AAXX 04004 67461 NIL=
201310032100 AAXX 03214 67461 NIL=
201310031800 AAXX 03184 67461 NIL=
201310031500 AAXX 03154 67461 NIL=
201310031200 AAXX 03121 67461 NIL=
201310030900 AAXX 03094 67461 NIL=
201310030600 AAXX 03064 67461 32980 01303 10194 20120 48535
                   333 10276 20134 59013=
201310030300 AAXX 03034 67461 NIL=
201310030000 AAXX 03004 67461 NIL=
201310021800 AAXX 02184 67461 NIL=
201310021200 AAXX 02120 67461 NIL=
201310020900 AAXX 02094 67461 NIL=
201310020600 AAXX 02064 67461 32580 70812 10164 20119 48545 70222 875//
                   333 10277 20145 58005 87626 91022=
201310011800 AAXX 01184 67461 NIL=
201310011500 AAXX 01154 67461 NIL=
201310011200 AAXX 01124 67461 NIL=
201310010900 AAXX 01094 67461 NIL=
201310010600 AAXX 01064 67461 31758 70909 10205 20145 48544 70522 85201
                   333 10320 20182 58014 85840 84080 91021=

################################################################################
#  SYNOPS from 67475, Kasama (Zambia) | 10-13S | 031-08E | 1382 m
################################################################################
201310310600 AAXX 31064 67475 31970 33004 10234 20154 48518 70500 80001
                   333 10331 20183 59009 83080
                   555 00/// 91020=
201310310000 AAXX 31004 67475 NIL=
201310301800 AAXX 30184 67475 NIL=
201310301500 AAXX 30154 67475 NIL=
201310301200 AAXX 30124 67475 41970 50707 10316 20106 48482 70522 81302
                   333 59002 81958 83858 83080 91015=
201310300900 AAXX 30094 67475 41870 63609 10300 20131 48517 70522 82201
                   333 58003 82857 86080 91019=
201310300600 AAXX 30064 67475 31970 63509 10237 20152 48528 70522 80001
                   333 10330 20171 58005 86080
                   555 00/// 91020=
201310300300 AAXX 30034 67475 NIL=
201310292100 AAXX 29214 67475 NIL=
201310291800 AAXX 29184 67475 NIL=
201310291500 AAXX 29154 67475 NIL=
201310291200 AAXX 29124 67475 41870 71204 10315 20107 48484 70522 84201
                   333 59006 84857 86080 91016=
201310290900 AAXX 29094 67475 41770 60906 10292 20132 48513 70522 81101
                   333 59010 81856 86080 91019=
201310290600 AAXX 29064 67475 31970 70510 10238 20143 48522 70522 80001
                   333 10330 20165 59013 87080
                   555 91020=
201310281800 AAXX 28184 67475 NIL=
201310281200 AAXX 28124 67475 41970 50907 10316 20126 48491 70510 84230
                   333 59/// 84858 82362 91016=
201310280900 AAXX 28094 67475 41770 10508 10300 20140 48524 70500 81130
                   333 5//// 81856 81362 91020=
201310280600 AAXX 28064 67475 31970 20706 10250 20136 48536 70500 81031
                   333 10339 20181 58008 81360 82080
                   555 91021=
201310280300 AAXX 28034 67475 NIL=
201310272100 AAXX 27214 67475 NIL=
201310271800 AAXX 27184 67475 NIL=
201310271500 AAXX 27154 67475 NIL=
201310271200 AAXX 27120 67475 NIL=
201310270900 AAXX 27094 67475 NIL=
201310270600 AAXX 27060 67475 NIL=
201310270300 AAXX 27034 67475 NIL=
201310270000 AAXX 27004 67475 NIL=
201310262100 AAXX 26214 67475 NIL=
201310261500 AAXX 26154 67475 NIL=
201310261200 AAXX 26120 67475 NIL=
201310260900 AAXX 26094 67475 NIL=
201310260600 AAXX 26060 67475 NIL=
201310260300 AAXX 26034 67475 NIL=
201310260000 AAXX 26004 67475 NIL=
201310252100 AAXX 25214 67475 NIL=
201310251800 AAXX 25184 67475 NIL=
201310251200 AAXX 25124 67475 41970 41806 10306 20104 48497 70500 84100
                   333 59/// 84858 91017=
201310250900 AAXX 25094 67475 NIL=
201310250600 AAXX 25060 67475 31970 20907 10222 20132 48538 70500 80001
                   333 10311 20174 59001 82080
                   555 00/// 91022=
201310250000 AAXX 25004 67475 NIL=
201310242100 AAXX 24214 67475 NIL=
201310241800 AAXX 24184 67475 NIL=
201310241500 AAXX 24154 67475 NIL=
201310241200 AAXX 24120 67475 NIL=
201310240600 AAXX 24060 67475 NIL=
201310232100 AAXX 23214 67475 NIL=
201310231800 AAXX 23184 67475 NIL=
201310231500 AAXX 23154 67475 NIL=
201310231200 AAXX 23124 67475 41870 43403 10335 20104 48482 70500 84131
                   333 58005 81857 81360 81080 91015=
201310230900 AAXX 23094 67475 41770 12005 10297 20129 48519 70500 81101
                   333 58011 81856 81080=
201310230600 AAXX 23064 67475 31970 12603 10234 20132 48529 70500 81031
                   333 10329 20143 58012 81360 81080
                   555 00/// BB/// CC143 DD075 Q1021.1=
201310230300 AAXX 23034 67475 NIL=
201310230000 AAXX 23004 67475 NIL=
201310221800 AAXX 22184 67475 NIL=
201310221500 AAXX 22150 67475 NIL=
201310221200 AAXX 22124 67475 41970 62007 10314 20119 48476 70521 83230
                   333 58000 83858 84360 91014=
201310220900 AAXX 22094 67475 41770 33207 10307 20151 48508 70500 83200
                   333 58000 83856 91018=
201310220600 AAXX 22064 67475 31970 23206 10245 20159 48518 70500 82030
                   333 10335 20170 58002 82360
                   555 00/// 91019=
201310220300 AAXX 22034 67475 NIL=
201310220000 AAXX 22004 67475 NIL=
201310212100 AAXX 21214 67475 NIL=
201310211800 AAXX 21184 67475 NIL=
201310211500 AAXX 21154 67475 NIL=
201310211200 AAXX 21124 67475 41970 42703 10321 20085 48476 70500 84201
                   333 5//// 84858 81080 91014=
201310210900 AAXX 21094 67475 41870 10606 10296 20111 48508 70500 81101
                   333 5//// 81857 81080=
201310210600 AAXX 21064 67475 31970 13605 10236 20125 48515 70500 80001
                   333 10330 20146 59010 81080
                   555 00/// 91019=
201310210300 AAXX 21034 67475 NIL=
201310210000 AAXX 21004 67475 NIL=
201310201800 AAXX 20184 67475 NIL=
201310201500 AAXX 20154 67475 NIL=
201310201200 AAXX 20124 67475 NIL=
201310200600 AAXX 20064 67475 NIL=
201310191800 AAXX 19184 67475 NIL=
201310190900 AAXX 19094 67475 NIL=
201310190600 AAXX 19061 67475 NIL=
201310181500 AAXX 18150 67475 NIL=
201310181200 AAXX 18124 67475 41970 41809 10316 20090 48494 70500 84200
                   333 59013 84858 91016=
201310180900 AAXX 18094 67475 NIL=
201310180600 AAXX 18064 67475 31970 10804 10230 20134 48535 70500 80001
                   333 10315 20141 81080
                   555 00/// 91021=
201310180300 AAXX 18034 67475 NIL=
201310180000 AAXX 18004 67475 NIL=
201310171800 AAXX 17184 67475 NIL=
201310171500 AAXX 17154 67475 41970 31205 10297 20101 48499 70511 83031
                   333 59016 83362 81080
                   555 10315 91017=
201310171200 AAXX 17124 67475 41970 41508 10296 20112 48507 70500 84200
                   333 59013 84858 91018=
201310170900 AAXX 17094 67475 41870 11206 10285 20111 48533 70500 81100
                   333 59018 81857 91021=
201310170600 AAXX 17064 67475 31970 00805 10233 20117 48538 70500
                   333 10312 20146 59023 91022=
201310161200 AAXX 16124 67475 NIL=
201310160900 AAXX 16094 67475 41670 41510 10267 20132 48550 70500 84100
                   333 58003 84840 91023=
201310160600 AAXX 16064 67475 31570 11210 10217 20153 48560 70500 81100
                   333 10341 20180 58006 81825
                   555 91024=
201310151200 AAXX 15124 67475 41970 31109 10330 20068 48517 70500 83101
                   333 58019 83858 81080 91019=
201310150900 AAXX 15094 67475 41970 21210 10301 20100 48549 70500 80001
                   333 58019 82080 91022=
201310150600 AAXX 15064 67475 31970 30707 10230 20120 48555 70500 80001
                   333 10341 20160 58022 83080
                   555 00/// 91024=
201310141200 AAXX 14124 67475 41970 51607 10335 20079 48498 70511 83130
                   333 5//// 83858 83362 91017=
201310140900 AAXX 14094 67475 41870 40304 10307 20120 48530 70522 81131
                   333 5//// 81857 83361 82080 91020=
201310140600 AAXX 14060 67475 31970 60203 10223 20120 48533 70522 8603/
                   333 10271 20151 58001 86359
                   555 91021=
201310131200 AAXX 13120 67475 NIL=
201310130900 AAXX 13090 67475 NIL=
201310130600 AAXX 13060 67475 NIL=
201310122100 AAXX 12214 67475 NIL=
201310121500 AAXX 12154 67475 NIL=
201310121200 AAXX 12121 67475 NIL=
201310120900 AAXX 12094 67475 NIL=
201310120600 AAXX 12060 67475 NIL=
201310120300 AAXX 12034 67475 NIL=
201310112100 AAXX 11214 67475 NIL=
201310111800 AAXX 11184 67475 NIL=
201310111500 AAXX 11154 67475 NIL=
201310111200 AAXX 11124 67475 41970 51204 10296 20086 48510 70510 84101
                   333 58005 84858 82080 91018=
201310110900 AAXX 11094 67475 41870 21209 10280 20091 48542 70500 81101
                   333 58002 81857 82080 91022=
201310110600 AAXX 11064 67475 31970 20705 10223 20130 48544 70500 80001
                   333 10315 20156 59001 82080
                   555 00/// BB/// CC156 DD105 Q1022.8=
201310110300 AAXX 11034 67475 NIL=
201310101800 AAXX 10184 67475 NIL=
201310101500 AAXX 10154 67475 NIL=
201310101200 AAXX 10124 67475 41870 41603 10309 20094 48505 70500 84101
                   333 58001 84857 81080 91018=
201310100900 AAXX 10094 67475 41770 10906 10271 20114 48539 70500 81100
                   333 58009 81856 91022=
201310100600 AAXX 10064 67475 31970 10804 10213 20127 48544 70500 80001
                   333 10300 20146 58009 81080
                   555 00/// 91022=
201310100300 AAXX 10034 67475 NIL=
201310100000 AAXX 10004 67475 NIL=
201310091800 AAXX 09184 67475 NIL=
201310091500 AAXX 09154 67475 NIL=
201310091200 AAXX 09124 67475 41870 51306 10289 20115 48503 70500 84101
                   333 58002 84857 83080 91017=
201310090900 AAXX 09094 67475 41770 30906 10267 20123 48530 70500 83101
                   333 59003 83856 81080 91021=
201310090600 AAXX 09064 67475 31970 21108 10210 20123 48535 70500 80001
                   333 10317 20168 59009 82080
                   555 00/// 91021=
201310081200 AAXX 08124 67475 41870 51806 10309 20108 48502 70510 84230
                   333 59004 84857 82362 91017=
201310080900 AAXX 08094 67475 41770 21205 10281 20119 48534 70500 81131
                   333 59002 81856 81361 81080 91021=
201310080600 AAXX 08060 67475 31970 10906 10224 20129 48545 70500 81030
                   333 10327 20165 58005 81360
                   555 00/// 91022=
201310071200 AAXX 07124 67475 41970 51605 10300 20079 48506 70500 83231
                   333 5//// 83858 82360 81080 91018=
201310070900 AAXX 07094 67475 41970 20905 10287 20119 48536 70500 81101
                   333 5//// 81858 81080 91021=
201310070600 AAXX 07060 67475 31970 10806 10229 20125 48540 70500 81031
                   333 10306 20151 58002 81359 81080
                   555 00/// 91022=
201310061200 AAXX 06120 67475 NIL=
201310060600 AAXX 06060 67475 NIL=
201310060000 AAXX 06004 67475 NIL=
201310051800 AAXX 05184 67475 NIL=
201310051500 AAXX 05154 67475 NIL=
201310051200 AAXX 05120 67475 NIL=
201310050900 AAXX 05094 67475 NIL=
201310050600 AAXX 05060 67475 NIL=
201310050300 AAXX 05034 67475 NIL=
201310041800 AAXX 04184 67475 NIL=
201310041500 AAXX 04154 67475 NIL=
201310041200 AAXX 04124 67475 41670 70203 10245 20141 48520 70522 8217/
                   333 58014 82848 87460 91020=
201310040900 AAXX 04094 67475 41670 70906 10225 20147 48545 70522 82170
                   333 58026 82835 85360 91022=
201310040600 AAXX 04064 67475 11970 70806 10174 20150 48541 69984 72166 8707/
                   333 10265 20157 58004 87458
                   555 00/// 91022=
201310040300 AAXX 04034 67475 NIL=
201310040000 AAXX 04004 67475 NIL=
201310032100 AAXX 03214 67475 NIL=
201310031800 AAXX 03184 67475 NIL=
201310031500 AAXX 03154 67475 NIL=
201310031200 AAXX 03124 67475 41770 51205 10244 20130 48505 70522 85130
                   333 59017 85850 82360 91018=
201310030900 AAXX 03094 67475 41670 60908 10239 20122 48530 70521 85400
                   333 59018 85635 82840 91021=
201310030600 AAXX 03064 67475 31570 11209 10178 20123 48538 70500 81530
                   333 10239 20139 59011 81620 81358
                   555 00/// BB/// CC139 DD052 Q1022.3=
201310030300 AAXX 03034 67475 NIL=
201310030000 AAXX 03004 67475 NIL=
201310021800 AAXX 02184 67475 NIL=
201310021200 AAXX 02120 67475 NIL=
201310020900 AAXX 02094 67475 41670 71509 10210 20125 48546 70522 87500
                   333 58005 87630 91023=
201310020600 AAXX 02064 67475 31470 51210 10164 20120 48547 70500 85530
                   333 10272 20144 58000 85615 81358
                   555 91023=
201310011800 AAXX 01184 67475 NIL=
201310011500 AAXX 01154 67475 NIL=
201310011200 AAXX 01124 67475 41770 51111 10261 20133 48517 70522 83130
                   333 58017 83850 83360 91019=
201310010900 AAXX 01094 67475 41670 71212 10242 20135 48543 70520 8483/
                   333 58011 81835 83640 85360 91022=
201310010600 AAXX 01064 67475 31570 31210 10203 20141 48549 70500 82531
                   333 10314 20165 58008 82620 81358 81080=

################################################################################
#  SYNOPS from 67476, Misamfu (Zambia) | 10-06S | 031-15E | 1536 m
################################################################################
201310310600 AAXX 31064 67476 NIL=
201310310000 AAXX 31004 67476 NIL=
201310301800 AAXX 30184 67476 NIL=
201310301500 AAXX 30154 67476 NIL=
201310301200 AAXX 30124 67476 NIL=
201310300900 AAXX 30094 67476 NIL=
201310300600 AAXX 30061 67476 NIL=
201310300300 AAXX 30034 67476 NIL=
201310292100 AAXX 29214 67476 NIL=
201310291800 AAXX 29184 67476 NIL=
201310291500 AAXX 29154 67476 NIL=
201310291200 AAXX 29124 67476 NIL=
201310290900 AAXX 29094 67476 NIL=
201310290600 AAXX 29064 67476 NIL=
201310281800 AAXX 28184 67476 NIL=
201310281200 AAXX 28124 67476 NIL=
201310280900 AAXX 28090 67476 NIL=
201310280600 AAXX 28060 67476 NIL=
201310280300 AAXX 28034 67476 NIL=
201310272100 AAXX 27214 67476 NIL=
201310271800 AAXX 27184 67476 NIL=
201310271500 AAXX 27154 67476 NIL=
201310271200 AAXX 27120 67476 NIL=
201310270900 AAXX 27094 67476 NIL=
201310270600 AAXX 27060 67476 NIL=
201310270300 AAXX 27034 67476 NIL=
201310270000 AAXX 27004 67476 NIL=
201310262100 AAXX 26214 67476 NIL=
201310261500 AAXX 26154 67476 NIL=
201310261200 AAXX 26120 67476 NIL=
201310260900 AAXX 26094 67476 NIL=
201310260600 AAXX 26060 67476 NIL=
201310260300 AAXX 26034 67476 NIL=
201310260000 AAXX 26004 67476 NIL=
201310252100 AAXX 25214 67476 NIL=
201310251800 AAXX 25184 67476 NIL=
201310251200 AAXX 25124 67476 NIL=
201310250900 AAXX 25094 67476 NIL=
201310250600 AAXX 25064 67476 NIL=
201310250000 AAXX 25004 67476 NIL=
201310242100 AAXX 24214 67476 NIL=
201310241800 AAXX 24184 67476 NIL=
201310241500 AAXX 24154 67476 NIL=
201310241200 AAXX 24120 67476 NIL=
201310240600 AAXX 24060 67476 NIL=
201310232100 AAXX 23214 67476 NIL=
201310231800 AAXX 23184 67476 NIL=
201310231500 AAXX 23154 67476 NIL=
201310231200 AAXX 23124 67476 NIL=
201310230900 AAXX 23094 67476 NIL=
201310230600 AAXX 23064 67476 NIL=
201310230300 AAXX 23034 67476 NIL=
201310230000 AAXX 23004 67476 NIL=
201310221800 AAXX 22184 67476 NIL=
201310221500 AAXX 22150 67476 NIL=
201310221200 AAXX 22124 67476 NIL=
201310220900 AAXX 22094 67476 NIL=
201310220600 AAXX 22064 67476 NIL=
201310220300 AAXX 22034 67476 NIL=
201310220000 AAXX 22004 67476 NIL=
201310212100 AAXX 21214 67476 NIL=
201310211800 AAXX 21184 67476 NIL=
201310211500 AAXX 21154 67476 NIL=
201310211200 AAXX 21124 67476 NIL=
201310210900 AAXX 21094 67476 NIL=
201310210600 AAXX 21064 67476 NIL=
201310210300 AAXX 21034 67476 NIL=
201310210000 AAXX 21004 67476 NIL=
201310201800 AAXX 20184 67476 NIL=
201310201500 AAXX 20154 67476 NIL=
201310201200 AAXX 20124 67476 NIL=
201310200600 AAXX 20064 67476 NIL=
201310191800 AAXX 19184 67476 NIL=
201310190900 AAXX 19094 67476 NIL=
201310190600 AAXX 19061 67476 NIL=
201310181500 AAXX 18150 67476 NIL=
201310181200 AAXX 18121 67476 NIL=
201310180900 AAXX 18094 67476 NIL=
201310180600 AAXX 18064 67476 NIL=
201310180300 AAXX 18034 67476 NIL=
201310180000 AAXX 18004 67476 NIL=
201310171800 AAXX 17184 67476 NIL=
201310171500 AAXX 17154 67476 NIL=
201310171200 AAXX 17124 67476 NIL=
201310170900 AAXX 17094 67476 NIL=
201310170600 AAXX 17060 67476 NIL=
201310161200 AAXX 16124 67476 NIL=
201310160900 AAXX 16094 67476 NIL=
201310151200 AAXX 15124 67476 NIL=
201310150900 AAXX 15094 67476 NIL=
201310150600 AAXX 15061 67476 NIL=
201310141200 AAXX 14124 67476 NIL=
201310140900 AAXX 14094 67476 NIL=
201310140600 AAXX 14064 67476 NIL=
201310131200 AAXX 13120 67476 NIL=
201310130900 AAXX 13090 67476 NIL=
201310130600 AAXX 13060 67476 NIL=
201310122100 AAXX 12214 67476 NIL=
201310121500 AAXX 12154 67476 NIL=
201310121200 AAXX 12121 67476 NIL=
201310120900 AAXX 12094 67476 NIL=
201310120600 AAXX 12060 67476 NIL=
201310120300 AAXX 12034 67476 NIL=
201310112100 AAXX 11214 67476 NIL=
201310111800 AAXX 11184 67476 NIL=
201310111500 AAXX 11154 67476 NIL=
201310111200 AAXX 11124 67476 NIL=
201310110900 AAXX 11094 67476 NIL=
201310110600 AAXX 11061 67476 NIL=
201310110300 AAXX 11034 67476 NIL=
201310101800 AAXX 10184 67476 NIL=
201310101500 AAXX 10154 67476 NIL=
201310101200 AAXX 10124 67476 NIL=
201310100900 AAXX 10094 67476 NIL=
201310100600 AAXX 10064 67476 NIL=
201310100300 AAXX 10034 67476 NIL=
201310100000 AAXX 10004 67476 NIL=
201310091800 AAXX 09184 67476 NIL=
201310091500 AAXX 09154 67476 NIL=
201310091200 AAXX 09124 67476 NIL=
201310090900 AAXX 09094 67476 NIL=
201310090600 AAXX 09061 67476 NIL=
201310081200 AAXX 08120 67476 NIL=
201310080900 AAXX 08090 67476 NIL=
201310080600 AAXX 08064 67476 NIL=
201310071200 AAXX 07124 67476 NIL=
201310070900 AAXX 07094 67476 NIL=
201310070600 AAXX 07060 67476 NIL=
201310061200 AAXX 06120 67476 NIL=
201310060600 AAXX 06060 67476 NIL=
201310060000 AAXX 06004 67476 NIL=
201310051800 AAXX 05184 67476 NIL=
201310051500 AAXX 05154 67476 NIL=
201310051200 AAXX 05120 67476 NIL=
201310050900 AAXX 05094 67476 NIL=
201310050600 AAXX 05060 67476 NIL=
201310050300 AAXX 05034 67476 NIL=
201310041800 AAXX 04184 67476 NIL=
201310041500 AAXX 04154 67476 NIL=
201310041200 AAXX 04124 67476 NIL=
201310040900 AAXX 04094 67476 NIL=
201310040600 AAXX 04064 67476 NIL=
201310040300 AAXX 04034 67476 NIL=
201310040000 AAXX 04004 67476 NIL=
201310032100 AAXX 03214 67476 NIL=
201310031800 AAXX 03184 67476 NIL=
201310031500 AAXX 03154 67476 NIL=
201310031200 AAXX 03121 67476 NIL=
201310030900 AAXX 03094 67476 NIL=
201310030600 AAXX 03064 67476 NIL=
201310030300 AAXX 03034 67476 NIL=
201310030000 AAXX 03004 67476 NIL=
201310021800 AAXX 02184 67476 NIL=
201310021200 AAXX 02120 67476 NIL=
201310020900 AAXX 02094 67476 NIL=
201310020600 AAXX 02060 67476 NIL=
201310011800 AAXX 01184 67476 NIL=
201310011500 AAXX 01154 67476 NIL=
201310011200 AAXX 01124 67476 NIL=
201310010900 AAXX 01094 67476 NIL=
201310010600 AAXX 01064 67476 NIL=

################################################################################
#  SYNOPS from 67477, Mpika (Zambia) | 11-54S | 031-26E | 1400 m
################################################################################
201310310600 AAXX 31064 67477 31980 13302 10232 20129 48510 70500 80001
                   333 10322 20146 58001 81080=
201310310000 AAXX 31004 67477 NIL=
201310301800 AAXX 30184 67477 NIL=
201310301500 AAXX 30154 67477 NIL=
201310301200 AAXX 30124 67477 NIL=
201310300900 AAXX 30094 67477 NIL=
201310300600 AAXX 30061 67477 NIL=
201310300300 AAXX 30034 67477 NIL=
201310292100 AAXX 29214 67477 NIL=
201310291800 AAXX 29184 67477 NIL=
201310291500 AAXX 29154 67477 NIL=
201310291200 AAXX 29124 67477 NIL=
201310290900 AAXX 29094 67477 NIL=
201310290600 AAXX 29064 67477 31575 31006 10235 20149 48521 70500 81101
                   333 10322 20189 59007 81820 83080
                   555 00/// 20000=
201310281800 AAXX 28184 67477 NIL=
201310281200 AAXX 28124 67477 NIL=
201310280900 AAXX 28090 67477 NIL=
201310280600 AAXX 28060 67477 NIL=
201310280300 AAXX 28034 67477 NIL=
201310272100 AAXX 27214 67477 NIL=
201310271800 AAXX 27184 67477 NIL=
201310271500 AAXX 27154 67477 NIL=
201310271200 AAXX 27120 67477 NIL=
201310270900 AAXX 27094 67477 NIL=
201310270600 AAXX 27060 67477 NIL=
201310270300 AAXX 27034 67477 NIL=
201310270000 AAXX 27004 67477 NIL=
201310262100 AAXX 26214 67477 NIL=
201310261500 AAXX 26154 67477 NIL=
201310261200 AAXX 26120 67477 NIL=
201310260900 AAXX 26094 67477 NIL=
201310260600 AAXX 26060 67477 NIL=
201310260300 AAXX 26034 67477 NIL=
201310260000 AAXX 26004 67477 NIL=
201310252100 AAXX 25214 67477 NIL=
201310251800 AAXX 25184 67477 NIL=
201310251200 AAXX 25124 67477 NIL=
201310250900 AAXX 25094 67477 NIL=
201310250600 AAXX 25064 67477 NIL=
201310250000 AAXX 25004 67477 NIL=
201310242100 AAXX 24214 67477 NIL=
201310241800 AAXX 24184 67477 NIL=
201310241500 AAXX 24154 67477 NIL=
201310241200 AAXX 24120 67477 NIL=
201310240600 AAXX 24060 67477 NIL=
201310232100 AAXX 23214 67477 NIL=
201310231800 AAXX 23184 67477 NIL=
201310231500 AAXX 23154 67477 NIL=
201310231200 AAXX 23124 67477 NIL=
201310230900 AAXX 23094 67477 NIL=
201310230600 AAXX 23064 67477 31970 32704 10240 20124 48518 70500 83080
                   333 10340 20158 58007 83361
                   555 00/// 20000=
201310230300 AAXX 23034 67477 NIL=
201310230000 AAXX 23004 67477 NIL=
201310221800 AAXX 22184 67477 NIL=
201310221500 AAXX 22150 67477 NIL=
201310221200 AAXX 22124 67477 NIL=
201310220900 AAXX 22094 67477 NIL=
201310220600 AAXX 22064 67477 NIL=
201310220300 AAXX 22034 67477 NIL=
201310220000 AAXX 22004 67477 NIL=
201310212100 AAXX 21214 67477 NIL=
201310211800 AAXX 21184 67477 NIL=
201310211500 AAXX 21154 67477 NIL=
201310211200 AAXX 21124 67477 NIL=
201310210900 AAXX 21094 67477 NIL=
201310210600 AAXX 21064 67477 NIL=
201310210300 AAXX 21034 67477 NIL=
201310210000 AAXX 21004 67477 NIL=
201310201800 AAXX 20184 67477 NIL=
201310201500 AAXX 20154 67477 NIL=
201310201200 AAXX 20124 67477 NIL=
201310200600 AAXX 20064 67477 NIL=
201310191800 AAXX 19184 67477 NIL=
201310190900 AAXX 19094 67477 NIL=
201310190600 AAXX 19061 67477 NIL=
201310181500 AAXX 18150 67477 NIL=
201310181200 AAXX 18121 67477 NIL=
201310180900 AAXX 18094 67477 NIL=
201310180600 AAXX 18064 67477 NIL=
201310180300 AAXX 18034 67477 NIL=
201310180000 AAXX 18004 67477 NIL=
201310171800 AAXX 17184 67477 NIL=
201310171500 AAXX 17154 67477 NIL=
201310171200 AAXX 17124 67477 NIL=
201310170900 AAXX 17094 67477 NIL=
201310170600 AAXX 17060 67477 NIL=
201310161200 AAXX 16124 67477 NIL=
201310160900 AAXX 16094 67477 NIL=
201310151200 AAXX 15124 67477 NIL=
201310150900 AAXX 15094 67477 NIL=
201310150600 AAXX 15061 67477 NIL=
201310141200 AAXX 14124 67477 NIL=
201310140900 AAXX 14094 67477 NIL=
201310140600 AAXX 14064 67477 11978 30902 10226 20135 48530 60024 70500 83080
                   333 10315 20154 58001 83360=
201310131200 AAXX 13120 67477 NIL=
201310130900 AAXX 13090 67477 NIL=
201310130600 AAXX 13060 67477 NIL=
201310122100 AAXX 12214 67477 NIL=
201310121500 AAXX 12154 67477 NIL=
201310121200 AAXX 12121 67477 NIL=
201310120900 AAXX 12094 67477 NIL=
201310120600 AAXX 12060 67477 NIL=
201310120300 AAXX 12034 67477 NIL=
201310112100 AAXX 11214 67477 NIL=
201310111800 AAXX 11184 67477 NIL=
201310111500 AAXX 11154 67477 NIL=
201310111200 AAXX 11124 67477 NIL=
201310110900 AAXX 11094 67477 NIL=
201310110600 AAXX 11061 67477 NIL=
201310110300 AAXX 11034 67477 NIL=
201310101800 AAXX 10184 67477 NIL=
201310101500 AAXX 10154 67477 NIL=
201310101200 AAXX 10124 67477 NIL=
201310100900 AAXX 10094 67477 NIL=
201310100600 AAXX 10064 67477 NIL=
201310100300 AAXX 10034 67477 NIL=
201310100000 AAXX 10004 67477 NIL=
201310091800 AAXX 09184 67477 NIL=
201310091500 AAXX 09154 67477 NIL=
201310091200 AAXX 09124 67477 NIL=
201310090900 AAXX 09094 67477 NIL=
201310090600 AAXX 09061 67477 NIL=
201310081200 AAXX 08120 67477 NIL=
201310080900 AAXX 08090 67477 NIL=
201310080600 AAXX 08064 67477 NIL=
201310071200 AAXX 07124 67477 NIL=
201310070900 AAXX 07094 67477 NIL=
201310070600 AAXX 07060 67477 NIL=
201310061200 AAXX 06120 67477 NIL=
201310060600 AAXX 06060 67477 NIL=
201310060000 AAXX 06004 67477 NIL=
201310051800 AAXX 05184 67477 NIL=
201310051500 AAXX 05154 67477 NIL=
201310051200 AAXX 05120 67477 NIL=
201310050900 AAXX 05094 67477 NIL=
201310050600 AAXX 05060 67477 NIL=
201310050300 AAXX 05034 67477 NIL=
201310041800 AAXX 04184 67477 NIL=
201310041500 AAXX 04154 67477 NIL=
201310041200 AAXX 04124 67477 NIL=
201310040900 AAXX 04094 67477 NIL=
201310040600 AAXX 04064 67477 NIL=
201310040300 AAXX 04034 67477 NIL=
201310040000 AAXX 04004 67477 NIL=
201310032100 AAXX 03214 67477 NIL=
201310031800 AAXX 03184 67477 NIL=
201310031500 AAXX 03154 67477 NIL=
201310031200 AAXX 03121 67477 NIL=
201310030900 AAXX 03094 67477 NIL=
201310030600 AAXX 03064 67477 NIL=
201310030300 AAXX 03034 67477 NIL=
201310030000 AAXX 03004 67477 NIL=
201310021800 AAXX 02184 67477 NIL=
201310021200 AAXX 02120 67477 NIL=
201310020900 AAXX 02094 67477 NIL=
201310020600 AAXX 02060 67477 NIL=
201310011800 AAXX 01184 67477 NIL=
201310011500 AAXX 01154 67477 NIL=
201310011200 AAXX 01124 67477 NIL=
201310010900 AAXX 01094 67477 NIL=
201310010600 AAXX 01064 67477 11480 81214 10172 20135 48555 69904 72052 885//
                   333 10290 20164 58017 88615=

################################################################################
#  SYNOPS from 67481, Isoka (Zambia) | 10-07S | 032-38E | 1360 m
################################################################################
201310310600 AAXX 31064 67481 31975 33603 10242 20090 70500 80002
                   333 10335 20177 5//// 83080
                   555 00///=
201310310000 AAXX 31004 67481 NIL=
201310301800 AAXX 30184 67481 NIL=
201310301500 AAXX 30154 67481 NIL=
201310301200 AAXX 30124 67481 NIL=
201310300900 AAXX 30094 67481 NIL=
201310300600 AAXX 30064 67481 31975 53612 10221 20130 70522 85072
                   333 10340 20173 5//// 85360 81080
                   555 00///=
201310300300 AAXX 30034 67481 NIL=
201310292100 AAXX 29214 67481 NIL=
201310291800 AAXX 29184 67481 NIL=
201310291500 AAXX 29154 67481 NIL=
201310291200 AAXX 29124 67481 NIL=
201310290900 AAXX 29094 67481 NIL=
201310290600 AAXX 29064 67481 11975 33603 10250 20136 69904 70500 80001
                   333 10340 20160 5//// 83080
                   555 00///=
201310281800 AAXX 28184 67481 NIL=
201310281200 AAXX 28124 67481 NIL=
201310280900 AAXX 28090 67481 NIL=
201310280600 AAXX 28064 67481 31675 23602 10238 20149 70500 81131
                   333 10348 20158 5//// 81832 81361 82080
                   555 00///=
201310280300 AAXX 28034 67481 NIL=
201310272100 AAXX 27214 67481 NIL=
201310271800 AAXX 27184 67481 NIL=
201310271500 AAXX 27154 67481 NIL=
201310271200 AAXX 27120 67481 NIL=
201310270900 AAXX 27094 67481 NIL=
201310270600 AAXX 27060 67481 NIL=
201310270300 AAXX 27034 67481 NIL=
201310270000 AAXX 27004 67481 NIL=
201310262100 AAXX 26214 67481 NIL=
201310261500 AAXX 26154 67481 NIL=
201310261200 AAXX 26120 67481 NIL=
201310260900 AAXX 26094 67481 NIL=
201310260600 AAXX 26060 67481 NIL=
201310260300 AAXX 26034 67481 NIL=
201310260000 AAXX 26004 67481 NIL=
201310252100 AAXX 25214 67481 NIL=
201310251800 AAXX 25184 67481 NIL=
201310251200 AAXX 25124 67481 NIL=
201310250900 AAXX 25094 67481 NIL=
201310250600 AAXX 25064 67481 31675 31403 10236 20127 70500 81102
                   333 10320 20160 5//// 81836 83080
                   555 00///=
201310250000 AAXX 25004 67481 NIL=
201310242100 AAXX 24214 67481 NIL=
201310241800 AAXX 24184 67481 NIL=
201310241500 AAXX 24154 67481 NIL=
201310241200 AAXX 24120 67481 NIL=
201310240600 AAXX 24060 67481 NIL=
201310232100 AAXX 23214 67481 NIL=
201310231800 AAXX 23184 67481 NIL=
201310231500 AAXX 23154 67481 NIL=
201310231200 AAXX 23124 67481 NIL=
201310230900 AAXX 23094 67481 NIL=
201310230600 AAXX 23064 67481 31975 10203 10247 20121 70500 81030
                   333 10357 20192 5//// 81361
                   555 00///=
201310230300 AAXX 23034 67481 NIL=
201310230000 AAXX 23004 67481 NIL=
201310221800 AAXX 22184 67481 NIL=
201310221500 AAXX 22150 67481 NIL=
201310221200 AAXX 22124 67481 NIL=
201310220900 AAXX 22094 67481 41975 03402 10305 20075 70500
                   333 5////=
201310220600 AAXX 22064 67481 31975 03304 10244 20115 70500
                   333 10350 20180 5////
                   555 00///=
201310220300 AAXX 22034 67481 NIL=
201310220000 AAXX 22004 67481 NIL=
201310212100 AAXX 21214 67481 NIL=
201310211800 AAXX 21184 67481 NIL=
201310211500 AAXX 21154 67481 NIL=
201310211200 AAXX 21124 67481 NIL=
201310210900 AAXX 21094 67481 NIL=
201310210600 AAXX 21064 67481 31975 00302 10248 20099 70500
                   333 10333 20171 5////
                   555 00///=
201310210300 AAXX 21034 67481 NIL=
201310210000 AAXX 21004 67481 NIL=
201310201800 AAXX 20184 67481 NIL=
201310201500 AAXX 20154 67481 NIL=
201310201200 AAXX 20124 67481 NIL=
201310200600 AAXX 20064 67481 NIL=
201310191800 AAXX 19184 67481 NIL=
201310190900 AAXX 19094 67481 NIL=
201310190600 AAXX 19061 67481 NIL=
201310181500 AAXX 18150 67481 NIL=
201310181200 AAXX 18121 67481 NIL=
201310180900 AAXX 18094 67481 NIL=
201310180600 AAXX 18064 67481 31975 00304 10252 20123 70500
                   333 10320 20120 5////
                   555 00137=
201310180300 AAXX 18034 67481 NIL=
201310180000 AAXX 18004 67481 NIL=
201310171800 AAXX 17184 67481 NIL=
201310171500 AAXX 17154 67481 NIL=
201310171200 AAXX 17124 67481 NIL=
201310170900 AAXX 17094 67481 NIL=
201310170600 AAXX 17064 67481 31975 00604 10245 20121 70500
                   333 10315 20118 5////
                   555 00148=
201310161200 AAXX 16124 67481 NIL=
201310160900 AAXX 16094 67481 NIL=
201310160600 AAXX 16064 67481 31675 11204 10235 20137 70500 81100
                   333 10238 20120 5//// 81840
                   555 00136=
201310151200 AAXX 15124 67481 NIL=
201310150900 AAXX 15094 67481 NIL=
201310150600 AAXX 15064 67481 31975 33606 10260 20109 70500
                   333 10345 20140 5//// 81361 83080
                   555 00149=
201310141200 AAXX 14124 67481 41775 61510 10326 20070 70521 83232
                   333 5//// 83856 84361 82080=
201310140900 AAXX 14094 67481 NIL=
201310140600 AAXX 14064 67481 11975 30208 10242 20130 69904 70510 82032
                   333 10306 20121 5//// 82361 82080
                   555 00148=
201310131200 AAXX 13120 67481 NIL=
201310130900 AAXX 13090 67481 NIL=
201310130600 AAXX 13060 67481 NIL=
201310122100 AAXX 12214 67481 NIL=
201310121500 AAXX 12154 67481 NIL=
201310121200 AAXX 12121 67481 NIL=
201310120900 AAXX 12094 67481 NIL=
201310120600 AAXX 12060 67481 NIL=
201310120300 AAXX 12034 67481 NIL=
201310112100 AAXX 11214 67481 NIL=
201310111800 AAXX 11184 67481 NIL=
201310111500 AAXX 11154 67481 NIL=
201310111200 AAXX 11124 67481 41775 51204 10306 20093 70521 85200
                   333 5//// 85856=
201310110900 AAXX 11094 67481 NIL=
201310110600 AAXX 11064 67481 31975 30604 10240 20115 70510 80001
                   333 10320 20120 5//// 83080
                   555 00145=
201310110300 AAXX 11034 67481 NIL=
201310101800 AAXX 10184 67481 NIL=
201310101500 AAXX 10154 67481 NIL=
201310101200 AAXX 10124 67481 41775 41202 10302 20070 70510 84200
                   333 5//// 84856=
201310100900 AAXX 10094 67481 NIL=
201310100600 AAXX 10064 67481 31503 3//// 10225 20120 70500 80001
                   333 10310 20115 5//// 83080
                   555 00121=
201310100300 AAXX 10034 67481 NIL=
201310100000 AAXX 10004 67481 NIL=
201310091800 AAXX 09184 67481 NIL=
201310091500 AAXX 09154 67481 NIL=
201310091200 AAXX 09124 67481 NIL=
201310090900 AAXX 09094 67481 NIL=
201310090600 AAXX 09064 67481 31675 10306 10223 20116 70500 81100
                   333 10320 20115 5//// 81840
                   555 00121=
201310081200 AAXX 08124 67481 41775 50608 10305 20095 70521 85201
                   333 5//// 85856 81080=
201310080900 AAXX 08094 67481 42780 13602 10277 20106 81101
                   333 5//// 81856 81080=
201310080600 AAXX 08064 67481 32980 11402 10216 20134 80001
                   333 10330 20125 5//// 81080
                   555 00142=
201310071200 AAXX 07124 67481 41775 43008 10320 20180 70521 84201
                   333 5//// 84856 81080=
201310070900 AAXX 07094 67481 42780 30405 10292 20104 83101
                   333 5//// 83856 81080=
201310070600 AAXX 07064 67481 32980 1//// 10235 20122 81031
                   333 10321 20115 5//// 81361 81080
                   555 00122=
201310061200 AAXX 06120 67481 NIL=
201310060600 AAXX 06060 67481 NIL=
201310060000 AAXX 06004 67481 NIL=
201310051800 AAXX 05184 67481 NIL=
201310051500 AAXX 05154 67481 NIL=
201310051200 AAXX 05120 67481 NIL=
201310050900 AAXX 05094 67481 NIL=
201310050600 AAXX 05060 67481 NIL=
201310050300 AAXX 05034 67481 NIL=
201310041800 AAXX 04184 67481 NIL=
201310041500 AAXX 04154 67481 NIL=
201310041200 AAXX 04124 67481 NIL=
201310040900 AAXX 04094 67481 NIL=
201310040600 AAXX 04064 67481 NIL=
201310040300 AAXX 04034 67481 NIL=
201310040000 AAXX 04004 67481 NIL=
201310032100 AAXX 03214 67481 NIL=
201310031800 AAXX 03184 67481 NIL=
201310031500 AAXX 03154 67481 NIL=
201310031200 AAXX 03121 67481 NIL=
201310030900 AAXX 03094 67481 NIL=
201310030600 AAXX 03064 67481 NIL=
201310030300 AAXX 03034 67481 NIL=
201310030000 AAXX 03004 67481 NIL=
201310021800 AAXX 02184 67481 NIL=
201310021200 AAXX 02120 67481 NIL=
201310020900 AAXX 02094 67481 NIL=
201310020600 AAXX 02060 67481 NIL=
201310011800 AAXX 01184 67481 NIL=
201310011500 AAXX 01154 67481 NIL=
201310011200 AAXX 01124 67481 NIL=
201310010900 AAXX 01094 67481 NIL=
201310010600 AAXX 01064 67481 NIL=

################################################################################
#  SYNOPS from 67531, Zambezi (Zambia) | 13-32S | 023-07E | 1077 m
################################################################################
201310310600 AAXX 31064 67531 11980 70000 10202 20167 48/// 60104 76066 8707/
                   333 10354 20183 5//// 87460=
201310310000 AAXX 31004 67531 NIL=
201310301800 AAXX 30184 67531 NIL=
201310301500 AAXX 30154 67531 NIL=
201310301200 AAXX 30121 67531 NIL=
201310300900 AAXX 30094 67531 NIL=
201310300600 AAXX 30061 67531 NIL=
201310300300 AAXX 30034 67531 NIL=
201310292100 AAXX 29214 67531 NIL=
201310291800 AAXX 29184 67531 NIL=
201310291500 AAXX 29154 67531 NIL=
201310291200 AAXX 29121 67531 NIL=
201310290900 AAXX 29094 67531 NIL=
201310290600 AAXX 29061 67531 NIL=
201310281800 AAXX 28184 67531 NIL=
201310281200 AAXX 28121 67531 NIL=
201310280900 AAXX 28090 67531 NIL=
201310280600 AAXX 28064 67531 11/80 30302 10221 20167 48/// 60014 72998 83032
                   333 10356 20190 59011 83360 81080
                   555 00180=
201310280300 AAXX 28034 67531 NIL=
201310272100 AAXX 27214 67531 NIL=
201310271800 AAXX 27184 67531 NIL=
201310271500 AAXX 27154 67531 NIL=
201310271200 AAXX 27120 67531 NIL=
201310270900 AAXX 27094 67531 NIL=
201310270600 AAXX 27060 67531 NIL=
201310270300 AAXX 27034 67531 NIL=
201310270000 AAXX 27004 67531 NIL=
201310262100 AAXX 26214 67531 NIL=
201310261500 AAXX 26154 67531 NIL=
201310261200 AAXX 26120 67531 NIL=
201310260900 AAXX 26094 67531 NIL=
201310260600 AAXX 26060 67531 NIL=
201310260300 AAXX 26034 67531 NIL=
201310260000 AAXX 26004 67531 NIL=
201310252100 AAXX 25214 67531 NIL=
201310251800 AAXX 25184 67531 NIL=
201310251200 AAXX 25124 67531 NIL=
201310250900 AAXX 25094 67531 NIL=
201310250600 AAXX 25064 67531 12580 11106 10230 20167 48/// 69914 81101
                   333 10339 20181 58001 81825 81080
                   555 00174=
201310250000 AAXX 25004 67531 NIL=
201310242100 AAXX 24214 67531 NIL=
201310241800 AAXX 24184 67531 NIL=
201310241500 AAXX 24154 67531 NIL=
201310241200 AAXX 24120 67531 NIL=
201310240600 AAXX 24060 67531 NIL=
201310232100 AAXX 23214 67531 NIL=
201310231800 AAXX 23184 67531 NIL=
201310231500 AAXX 23154 67531 NIL=
201310231200 AAXX 23121 67531 NIL=
201310230900 AAXX 23094 67531 NIL=
201310230600 AAXX 23064 67531 12980 70502 10214 20168 48/// 60024 8707/
                   333 10338 20183 5//// 87360=
201310230300 AAXX 23034 67531 NIL=
201310230000 AAXX 23004 67531 NIL=
201310221800 AAXX 22184 67531 NIL=
201310221500 AAXX 22150 67531 NIL=
201310221200 AAXX 22121 67531 NIL=
201310220900 AAXX 22094 67531 NIL=
201310220600 AAXX 22064 67531 12980 73405 10239 20159 48/// 69904 8707/
                   333 10336 20202 58000 87360=
201310220300 AAXX 22034 67531 NIL=
201310220000 AAXX 22004 67531 NIL=
201310212100 AAXX 21214 67531 NIL=
201310211800 AAXX 21184 67531 NIL=
201310211500 AAXX 21154 67531 NIL=
201310211200 AAXX 21121 67531 NIL=
201310210900 AAXX 21094 67531 NIL=
201310210600 AAXX 21064 67531 31980 70000 10221 20161 48/// 70292 8707/
                   333 10380 20206 5//// 87360
                   555 00209=
201310210300 AAXX 21034 67531 NIL=
201310210000 AAXX 21004 67531 NIL=
201310201800 AAXX 20184 67531 NIL=
201310201500 AAXX 20154 67531 NIL=
201310201200 AAXX 20124 67531 NIL=
201310200600 AAXX 20064 67531 NIL=
201310191800 AAXX 19184 67531 NIL=
201310190900 AAXX 19094 67531 NIL=
201310190600 AAXX 19061 67531 NIL=
201310181500 AAXX 18150 67531 NIL=
201310181200 AAXX 18121 67531 NIL=
201310180900 AAXX 18094 67531 NIL=
201310180600 AAXX 18060 67531 NIL=
201310180300 AAXX 18034 67531 NIL=
201310180000 AAXX 18004 67531 NIL=
201310171800 AAXX 17184 67531 NIL=
201310171500 AAXX 17154 67531 NIL=
201310171200 AAXX 17124 67531 NIL=
201310170900 AAXX 17094 67531 NIL=
201310170600 AAXX 17060 67531 NIL=
201310161200 AAXX 16121 67531 NIL=
201310160900 AAXX 16094 67531 NIL=
201310151200 AAXX 15121 67531 NIL=
201310150900 AAXX 15094 67531 NIL=
201310150600 AAXX 15061 67531 NIL=
201310141200 AAXX 14124 67531 NIL=
201310140900 AAXX 14094 67531 NIL=
201310140600 AAXX 14060 67531 NIL=
201310131200 AAXX 13120 67531 NIL=
201310130900 AAXX 13090 67531 NIL=
201310130600 AAXX 13060 67531 NIL=
201310122100 AAXX 12214 67531 NIL=
201310121500 AAXX 12154 67531 NIL=
201310121200 AAXX 12121 67531 NIL=
201310120900 AAXX 12094 67531 NIL=
201310120600 AAXX 12061 67531 NIL=
201310120300 AAXX 12034 67531 NIL=
201310112100 AAXX 11214 67531 NIL=
201310111800 AAXX 11184 67531 NIL=
201310111500 AAXX 11154 67531 NIL=
201310111200 AAXX 11121 67531 NIL=
201310110900 AAXX 11094 67531 NIL=
201310110600 AAXX 11061 67531 NIL=
201310110300 AAXX 11034 67531 NIL=
201310101800 AAXX 10184 67531 NIL=
201310101500 AAXX 10154 67531 NIL=
201310101200 AAXX 10121 67531 NIL=
201310100900 AAXX 10094 67531 NIL=
201310100600 AAXX 10064 67531 NIL=
201310100300 AAXX 10034 67531 NIL=
201310100000 AAXX 10004 67531 NIL=
201310091800 AAXX 09184 67531 NIL=
201310091500 AAXX 09154 67531 NIL=
201310091200 AAXX 09124 67531 NIL=
201310090900 AAXX 09094 67531 NIL=
201310090600 AAXX 09061 67531 NIL=
201310081200 AAXX 08121 67531 NIL=
201310080900 AAXX 08090 67531 NIL=
201310080600 AAXX 08060 67531 NIL=
201310071200 AAXX 07121 67531 NIL=
201310070900 AAXX 07094 67531 NIL=
201310070600 AAXX 07064 67531 31975 60909 10262 20084 48/// 70522 86030
                   333 10368 20157 5//// 86360=
201310061200 AAXX 06121 67531 NIL=
201310060600 AAXX 06060 67531 NIL=
201310060000 AAXX 06004 67531 NIL=
201310051800 AAXX 05184 67531 NIL=
201310051500 AAXX 05154 67531 NIL=
201310051200 AAXX 05121 67531 NIL=
201310050900 AAXX 05094 67531 NIL=
201310050600 AAXX 05060 67531 NIL=
201310050300 AAXX 05034 67531 NIL=
201310041800 AAXX 04184 67531 NIL=
201310041500 AAXX 04154 67531 NIL=
201310041200 AAXX 04120 67531 NIL=
201310040900 AAXX 04094 67531 NIL=
201310040600 AAXX 04064 67531 31975 01008 10215 20041 48/// 70500
                   333 10326 20145 59005
                   555 00130=
201310040300 AAXX 04034 67531 NIL=
201310040000 AAXX 04004 67531 NIL=
201310032100 AAXX 03214 67531 NIL=
201310031800 AAXX 03184 67531 NIL=
201310031500 AAXX 03154 67531 NIL=
201310031200 AAXX 03121 67531 NIL=
201310030900 AAXX 03094 67531 NIL=
201310030600 AAXX 03061 67531 NIL=
201310030300 AAXX 03034 67531 NIL=
201310030000 AAXX 03004 67531 NIL=
201310021800 AAXX 02184 67531 NIL=
201310021200 AAXX 02121 67531 NIL=
201310020900 AAXX 02094 67531 NIL=
201310020600 AAXX 02060 67531 NIL=
201310011800 AAXX 01184 67531 NIL=
201310011500 AAXX 01154 67531 NIL=
201310011200 AAXX 01124 67531 NIL=
201310010900 AAXX 01094 67531 NIL=
201310010600 AAXX 01060 67531 NIL=

################################################################################
#  SYNOPS from 67541, Kasempa (Zambia) | 13-32S | 025-51E | 1234 m
################################################################################
201310310600 AAXX 31060 67541 NIL=
201310310000 AAXX 31004 67541 NIL=
201310301800 AAXX 30184 67541 NIL=
201310301500 AAXX 30154 67541 NIL=
201310301200 AAXX 30121 67541 NIL=
201310300900 AAXX 30094 67541 NIL=
201310300600 AAXX 30061 67541 NIL=
201310300300 AAXX 30034 67541 NIL=
201310292100 AAXX 29214 67541 NIL=
201310291800 AAXX 29184 67541 NIL=
201310291500 AAXX 29154 67541 NIL=
201310291200 AAXX 29121 67541 NIL=
201310290900 AAXX 29094 67541 NIL=
201310290600 AAXX 29061 67541 NIL=
201310281800 AAXX 28184 67541 NIL=
201310281200 AAXX 28121 67541 NIL=
201310280900 AAXX 28090 67541 NIL=
201310280600 AAXX 28061 67541 NIL=
201310280300 AAXX 28034 67541 NIL=
201310272100 AAXX 27214 67541 NIL=
201310271800 AAXX 27184 67541 NIL=
201310271500 AAXX 27154 67541 NIL=
201310271200 AAXX 27120 67541 NIL=
201310270900 AAXX 27094 67541 NIL=
201310270600 AAXX 27060 67541 NIL=
201310270300 AAXX 27034 67541 NIL=
201310270000 AAXX 27004 67541 NIL=
201310262100 AAXX 26214 67541 NIL=
201310261500 AAXX 26154 67541 NIL=
201310261200 AAXX 26120 67541 NIL=
201310260900 AAXX 26094 67541 NIL=
201310260600 AAXX 26060 67541 NIL=
201310260300 AAXX 26034 67541 NIL=
201310260000 AAXX 26004 67541 NIL=
201310252100 AAXX 25214 67541 NIL=
201310251800 AAXX 25184 67541 NIL=
201310251200 AAXX 25124 67541 NIL=
201310250900 AAXX 25094 67541 NIL=
201310250600 AAXX 25060 67541 NIL=
201310250000 AAXX 25004 67541 NIL=
201310242100 AAXX 24214 67541 NIL=
201310241800 AAXX 24184 67541 NIL=
201310241500 AAXX 24154 67541 NIL=
201310241200 AAXX 24120 67541 NIL=
201310240600 AAXX 24060 67541 NIL=
201310232100 AAXX 23214 67541 NIL=
201310231800 AAXX 23184 67541 NIL=
201310231500 AAXX 23154 67541 NIL=
201310231200 AAXX 23121 67541 NIL=
201310230900 AAXX 23094 67541 NIL=
201310230600 AAXX 23060 67541 NIL=
201310230300 AAXX 23034 67541 NIL=
201310230000 AAXX 23004 67541 NIL=
201310221800 AAXX 22184 67541 NIL=
201310221500 AAXX 22150 67541 NIL=
201310221200 AAXX 22121 67541 NIL=
201310220900 AAXX 22094 67541 NIL=
201310220600 AAXX 22064 67541 NIL=
201310220300 AAXX 22034 67541 NIL=
201310220000 AAXX 22004 67541 NIL=
201310212100 AAXX 21214 67541 NIL=
201310211800 AAXX 21184 67541 NIL=
201310211500 AAXX 21154 67541 NIL=
201310211200 AAXX 21121 67541 NIL=
201310210900 AAXX 21094 67541 NIL=
201310210600 AAXX 21061 67541 NIL=
201310210300 AAXX 21034 67541 NIL=
201310210000 AAXX 21004 67541 NIL=
201310201800 AAXX 20184 67541 NIL=
201310201500 AAXX 20154 67541 NIL=
201310201200 AAXX 20124 67541 NIL=
201310200600 AAXX 20064 67541 NIL=
201310191800 AAXX 19184 67541 NIL=
201310190900 AAXX 19094 67541 NIL=
201310190600 AAXX 19061 67541 NIL=
201310181500 AAXX 18150 67541 NIL=
201310181200 AAXX 18121 67541 NIL=
201310180900 AAXX 18094 67541 NIL=
201310180600 AAXX 18060 67541 NIL=
201310180300 AAXX 18034 67541 NIL=
201310180000 AAXX 18004 67541 NIL=
201310171800 AAXX 17184 67541 NIL=
201310171500 AAXX 17154 67541 NIL=
201310171200 AAXX 17124 67541 NIL=
201310170900 AAXX 17094 67541 NIL=
201310170600 AAXX 17060 67541 NIL=
201310161200 AAXX 16121 67541 NIL=
201310160900 AAXX 16094 67541 NIL=
201310151200 AAXX 15121 67541 NIL=
201310150900 AAXX 15094 67541 NIL=
201310150600 AAXX 15061 67541 NIL=
201310141200 AAXX 14124 67541 NIL=
201310140900 AAXX 14094 67541 NIL=
201310140600 AAXX 14060 67541 NIL=
201310131200 AAXX 13120 67541 NIL=
201310130900 AAXX 13090 67541 NIL=
201310130600 AAXX 13060 67541 NIL=
201310122100 AAXX 12214 67541 NIL=
201310121500 AAXX 12154 67541 NIL=
201310121200 AAXX 12121 67541 NIL=
201310120900 AAXX 12094 67541 NIL=
201310120600 AAXX 12061 67541 NIL=
201310120300 AAXX 12034 67541 NIL=
201310112100 AAXX 11214 67541 NIL=
201310111800 AAXX 11184 67541 NIL=
201310111500 AAXX 11154 67541 NIL=
201310111200 AAXX 11121 67541 NIL=
201310110900 AAXX 11094 67541 NIL=
201310110600 AAXX 11061 67541 NIL=
201310110300 AAXX 11034 67541 NIL=
201310101800 AAXX 10184 67541 NIL=
201310101500 AAXX 10154 67541 NIL=
201310101200 AAXX 10121 67541 NIL=
201310100900 AAXX 10094 67541 NIL=
201310100600 AAXX 10064 67541 NIL=
201310100300 AAXX 10034 67541 NIL=
201310100000 AAXX 10004 67541 NIL=
201310091800 AAXX 09184 67541 NIL=
201310091500 AAXX 09154 67541 NIL=
201310091200 AAXX 09124 67541 NIL=
201310090900 AAXX 09094 67541 NIL=
201310090600 AAXX 09061 67541 NIL=
201310081200 AAXX 08121 67541 NIL=
201310080900 AAXX 08090 67541 NIL=
201310080600 AAXX 08060 67541 NIL=
201310071200 AAXX 07121 67541 NIL=
201310070900 AAXX 07094 67541 NIL=
201310070600 AAXX 07060 67541 NIL=
201310061200 AAXX 06121 67541 NIL=
201310060600 AAXX 06060 67541 NIL=
201310060000 AAXX 06004 67541 NIL=
201310051800 AAXX 05184 67541 NIL=
201310051500 AAXX 05154 67541 NIL=
201310051200 AAXX 05121 67541 NIL=
201310050900 AAXX 05094 67541 NIL=
201310050600 AAXX 05060 67541 NIL=
201310050300 AAXX 05034 67541 NIL=
201310041800 AAXX 04184 67541 NIL=
201310041500 AAXX 04154 67541 NIL=
201310041200 AAXX 04120 67541 NIL=
201310040900 AAXX 04094 67541 NIL=
201310040600 AAXX 04061 67541 NIL=
201310040300 AAXX 04034 67541 NIL=
201310040000 AAXX 04004 67541 NIL=
201310032100 AAXX 03214 67541 NIL=
201310031800 AAXX 03184 67541 NIL=
201310031500 AAXX 03154 67541 NIL=
201310031200 AAXX 03121 67541 NIL=
201310030900 AAXX 03094 67541 NIL=
201310030600 AAXX 03061 67541 NIL=
201310030300 AAXX 03034 67541 NIL=
201310030000 AAXX 03004 67541 NIL=
201310021800 AAXX 02184 67541 NIL=
201310021200 AAXX 02121 67541 NIL=
201310020900 AAXX 02094 67541 NIL=
201310020600 AAXX 02060 67541 NIL=
201310011800 AAXX 01184 67541 NIL=
201310011500 AAXX 01154 67541 NIL=
201310011200 AAXX 01124 67541 NIL=
201310010900 AAXX 01094 67541 NIL=
201310010600 AAXX 01064 67541 31560 50603 10191 20145 48549 70522 85200
                   333 10/// 20/// 58024 85820
                   555 00///=

################################################################################
#  SYNOPS from 67543, Kabompo (Zambia) | 13-36S | 024-12E | 1075 m
################################################################################
201310310600 AAXX 31060 67543 NIL=
201310310000 AAXX 31004 67543 NIL=
201310301800 AAXX 30184 67543 NIL=
201310301500 AAXX 30154 67543 NIL=
201310301200 AAXX 30121 67543 NIL=
201310300900 AAXX 30094 67543 NIL=
201310300600 AAXX 30061 67543 NIL=
201310300300 AAXX 30034 67543 NIL=
201310292100 AAXX 29214 67543 NIL=
201310291800 AAXX 29184 67543 NIL=
201310291500 AAXX 29154 67543 NIL=
201310291200 AAXX 29121 67543 NIL=
201310290900 AAXX 29094 67543 NIL=
201310290600 AAXX 29061 67543 NIL=
201310281800 AAXX 28184 67543 NIL=
201310281200 AAXX 28121 67543 NIL=
201310280900 AAXX 28090 67543 NIL=
201310280600 AAXX 28061 67543 NIL=
201310280300 AAXX 28034 67543 NIL=
201310272100 AAXX 27214 67543 NIL=
201310271800 AAXX 27184 67543 NIL=
201310271500 AAXX 27154 67543 NIL=
201310271200 AAXX 27120 67543 NIL=
201310270900 AAXX 27094 67543 NIL=
201310270600 AAXX 27060 67543 NIL=
201310270300 AAXX 27034 67543 NIL=
201310270000 AAXX 27004 67543 NIL=
201310262100 AAXX 26214 67543 NIL=
201310261500 AAXX 26154 67543 NIL=
201310261200 AAXX 26120 67543 NIL=
201310260900 AAXX 26094 67543 NIL=
201310260600 AAXX 26060 67543 NIL=
201310260300 AAXX 26034 67543 NIL=
201310260000 AAXX 26004 67543 NIL=
201310252100 AAXX 25214 67543 NIL=
201310251800 AAXX 25184 67543 NIL=
201310251200 AAXX 25124 67543 NIL=
201310250900 AAXX 25094 67543 NIL=
201310250600 AAXX 25060 67543 NIL=
201310250000 AAXX 25004 67543 NIL=
201310242100 AAXX 24214 67543 NIL=
201310241800 AAXX 24184 67543 NIL=
201310241500 AAXX 24154 67543 NIL=
201310241200 AAXX 24120 67543 NIL=
201310240600 AAXX 24060 67543 NIL=
201310232100 AAXX 23214 67543 NIL=
201310231800 AAXX 23184 67543 NIL=
201310231500 AAXX 23154 67543 NIL=
201310231200 AAXX 23121 67543 NIL=
201310230900 AAXX 23094 67543 NIL=
201310230600 AAXX 23060 67543 NIL=
201310230300 AAXX 23034 67543 NIL=
201310230000 AAXX 23004 67543 NIL=
201310221800 AAXX 22184 67543 NIL=
201310221500 AAXX 22150 67543 NIL=
201310221200 AAXX 22121 67543 NIL=
201310220900 AAXX 22094 67543 NIL=
201310220600 AAXX 22064 67543 NIL=
201310220300 AAXX 22034 67543 NIL=
201310220000 AAXX 22004 67543 NIL=
201310212100 AAXX 21214 67543 NIL=
201310211800 AAXX 21184 67543 NIL=
201310211500 AAXX 21154 67543 NIL=
201310211200 AAXX 21121 67543 NIL=
201310210900 AAXX 21094 67543 NIL=
201310210600 AAXX 21061 67543 NIL=
201310210300 AAXX 21034 67543 NIL=
201310210000 AAXX 21004 67543 NIL=
201310201800 AAXX 20184 67543 NIL=
201310201500 AAXX 20154 67543 NIL=
201310201200 AAXX 20124 67543 NIL=
201310200600 AAXX 20064 67543 NIL=
201310191800 AAXX 19184 67543 NIL=
201310190900 AAXX 19094 67543 NIL=
201310190600 AAXX 19061 67543 NIL=
201310181500 AAXX 18150 67543 NIL=
201310181200 AAXX 18121 67543 NIL=
201310180900 AAXX 18094 67543 NIL=
201310180600 AAXX 18060 67543 NIL=
201310180300 AAXX 18034 67543 NIL=
201310180000 AAXX 18004 67543 NIL=
201310171800 AAXX 17184 67543 NIL=
201310171500 AAXX 17154 67543 NIL=
201310171200 AAXX 17124 67543 NIL=
201310170900 AAXX 17094 67543 NIL=
201310170600 AAXX 17060 67543 NIL=
201310161200 AAXX 16121 67543 NIL=
201310160900 AAXX 16094 67543 NIL=
201310151200 AAXX 15121 67543 NIL=
201310150900 AAXX 15094 67543 NIL=
201310150600 AAXX 15061 67543 NIL=
201310141200 AAXX 14124 67543 NIL=
201310140900 AAXX 14094 67543 NIL=
201310140600 AAXX 14060 67543 NIL=
201310131200 AAXX 13120 67543 NIL=
201310130900 AAXX 13090 67543 NIL=
201310130600 AAXX 13060 67543 NIL=
201310122100 AAXX 12214 67543 NIL=
201310121500 AAXX 12154 67543 NIL=
201310121200 AAXX 12121 67543 NIL=
201310120900 AAXX 12094 67543 NIL=
201310120600 AAXX 12061 67543 NIL=
201310120300 AAXX 12034 67543 NIL=
201310112100 AAXX 11214 67543 NIL=
201310111800 AAXX 11184 67543 NIL=
201310111500 AAXX 11154 67543 NIL=
201310111200 AAXX 11121 67543 NIL=
201310110900 AAXX 11094 67543 NIL=
201310110600 AAXX 11061 67543 NIL=
201310110300 AAXX 11034 67543 NIL=
201310101800 AAXX 10184 67543 NIL=
201310101500 AAXX 10154 67543 NIL=
201310101200 AAXX 10121 67543 NIL=
201310100900 AAXX 10094 67543 NIL=
201310100600 AAXX 10064 67543 NIL=
201310100300 AAXX 10034 67543 NIL=
201310100000 AAXX 10004 67543 NIL=
201310091800 AAXX 09184 67543 NIL=
201310091500 AAXX 09154 67543 NIL=
201310091200 AAXX 09124 67543 NIL=
201310090900 AAXX 09094 67543 NIL=
201310090600 AAXX 09061 67543 NIL=
201310081200 AAXX 08121 67543 NIL=
201310080900 AAXX 08090 67543 NIL=
201310080600 AAXX 08060 67543 NIL=
201310071200 AAXX 07121 67543 NIL=
201310070900 AAXX 07094 67543 NIL=
201310070600 AAXX 07060 67543 NIL=
201310061200 AAXX 06121 67543 NIL=
201310060600 AAXX 06060 67543 NIL=
201310060000 AAXX 06004 67543 NIL=
201310051800 AAXX 05184 67543 NIL=
201310051500 AAXX 05154 67543 NIL=
201310051200 AAXX 05121 67543 NIL=
201310050900 AAXX 05094 67543 NIL=
201310050600 AAXX 05060 67543 NIL=
201310050300 AAXX 05034 67543 NIL=
201310041800 AAXX 04184 67543 NIL=
201310041500 AAXX 04154 67543 NIL=
201310041200 AAXX 04120 67543 NIL=
201310040900 AAXX 04094 67543 NIL=
201310040600 AAXX 04061 67543 NIL=
201310040300 AAXX 04034 67543 NIL=
201310040000 AAXX 04004 67543 NIL=
201310032100 AAXX 03214 67543 NIL=
201310031800 AAXX 03184 67543 NIL=
201310031500 AAXX 03154 67543 NIL=
201310031200 AAXX 03121 67543 NIL=
201310030900 AAXX 03094 67543 NIL=
201310030600 AAXX 03061 67543 NIL=
201310030300 AAXX 03034 67543 NIL=
201310030000 AAXX 03004 67543 NIL=
201310021800 AAXX 02184 67543 NIL=
201310021200 AAXX 02121 67543 NIL=
201310020900 AAXX 02094 67543 NIL=
201310020600 AAXX 02060 67543 NIL=
201310011800 AAXX 01184 67543 NIL=
201310011500 AAXX 01154 67543 NIL=
201310011200 AAXX 01124 67543 NIL=
201310010900 AAXX 01094 67543 NIL=
201310010600 AAXX 01060 67543 NIL=

################################################################################
#  SYNOPS from 67551, Solwezi (Zambia) | 12-11S | 026-23E | 1386 m
################################################################################
201310310600 AAXX 31060 67551 NIL=
201310310000 AAXX 31004 67551 NIL=
201310301800 AAXX 30184 67551 NIL=
201310301500 AAXX 30154 67551 NIL=
201310301200 AAXX 30121 67551 NIL=
201310300900 AAXX 30094 67551 NIL=
201310300600 AAXX 30061 67551 NIL=
201310300300 AAXX 30034 67551 NIL=
201310292100 AAXX 29214 67551 NIL=
201310291800 AAXX 29184 67551 NIL=
201310291500 AAXX 29154 67551 NIL=
201310291200 AAXX 29121 67551 NIL=
201310290900 AAXX 29094 67551 NIL=
201310290600 AAXX 29064 67551 31970 70305 10223 20173 48514 70522 80007
                   333 10332 20182 58019 87280
                   555 91018=
201310281800 AAXX 28184 67551 NIL=
201310281200 AAXX 28121 67551 NIL=
201310280900 AAXX 28090 67551 NIL=
201310280600 AAXX 28064 67551 31975 00000 10231 20118 48537 70500
                   333 10330 20118 58010 91021=
201310280300 AAXX 28034 67551 NIL=
201310272100 AAXX 27214 67551 NIL=
201310271800 AAXX 27184 67551 NIL=
201310271500 AAXX 27154 67551 NIL=
201310271200 AAXX 27120 67551 NIL=
201310270900 AAXX 27094 67551 NIL=
201310270600 AAXX 27060 67551 NIL=
201310270300 AAXX 27034 67551 NIL=
201310270000 AAXX 27004 67551 NIL=
201310262100 AAXX 26214 67551 NIL=
201310261500 AAXX 26154 67551 NIL=
201310261200 AAXX 26120 67551 NIL=
201310260900 AAXX 26094 67551 NIL=
201310260600 AAXX 26060 67551 NIL=
201310260300 AAXX 26034 67551 NIL=
201310260000 AAXX 26004 67551 NIL=
201310252100 AAXX 25214 67551 NIL=
201310251800 AAXX 25184 67551 NIL=
201310251200 AAXX 25124 67551 NIL=
201310250900 AAXX 25094 67551 NIL=
201310250600 AAXX 25060 67551 NIL=
201310250000 AAXX 25004 67551 NIL=
201310242100 AAXX 24214 67551 NIL=
201310241800 AAXX 24184 67551 NIL=
201310241500 AAXX 24154 67551 NIL=
201310241200 AAXX 24120 67551 NIL=
201310240600 AAXX 24060 67551 NIL=
201310232100 AAXX 23214 67551 NIL=
201310231800 AAXX 23184 67551 NIL=
201310231500 AAXX 23154 67551 NIL=
201310231200 AAXX 23121 67551 NIL=
201310230900 AAXX 23094 67551 NIL=
201310230600 AAXX 23064 67551 11965 70000 10208 20136 48523 60034 70522 87038
                   333 10315 20165 58017 87362 84280=
201310230300 AAXX 23034 67551 NIL=
201310230000 AAXX 23004 67551 NIL=
201310221800 AAXX 22184 67551 NIL=
201310221500 AAXX 22150 67551 NIL=
201310221200 AAXX 22121 67551 NIL=
201310220900 AAXX 22094 67551 NIL=
201310220600 AAXX 22064 67551 NIL=
201310220300 AAXX 22034 67551 NIL=
201310220000 AAXX 22004 67551 NIL=
201310212100 AAXX 21214 67551 NIL=
201310211800 AAXX 21184 67551 NIL=
201310211500 AAXX 21154 67551 NIL=
201310211200 AAXX 21121 67551 NIL=
201310210900 AAXX 21094 67551 NIL=
201310210600 AAXX 21064 67551 31965 70506 10210 20138 48511 70522 80007
                   333 10320 20156 59012 87280
                   555 00/// 91018=
201310210300 AAXX 21034 67551 NIL=
201310210000 AAXX 21004 67551 NIL=
201310201800 AAXX 20184 67551 NIL=
201310201500 AAXX 20154 67551 NIL=
201310201200 AAXX 20124 67551 NIL=
201310200600 AAXX 20064 67551 NIL=
201310191800 AAXX 19184 67551 NIL=
201310190900 AAXX 19094 67551 NIL=
201310190600 AAXX 19061 67551 NIL=
201310181500 AAXX 18150 67551 NIL=
201310181200 AAXX 18121 67551 NIL=
201310180900 AAXX 18094 67551 NIL=
201310180600 AAXX 18060 67551 NIL=
201310180300 AAXX 18034 67551 NIL=
201310180000 AAXX 18004 67551 NIL=
201310171800 AAXX 17184 67551 NIL=
201310171500 AAXX 17154 67551 NIL=
201310171200 AAXX 17124 67551 NIL=
201310170900 AAXX 17094 67551 NIL=
201310170600 AAXX 17060 67551 NIL=
201310161200 AAXX 16121 67551 NIL=
201310160900 AAXX 16094 67551 NIL=
201310151200 AAXX 15121 67551 NIL=
201310150900 AAXX 15094 67551 NIL=
201310150600 AAXX 15061 67551 NIL=
201310141200 AAXX 14124 67551 NIL=
201310140900 AAXX 14094 67551 NIL=
201310140600 AAXX 14060 67551 NIL=
201310131200 AAXX 13120 67551 NIL=
201310130900 AAXX 13090 67551 NIL=
201310130600 AAXX 13060 67551 NIL=
201310122100 AAXX 12214 67551 NIL=
201310121500 AAXX 12154 67551 NIL=
201310121200 AAXX 12121 67551 NIL=
201310120900 AAXX 12094 67551 NIL=
201310120600 AAXX 12061 67551 NIL=
201310120300 AAXX 12034 67551 NIL=
201310112100 AAXX 11214 67551 NIL=
201310111800 AAXX 11184 67551 NIL=
201310111500 AAXX 11154 67551 NIL=
201310111200 AAXX 11121 67551 NIL=
201310110900 AAXX 11094 67551 NIL=
201310110600 AAXX 11061 67551 NIL=
201310110300 AAXX 11034 67551 NIL=
201310101800 AAXX 10184 67551 NIL=
201310101500 AAXX 10154 67551 NIL=
201310101200 AAXX 10121 67551 NIL=
201310100900 AAXX 10094 67551 NIL=
201310100600 AAXX 10064 67551 NIL=
201310100300 AAXX 10034 67551 NIL=
201310100000 AAXX 10004 67551 NIL=
201310091800 AAXX 09184 67551 NIL=
201310091500 AAXX 09154 67551 NIL=
201310091200 AAXX 09124 67551 NIL=
201310090900 AAXX 09094 67551 NIL=
201310090600 AAXX 09064 67551 31965 20905 10199 20127 48535 70500 80001
                   333 10367 20159 59001 82080
                   555 00/// 91021=
201310081200 AAXX 08121 67551 NIL=
201310080900 AAXX 08090 67551 NIL=
201310080600 AAXX 08060 67551 NIL=
201310071200 AAXX 07121 67551 NIL=
201310070900 AAXX 07094 67551 NIL=
201310070600 AAXX 07064 67551 31654 31303 10204 20112 48827 70511 82201
                   333 10325 20145 58000 82830 81080 91020=
201310061200 AAXX 06121 67551 NIL=
201310060600 AAXX 06060 67551 NIL=
201310060000 AAXX 06004 67551 NIL=
201310051800 AAXX 05184 67551 NIL=
201310051500 AAXX 05154 67551 NIL=
201310051200 AAXX 05121 67551 NIL=
201310050900 AAXX 05094 67551 NIL=
201310050600 AAXX 05060 67551 NIL=
201310050300 AAXX 05034 67551 NIL=
201310041800 AAXX 04184 67551 NIL=
201310041500 AAXX 04154 67551 NIL=
201310041200 AAXX 04120 67551 NIL=
201310040900 AAXX 04094 67551 NIL=
201310040600 AAXX 04061 67551 NIL=
201310040300 AAXX 04034 67551 NIL=
201310040000 AAXX 04004 67551 NIL=
201310032100 AAXX 03214 67551 NIL=
201310031800 AAXX 03184 67551 NIL=
201310031500 AAXX 03154 67551 NIL=
201310031200 AAXX 03121 67551 NIL=
201310030900 AAXX 03094 67551 NIL=
201310030600 AAXX 03061 67551 NIL=
201310030300 AAXX 03034 67551 NIL=
201310030000 AAXX 03004 67551 NIL=
201310021800 AAXX 02184 67551 NIL=
201310021200 AAXX 02121 67551 NIL=
201310020900 AAXX 02094 67551 NIL=
201310020600 AAXX 02060 67551 NIL=
201310011800 AAXX 01184 67551 NIL=
201310011500 AAXX 01154 67551 NIL=
201310011200 AAXX 01124 67551 NIL=
201310010900 AAXX 01094 67551 NIL=
201310010600 AAXX 01060 67551 NIL=

################################################################################
#  SYNOPS from 67561, Ndola (Zambia) | 13-00S | 028-39E | 1269 m
################################################################################
201310310600 AAXX 31060 67561 NIL=
201310310000 AAXX 31004 67561 NIL=
201310301800 AAXX 30184 67561 NIL=
201310301500 AAXX 30154 67561 NIL=
201310301200 AAXX 30121 67561 NIL=
201310300900 AAXX 30094 67561 NIL=
201310300600 AAXX 30061 67561 NIL=
201310300300 AAXX 30034 67561 NIL=
201310292100 AAXX 29214 67561 NIL=
201310291800 AAXX 29184 67561 NIL=
201310291500 AAXX 29154 67561 NIL=
201310291200 AAXX 29121 67561 NIL=
201310290900 AAXX 29094 67561 NIL=
201310290600 AAXX 29061 67561 NIL=
201310281800 AAXX 28184 67561 NIL=
201310281200 AAXX 28121 67561 NIL=
201310280900 AAXX 28090 67561 NIL=
201310280600 AAXX 28061 67561 NIL=
201310280300 AAXX 28034 67561 NIL=
201310272100 AAXX 27214 67561 NIL=
201310271800 AAXX 27184 67561 NIL=
201310271500 AAXX 27154 67561 NIL=
201310271200 AAXX 27120 67561 NIL=
201310270900 AAXX 27094 67561 NIL=
201310270600 AAXX 27060 67561 NIL=
201310270300 AAXX 27034 67561 NIL=
201310270000 AAXX 27004 67561 NIL=
201310262100 AAXX 26214 67561 NIL=
201310261500 AAXX 26154 67561 NIL=
201310261200 AAXX 26120 67561 NIL=
201310260900 AAXX 26094 67561 NIL=
201310260600 AAXX 26060 67561 NIL=
201310260300 AAXX 26034 67561 NIL=
201310260000 AAXX 26004 67561 NIL=
201310252100 AAXX 25214 67561 NIL=
201310251800 AAXX 25184 67561 NIL=
201310251200 AAXX 25124 67561 NIL=
201310250900 AAXX 25094 67561 NIL=
201310250600 AAXX 25060 67561 NIL=
201310250000 AAXX 25004 67561 NIL=
201310242100 AAXX 24214 67561 NIL=
201310241800 AAXX 24184 67561 NIL=
201310241500 AAXX 24154 67561 NIL=
201310241200 AAXX 24120 67561 NIL=
201310240600 AAXX 24060 67561 NIL=
201310232100 AAXX 23214 67561 NIL=
201310231800 AAXX 23184 67561 NIL=
201310231500 AAXX 23154 67561 NIL=
201310231200 AAXX 23121 67561 NIL=
201310230900 AAXX 23094 67561 NIL=
201310230600 AAXX 23060 67561 NIL=
201310230300 AAXX 23034 67561 NIL=
201310230000 AAXX 23004 67561 NIL=
201310221800 AAXX 22184 67561 NIL=
201310221500 AAXX 22150 67561 NIL=
201310221200 AAXX 22121 67561 NIL=
201310220900 AAXX 22094 67561 NIL=
201310220600 AAXX 22064 67561 NIL=
201310220300 AAXX 22034 67561 NIL=
201310220000 AAXX 22004 67561 NIL=
201310212100 AAXX 21214 67561 NIL=
201310211800 AAXX 21184 67561 NIL=
201310211500 AAXX 21154 67561 NIL=
201310211200 AAXX 21121 67561 NIL=
201310210900 AAXX 21094 67561 NIL=
201310210600 AAXX 21061 67561 NIL=
201310210300 AAXX 21034 67561 NIL=
201310210000 AAXX 21004 67561 NIL=
201310201800 AAXX 20184 67561 NIL=
201310201500 AAXX 20154 67561 NIL=
201310201200 AAXX 20124 67561 NIL=
201310200600 AAXX 20064 67561 NIL=
201310191800 AAXX 19184 67561 NIL=
201310190900 AAXX 19094 67561 NIL=
201310190600 AAXX 19061 67561 NIL=
201310181500 AAXX 18150 67561 NIL=
201310181200 AAXX 18121 67561 NIL=
201310180900 AAXX 18094 67561 NIL=
201310180600 AAXX 18060 67561 NIL=
201310180300 AAXX 18034 67561 NIL=
201310180000 AAXX 18004 67561 NIL=
201310171800 AAXX 17184 67561 NIL=
201310171500 AAXX 17154 67561 NIL=
201310171200 AAXX 17124 67561 NIL=
201310170900 AAXX 17094 67561 NIL=
201310170600 AAXX 17060 67561 NIL=
201310161200 AAXX 16121 67561 NIL=
201310160900 AAXX 16094 67561 NIL=
201310151200 AAXX 15121 67561 NIL=
201310150900 AAXX 15094 67561 NIL=
201310150600 AAXX 15061 67561 NIL=
201310141200 AAXX 14124 67561 NIL=
201310140900 AAXX 14094 67561 NIL=
201310140600 AAXX 14060 67561 NIL=
201310131200 AAXX 13120 67561 NIL=
201310130900 AAXX 13090 67561 NIL=
201310130600 AAXX 13060 67561 NIL=
201310122100 AAXX 12214 67561 NIL=
201310121500 AAXX 12154 67561 NIL=
201310121200 AAXX 12121 67561 NIL=
201310120900 AAXX 12094 67561 NIL=
201310120600 AAXX 12061 67561 NIL=
201310120300 AAXX 12034 67561 NIL=
201310112100 AAXX 11214 67561 NIL=
201310111800 AAXX 11184 67561 NIL=
201310111500 AAXX 11154 67561 NIL=
201310111200 AAXX 11121 67561 NIL=
201310110900 AAXX 11094 67561 NIL=
201310110600 AAXX 11064 67561 31960 51015 10229 20090 48545 70522 80008
                   333 10327 20170 58000 85280 91022=
201310110300 AAXX 11034 67561 NIL=
201310101800 AAXX 10184 67561 NIL=
201310101500 AAXX 10154 67561 NIL=
201310101200 AAXX 10121 67561 NIL=
201310100900 AAXX 10094 67561 NIL=
201310100600 AAXX 10064 67561 NIL=
201310100300 AAXX 10034 67561 NIL=
201310100000 AAXX 10004 67561 NIL=
201310091800 AAXX 09184 67561 NIL=
201310091500 AAXX 09154 67561 NIL=
201310091200 AAXX 09124 67561 NIL=
201310090900 AAXX 09094 67561 NIL=
201310090600 AAXX 09064 67561 31960 21012 10230 20132 48542 70500 80002
                   333 10314 20166 59004 82080 91022=
201310081200 AAXX 08121 67561 NIL=
201310080900 AAXX 08090 67561 NIL=
201310080600 AAXX 08060 67561 NIL=
201310071200 AAXX 07121 67561 NIL=
201310070900 AAXX 07094 67561 NIL=
201310070600 AAXX 07064 67561 31975 10706 10251 20115 48540 70500 80001
                   333 10323 20176 59002 81080
                   555 00/// 91021=
201310061200 AAXX 06121 67561 NIL=
201310060600 AAXX 06060 67561 NIL=
201310060000 AAXX 06004 67561 NIL=
201310051800 AAXX 05184 67561 NIL=
201310051500 AAXX 05154 67561 NIL=
201310051200 AAXX 05121 67561 NIL=
201310050900 AAXX 05094 67561 NIL=
201310050600 AAXX 05060 67561 NIL=
201310050300 AAXX 05034 67561 NIL=
201310041800 AAXX 04184 67561 NIL=
201310041500 AAXX 04154 67561 NIL=
201310041200 AAXX 04120 67561 NIL=
201310040900 AAXX 04094 67561 NIL=
201310040600 AAXX 04064 67561 31975 10807 10199 20067 48544 70500 80001
                   333 10293 20102 58002 81080
                   555 00/// 91022=
201310040300 AAXX 04034 67561 NIL=
201310040000 AAXX 04004 67561 NIL=
201310032100 AAXX 03214 67561 NIL=
201310031800 AAXX 03184 67561 NIL=
201310031500 AAXX 03154 67561 NIL=
201310031200 AAXX 03121 67561 NIL=
201310030900 AAXX 03094 67561 NIL=
201310030600 AAXX 03061 67561 NIL=
201310030300 AAXX 03034 67561 NIL=
201310030000 AAXX 03004 67561 NIL=
201310021800 AAXX 02184 67561 NIL=
201310021200 AAXX 02121 67561 NIL=
201310020900 AAXX 02094 67561 NIL=
201310020600 AAXX 02060 67561 NIL=
201310011800 AAXX 01184 67561 NIL=
201310011500 AAXX 01154 67561 NIL=
201310011200 AAXX 01124 67561 NIL=
201310010900 AAXX 01094 67561 NIL=
201310010600 AAXX 01060 67561 NIL=

################################################################################
#  SYNOPS from 67563, Kafironda (Zambia) | 12-36S | 028-07E | 1243 m
################################################################################
201310310600 AAXX 31064 67563 31975 10302 10228 20150 48/// 70500 81030
                   333 10335 20150 59008 81360
                   555 00142=
201310310000 AAXX 31004 67563 NIL=
201310301800 AAXX 30184 67563 NIL=
201310301500 AAXX 30154 67563 NIL=
201310301200 AAXX 30121 67563 NIL=
201310300900 AAXX 30094 67563 NIL=
201310300600 AAXX 30061 67563 NIL=
201310300300 AAXX 30034 67563 NIL=
201310292100 AAXX 29214 67563 NIL=
201310291800 AAXX 29184 67563 NIL=
201310291500 AAXX 29154 67563 NIL=
201310291200 AAXX 29121 67563 NIL=
201310290900 AAXX 29094 67563 NIL=
201310290600 AAXX 29061 67563 NIL=
201310281800 AAXX 28184 67563 NIL=
201310281200 AAXX 28121 67563 NIL=
201310280900 AAXX 28090 67563 NIL=
201310280600 AAXX 28061 67563 NIL=
201310280300 AAXX 28034 67563 NIL=
201310272100 AAXX 27214 67563 NIL=
201310271800 AAXX 27184 67563 NIL=
201310271500 AAXX 27154 67563 NIL=
201310271200 AAXX 27120 67563 NIL=
201310270900 AAXX 27094 67563 NIL=
201310270600 AAXX 27060 67563 NIL=
201310270300 AAXX 27034 67563 NIL=
201310270000 AAXX 27004 67563 NIL=
201310262100 AAXX 26214 67563 NIL=
201310261500 AAXX 26154 67563 NIL=
201310261200 AAXX 26120 67563 NIL=
201310260900 AAXX 26094 67563 NIL=
201310260600 AAXX 26060 67563 NIL=
201310260300 AAXX 26034 67563 NIL=
201310260000 AAXX 26004 67563 NIL=
201310252100 AAXX 25214 67563 NIL=
201310251800 AAXX 25184 67563 NIL=
201310251200 AAXX 25124 67563 NIL=
201310250900 AAXX 25094 67563 NIL=
201310250600 AAXX 25064 67563 31378 40404 10207 20160 48/// 70510 84600
                   333 10265 20150 59010 84708
                   555 00147=
201310250000 AAXX 25004 67563 NIL=
201310242100 AAXX 24214 67563 NIL=
201310241800 AAXX 24184 67563 NIL=
201310241500 AAXX 24154 67563 NIL=
201310241200 AAXX 24120 67563 NIL=
201310240600 AAXX 24060 67563 NIL=
201310232100 AAXX 23214 67563 NIL=
201310231800 AAXX 23184 67563 NIL=
201310231500 AAXX 23154 67563 NIL=
201310231200 AAXX 23121 67563 NIL=
201310230900 AAXX 23094 67563 NIL=
201310230600 AAXX 23064 67563 11970 11602 10245 20150 48/// 69904 70500 80001
                   333 10361 20167 58009 81080
                   555 00160=
201310230300 AAXX 23034 67563 NIL=
201310230000 AAXX 23004 67563 NIL=
201310221800 AAXX 22184 67563 NIL=
201310221500 AAXX 22150 67563 NIL=
201310221200 AAXX 22121 67563 NIL=
201310220900 AAXX 22094 67563 NIL=
201310220600 AAXX 22064 67563 NIL=
201310220300 AAXX 22034 67563 NIL=
201310220000 AAXX 22004 67563 NIL=
201310212100 AAXX 21214 67563 NIL=
201310211800 AAXX 21184 67563 NIL=
201310211500 AAXX 21154 67563 NIL=
201310211200 AAXX 21121 67563 NIL=
201310210900 AAXX 21094 67563 NIL=
201310210600 AAXX 21061 67563 NIL=
201310210300 AAXX 21034 67563 NIL=
201310210000 AAXX 21004 67563 NIL=
201310201800 AAXX 20184 67563 NIL=
201310201500 AAXX 20154 67563 NIL=
201310201200 AAXX 20124 67563 NIL=
201310200600 AAXX 20064 67563 NIL=
201310191800 AAXX 19184 67563 NIL=
201310190900 AAXX 19094 67563 NIL=
201310190600 AAXX 19061 67563 NIL=
201310181500 AAXX 18150 67563 NIL=
201310181200 AAXX 18121 67563 NIL=
201310180900 AAXX 18094 67563 NIL=
201310180600 AAXX 18060 67563 NIL=
201310180300 AAXX 18034 67563 NIL=
201310180000 AAXX 18004 67563 NIL=
201310171800 AAXX 17184 67563 NIL=
201310171500 AAXX 17154 67563 NIL=
201310171200 AAXX 17124 67563 NIL=
201310170900 AAXX 17094 67563 NIL=
201310170600 AAXX 17060 67563 NIL=
201310161200 AAXX 16121 67563 NIL=
201310160900 AAXX 16094 67563 NIL=
201310151200 AAXX 15121 67563 NIL=
201310150900 AAXX 15094 67563 NIL=
201310150600 AAXX 15061 67563 NIL=
201310141200 AAXX 14124 67563 NIL=
201310140900 AAXX 14094 67563 NIL=
201310140600 AAXX 14060 67563 NIL=
201310131200 AAXX 13120 67563 NIL=
201310130900 AAXX 13090 67563 NIL=
201310130600 AAXX 13060 67563 NIL=
201310122100 AAXX 12214 67563 NIL=
201310121500 AAXX 12154 67563 NIL=
201310121200 AAXX 12121 67563 NIL=
201310120900 AAXX 12094 67563 NIL=
201310120600 AAXX 12061 67563 NIL=
201310120300 AAXX 12034 67563 NIL=
201310112100 AAXX 11214 67563 NIL=
201310111800 AAXX 11184 67563 NIL=
201310111500 AAXX 11154 67563 NIL=
201310111200 AAXX 11121 67563 NIL=
201310110900 AAXX 11094 67563 NIL=
201310110600 AAXX 11061 67563 NIL=
201310110300 AAXX 11034 67563 NIL=
201310101800 AAXX 10184 67563 NIL=
201310101500 AAXX 10154 67563 NIL=
201310101200 AAXX 10121 67563 NIL=
201310100900 AAXX 10094 67563 NIL=
201310100600 AAXX 10064 67563 NIL=
201310100300 AAXX 10034 67563 NIL=
201310100000 AAXX 10004 67563 NIL=
201310091800 AAXX 09184 67563 NIL=
201310091500 AAXX 09154 67563 NIL=
201310091200 AAXX 09124 67563 NIL=
201310090900 AAXX 09094 67563 NIL=
201310090600 AAXX 09061 67563 NIL=
201310081200 AAXX 08121 67563 NIL=
201310080900 AAXX 08090 67563 NIL=
201310080600 AAXX 08060 67563 NIL=
201310071200 AAXX 07121 67563 NIL=
201310070900 AAXX 07094 67563 NIL=
201310070600 AAXX 07064 67563 31970 10806 10234 20130 48/// 70500 80001
                   333 10337 20117 58003 81080
                   555 00110=
201310061200 AAXX 06121 67563 NIL=
201310060600 AAXX 06060 67563 NIL=
201310060000 AAXX 06004 67563 NIL=
201310051800 AAXX 05184 67563 NIL=
201310051500 AAXX 05154 67563 NIL=
201310051200 AAXX 05121 67563 NIL=
201310050900 AAXX 05094 67563 NIL=
201310050600 AAXX 05060 67563 NIL=
201310050300 AAXX 05034 67563 NIL=
201310041800 AAXX 04184 67563 NIL=
201310041500 AAXX 04154 67563 NIL=
201310041200 AAXX 04120 67563 NIL=
201310040900 AAXX 04094 67563 NIL=
201310040600 AAXX 04064 67563 31975 01007 10218 20060 48/// 70500
                   333 10296 20060 58002
                   555 00057=
201310040300 AAXX 04034 67563 NIL=
201310040000 AAXX 04004 67563 NIL=
201310032100 AAXX 03214 67563 NIL=
201310031800 AAXX 03184 67563 NIL=
201310031500 AAXX 03154 67563 NIL=
201310031200 AAXX 03121 67563 NIL=
201310030900 AAXX 03094 67563 NIL=
201310030600 AAXX 03061 67563 NIL=
201310030300 AAXX 03034 67563 NIL=
201310030000 AAXX 03004 67563 NIL=
201310021800 AAXX 02184 67563 NIL=
201310021200 AAXX 02121 67563 NIL=
201310020900 AAXX 02094 67563 NIL=
201310020600 AAXX 02060 67563 NIL=
201310011800 AAXX 01184 67563 NIL=
201310011500 AAXX 01154 67563 NIL=
201310011200 AAXX 01124 67563 NIL=
201310010900 AAXX 01094 67563 NIL=
201310010600 AAXX 01060 67563 NIL=

################################################################################
#  SYNOPS from 67571, Serenje (Zambia) | 13-14S | 030-13E | 1384 m
################################################################################
201310310600 AAXX 31064 67571 31958 73003 10237 20148 48513 70522 80008
                   333 10345 20167 59011 87280
                   555 00/// 20000=
201310310000 AAXX 31004 67571 NIL=
201310301800 AAXX 30184 67571 NIL=
201310301500 AAXX 30154 67571 NIL=
201310301200 AAXX 30124 67571 42780 71202 10324 20092 48486 70522 84108
                   333 59004 84850 87281=
201310300900 AAXX 30094 67571 NIL=
201310300600 AAXX 30064 67571 31975 72702 10241 20130 48524 70522 80008
                   333 10331 20194 58009 87281
                   555 00/// 20000 49999 75058 86069=
201310300300 AAXX 30034 67571 NIL=
201310292100 AAXX 29214 67571 NIL=
201310291800 AAXX 29184 67571 NIL=
201310291500 AAXX 29154 67571 NIL=
201310291200 AAXX 29124 67571 42680 71508 10311 20107 48485 70522 84108
                   333 59018 84846 87280=
201310290900 AAXX 29094 67571 NIL=
201310290600 AAXX 29064 67571 32980 73602 10243 20134 48513 70522 80008
                   333 10333 20187 59014 87280
                   555 00/// 20000=
201310281800 AAXX 28184 67571 NIL=
201310281200 AAXX 28124 67571 42680 71202 10309 20116 48506 70522 83231
                   333 58008 81940 83840 81360 83080=
201310280900 AAXX 28094 67571 42580 13607 10295 20141 48526 70500 81101
                   333 58006 81825 81080=
201310280600 AAXX 28061 67571 NIL=
201310280300 AAXX 28034 67571 NIL=
201310272100 AAXX 27214 67571 NIL=
201310271800 AAXX 27184 67571 NIL=
201310271500 AAXX 27154 67571 NIL=
201310271200 AAXX 27120 67571 NIL=
201310270900 AAXX 27094 67571 NIL=
201310270600 AAXX 27060 67571 NIL=
201310270300 AAXX 27034 67571 NIL=
201310270000 AAXX 27004 67571 NIL=
201310262100 AAXX 26214 67571 NIL=
201310261500 AAXX 26154 67571 NIL=
201310261200 AAXX 26120 67571 NIL=
201310260900 AAXX 26094 67571 NIL=
201310260600 AAXX 26060 67571 NIL=
201310260300 AAXX 26034 67571 NIL=
201310260000 AAXX 26004 67571 NIL=
201310252100 AAXX 25214 67571 NIL=
201310251800 AAXX 25184 67571 NIL=
201310251200 AAXX 25124 67571 42680 31205 10283 20143 48505 70511 83100
                   333 58006 83838=
201310250900 AAXX 25094 67571 42580 60605 10246 20141 48534 70522 86500
                   333 58009 86624=
201310250600 AAXX 25064 67571 12480 71204 10197 20149 48542 69904 70522 875//
                   333 10279 20169 58003 87618
                   555 00/// 20990=
201310250000 AAXX 25004 67571 NIL=
201310242100 AAXX 24214 67571 NIL=
201310241800 AAXX 24184 67571 NIL=
201310241500 AAXX 24154 67571 NIL=
201310241200 AAXX 24120 67571 NIL=
201310240600 AAXX 24060 67571 NIL=
201310232100 AAXX 23214 67571 NIL=
201310231800 AAXX 23184 67571 NIL=
201310231500 AAXX 23154 67571 NIL=
201310231200 AAXX 23121 67571 NIL=
201310230900 AAXX 23094 67571 NIL=
201310230600 AAXX 23060 67571 NIL=
201310230300 AAXX 23034 67571 NIL=
201310230000 AAXX 23004 67571 NIL=
201310221800 AAXX 22184 67571 NIL=
201310221500 AAXX 22150 67571 NIL=
201310221200 AAXX 22121 67571 NIL=
201310220900 AAXX 22094 67571 NIL=
201310220600 AAXX 22064 67571 32980 23603 10246 20111 48514 70500 81081
                   333 10347 20164 58001 81359 82080
                   555 00/// 20000=
201310220300 AAXX 22034 67571 NIL=
201310220000 AAXX 22004 67571 NIL=
201310212100 AAXX 21214 67571 NIL=
201310211800 AAXX 21184 67571 NIL=
201310211500 AAXX 21154 67571 NIL=
201310211200 AAXX 21121 67571 NIL=
201310210900 AAXX 21094 67571 42580 10904 10307 20096 48496 70500 81101
                   333 59018 81826 81080=
201310210600 AAXX 21064 67571 32980 1//// 10243 20114 48513 70500 80001
                   333 10344 20164 59011 81080
                   555 00/// 20000=
201310210300 AAXX 21034 67571 NIL=
201310210000 AAXX 21004 67571 NIL=
201310201800 AAXX 20184 67571 NIL=
201310201500 AAXX 20154 67571 NIL=
201310201200 AAXX 20124 67571 NIL=
201310200600 AAXX 20064 67571 NIL=
201310191800 AAXX 19184 67571 NIL=
201310190900 AAXX 19094 67571 NIL=
201310190600 AAXX 19061 67571 NIL=
201310181500 AAXX 18150 67571 NIL=
201310181200 AAXX 18121 67571 NIL=
201310180900 AAXX 18094 67571 42580 10905 10303 20091 48526 70500 81100
                   333 59013 81828=
201310180600 AAXX 18064 67571 32980 00906 10248 20110 48534 70500
                   333 10312 20183 59006
                   555 00/// 20000=
201310180300 AAXX 18034 67571 NIL=
201310180000 AAXX 18004 67571 NIL=
201310171800 AAXX 17184 67571 NIL=
201310171500 AAXX 17154 67571 NIL=
201310171200 AAXX 17124 67571 NIL=
201310170900 AAXX 17094 67571 NIL=
201310170600 AAXX 17060 67571 NIL=
201310161200 AAXX 16124 67571 42679 71203 10267 20144 48535 70522 83108
                   333 58000 83836 86280=
201310160900 AAXX 16094 67571 42578 71207 10236 20154 48564 70522 85508
                   333 58006 85628 87280=
201310160600 AAXX 16064 67571 32478 41512 10211 20159 48562 70511 82501
                   333 10299 20182 59001 82619 83080
                   555 00/// 20000 49999 75554 86641=
201310151200 AAXX 15121 67571 NIL=
201310150900 AAXX 15094 67571 42679 71211 10270 20148 48556 70522 82538
                   333 58033 82631 81362 87280=
201310150600 AAXX 15064 67571 12478 70908 10232 20157 48563 69904 70522 82538
                   333 10347 20189 58033 82618 82362 87280
                   555 00/// 20000=
201310141200 AAXX 14124 67571 42780 70903 10335 20076 48507 70522 86108
                   333 58007 86856 87280=
201310140900 AAXX 14094 67571 42680 40304 10318 20106 48527 82101
                   333 58010 82831 83080=
201310140600 AAXX 14064 67571 12980 03602 10256 20124 48535 69904 70500
                   333 10350 20144 58011
                   555 00/// 20000=
201310131200 AAXX 13120 67571 NIL=
201310130900 AAXX 13090 67571 NIL=
201310130600 AAXX 13060 67571 NIL=
201310122100 AAXX 12214 67571 NIL=
201310121500 AAXX 12154 67571 NIL=
201310121200 AAXX 12121 67571 NIL=
201310120900 AAXX 12094 67571 NIL=
201310120600 AAXX 12061 67571 NIL=
201310120300 AAXX 12034 67571 NIL=
201310112100 AAXX 11214 67571 NIL=
201310111800 AAXX 11184 67571 NIL=
201310111500 AAXX 11154 67571 NIL=
201310111200 AAXX 11124 67571 42680 71504 10293 20074 48516 70522 84108
                   333 58003 84845 87280=
201310110900 AAXX 11094 67571 NIL=
201310110600 AAXX 11064 67571 32980 70905 10230 20099 48553 70522 80008
                   333 10311 20176 58006 87280
                   555 00/// 20000=
201310110300 AAXX 11034 67571 NIL=
201310101800 AAXX 10184 67571 NIL=
201310101500 AAXX 10154 67571 NIL=
201310101200 AAXX 10121 67571 NIL=
201310100900 AAXX 10094 67571 42682 70906 10281 20056 48536 70322 82108
                   333 59006 82838 87280=
201310100600 AAXX 10064 67571 32582 40904 10226 20116 48543 70111 81101
                   333 10292 20161 58002 81823 84080
                   555 00/// 20000=
201310100300 AAXX 10034 67571 NIL=
201310100000 AAXX 10004 67571 NIL=
201310091800 AAXX 09184 67571 NIL=
201310091500 AAXX 09154 67571 NIL=
201310091200 AAXX 09124 67571 NIL=
201310090900 AAXX 09094 67571 42682 71503 10255 20119 48545 70222 85108
                   333 59005 85832 87280=
201310090600 AAXX 09064 67571 32482 71507 10211 20134 48542 70222 81508
                   333 10296 20162 59004 81618 87280
                   555 00/// 20000 40000 77562 88743=
201310081200 AAXX 08121 67571 NIL=
201310080900 AAXX 08094 67571 42682 50904 10259 20127 48545 70222 85500
                   333 58009 85632=
201310080600 AAXX 08064 67571 32482 11206 10221 20132 48543 70300 81500
                   333 10322 20176 58012 81618
                   555 00/// 20000=
201310071200 AAXX 07124 67571 42780 31206 10312 20076 48517 70100 83100
                   333 58011 83850 8/9//=
201310070900 AAXX 07094 67571 42680 31206 10/// 20114 48536 70300 83100
                   333 58010 83832=
201310070600 AAXX 07064 67571 32980 00905 10230 20122 48533
                   333 10334 20170 58009
                   555 00///=
201310061200 AAXX 06121 67571 NIL=
201310060600 AAXX 06060 67571 NIL=
201310060000 AAXX 06004 67571 NIL=
201310051800 AAXX 05184 67571 NIL=
201310051500 AAXX 05154 67571 NIL=
201310051200 AAXX 05121 67571 NIL=
201310050900 AAXX 05094 67571 NIL=
201310050600 AAXX 05060 67571 NIL=
201310050300 AAXX 05034 67571 NIL=
201310041800 AAXX 04184 67571 NIL=
201310041500 AAXX 04154 67571 NIL=
201310041200 AAXX 04120 67571 NIL=
201310040900 AAXX 04094 67571 42682 10604 10252 20084 48544 70300 81100
                   333 58005 81832=
201310040600 AAXX 04064 67571 32982 00602 10197 20101 48541
                   333 10266 20152 59009
                   555 00///=
201310040300 AAXX 04034 67571 NIL=
201310040000 AAXX 04004 67571 NIL=
201310032100 AAXX 03214 67571 NIL=
201310031800 AAXX 03184 67571 NIL=
201310031500 AAXX 03154 67571 NIL=
201310031200 AAXX 03124 67571 42682 10904 10259 20039 48504 70200 81100
                   333 59026 81845=
201310030900 AAXX 03094 67571 NIL=
201310030600 AAXX 03064 67571 32982 00607 10174 20084 48550
                   333 10229 20085 59010
                   555 00/// 20990=
201310030300 AAXX 03034 67571 NIL=
201310030000 AAXX 03004 67571 NIL=
201310021800 AAXX 02184 67571 NIL=
201310021200 AAXX 02121 67571 NIL=
201310020900 AAXX 02094 67571 12380 81204 10132 20104 48557 69904 70222 886//
                   333 10188 20126 58009 88707
                   555 00/// 20990=
201310020600 AAXX 02060 67571 NIL=
201310011800 AAXX 01184 67571 NIL=
201310011500 AAXX 01154 67571 NIL=
201310011200 AAXX 01124 67571 NIL=
201310010900 AAXX 01094 67571 NIL=
201310010600 AAXX 01064 67571 11365 81208 10150 20143 48558 69904 75155 887//
                   555 00/// 20000=

################################################################################
#  SYNOPS from 67575, Mkushi (Zambia) | 13-38S | 029-53E | 1237 m
################################################################################
201310310600 AAXX 31060 67575 NIL=
201310310000 AAXX 31004 67575 NIL=
201310301800 AAXX 30184 67575 NIL=
201310301500 AAXX 30154 67575 NIL=
201310301200 AAXX 30124 67575 NIL=
201310300900 AAXX 30094 67575 NIL=
201310300600 AAXX 30061 67575 NIL=
201310300300 AAXX 30034 67575 NIL=
201310292100 AAXX 29214 67575 NIL=
201310291800 AAXX 29184 67575 NIL=
201310291500 AAXX 29154 67575 NIL=
201310291200 AAXX 29124 67575 NIL=
201310290900 AAXX 29094 67575 NIL=
201310290600 AAXX 29061 67575 NIL=
201310281800 AAXX 28184 67575 NIL=
201310281200 AAXX 28124 67575 NIL=
201310280900 AAXX 28090 67575 NIL=
201310280600 AAXX 28061 67575 NIL=
201310280300 AAXX 28034 67575 NIL=
201310272100 AAXX 27214 67575 NIL=
201310271800 AAXX 27184 67575 NIL=
201310271500 AAXX 27154 67575 NIL=
201310271200 AAXX 27120 67575 NIL=
201310270900 AAXX 27094 67575 NIL=
201310270600 AAXX 27060 67575 NIL=
201310270300 AAXX 27034 67575 NIL=
201310270000 AAXX 27004 67575 NIL=
201310262100 AAXX 26214 67575 NIL=
201310261500 AAXX 26154 67575 NIL=
201310261200 AAXX 26120 67575 NIL=
201310260900 AAXX 26094 67575 NIL=
201310260600 AAXX 26060 67575 NIL=
201310260300 AAXX 26034 67575 NIL=
201310260000 AAXX 26004 67575 NIL=
201310252100 AAXX 25214 67575 NIL=
201310251800 AAXX 25184 67575 NIL=
201310251200 AAXX 25124 67575 NIL=
201310250900 AAXX 25094 67575 NIL=
201310250600 AAXX 25060 67575 NIL=
201310250000 AAXX 25004 67575 NIL=
201310242100 AAXX 24214 67575 NIL=
201310241800 AAXX 24184 67575 NIL=
201310241500 AAXX 24154 67575 NIL=
201310241200 AAXX 24120 67575 NIL=
201310240600 AAXX 24060 67575 NIL=
201310232100 AAXX 23214 67575 NIL=
201310231800 AAXX 23184 67575 NIL=
201310231500 AAXX 23154 67575 NIL=
201310231200 AAXX 23121 67575 NIL=
201310230900 AAXX 23094 67575 NIL=
201310230600 AAXX 23060 67575 NIL=
201310230300 AAXX 23034 67575 NIL=
201310230000 AAXX 23004 67575 NIL=
201310221800 AAXX 22184 67575 NIL=
201310221500 AAXX 22150 67575 NIL=
201310221200 AAXX 22121 67575 NIL=
201310220900 AAXX 22094 67575 NIL=
201310220600 AAXX 22064 67575 NIL=
201310220300 AAXX 22034 67575 NIL=
201310220000 AAXX 22004 67575 NIL=
201310212100 AAXX 21214 67575 NIL=
201310211800 AAXX 21184 67575 NIL=
201310211500 AAXX 21154 67575 NIL=
201310211200 AAXX 21121 67575 NIL=
201310210900 AAXX 21094 67575 NIL=
201310210600 AAXX 21061 67575 NIL=
201310210300 AAXX 21034 67575 NIL=
201310210000 AAXX 21004 67575 NIL=
201310201800 AAXX 20184 67575 NIL=
201310201500 AAXX 20154 67575 NIL=
201310201200 AAXX 20124 67575 NIL=
201310200600 AAXX 20064 67575 NIL=
201310191800 AAXX 19184 67575 NIL=
201310190900 AAXX 19094 67575 NIL=
201310190600 AAXX 19061 67575 NIL=
201310181500 AAXX 18150 67575 NIL=
201310181200 AAXX 18121 67575 NIL=
201310180900 AAXX 18094 67575 NIL=
201310180600 AAXX 18060 67575 NIL=
201310180300 AAXX 18034 67575 NIL=
201310180000 AAXX 18004 67575 NIL=
201310171800 AAXX 17184 67575 NIL=
201310171500 AAXX 17154 67575 NIL=
201310171200 AAXX 17124 67575 NIL=
201310170900 AAXX 17094 67575 NIL=
201310170600 AAXX 17060 67575 NIL=
201310161200 AAXX 16124 67575 NIL=
201310160900 AAXX 16094 67575 NIL=
201310151200 AAXX 15121 67575 NIL=
201310150900 AAXX 15094 67575 NIL=
201310150600 AAXX 15061 67575 NIL=
201310141200 AAXX 14124 67575 NIL=
201310140900 AAXX 14094 67575 NIL=
201310140600 AAXX 14060 67575 NIL=
201310131200 AAXX 13120 67575 NIL=
201310130900 AAXX 13090 67575 NIL=
201310130600 AAXX 13060 67575 NIL=
201310122100 AAXX 12214 67575 NIL=
201310121500 AAXX 12154 67575 NIL=
201310121200 AAXX 12121 67575 NIL=
201310120900 AAXX 12094 67575 NIL=
201310120600 AAXX 12061 67575 NIL=
201310120300 AAXX 12034 67575 NIL=
201310112100 AAXX 11214 67575 NIL=
201310111800 AAXX 11184 67575 NIL=
201310111500 AAXX 11154 67575 NIL=
201310111200 AAXX 11124 67575 NIL=
201310110900 AAXX 11094 67575 NIL=
201310110600 AAXX 11061 67575 NIL=
201310110300 AAXX 11034 67575 NIL=
201310101800 AAXX 10184 67575 NIL=
201310101500 AAXX 10154 67575 NIL=
201310101200 AAXX 10121 67575 NIL=
201310100900 AAXX 10094 67575 NIL=
201310100600 AAXX 10064 67575 NIL=
201310100300 AAXX 10034 67575 NIL=
201310100000 AAXX 10004 67575 NIL=
201310091800 AAXX 09184 67575 NIL=
201310091500 AAXX 09154 67575 NIL=
201310091200 AAXX 09124 67575 NIL=
201310090900 AAXX 09094 67575 NIL=
201310090600 AAXX 09061 67575 NIL=
201310081200 AAXX 08121 67575 NIL=
201310080900 AAXX 08090 67575 NIL=
201310080600 AAXX 08060 67575 NIL=
201310071200 AAXX 07124 67575 NIL=
201310070900 AAXX 07094 67575 NIL=
201310070600 AAXX 07060 67575 NIL=
201310061200 AAXX 06121 67575 NIL=
201310060600 AAXX 06060 67575 NIL=
201310060000 AAXX 06004 67575 NIL=
201310051800 AAXX 05184 67575 NIL=
201310051500 AAXX 05154 67575 NIL=
201310051200 AAXX 05121 67575 NIL=
201310050900 AAXX 05094 67575 NIL=
201310050600 AAXX 05060 67575 NIL=
201310050300 AAXX 05034 67575 NIL=
201310041800 AAXX 04184 67575 NIL=
201310041500 AAXX 04154 67575 NIL=
201310041200 AAXX 04120 67575 NIL=
201310040900 AAXX 04094 67575 NIL=
201310040600 AAXX 04064 67575 NIL=
201310040300 AAXX 04034 67575 NIL=
201310040000 AAXX 04004 67575 NIL=
201310032100 AAXX 03214 67575 NIL=
201310031800 AAXX 03184 67575 NIL=
201310031500 AAXX 03154 67575 NIL=
201310031200 AAXX 03121 67575 NIL=
201310030900 AAXX 03094 67575 NIL=
201310030600 AAXX 03061 67575 NIL=
201310030300 AAXX 03034 67575 NIL=
201310030000 AAXX 03004 67575 NIL=
201310021800 AAXX 02184 67575 NIL=
201310021200 AAXX 02121 67575 NIL=
201310020900 AAXX 02094 67575 NIL=
201310020600 AAXX 02060 67575 NIL=
201310011800 AAXX 01184 67575 NIL=
201310011500 AAXX 01154 67575 NIL=
201310011200 AAXX 01124 67575 NIL=
201310010900 AAXX 01094 67575 NIL=
201310010600 AAXX 01064 67575 NIL=

################################################################################
#  SYNOPS from 67580, Msekera (Zambia) | 13-39S | 032-34E | 1025 m
################################################################################
201310310600 AAXX 31060 67580 NIL=
201310310000 AAXX 31004 67580 NIL=
201310301800 AAXX 30184 67580 NIL=
201310301500 AAXX 30154 67580 NIL=
201310301200 AAXX 30124 67580 NIL=
201310300900 AAXX 30094 67580 41778 70000 10330 20138 48/// 70522 81108
                   333 59002 81856 87280=
201310300600 AAXX 30064 67580 31978 70905 10290 20134 48/// 70522 80008
                   333 10349 20/// 59005 87280
                   555 00/// 20000=
201310300300 AAXX 30034 67580 NIL=
201310292100 AAXX 29214 67580 NIL=
201310291800 AAXX 29184 67580 NIL=
201310291500 AAXX 29154 67580 NIL=
201310291200 AAXX 29124 67580 NIL=
201310290900 AAXX 29094 67580 41778 40904 10323 20142 48/// 70500 84100
                   333 59011 84856=
201310290600 AAXX 29064 67580 31978 10904 10280 20156 48/// 70500 80001
                   333 10352 20/// 59015 81080
                   555 00/// 20000=
201310281800 AAXX 28184 67580 NIL=
201310281200 AAXX 28124 67580 41878 61503 10338 20143 48/// 86200
                   333 5//// 86857=
201310280900 AAXX 28094 67580 41778 51504 10320 20160 48/// 70510 85100
                   333 5//// 85856=
201310280600 AAXX 28064 67580 31978 11505 10267 20157 48/// 70500 81030
                   333 10369 20/// 58011 81360
                   555 00/// 20000=
201310280300 AAXX 28034 67580 NIL=
201310272100 AAXX 27214 67580 NIL=
201310271800 AAXX 27184 67580 NIL=
201310271500 AAXX 27154 67580 NIL=
201310271200 AAXX 27120 67580 NIL=
201310270900 AAXX 27094 67580 NIL=
201310270600 AAXX 27060 67580 NIL=
201310270300 AAXX 27034 67580 NIL=
201310270000 AAXX 27004 67580 NIL=
201310262100 AAXX 26214 67580 NIL=
201310261500 AAXX 26154 67580 NIL=
201310261200 AAXX 26120 67580 NIL=
201310260900 AAXX 26094 67580 NIL=
201310260600 AAXX 26060 67580 NIL=
201310260300 AAXX 26034 67580 NIL=
201310260000 AAXX 26004 67580 NIL=
201310252100 AAXX 25214 67580 NIL=
201310251800 AAXX 25184 67580 NIL=
201310251200 AAXX 25124 67580 41878 51203 10315 20155 48/// 85200
                   333 5//// 85857=
201310250900 AAXX 25094 67580 NIL=
201310250600 AAXX 25064 67580 31578 61804 10233 20162 48/// 70521 86200
                   333 10321 20/// 59003 86825
                   555 00/// 20000=
201310250000 AAXX 25004 67580 NIL=
201310242100 AAXX 24214 67580 NIL=
201310241800 AAXX 24184 67580 NIL=
201310241500 AAXX 24154 67580 NIL=
201310241200 AAXX 24120 67580 NIL=
201310240600 AAXX 24060 67580 NIL=
201310232100 AAXX 23214 67580 NIL=
201310231800 AAXX 23184 67580 NIL=
201310231500 AAXX 23154 67580 NIL=
201310231200 AAXX 23121 67580 NIL=
201310230900 AAXX 23094 67580 NIL=
201310230600 AAXX 23064 67580 31978 50604 10286 20156 48/// 70521 80008
                   333 10388 20//0 58035 85280
                   555 00/// 20000=
201310230300 AAXX 23034 67580 NIL=
201310230000 AAXX 23004 67580 NIL=
201310221800 AAXX 22184 67580 NIL=
201310221500 AAXX 22150 67580 NIL=
201310221200 AAXX 22124 67580 41878 60302 10377 20083 48/// 70510 86100
                   333 59007 86857=
201310220900 AAXX 22094 67580 NIL=
201310220600 AAXX 22064 67580 31978 01204 10299 20116 48///
                   333 10367 20/// 59010
                   555 00/// 20000=
201310220300 AAXX 22034 67580 NIL=
201310220000 AAXX 22004 67580 NIL=
201310212100 AAXX 21214 67580 NIL=
201310211800 AAXX 21184 67580 NIL=
201310211500 AAXX 21154 67580 NIL=
201310211200 AAXX 21124 67580 41878 31204 10352 20102 48/// 70500 83100
                   333 5//// 83857=
201310210900 AAXX 21094 67580 NIL=
201310210600 AAXX 21064 67580 31978 10905 10282 20125 48/// 70500 80001
                   333 10355 20//0 59023 81080
                   555 00/// 20000=
201310210300 AAXX 21034 67580 NIL=
201310210000 AAXX 21004 67580 NIL=
201310201800 AAXX 20184 67580 NIL=
201310201500 AAXX 20154 67580 NIL=
201310201200 AAXX 20124 67580 NIL=
201310200600 AAXX 20064 67580 NIL=
201310191800 AAXX 19184 67580 NIL=
201310190900 AAXX 19094 67580 NIL=
201310190600 AAXX 19061 67580 NIL=
201310181500 AAXX 18150 67580 NIL=
201310181200 AAXX 18121 67580 NIL=
201310180900 AAXX 18094 67580 41778 50000 10307 20131 48/// 70510 85100
                   333 59012 85850=
201310180600 AAXX 18064 67580 31978 41004 10272 20123 48/// 70500 84030
                   333 10338 20//0 59001 84361
                   555 00/// 20000=
201310180300 AAXX 18034 67580 NIL=
201310180000 AAXX 18004 67580 NIL=
201310171800 AAXX 17184 67580 NIL=
201310171500 AAXX 17154 67580 NIL=
201310171200 AAXX 17124 67580 NIL=
201310170900 AAXX 17094 67580 41678 70000 10298 20147 48/// 70521 872//
                   333 59026 87845=
201310170600 AAXX 17064 67580 31978 01204 10262 20155 48/// 70500
                   333 10321 20/// 59034
                   555 00/// 20000=
201310161200 AAXX 16124 67580 41778 61204 10311 20151 48/// 70521 86200
                   333 59010 81956 85857=
201310160900 AAXX 16094 67580 41778 71205 10270 20169 48/// 70521 872//
                   333 59006 87850=
201310160600 AAXX 16064 67580 31578 31204 10227 20173 48/// 70500 83130
                   333 10335 20/// 59002 83825 81360
                   555 00/// 20000=
201310151200 AAXX 15121 67580 NIL=
201310150900 AAXX 15094 67580 41678 71206 10288 20144 48/// 70521 872//
                   333 58045 87848=
201310150600 AAXX 15064 67580 31578 41209 10237 20164 48/// 70500 84500
                   333 10370 20/// 58047 84625
                   555 00/// 20000=
201310141200 AAXX 14124 67580 42780 71206 10348 20132 48/// 86233
                   333 5//// 81956 86857 81362 81080=
201310140900 AAXX 14094 67580 42680 40903 10344 20147 48/// 84130
                   333 5//// 84845 81362=
201310140600 AAXX 14061 67580 32980 11505 10296 20150 48/// 81030
                   333 10372 20//0 58006 81361
                   555 00/// 20000=
201310131200 AAXX 13120 67580 NIL=
201310130900 AAXX 13090 67580 NIL=
201310130600 AAXX 13060 67580 NIL=
201310122100 AAXX 12214 67580 NIL=
201310121500 AAXX 12154 67580 NIL=
201310121200 AAXX 12121 67580 NIL=
201310120900 AAXX 12094 67580 NIL=
201310120600 AAXX 12061 67580 NIL=
201310120300 AAXX 12034 67580 NIL=
201310112100 AAXX 11214 67580 NIL=
201310111800 AAXX 11184 67580 NIL=
201310111500 AAXX 11154 67580 NIL=
201310111200 AAXX 11124 67580 NIL=
201310110900 AAXX 11094 67580 42780 61204 10313 20116 48/// 82108
                   333 5//// 82850 85280=
201310110600 AAXX 11064 67580 32980 20905 10272 20128 48/// 80002
                   333 10332 20/// 58005 82080
                   555 00/// 20001=
201310110300 AAXX 11034 67580 NIL=
201310101800 AAXX 10184 67580 NIL=
201310101500 AAXX 10154 67580 NIL=
201310101200 AAXX 10124 67580 42780 70904 10326 20101 48/// 85208
                   333 5//// 85856 86280=
201310100900 AAXX 10094 67580 42680 40904 10300 20104 48/// 84200
                   333 5//// 84848=
201310100600 AAXX 10064 67580 12980 11804 10255 20150 48/// 60014 80001
                   333 10323 20/// 59003 81080
                   555 00/// 20002=
201310100300 AAXX 10034 67580 NIL=
201310100000 AAXX 10004 67580 NIL=
201310091800 AAXX 09184 67580 NIL=
201310091500 AAXX 09154 67580 NIL=
201310091200 AAXX 09124 67580 42780 51204 10307 20115 48/// 84202
                   333 5//// 84856 82080=
201310090900 AAXX 09094 67580 42680 41206 10282 20133 48/// 82202
                   333 5//// 82845 83080=
201310090600 AAXX 09064 67580 12980 10903 10232 20149 48/// 60024 80001
                   333 10322 20/// 59009 81080
                   555 00/// 20000=
201310081200 AAXX 08124 67580 41780 71504 10312 20129 48/// 71721 86233
                   333 5//// 81950 86856 81360 81080=
201310080900 AAXX 08094 67580 42680 41506 10293 20142 48/// 84130
                   333 5//// 84845 81362=
201310080600 AAXX 08061 67580 32580 11805 10232 20157 48/// 81130
                   333 10331 20//0 58015 81820 81360
                   555 00/// 20000=
201310071200 AAXX 07124 67580 42780 61204 10314 20130 48/// 86203
                   333 5//// 81950 86856 81080=
201310070900 AAXX 07094 67580 42680 61204 10314 20142 48/// 86100
                   333 5//// 86845=
201310070600 AAXX 07064 67580 32980 01206 10274 20145 48///
                   333 10345 20/// 59002
                   555 00/// 20000=
201310061200 AAXX 06121 67580 NIL=
201310060600 AAXX 06060 67580 NIL=
201310060000 AAXX 06004 67580 NIL=
201310051800 AAXX 05184 67580 NIL=
201310051500 AAXX 05154 67580 NIL=
201310051200 AAXX 05121 67580 NIL=
201310050900 AAXX 05094 67580 NIL=
201310050600 AAXX 05060 67580 NIL=
201310050300 AAXX 05034 67580 NIL=
201310041800 AAXX 04184 67580 NIL=
201310041500 AAXX 04154 67580 NIL=
201310041200 AAXX 04120 67580 NIL=
201310040900 AAXX 04094 67580 NIL=
201310040600 AAXX 04064 67580 32482 11204 10240 20132 48/// 81100
                   333 10302 20/// 58004 81818
                   555 00/// 20000=
201310040300 AAXX 04034 67580 NIL=
201310040000 AAXX 04004 67580 NIL=
201310032100 AAXX 03214 67580 NIL=
201310031800 AAXX 03184 67580 NIL=
201310031500 AAXX 03154 67580 NIL=
201310031200 AAXX 03124 67580 42782 10000 10288 20074 48/// 81100
                   333 59031 81856=
201310030900 AAXX 03094 67580 42682 10000 10255 20065 48/// 81100
                   333 59032 81840=
201310030600 AAXX 03064 67580 32982 01204 10213 20089 48///
                   333 10249 20//0 59023
                   555 00/// 20990=
201310030300 AAXX 03034 67580 NIL=
201310030000 AAXX 03004 67580 NIL=
201310021800 AAXX 02184 67580 NIL=
201310021200 AAXX 02121 67580 NIL=
201310020900 AAXX 02094 67580 42680 71605 10199 20125 48/// 875//
                   333 59005 87630=
201310020600 AAXX 02064 67580 12480 71205 10179 20120 48/// 69904 875//
                   333 10/// 20/// 58002 87618
                   555 00/// 20990=
201310011800 AAXX 01184 67580 NIL=
201310011500 AAXX 01154 67580 NIL=
201310011200 AAXX 01124 67580 41680 82008 10169 20134 48/// 72052 885//
                   333 58038 88630=
201310010900 AAXX 01094 67580 41680 81808 10175 20135 48/// 75022 885//
                   333 58025 88630=
201310010600 AAXX 01064 67580 NIL=

################################################################################
#  SYNOPS from 67581, Chipata (Zambia) | 13-33S | 032-35E | 1028 m
################################################################################
201310310600 AAXX 31064 67581 31960 70607 10290 20134 48/// 70520 80008
                   333 10//0 20242 5//// 87280
                   555 00226=
201310310000 AAXX 31004 67581 NIL=
201310301800 AAXX 30184 67581 NIL=
201310301500 AAXX 30154 67581 NIL=
201310301200 AAXX 30124 67581 NIL=
201310300900 AAXX 30094 67581 NIL=
201310300600 AAXX 30064 67581 32980 01809 10279 20152 48538 70200
                   333 10/// 20236 59004
                   555 00222 91018=
201310300300 AAXX 30034 67581 NIL=
201310292100 AAXX 29214 67581 NIL=
201310291800 AAXX 29184 67581 NIL=
201310291500 AAXX 29154 67581 NIL=
201310291200 AAXX 29124 67581 41770 40905 10331 20166 48513 70510 84200
                   333 59009 84856 91014=
201310290900 AAXX 29094 67581 41760 20806 10317 20163 48533 70500 82100
                   333 59015 82856 91017=
201310290600 AAXX 29061 67581 NIL=
201310281800 AAXX 28184 67581 NIL=
201310281200 AAXX 28124 67581 NIL=
201310280900 AAXX 28090 67581 NIL=
201310280600 AAXX 28064 67581 31660 21205 10277 20153 48555 70500 81108
                   333 10/// 20221 58013 81838 82280
                   555 00210 91020=
201310280300 AAXX 28034 67581 NIL=
201310272100 AAXX 27214 67581 NIL=
201310271800 AAXX 27184 67581 NIL=
201310271500 AAXX 27154 67581 NIL=
201310271200 AAXX 27120 67581 NIL=
201310270900 AAXX 27094 67581 NIL=
201310270600 AAXX 27060 67581 NIL=
201310270300 AAXX 27034 67581 NIL=
201310270000 AAXX 27004 67581 NIL=
201310262100 AAXX 26214 67581 NIL=
201310261500 AAXX 26154 67581 NIL=
201310261200 AAXX 26120 67581 NIL=
201310260900 AAXX 26094 67581 NIL=
201310260600 AAXX 26060 67581 NIL=
201310260300 AAXX 26034 67581 NIL=
201310260000 AAXX 26004 67581 NIL=
201310252100 AAXX 25214 67581 NIL=
201310251800 AAXX 25184 67581 NIL=
201310251200 AAXX 25124 67581 41670 60905 10310 20169 48526 70522 86200
                   333 59021 81945 86850=
201310250900 AAXX 25094 67581 NIL=
201310250600 AAXX 25064 67581 32580 31406 10242 20168 48562 83500
                   333 10/// 20189 59003 83625
                   555 00132 91022=
201310250000 AAXX 25004 67581 NIL=
201310242100 AAXX 24214 67581 NIL=
201310241800 AAXX 24184 67581 NIL=
201310241500 AAXX 24154 67581 NIL=
201310241200 AAXX 24120 67581 NIL=
201310240600 AAXX 24060 67581 NIL=
201310232100 AAXX 23214 67581 NIL=
201310231800 AAXX 23184 67581 NIL=
201310231500 AAXX 23154 67581 NIL=
201310231200 AAXX 23121 67581 NIL=
201310230900 AAXX 23094 67581 NIL=
201310230600 AAXX 23064 67581 32980 00903 10282 20163 48556
                   333 10/// 20249 58028
                   555 00230 91019=
201310230300 AAXX 23034 67581 NIL=
201310230000 AAXX 23004 67581 NIL=
201310221800 AAXX 22184 67581 NIL=
201310221500 AAXX 22150 67581 NIL=
201310221200 AAXX 22124 67581 41660 40803 10367 20111 48493 70521 84200
                   333 59006 84850 91011=
201310220900 AAXX 22094 67581 41960 00803 10341 20139 48519 70500
                   333 59007 91015=
201310220600 AAXX 22064 67581 41960 00606 10283 20141 48519 70500
                   333 10/// 20241 59009
                   555 00223 91016=
201310220300 AAXX 22034 67581 NIL=
201310220000 AAXX 22004 67581 NIL=
201310212100 AAXX 21214 67581 NIL=
201310211800 AAXX 21184 67581 NIL=
201310211500 AAXX 21154 67581 NIL=
201310211200 AAXX 21124 67581 41660 20903 10353 20126 48497 70500 82100
                   333 59022 82845 91012=
201310210900 AAXX 21094 67581 NIL=
201310210600 AAXX 21064 67581 32980 00607 10268 20162 48524
                   333 10/// 20238 59022
                   555 00220 91017=
201310210300 AAXX 21034 67581 NIL=
201310210000 AAXX 21004 67581 NIL=
201310201800 AAXX 20184 67581 NIL=
201310201500 AAXX 20154 67581 NIL=
201310201200 AAXX 20124 67581 NIL=
201310200600 AAXX 20064 67581 NIL=
201310191800 AAXX 19184 67581 NIL=
201310190900 AAXX 19094 67581 NIL=
201310190600 AAXX 19061 67581 NIL=
201310181500 AAXX 18150 67581 NIL=
201310181200 AAXX 18124 67581 41660 41803 10332 20128 48516 70522 84200
                   333 59019 84840 91015=
201310180900 AAXX 18094 67581 41660 20903 10317 20134 48547 70500 83100
                   333 59012 83840 91018=
201310180600 AAXX 18064 67581 31660 10905 10273 20133 48556 70500 81100
                   333 10329 20197 59001 81835
                   555 00164 91020=
201310180300 AAXX 18034 67581 NIL=
201310180000 AAXX 18004 67581 NIL=
201310171800 AAXX 17184 67581 NIL=
201310171500 AAXX 17154 67581 NIL=
201310171200 AAXX 17124 67581 NIL=
201310170900 AAXX 17094 67581 42680 60806 10301 20164 48557 86200
                   333 59026 86840 91019=
201310170600 AAXX 17064 67581 32980 01404 10252 20154 48553
                   333 10317 20180 59031
                   555 00164 91020=
201310161200 AAXX 16124 67581 NIL=
201310160900 AAXX 16094 67581 NIL=
201310160600 AAXX 16064 67581 31560 51510 10222 20179 48577 70522 85800
                   333 10327 20196 59001 82825 83628
                   555 00186 91024=
201310151200 AAXX 15124 67581 41660 60906 10307 20167 48563 70500 86200
                   333 58044 86840 91020=
201310150900 AAXX 15094 67581 41660 61003 10276 20162 48582 70522 86200
                   333 58047 86838 91023=
201310150600 AAXX 15064 67581 31660 21408 10246 20173 48582 70500 82100
                   333 10363 20207 58042 82835
                   555 00196 91024=
201310141200 AAXX 14124 67581 42780 30907 10345 20144 48536 83230
                   333 58012 83850 81364 91016=
201310140900 AAXX 14094 67581 NIL=
201310140600 AAXX 14064 67581 32980 10806 10277 20159 48549 81030
                   333 10356 20246 58006 81362
                   555 00223 QNH 1019.4=
201310131200 AAXX 13120 67581 NIL=
201310130900 AAXX 13090 67581 NIL=
201310130600 AAXX 13060 67581 NIL=
201310122100 AAXX 12214 67581 NIL=
201310121500 AAXX 12154 67581 NIL=
201310121200 AAXX 12121 67581 NIL=
201310120900 AAXX 12094 67581 NIL=
201310120600 AAXX 12061 67581 NIL=
201310120300 AAXX 12034 67581 NIL=
201310112100 AAXX 11214 67581 NIL=
201310111800 AAXX 11184 67581 NIL=
201310111500 AAXX 11154 67581 NIL=
201310111200 AAXX 11124 67581 NIL=
201310110900 AAXX 11094 67581 41660 20605 10312 20137 48564 70500
                   333 58003 81840 82080 91020=
201310110600 AAXX 11064 67581 31960 10706 10266 20188 48565 70500 80002
                   333 10325 20200 58006 81080
                   555 00165 Q1022=
201310110300 AAXX 11034 67581 NIL=
201310101800 AAXX 10184 67581 NIL=
201310101500 AAXX 10154 67581 NIL=
201310101200 AAXX 10124 67581 NIL=
201310100900 AAXX 10094 67581 NIL=
201310100600 AAXX 10064 67581 12980 21812 10261 20137 48559 69904 70200 80002
                   333 10312 20186 59004 82080
                   555 00170 91021=
201310100300 AAXX 10034 67581 NIL=
201310100000 AAXX 10004 67581 NIL=
201310091800 AAXX 09184 67581 NIL=
201310091500 AAXX 09154 67581 NIL=
201310091200 AAXX 09124 67581 41660 51004 10299 20132 48531 70522 85202
                   333 59011 85840 82080 91017=
201310090900 AAXX 09094 67581 41660 20906 10290 20132 48564 70500 82102
                   333 59012 82840 82080 91020=
201310090600 AAXX 09064 67581 11660 21003 10245 20150 48560 69954 81102
                   333 10312 20188 59007 81835 82080
                   555 00168 Q1021=
201310081200 AAXX 08121 67581 NIL=
201310080900 AAXX 08090 67581 NIL=
201310080600 AAXX 08064 67581 32980 00908 10242 20150 48567 70200
                   333 10323 20190 58017
                   555 00174 91022=
201310071200 AAXX 07124 67581 NIL=
201310070900 AAXX 07094 67581 NIL=
201310070600 AAXX 07064 67581 31960 00909 10271 20142 48554 70500
                   333 10332 20225 59006
                   555 00198 91020=
201310061200 AAXX 06121 67581 NIL=
201310060600 AAXX 06060 67581 NIL=
201310060000 AAXX 06004 67581 NIL=
201310051800 AAXX 05184 67581 NIL=
201310051500 AAXX 05154 67581 NIL=
201310051200 AAXX 05121 67581 NIL=
201310050900 AAXX 05094 67581 NIL=
201310050600 AAXX 05060 67581 NIL=
201310050300 AAXX 05034 67581 NIL=
201310041800 AAXX 04184 67581 NIL=
201310041500 AAXX 04154 67581 NIL=
201310041200 AAXX 04120 67581 NIL=
201310040900 AAXX 04094 67581 NIL=
201310040600 AAXX 04064 67581 32680 20406 10232 20136 48567 70200 82100
                   333 10297 20160 58004 82830
                   555 00130 91022=
201310040300 AAXX 04034 67581 NIL=
201310040000 AAXX 04004 67581 NIL=
201310032100 AAXX 03214 67581 NIL=
201310031800 AAXX 03184 67581 NIL=
201310031500 AAXX 03154 67581 NIL=
201310031200 AAXX 03124 67581 42680 32703 10284 20090 48538 83100
                   333 59030 83838 91017=
201310030900 AAXX 03094 67581 42680 12002 10259 20079 48552 81100
                   333 59030 81835 91020=
201310030600 AAXX 03064 67581 32980 01604 10211 20104 48559
                   333 10252 20122 5////
                   555 00091 Q1022=
201310030300 AAXX 03034 67581 NIL=
201310030000 AAXX 03004 67581 NIL=
201310021800 AAXX 02184 67581 NIL=
201310021200 AAXX 02124 67581 42680 41809 10248 20120 48551 70221 82130
                   333 59017 82835 82360 91020=
201310020900 AAXX 02094 67581 NIL=
201310020600 AAXX 02060 67581 NIL=
201310011800 AAXX 01184 67581 NIL=
201310011500 AAXX 01154 67581 NIL=
201310011200 AAXX 01124 67581 42580 71515 10183 20133 48555 70222 8787/
                   333 58033 82820 85622 87460 91022=
201310010900 AAXX 01094 67581 41580 71612 10181 20142 48572 75022 8687/
                   333 58023 82820 84622 87460 91024=
201310010600 AAXX 01064 67581 12580 81605 10180 20146 48571 60014 8687/
                   333 10306 20177 58016 82820 84622 88460
                   555 00164=

################################################################################
#  SYNOPS from 67583, Lundazi (Zambia) | 12-17S | 033-12E | 1143 m
################################################################################
201310310600 AAXX 31064 67583 31975 51001 10272 20122 70521 80008
                   333 10350 20170 5//// 85280
                   555 00///=
201310310000 AAXX 31004 67583 NIL=
201310301800 AAXX 30184 67583 NIL=
201310301500 AAXX 30154 67583 NIL=
201310301200 AAXX 30124 67583 NIL=
201310300900 AAXX 30094 67583 NIL=
201310300600 AAXX 30061 67583 NIL=
201310300300 AAXX 30034 67583 NIL=
201310292100 AAXX 29214 67583 NIL=
201310291800 AAXX 29184 67583 NIL=
201310291500 AAXX 29154 67583 NIL=
201310291200 AAXX 29124 67583 NIL=
201310290900 AAXX 29094 67583 NIL=
201310290600 AAXX 29064 67583 31975 11305 10270 20162 70500 81030
                   333 10365 20170 5//// 81360
                   555 00///=
201310281800 AAXX 28184 67583 NIL=
201310281200 AAXX 28124 67583 NIL=
201310280900 AAXX 28090 67583 NIL=
201310280600 AAXX 28061 67583 NIL=
201310280300 AAXX 28034 67583 NIL=
201310272100 AAXX 27214 67583 NIL=
201310271800 AAXX 27184 67583 NIL=
201310271500 AAXX 27154 67583 NIL=
201310271200 AAXX 27120 67583 NIL=
201310270900 AAXX 27094 67583 NIL=
201310270600 AAXX 27060 67583 NIL=
201310270300 AAXX 27034 67583 NIL=
201310270000 AAXX 27004 67583 NIL=
201310262100 AAXX 26214 67583 NIL=
201310261500 AAXX 26154 67583 NIL=
201310261200 AAXX 26120 67583 NIL=
201310260900 AAXX 26094 67583 NIL=
201310260600 AAXX 26060 67583 NIL=
201310260300 AAXX 26034 67583 NIL=
201310260000 AAXX 26004 67583 NIL=
201310252100 AAXX 25214 67583 NIL=
201310251800 AAXX 25184 67583 NIL=
201310251200 AAXX 25124 67583 NIL=
201310250900 AAXX 25094 67583 NIL=
201310250600 AAXX 25064 67583 31575 40904 10240 20163 70500 84501
                   333 10318 20190 5//// 84625 81080
                   555 00/// 20000=
201310250000 AAXX 25004 67583 NIL=
201310242100 AAXX 24214 67583 NIL=
201310241800 AAXX 24184 67583 NIL=
201310241500 AAXX 24154 67583 NIL=
201310241200 AAXX 24120 67583 NIL=
201310240600 AAXX 24060 67583 NIL=
201310232100 AAXX 23214 67583 NIL=
201310231800 AAXX 23184 67583 NIL=
201310231500 AAXX 23154 67583 NIL=
201310231200 AAXX 23121 67583 NIL=
201310230900 AAXX 23094 67583 41675 60901 10345 20134 70522 81107
                   333 5//// 81835 86280=
201310230600 AAXX 23064 67583 31975 73601 10275 20131 70500 80007
                   333 10395 20190 5//// 87280
                   555 00/// 20000=
201310230300 AAXX 23034 67583 NIL=
201310230000 AAXX 23004 67583 NIL=
201310221800 AAXX 22184 67583 NIL=
201310221500 AAXX 22150 67583 NIL=
201310221200 AAXX 22124 67583 41675 50602 10380 20090 70522 85100
                   333 5//// 85840=
201310220900 AAXX 22094 67583 41675 11203 10350 20119 70500 81100
                   333 5//// 81835=
201310220600 AAXX 22064 67583 NIL=
201310220300 AAXX 22034 67583 NIL=
201310220000 AAXX 22004 67583 NIL=
201310212100 AAXX 21214 67583 NIL=
201310211800 AAXX 21184 67583 NIL=
201310211500 AAXX 21154 67583 NIL=
201310211200 AAXX 21124 67583 NIL=
201310210900 AAXX 21094 67583 NIL=
201310210600 AAXX 21064 67583 NIL=
201310210300 AAXX 21034 67583 NIL=
201310210000 AAXX 21004 67583 NIL=
201310201800 AAXX 20184 67583 NIL=
201310201500 AAXX 20154 67583 NIL=
201310201200 AAXX 20124 67583 NIL=
201310200600 AAXX 20064 67583 NIL=
201310191800 AAXX 19184 67583 NIL=
201310190900 AAXX 19094 67583 NIL=
201310190600 AAXX 19061 67583 NIL=
201310181500 AAXX 18150 67583 NIL=
201310181200 AAXX 18121 67583 NIL=
201310180900 AAXX 18094 67583 NIL=
201310180600 AAXX 18064 67583 31975 01203 10270 20150 70500
                   333 10330 20150 5////
                   555 00/// 20000=
201310180300 AAXX 18034 67583 NIL=
201310180000 AAXX 18004 67583 NIL=
201310171800 AAXX 17184 67583 NIL=
201310171500 AAXX 17154 67583 NIL=
201310171200 AAXX 17124 67583 NIL=
201310170900 AAXX 17094 67583 NIL=
201310170600 AAXX 17060 67583 NIL=
201310161200 AAXX 16124 67583 NIL=
201310160900 AAXX 16094 67583 NIL=
201310151200 AAXX 15124 67583 NIL=
201310150900 AAXX 15094 67583 NIL=
201310150600 AAXX 15061 67583 NIL=
201310141200 AAXX 14124 67583 NIL=
201310140900 AAXX 14094 67583 NIL=
201310140600 AAXX 14064 67583 31975 11203 10295 20136 70500 81030
                   333 10340 20160 5//// 81360
                   555 00/// 20000=
201310131200 AAXX 13120 67583 NIL=
201310130900 AAXX 13090 67583 NIL=
201310130600 AAXX 13060 67583 NIL=
201310122100 AAXX 12214 67583 NIL=
201310121500 AAXX 12154 67583 NIL=
201310121200 AAXX 12121 67583 NIL=
201310120900 AAXX 12094 67583 NIL=
201310120600 AAXX 12061 67583 NIL=
201310120300 AAXX 12034 67583 NIL=
201310112100 AAXX 11214 67583 NIL=
201310111800 AAXX 11184 67583 NIL=
201310111500 AAXX 11154 67583 NIL=
201310111200 AAXX 11124 67583 NIL=
201310110900 AAXX 11094 67583 NIL=
201310110600 AAXX 11064 67583 31975 11205 10250 20141 70500 80001
                   333 10320 20150 5//// 81080
                   555 00/// 20000=
201310110300 AAXX 11034 67583 NIL=
201310101800 AAXX 10184 67583 NIL=
201310101500 AAXX 10154 67583 NIL=
201310101200 AAXX 10124 67583 NIL=
201310100900 AAXX 10094 67583 NIL=
201310100600 AAXX 10064 67583 31975 01504 10245 20151 70500
                   333 10312 20160 5////
                   555 00///=
201310100300 AAXX 10034 67583 NIL=
201310100000 AAXX 10004 67583 NIL=
201310091800 AAXX 09184 67583 NIL=
201310091500 AAXX 09154 67583 NIL=
201310091200 AAXX 09124 67583 NIL=
201310090900 AAXX 09094 67583 42980 44102 10175 20140 80002
                   333 5//// 84080=
201310090600 AAXX 09064 67583 31975 41204 10250 20116 70500
                   333 10310 20175 5//// 84080
                   555 00///=
201310081200 AAXX 08121 67583 NIL=
201310080900 AAXX 08090 67583 NIL=
201310080600 AAXX 08064 67583 31975 00804 10250 20126 70500
                   333 10325 20165 5////
                   555 00///=
201310071200 AAXX 07124 67583 NIL=
201310070900 AAXX 07094 67583 NIL=
201310070600 AAXX 07060 67583 NIL=
201310061200 AAXX 06121 67583 NIL=
201310060600 AAXX 06060 67583 NIL=
201310060000 AAXX 06004 67583 NIL=
201310051800 AAXX 05184 67583 NIL=
201310051500 AAXX 05154 67583 NIL=
201310051200 AAXX 05121 67583 NIL=
201310050900 AAXX 05094 67583 NIL=
201310050600 AAXX 05060 67583 NIL=
201310050300 AAXX 05034 67583 NIL=
201310041800 AAXX 04184 67583 NIL=
201310041500 AAXX 04154 67583 NIL=
201310041200 AAXX 04120 67583 NIL=
201310040900 AAXX 04094 67583 NIL=
201310040600 AAXX 04064 67583 31578 11205 10230 20150 70500 81530
                   333 10290 20149 5//// 81625 81360
                   555 00///=
201310040300 AAXX 04034 67583 NIL=
201310040000 AAXX 04004 67583 NIL=
201310032100 AAXX 03214 67583 NIL=
201310031800 AAXX 03184 67583 NIL=
201310031500 AAXX 03154 67583 NIL=
201310031200 AAXX 03121 67583 NIL=
201310030900 AAXX 03094 67583 NIL=
201310030600 AAXX 03064 67583 31978 31204 10200 20134 70500 81030
                   333 10235 20139 5//// 83360
                   555 00///=
201310030300 AAXX 03034 67583 NIL=
201310030000 AAXX 03004 67583 NIL=
201310021800 AAXX 02184 67583 NIL=
201310021200 AAXX 02121 67583 NIL=
201310020900 AAXX 02094 67583 NIL=
201310020600 AAXX 02064 67583 32980 71204 10180 20116 87030
                   333 10290 20096 5//// 87360
                   555 00///=
201310011800 AAXX 01184 67583 NIL=
201310011500 AAXX 01154 67583 NIL=
201310011200 AAXX 01124 67583 NIL=
201310010900 AAXX 01094 67583 NIL=
201310010600 AAXX 01064 67583 NIL=

################################################################################
#  SYNOPS from 67599, Mfuwe (Zambia) | 13-16S | 031-56E | 568 m
################################################################################
201310310600 AAXX 31064 67599 NIL=
201310310000 AAXX 31004 67599 NIL=
201310301800 AAXX 30184 67599 NIL=
201310301500 AAXX 30154 67599 NIL=
201310301200 AAXX 30124 67599 42880 50903 10386 20162 48529 70222 85200
                   333 59004 85857 91011=
201310300900 AAXX 30094 67599 NIL=
201310300600 AAXX 30064 67599 32980 60906 10303 20171 48558 80002
                   333 10395 20220 59004 86280
                   555 00210 91018=
201310300300 AAXX 30034 67599 NIL=
201310292100 AAXX 29214 67599 NIL=
201310291800 AAXX 29184 67599 NIL=
201310291500 AAXX 29154 67599 NIL=
201310291200 AAXX 29124 67599 NIL=
201310290900 AAXX 29094 67599 NIL=
201310290600 AAXX 29064 67599 31970 00908 10300 20184 48562 70500
                   333 10399 20227 59013
                   555 00217 91018=
201310281800 AAXX 28184 67599 NIL=
201310281200 AAXX 28124 67599 NIL=
201310280900 AAXX 28090 67599 NIL=
201310280600 AAXX 28064 67599 11970 10908 10302 20184 48574 60024 70500
                   333 10415 20219 58019 81080
                   555 00210 91019=
201310280300 AAXX 28034 67599 NIL=
201310272100 AAXX 27214 67599 NIL=
201310271800 AAXX 27184 67599 NIL=
201310271500 AAXX 27154 67599 NIL=
201310271200 AAXX 27120 67599 NIL=
201310270900 AAXX 27094 67599 NIL=
201310270600 AAXX 27060 67599 NIL=
201310270300 AAXX 27034 67599 NIL=
201310270000 AAXX 27004 67599 NIL=
201310262100 AAXX 26214 67599 NIL=
201310261500 AAXX 26154 67599 NIL=
201310261200 AAXX 26120 67599 NIL=
201310260900 AAXX 26094 67599 NIL=
201310260600 AAXX 26060 67599 NIL=
201310260300 AAXX 26034 67599 NIL=
201310260000 AAXX 26004 67599 NIL=
201310252100 AAXX 25214 67599 NIL=
201310251800 AAXX 25184 67599 NIL=
201310251200 AAXX 25124 67599 NIL=
201310250900 AAXX 25094 67599 NIL=
201310250600 AAXX 25064 67599 NIL=
201310250000 AAXX 25004 67599 NIL=
201310242100 AAXX 24214 67599 NIL=
201310241800 AAXX 24184 67599 NIL=
201310241500 AAXX 24154 67599 NIL=
201310241200 AAXX 24120 67599 NIL=
201310240600 AAXX 24060 67599 NIL=
201310232100 AAXX 23214 67599 NIL=
201310231800 AAXX 23184 67599 NIL=
201310231500 AAXX 23154 67599 NIL=
201310231200 AAXX 23121 67599 NIL=
201310230900 AAXX 23094 67599 NIL=
201310230600 AAXX 23064 67599 NIL=
201310230300 AAXX 23034 67599 NIL=
201310230000 AAXX 23004 67599 NIL=
201310221800 AAXX 22184 67599 NIL=
201310221500 AAXX 22150 67599 NIL=
201310221200 AAXX 22121 67599 NIL=
201310220900 AAXX 22094 67599 NIL=
201310220600 AAXX 22064 67599 NIL=
201310220300 AAXX 22034 67599 NIL=
201310220000 AAXX 22004 67599 NIL=
201310212100 AAXX 21214 67599 NIL=
201310211800 AAXX 21184 67599 NIL=
201310211500 AAXX 21154 67599 NIL=
201310211200 AAXX 21124 67599 42880 33607 10395 20163 48520 70200 83200
                   333 59015 83857 91010=
201310210900 AAXX 21094 67599 NIL=
201310210600 AAXX 21064 67599 32970 10708 10310 20166 48550 80001
                   333 10405 20205 59019 81075
                   555 00193 91016=
201310210300 AAXX 21034 67599 NIL=
201310210000 AAXX 21004 67599 NIL=
201310201800 AAXX 20184 67599 NIL=
201310201500 AAXX 20154 67599 NIL=
201310201200 AAXX 20124 67599 NIL=
201310200600 AAXX 20064 67599 NIL=
201310191800 AAXX 19184 67599 NIL=
201310190900 AAXX 19094 67599 NIL=
201310190600 AAXX 19061 67599 NIL=
201310181500 AAXX 18150 67599 NIL=
201310181200 AAXX 18121 67599 NIL=
201310180900 AAXX 18094 67599 NIL=
201310180600 AAXX 18064 67599 32980 10906 10290 20150 48574 81030
                   333 10388 20205 59005 81361
                   555 00194 91020=
201310180300 AAXX 18034 67599 NIL=
201310180000 AAXX 18004 67599 NIL=
201310171800 AAXX 17184 67599 NIL=
201310171500 AAXX 17154 67599 NIL=
201310171200 AAXX 17124 67599 NIL=
201310170900 AAXX 17094 67599 NIL=
201310170600 AAXX 17064 67599 32980 10905 10272 20179 48572 81030
                   333 10365 20190 59036 81360
                   555 00180 91020=
201310161200 AAXX 16124 67599 NIL=
201310160900 AAXX 16094 67599 NIL=
201310160600 AAXX 16064 67599 32680 71905 10250 20186 48612 70222 878//
                   333 10377 20212 58015 81820 87630
                   555 00205 91025=
201310151200 AAXX 15124 67599 NIL=
201310150900 AAXX 15094 67599 NIL=
201310150600 AAXX 15061 67599 NIL=
201310141200 AAXX 14124 67599 NIL=
201310140900 AAXX 14094 67599 NIL=
201310140600 AAXX 14064 67599 32980 20905 10302 20162 48566 70122
                   333 10410 20209 58004 82362
                   555 00210 Q1018.9=
201310131200 AAXX 13120 67599 NIL=
201310130900 AAXX 13094 67599 42980 10806 10355 20169 48560 81030
                   333 59010 81360 91016=
201310130600 AAXX 13064 67599 32980 20906 10297 20174 48562 82030
                   333 10395 20195 59012 82360
                   555 00205 91018=
201310122100 AAXX 12214 67599 NIL=
201310121500 AAXX 12154 67599 NIL=
201310121200 AAXX 12121 67599 NIL=
201310120900 AAXX 12094 67599 NIL=
201310120600 AAXX 12061 67599 NIL=
201310120300 AAXX 12034 67599 NIL=
201310112100 AAXX 11214 67599 NIL=
201310111800 AAXX 11184 67599 NIL=
201310111500 AAXX 11154 67599 42880 40908 10360 20126 48545 84102
                   333 58002 84858 85080
                   555 10384 91014=
201310111200 AAXX 11124 67599 NIL=
201310110900 AAXX 11094 67599 NIL=
201310110600 AAXX 11064 67599 32980 10000 10288 20154 48585 80001
                   333 10378 20193 58007 81080
                   555 00182 91021=
201310110300 AAXX 11034 67599 NIL=
201310101800 AAXX 10184 67599 NIL=
201310101500 AAXX 10154 67599 42980 60907 10355 20122 48540 70222 8603/
                   333 59007 86360 91014=
201310101200 AAXX 10124 67599 NIL=
201310100900 AAXX 10094 67599 42780 50707 10336 20164 48578 70322 85200
                   333 59003 85856 91019=
201310100600 AAXX 10064 67599 31980 40905 10275 20164 48572 69904 70300 84030
                   333 10365 20207 59007 84360
                   555 00206 20990 91020=
201310100300 AAXX 10034 67599 NIL=
201310100000 AAXX 10004 67599 NIL=
201310091800 AAXX 09184 67599 NIL=
201310091500 AAXX 09154 67599 42880 41906 10350 20130 48547 70122 83230
                   333 59014 83857 81359 91014=
201310091200 AAXX 09124 67599 NIL=
201310090900 AAXX 09094 67599 NIL=
201310090600 AAXX 09064 67599 12980 11807 10265 20159 48575 69904 81031
                   333 10365 20197 59011 81362 81080 91021=
201310081500 AAXX 08154 67599 42880 61705 10294 20167 48541 84230
                   333 58016 81956 83857 84360
                   555 10365 91016=
201310081200 AAXX 08121 67599 NIL=
201310080900 AAXX 08090 67599 NIL=
201310080600 AAXX 08064 67599 NIL=
201310071200 AAXX 07124 67599 NIL=
201310070900 AAXX 07094 67599 NIL=
201310070600 AAXX 07060 67599 NIL=
201310061200 AAXX 06121 67599 NIL=
201310060600 AAXX 06060 67599 NIL=
201310060000 AAXX 06004 67599 NIL=
201310051800 AAXX 05184 67599 NIL=
201310051500 AAXX 05154 67599 NIL=
201310051200 AAXX 05121 67599 NIL=
201310050900 AAXX 05094 67599 NIL=
201310050600 AAXX 05060 67599 NIL=
201310050300 AAXX 05034 67599 NIL=
201310041800 AAXX 04184 67599 NIL=
201310041500 AAXX 04154 67599 NIL=
201310041200 AAXX 04120 67599 NIL=
201310040900 AAXX 04094 67599 NIL=
201310040600 AAXX 04064 67599 NIL=
201310040300 AAXX 04034 67599 NIL=
201310040000 AAXX 04004 67599 NIL=
201310032100 AAXX 03214 67599 NIL=
201310031800 AAXX 03184 67599 NIL=
201310031500 AAXX 03154 67599 NIL=
201310031200 AAXX 03121 67599 NIL=
201310030900 AAXX 03094 67599 42780 10905 10286 20119 48573 70200
                   333 59051 81850 91020=
201310030600 AAXX 03064 67599 NIL=
201310030300 AAXX 03034 67599 NIL=
201310030000 AAXX 03004 67599 NIL=
201310021800 AAXX 02184 67599 NIL=
201310021200 AAXX 02121 67599 NIL=
201310020900 AAXX 02094 67599 NIL=
201310020600 AAXX 02060 67599 NIL=
201310011800 AAXX 01184 67599 NIL=
201310011500 AAXX 01154 67599 NIL=
201310011200 AAXX 01124 67599 NIL=
201310010900 AAXX 01094 67599 NIL=
201310010600 AAXX 01064 67599 NIL=

################################################################################
#  SYNOPS from 67625, Kalabo (Zambia) | 14-51S | 022-42E | 1033 m
################################################################################
201310310600 AAXX 31060 67625 NIL=
201310310000 AAXX 31004 67625 NIL=
201310301800 AAXX 30184 67625 NIL=
201310301500 AAXX 30154 67625 NIL=
201310301200 AAXX 30120 67625 NIL=
201310300900 AAXX 30094 67625 NIL=
201310300600 AAXX 30060 67625 NIL=
201310300300 AAXX 30034 67625 NIL=
201310292100 AAXX 29214 67625 NIL=
201310291800 AAXX 29184 67625 NIL=
201310291500 AAXX 29154 67625 NIL=
201310291200 AAXX 29124 67625 NIL=
201310290900 AAXX 29094 67625 NIL=
201310290600 AAXX 29060 67625 NIL=
201310281800 AAXX 28184 67625 NIL=
201310281200 AAXX 28120 67625 NIL=
201310280900 AAXX 28090 67625 NIL=
201310280600 AAXX 28060 67625 NIL=
201310280300 AAXX 28034 67625 NIL=
201310272100 AAXX 27214 67625 NIL=
201310271800 AAXX 27184 67625 NIL=
201310271500 AAXX 27154 67625 NIL=
201310271200 AAXX 27120 67625 NIL=
201310270900 AAXX 27094 67625 NIL=
201310270600 AAXX 27060 67625 NIL=
201310270300 AAXX 27034 67625 NIL=
201310270000 AAXX 27004 67625 NIL=
201310262100 AAXX 26214 67625 NIL=
201310261500 AAXX 26154 67625 NIL=
201310261200 AAXX 26120 67625 NIL=
201310260900 AAXX 26094 67625 NIL=
201310260600 AAXX 26060 67625 NIL=
201310260300 AAXX 26034 67625 NIL=
201310260000 AAXX 26004 67625 NIL=
201310252100 AAXX 25214 67625 NIL=
201310251800 AAXX 25184 67625 NIL=
201310251200 AAXX 25124 67625 NIL=
201310250900 AAXX 25094 67625 NIL=
201310250600 AAXX 25060 67625 NIL=
201310250000 AAXX 25004 67625 NIL=
201310242100 AAXX 24214 67625 NIL=
201310241800 AAXX 24184 67625 NIL=
201310241500 AAXX 24154 67625 NIL=
201310241200 AAXX 24120 67625 NIL=
201310240600 AAXX 24060 67625 NIL=
201310232100 AAXX 23214 67625 NIL=
201310231800 AAXX 23184 67625 NIL=
201310231500 AAXX 23154 67625 NIL=
201310231200 AAXX 23120 67625 NIL=
201310230900 AAXX 23090 67625 NIL=
201310230600 AAXX 23060 67625 NIL=
201310230300 AAXX 23034 67625 NIL=
201310230000 AAXX 23004 67625 NIL=
201310221800 AAXX 22184 67625 NIL=
201310221500 AAXX 22150 67625 NIL=
201310221200 AAXX 22120 67625 NIL=
201310220900 AAXX 22090 67625 NIL=
201310220600 AAXX 22064 67625 NIL=
201310220300 AAXX 22034 67625 NIL=
201310220000 AAXX 22004 67625 NIL=
201310212100 AAXX 21214 67625 NIL=
201310211800 AAXX 21184 67625 NIL=
201310211500 AAXX 21154 67625 NIL=
201310211200 AAXX 21120 67625 NIL=
201310210900 AAXX 21094 67625 NIL=
201310210600 AAXX 21064 67625 NIL=
201310210300 AAXX 21034 67625 NIL=
201310210000 AAXX 21004 67625 NIL=
201310201800 AAXX 20184 67625 NIL=
201310201500 AAXX 20154 67625 NIL=
201310201200 AAXX 20124 67625 NIL=
201310200600 AAXX 20064 67625 NIL=
201310191800 AAXX 19184 67625 NIL=
201310190900 AAXX 19094 67625 NIL=
201310190600 AAXX 19061 67625 NIL=
201310181500 AAXX 18150 67625 NIL=
201310181200 AAXX 18120 67625 NIL=
201310180900 AAXX 18094 67625 NIL=
201310180600 AAXX 18060 67625 NIL=
201310180300 AAXX 18034 67625 NIL=
201310180000 AAXX 18004 67625 NIL=
201310171800 AAXX 17184 67625 NIL=
201310171500 AAXX 17154 67625 NIL=
201310171200 AAXX 17124 67625 NIL=
201310170900 AAXX 17090 67625 NIL=
201310170600 AAXX 17060 67625 NIL=
201310161200 AAXX 16124 67625 NIL=
201310160900 AAXX 16090 67625 NIL=
201310151200 AAXX 15124 67625 NIL=
201310150900 AAXX 15094 67625 NIL=
201310150600 AAXX 15061 67625 NIL=
201310141200 AAXX 14124 67625 NIL=
201310140900 AAXX 14090 67625 NIL=
201310140600 AAXX 14060 67625 NIL=
201310131200 AAXX 13120 67625 NIL=
201310130900 AAXX 13090 67625 NIL=
201310130600 AAXX 13060 67625 NIL=
201310122100 AAXX 12214 67625 NIL=
201310121500 AAXX 12154 67625 NIL=
201310121200 AAXX 12120 67625 NIL=
201310120900 AAXX 12094 67625 NIL=
201310120600 AAXX 12060 67625 NIL=
201310120300 AAXX 12034 67625 NIL=
201310112100 AAXX 11214 67625 NIL=
201310111800 AAXX 11184 67625 NIL=
201310111500 AAXX 11154 67625 NIL=
201310111200 AAXX 11120 67625 NIL=
201310110900 AAXX 11090 67625 NIL=
201310110600 AAXX 11060 67625 NIL=
201310110300 AAXX 11034 67625 NIL=
201310101800 AAXX 10184 67625 NIL=
201310101500 AAXX 10154 67625 NIL=
201310101200 AAXX 10120 67625 NIL=
201310100900 AAXX 10094 67625 NIL=
201310100600 AAXX 10060 67625 NIL=
201310100300 AAXX 10034 67625 NIL=
201310100000 AAXX 10004 67625 NIL=
201310091800 AAXX 09184 67625 NIL=
201310091500 AAXX 09154 67625 NIL=
201310091200 AAXX 09120 67625 NIL=
201310090900 AAXX 09094 67625 NIL=
201310090600 AAXX 09060 67625 NIL=
201310081200 AAXX 08120 67625 NIL=
201310080900 AAXX 08090 67625 NIL=
201310080600 AAXX 08060 67625 NIL=
201310071200 AAXX 07120 67625 NIL=
201310070900 AAXX 07094 67625 NIL=
201310070600 AAXX 07060 67625 NIL=
201310061200 AAXX 06120 67625 NIL=
201310060600 AAXX 06060 67625 NIL=
201310060000 AAXX 06004 67625 NIL=
201310051800 AAXX 05184 67625 NIL=
201310051500 AAXX 05154 67625 NIL=
201310051200 AAXX 05120 67625 NIL=
201310050900 AAXX 05094 67625 NIL=
201310050600 AAXX 05060 67625 NIL=
201310050300 AAXX 05034 67625 NIL=
201310041800 AAXX 04184 67625 NIL=
201310041500 AAXX 04154 67625 NIL=
201310041200 AAXX 04120 67625 NIL=
201310040900 AAXX 04094 67625 NIL=
201310040600 AAXX 04060 67625 NIL=
201310040300 AAXX 04034 67625 NIL=
201310040000 AAXX 04004 67625 NIL=
201310032100 AAXX 03214 67625 NIL=
201310031800 AAXX 03184 67625 NIL=
201310031500 AAXX 03154 67625 NIL=
201310031200 AAXX 03120 67625 NIL=
201310030900 AAXX 03090 67625 NIL=
201310030600 AAXX 03060 67625 NIL=
201310030300 AAXX 03034 67625 NIL=
201310030000 AAXX 03004 67625 NIL=
201310021800 AAXX 02184 67625 NIL=
201310021200 AAXX 02120 67625 NIL=
201310020900 AAXX 02094 67625 NIL=
201310020600 AAXX 02060 67625 NIL=
201310011800 AAXX 01184 67625 NIL=
201310011500 AAXX 01154 67625 NIL=
201310011200 AAXX 01124 67625 NIL=
201310010900 AAXX 01094 67625 NIL=
201310010600 AAXX 01064 67625 NIL=

################################################################################
#  SYNOPS from 67633, Mongu (Zambia) | 15-15S | 023-09E | 1052 m
################################################################################
201310310600 AAXX 31060 67633 NIL=
201310310000 AAXX 31004 67633 NIL=
201310301800 AAXX 30184 67633 NIL=
201310301500 AAXX 30154 67633 NIL=
201310301200 AAXX 30120 67633 NIL=
201310300900 AAXX 30094 67633 NIL=
201310300600 AAXX 30060 67633 NIL=
201310300300 AAXX 30034 67633 NIL=
201310292100 AAXX 29214 67633 NIL=
201310291800 AAXX 29184 67633 NIL=
201310291500 AAXX 29154 67633 NIL=
201310291200 AAXX 29124 67633 NIL=
201310290900 AAXX 29094 67633 NIL=
201310290600 AAXX 29060 67633 NIL=
201310281800 AAXX 28184 67633 NIL=
201310281200 AAXX 28120 67633 NIL=
201310280900 AAXX 28090 67633 NIL=
201310280600 AAXX 28060 67633 NIL=
201310280300 AAXX 28034 67633 NIL=
201310272100 AAXX 27214 67633 NIL=
201310271800 AAXX 27184 67633 NIL=
201310271500 AAXX 27154 67633 NIL=
201310271200 AAXX 27120 67633 NIL=
201310270900 AAXX 27094 67633 NIL=
201310270600 AAXX 27060 67633 NIL=
201310270300 AAXX 27034 67633 NIL=
201310270000 AAXX 27004 67633 NIL=
201310262100 AAXX 26214 67633 NIL=
201310261500 AAXX 26154 67633 NIL=
201310261200 AAXX 26120 67633 NIL=
201310260900 AAXX 26094 67633 NIL=
201310260600 AAXX 26060 67633 NIL=
201310260300 AAXX 26034 67633 NIL=
201310260000 AAXX 26004 67633 NIL=
201310252100 AAXX 25214 67633 NIL=
201310251800 AAXX 25184 67633 NIL=
201310251200 AAXX 25124 67633 NIL=
201310250900 AAXX 25094 67633 NIL=
201310250600 AAXX 25060 67633 NIL=
201310250000 AAXX 25004 67633 NIL=
201310242100 AAXX 24214 67633 NIL=
201310241800 AAXX 24184 67633 NIL=
201310241500 AAXX 24154 67633 NIL=
201310241200 AAXX 24120 67633 NIL=
201310240600 AAXX 24060 67633 NIL=
201310232100 AAXX 23214 67633 NIL=
201310231800 AAXX 23184 67633 NIL=
201310231500 AAXX 23154 67633 NIL=
201310231200 AAXX 23120 67633 NIL=
201310230900 AAXX 23090 67633 NIL=
201310230600 AAXX 23060 67633 NIL=
201310230300 AAXX 23034 67633 NIL=
201310230000 AAXX 23004 67633 NIL=
201310221800 AAXX 22184 67633 NIL=
201310221500 AAXX 22150 67633 NIL=
201310221200 AAXX 22120 67633 NIL=
201310220900 AAXX 22090 67633 NIL=
201310220600 AAXX 22064 67633 NIL=
201310220300 AAXX 22034 67633 NIL=
201310220000 AAXX 22004 67633 NIL=
201310212100 AAXX 21214 67633 NIL=
201310211800 AAXX 21184 67633 NIL=
201310211500 AAXX 21154 67633 NIL=
201310211200 AAXX 21120 67633 NIL=
201310210900 AAXX 21094 67633 NIL=
201310210600 AAXX 21064 67633 NIL=
201310210300 AAXX 21034 67633 NIL=
201310210000 AAXX 21004 67633 NIL=
201310201800 AAXX 20184 67633 NIL=
201310201500 AAXX 20154 67633 NIL=
201310201200 AAXX 20124 67633 NIL=
201310200600 AAXX 20064 67633 NIL=
201310191800 AAXX 19184 67633 NIL=
201310190900 AAXX 19094 67633 NIL=
201310190600 AAXX 19061 67633 NIL=
201310181500 AAXX 18150 67633 NIL=
201310181200 AAXX 18120 67633 NIL=
201310180900 AAXX 18094 67633 NIL=
201310180600 AAXX 18060 67633 NIL=
201310180300 AAXX 18034 67633 NIL=
201310180000 AAXX 18004 67633 NIL=
201310171800 AAXX 17184 67633 NIL=
201310171500 AAXX 17154 67633 NIL=
201310171200 AAXX 17124 67633 NIL=
201310170900 AAXX 17090 67633 NIL=
201310170600 AAXX 17060 67633 NIL=
201310161200 AAXX 16124 67633 NIL=
201310160900 AAXX 16090 67633 NIL=
201310151200 AAXX 15124 67633 NIL=
201310150900 AAXX 15094 67633 NIL=
201310150600 AAXX 15061 67633 NIL=
201310141200 AAXX 14124 67633 NIL=
201310140900 AAXX 14090 67633 NIL=
201310140600 AAXX 14060 67633 NIL=
201310131200 AAXX 13120 67633 NIL=
201310130900 AAXX 13090 67633 NIL=
201310130600 AAXX 13060 67633 NIL=
201310122100 AAXX 12214 67633 NIL=
201310121500 AAXX 12154 67633 NIL=
201310121200 AAXX 12120 67633 NIL=
201310120900 AAXX 12094 67633 NIL=
201310120600 AAXX 12060 67633 NIL=
201310120300 AAXX 12034 67633 NIL=
201310112100 AAXX 11214 67633 NIL=
201310111800 AAXX 11184 67633 NIL=
201310111500 AAXX 11154 67633 NIL=
201310111200 AAXX 11120 67633 NIL=
201310110900 AAXX 11090 67633 NIL=
201310110600 AAXX 11064 67633 31975 20908 10242 20087 48528 70500 82030
                   333 10372 20175 58000 82360 91018=
201310110300 AAXX 11034 67633 NIL=
201310101800 AAXX 10184 67633 NIL=
201310101500 AAXX 10154 67633 NIL=
201310101200 AAXX 10120 67633 NIL=
201310100900 AAXX 10094 67633 NIL=
201310100600 AAXX 10060 67633 NIL=
201310100300 AAXX 10034 67633 NIL=
201310100000 AAXX 10004 67633 NIL=
201310091800 AAXX 09184 67633 NIL=
201310091500 AAXX 09154 67633 NIL=
201310091200 AAXX 09120 67633 NIL=
201310090900 AAXX 09094 67633 NIL=
201310090600 AAXX 09064 67633 32980 00805 10247 20113 48534
                   333 10364 20189 59003
                   555 00/// 91020=
201310081200 AAXX 08120 67633 NIL=
201310080900 AAXX 08090 67633 NIL=
201310080600 AAXX 08060 67633 NIL=
201310071200 AAXX 07120 67633 NIL=
201310070900 AAXX 07094 67633 NIL=
201310070600 AAXX 07064 67633 32980 60907 10236 20092 48516 86030
                   333 10377 20194 59016 86360
                   555 00/// 91017=
201310061200 AAXX 06120 67633 NIL=
201310060600 AAXX 06060 67633 NIL=
201310060000 AAXX 06004 67633 NIL=
201310051800 AAXX 05184 67633 NIL=
201310051500 AAXX 05154 67633 NIL=
201310051200 AAXX 05120 67633 NIL=
201310050900 AAXX 05094 67633 NIL=
201310050600 AAXX 05060 67633 NIL=
201310050300 AAXX 05034 67633 NIL=
201310041800 AAXX 04184 67633 NIL=
201310041500 AAXX 04154 67633 NIL=
201310041200 AAXX 04120 67633 NIL=
201310040900 AAXX 04094 67633 NIL=
201310040600 AAXX 04064 67633 31975 00905 10228 20064 48539 70500
                   333 10335 20150 59003 91020=
201310040300 AAXX 04034 67633 NIL=
201310040000 AAXX 04004 67633 NIL=
201310032100 AAXX 03214 67633 NIL=
201310031800 AAXX 03184 67633 NIL=
201310031500 AAXX 03154 67633 NIL=
201310031200 AAXX 03120 67633 NIL=
201310030900 AAXX 03090 67633 NIL=
201310030600 AAXX 03060 67633 NIL=
201310030300 AAXX 03034 67633 NIL=
201310030000 AAXX 03004 67633 NIL=
201310021800 AAXX 02184 67633 NIL=
201310021200 AAXX 02120 67633 NIL=
201310020900 AAXX 02094 67633 NIL=
201310020600 AAXX 02060 67633 NIL=
201310011800 AAXX 01184 67633 NIL=
201310011500 AAXX 01154 67633 NIL=
201310011200 AAXX 01124 67633 NIL=
201310010900 AAXX 01094 67633 NIL=
201310010600 AAXX 01064 67633 NIL=

################################################################################
#  SYNOPS from 67641, Kaoma (Zambia) | 14-48S | 024-48E | 1213 m
################################################################################
201310310600 AAXX 31060 67641 NIL=
201310310000 AAXX 31004 67641 NIL=
201310301800 AAXX 30184 67641 NIL=
201310301500 AAXX 30154 67641 NIL=
201310301200 AAXX 30120 67641 NIL=
201310300900 AAXX 30094 67641 NIL=
201310300600 AAXX 30064 67641 31980 50000 10230 20172 48500 70522 80008
                   333 10376 20205 59002 85278
                   555 00/// 91015=
201310300300 AAXX 30034 67641 NIL=
201310292100 AAXX 29214 67641 NIL=
201310291800 AAXX 29184 67641 NIL=
201310291500 AAXX 29154 67641 NIL=
201310291200 AAXX 29124 67641 NIL=
201310290900 AAXX 29094 67641 NIL=
201310290600 AAXX 29064 67641 31980 10804 10248 20158 48504 70521 81080
                   333 10363 20190 59006 81360
                   555 00/// 91015=
201310281800 AAXX 28184 67641 NIL=
201310281200 AAXX 28124 67641 41682 60000 10344 20156 48500 70221 86200
                   333 5//// 86846 91014=
201310280900 AAXX 28094 67641 41982 10408 10321 20157 48515 70110 81030
                   333 5//// 81360 91016=
201310280600 AAXX 28064 67641 11982 20704 10255 20150 48510 60074 70200 82030
                   333 10375 20190 59016 82361
                   555 00/// 91016=
201310280300 AAXX 28034 67641 NIL=
201310272100 AAXX 27214 67641 NIL=
201310271800 AAXX 27184 67641 NIL=
201310271500 AAXX 27154 67641 NIL=
201310271200 AAXX 27120 67641 NIL=
201310270900 AAXX 27094 67641 NIL=
201310270600 AAXX 27060 67641 NIL=
201310270300 AAXX 27034 67641 NIL=
201310270000 AAXX 27004 67641 NIL=
201310262100 AAXX 26214 67641 NIL=
201310261500 AAXX 26154 67641 NIL=
201310261200 AAXX 26120 67641 NIL=
201310260900 AAXX 26094 67641 NIL=
201310260600 AAXX 26060 67641 NIL=
201310260300 AAXX 26034 67641 NIL=
201310260000 AAXX 26004 67641 NIL=
201310252100 AAXX 25214 67641 NIL=
201310251800 AAXX 25184 67641 NIL=
201310251200 AAXX 25124 67641 41680 51104 10310 20172 48509 70522 85200
                   333 5//// 85846 91015=
201310250900 AAXX 25094 67641 41680 70807 10266 20172 48540 70522 87500
                   333 5//// 87646 555 00///
                   QNH 10203.0=
201310250600 AAXX 25064 67641 31680 70408 10212 20173 48538 70522 86500
                   333 10284 20167 58003 86645 82846
                   555 00/// 91020=
201310250000 AAXX 25004 67641 NIL=
201310242100 AAXX 24214 67641 NIL=
201310241800 AAXX 24184 67641 NIL=
201310241500 AAXX 24154 67641 NIL=
201310241200 AAXX 24120 67641 NIL=
201310240600 AAXX 24060 67641 NIL=
201310232100 AAXX 23214 67641 NIL=
201310231800 AAXX 23184 67641 NIL=
201310231500 AAXX 23154 67641 NIL=
201310231200 AAXX 23120 67641 NIL=
201310230900 AAXX 23094 67641 41982 70000 10265 20181 48517 70222 8707/
                   333 58015 87360 91017=
201310230600 AAXX 23064 67641 11980 70000 10220 20191 48507 60064 70522 8707/
                   333 10357 20196 58006 87360
                   555 00/// 91016=
201310230300 AAXX 23034 67641 NIL=
201310230000 AAXX 23004 67641 NIL=
201310221800 AAXX 22184 67641 NIL=
201310221500 AAXX 22150 67641 NIL=
201310221200 AAXX 22124 67641 41680 73406 10340 20136 48482 70522 84270
                   333 58008 84850 83360
                   555 00/// QNH 10128.0=
201310220900 AAXX 22090 67641 NIL=
201310220600 AAXX 22064 67641 11980 70000 10230 20161 48503 69964 70522 87080
                   333 10366 20206 58009 87360
                   555 00/// 91016=
201310220300 AAXX 22034 67641 NIL=
201310220000 AAXX 22004 67641 NIL=
201310212100 AAXX 21214 67641 NIL=
201310211800 AAXX 21184 67641 NIL=
201310211500 AAXX 21154 67641 NIL=
201310211200 AAXX 21121 67641 41780 62905 10//0 20125 48475 70510 86200
                   333 5//// 86856 555 00///=
201310210900 AAXX 21094 67641 NIL=
201310210600 AAXX 21064 67641 31980 12402 10238 20161 48895 70510 81030
                   333 10379 20203 59008 81360
                   555 00/// 91015=
201310210300 AAXX 21034 67641 NIL=
201310210000 AAXX 21004 67641 NIL=
201310201800 AAXX 20184 67641 NIL=
201310201500 AAXX 20154 67641 NIL=
201310201200 AAXX 20124 67641 NIL=
201310200600 AAXX 20064 67641 NIL=
201310191800 AAXX 19184 67641 NIL=
201310190900 AAXX 19094 67641 NIL=
201310190600 AAXX 19061 67641 NIL=
201310181500 AAXX 18150 67641 NIL=
201310181200 AAXX 18124 67641 41780 40506 10353 20117 48499 70510 84100
                   333 59007 84856 91014=
201310180900 AAXX 18094 67641 41980 00408 10336 20130 48520 70500
                   333 59015 555 00/// 91016=
201310180600 AAXX 18064 67641 31975 00402 10255 20130 48519 70500
                   333 10364 20171 59010
                   555 00/// 91017=
201310180300 AAXX 18034 67641 NIL=
201310180000 AAXX 18004 67641 NIL=
201310171800 AAXX 17184 67641 NIL=
201310171500 AAXX 17154 67641 NIL=
201310171200 AAXX 17124 67641 NIL=
201310170900 AAXX 17090 67641 NIL=
201310170600 AAXX 17064 67641 31975 10403 10233 20145 48527 70500 80001
                   333 10370 20161 59024 81075
                   555 00/// QNH 10185=
201310161200 AAXX 16124 67641 41680 21209 10360 20114 48524 70500 82100
                   333 58004 82850 91016=
201310160900 AAXX 16094 67641 41980 00408 10319 20164 48554 70500
                   333 58008 91021=
201310160600 AAXX 16064 67641 11975 10806 10240 20170 48551 69904 70500 80001
                   333 10373 20194 58005 81075
                   555 10219=
201310151200 AAXX 15124 67641 NIL=
201310150900 AAXX 15094 67641 NIL=
201310150600 AAXX 15061 67641 NIL=
201310141200 AAXX 14124 67641 41780 50206 10370 20132 48497 70521 85200
                   333 5//// 85856 91013=
201310140900 AAXX 14094 67641 41980 23204 10326 20149 48525 70510 80001
                   333 5//// 82080=
201310140600 AAXX 14064 67641 31980 40000 10226 20151 48512 70510 84080
                   333 10377 20176 58008 84360=
201310131200 AAXX 13120 67641 NIL=
201310130900 AAXX 13090 67641 NIL=
201310130600 AAXX 13060 67641 NIL=
201310122100 AAXX 12214 67641 NIL=
201310121500 AAXX 12154 67641 NIL=
201310121200 AAXX 12120 67641 NIL=
201310120900 AAXX 12094 67641 NIL=
201310120600 AAXX 12060 67641 NIL=
201310120300 AAXX 12034 67641 NIL=
201310112100 AAXX 11214 67641 NIL=
201310111800 AAXX 11184 67641 NIL=
201310111500 AAXX 11154 67641 NIL=
201310111200 AAXX 11124 67641 41780 20806 10355 20111 48508 70500 82100
                   333 59001 82856 555 00///
                   QNH 10152=
201310110900 AAXX 11094 67641 41780 11006 10324 20119 48551 70500 81101
                   333 58006 81856 81080
                   555 00/// 91018=
201310110600 AAXX 11064 67641 31980 10408 10255 20103 48536 70500 80001
                   333 10361 20168 58004 81075
                   555 00/// QNH 10282=
201310110300 AAXX 11034 67641 NIL=
201310101800 AAXX 10184 67641 NIL=
201310101500 AAXX 10154 67641 NIL=
201310101200 AAXX 10124 67641 41780 51006 10349 20088 48509 70522 81101
                   333 59006 81856 85075
                   555 00/// 91015=
201310100900 AAXX 10094 67641 41980 51106 10325 20090 48536 70522 80001
                   333 59008 85075 555 00///
                   QNH 10181=
201310100600 AAXX 10064 67641 31980 70000 10210 20102 48527 70522 80001
                   333 10352 20147 59006 87075
                   555 910188=
201310100300 AAXX 10034 67641 NIL=
201310100000 AAXX 10004 67641 NIL=
201310091800 AAXX 09184 67641 NIL=
201310091500 AAXX 09154 67641 NIL=
201310091200 AAXX 09124 67641 41780 41106 10342 20089 48514 70510 84100
                   333 59003 84856 555 00/// 91015=
201310090900 AAXX 09094 67641 41780 10407 10314 20140 48541 70500 81100
                   333 59001 81856 555 00/// 91018=
201310090600 AAXX 09064 67641 31980 00806 10245 20136 48538 70500
                   333 10355 20150 59003
                   555 00/// QNH 10204=
201310081200 AAXX 08124 67641 41780 60807 10332 20129 48516 70522 86200
                   333 59002 86856 555 00/// 91016=
201310080900 AAXX 08094 67641 41780 41009 10320 20138 48544 70522 81101
                   333 58009 81856 84075
                   555 00/// QNH 10200=
201310080600 AAXX 08064 67641 31975 51104 10228 20141 48539 70522 85070
                   333 10367 20195 58011 85360
                   555 00/// QNH 10207=
201310071200 AAXX 07124 67641 41880 51408 10360 20114 48520 70510 85200
                   333 5//// 91016=
201310070900 AAXX 07094 67641 41880 10704 10330 20115 48536 70500 81100
                   333 5//// 81857=
201310070600 AAXX 07064 67641 31975 00000 10235 20124 48529 70500
                   333 10365 20166 58004
                   555 00/// 91018=
201310061200 AAXX 06120 67641 NIL=
201310060600 AAXX 06060 67641 NIL=
201310060000 AAXX 06004 67641 NIL=
201310051800 AAXX 05184 67641 NIL=
201310051500 AAXX 05154 67641 NIL=
201310051200 AAXX 05120 67641 NIL=
201310050900 AAXX 05094 67641 NIL=
201310050600 AAXX 05060 67641 NIL=
201310050300 AAXX 05034 67641 NIL=
201310041800 AAXX 04184 67641 NIL=
201310041500 AAXX 04154 67641 NIL=
201310041200 AAXX 04120 67641 NIL=
201310040900 AAXX 04094 67641 41980 01002 10295 20051 48540 70500
                   333 59005 555 00///
                   QNH 10200=
201310040600 AAXX 04064 67641 31975 00000 10177 20080 48529 70500
                   333 10320 20109 59005
                   555 00/// 91020=
201310040300 AAXX 04034 67641 NIL=
201310040000 AAXX 04004 67641 NIL=
201310032100 AAXX 03214 67641 NIL=
201310031800 AAXX 03184 67641 NIL=
201310031500 AAXX 03154 67641 NIL=
201310031200 AAXX 03124 67641 41980 01406 10310 20053 48515 70500
                   333 59020 555 10163=
201310030900 AAXX 03094 67641 41980 01104 10270 20067 48542 70500
                   333 59022 555 00///
                   QNH 10205=
201310030600 AAXX 03064 67641 31975 00901 10165 20086 48533 70500
                   333 10300 20092 59020
                   555 00/// QNH 10209=
201310030300 AAXX 03034 67641 NIL=
201310030000 AAXX 03004 67641 NIL=
201310021800 AAXX 02184 67641 NIL=
201310021200 AAXX 02120 67641 NIL=
201310020900 AAXX 02094 67641 NIL=
201310020600 AAXX 02064 67641 31875 11104 10180 20119 48553 70500 81100
                   333 10278 20126 59004 81857
                   555 00/// 91022=
201310011800 AAXX 01184 67641 NIL=
201310011500 AAXX 01154 67641 NIL=
201310011200 AAXX 01124 67641 41875 60906 10260 20136 48542 70522 82101
                   333 58022 82157 84075
                   555 00/// QNH 10206=
201310010900 AAXX 01094 67641 41875 61312 10234 20135 48565 70522 86500
                   333 58037 86657 555 00///
                   QNH 10234=
201310010600 AAXX 01064 67641 31675 71016 10185 20129 48559 70522 86530
                   333 10310 20170 58035 86650 82360=

################################################################################
#  SYNOPS from 67655, Mumbwa (Zambia) | 15-04S | 027-11E | 1216 m
################################################################################
201310310600 AAXX 31060 67655 NIL=
201310310000 AAXX 31004 67655 NIL=
201310301800 AAXX 30184 67655 NIL=
201310301500 AAXX 30154 67655 NIL=
201310301200 AAXX 30120 67655 NIL=
201310300900 AAXX 30094 67655 NIL=
201310300600 AAXX 30060 67655 NIL=
201310300300 AAXX 30034 67655 NIL=
201310292100 AAXX 29214 67655 NIL=
201310291800 AAXX 29184 67655 NIL=
201310291500 AAXX 29154 67655 NIL=
201310291200 AAXX 29124 67655 NIL=
201310290900 AAXX 29094 67655 NIL=
201310290600 AAXX 29064 67655 NIL=
201310281800 AAXX 28184 67655 NIL=
201310281200 AAXX 28120 67655 NIL=
201310280900 AAXX 28090 67655 NIL=
201310280600 AAXX 28060 67655 NIL=
201310280300 AAXX 28034 67655 NIL=
201310272100 AAXX 27214 67655 NIL=
201310271800 AAXX 27184 67655 NIL=
201310271500 AAXX 27154 67655 NIL=
201310271200 AAXX 27120 67655 NIL=
201310270900 AAXX 27094 67655 NIL=
201310270600 AAXX 27060 67655 NIL=
201310270300 AAXX 27034 67655 NIL=
201310270000 AAXX 27004 67655 NIL=
201310262100 AAXX 26214 67655 NIL=
201310261500 AAXX 26154 67655 NIL=
201310261200 AAXX 26120 67655 NIL=
201310260900 AAXX 26094 67655 NIL=
201310260600 AAXX 26060 67655 NIL=
201310260300 AAXX 26034 67655 NIL=
201310260000 AAXX 26004 67655 NIL=
201310252100 AAXX 25214 67655 NIL=
201310251800 AAXX 25184 67655 NIL=
201310251200 AAXX 25124 67655 NIL=
201310250900 AAXX 25094 67655 NIL=
201310250600 AAXX 25060 67655 NIL=
201310250000 AAXX 25004 67655 NIL=
201310242100 AAXX 24214 67655 NIL=
201310241800 AAXX 24184 67655 NIL=
201310241500 AAXX 24154 67655 NIL=
201310241200 AAXX 24120 67655 NIL=
201310240600 AAXX 24060 67655 NIL=
201310232100 AAXX 23214 67655 NIL=
201310231800 AAXX 23184 67655 NIL=
201310231500 AAXX 23154 67655 NIL=
201310231200 AAXX 23120 67655 NIL=
201310230900 AAXX 23094 67655 NIL=
201310230600 AAXX 23060 67655 NIL=
201310230300 AAXX 23034 67655 NIL=
201310230000 AAXX 23004 67655 NIL=
201310221800 AAXX 22184 67655 NIL=
201310221500 AAXX 22150 67655 NIL=
201310221200 AAXX 22120 67655 NIL=
201310220900 AAXX 22090 67655 NIL=
201310220600 AAXX 22064 67655 NIL=
201310220300 AAXX 22034 67655 NIL=
201310220000 AAXX 22004 67655 NIL=
201310212100 AAXX 21214 67655 NIL=
201310211800 AAXX 21184 67655 NIL=
201310211500 AAXX 21154 67655 NIL=
201310211200 AAXX 21124 67655 NIL=
201310210900 AAXX 21094 67655 NIL=
201310210600 AAXX 21064 67655 NIL=
201310210300 AAXX 21034 67655 NIL=
201310210000 AAXX 21004 67655 NIL=
201310201800 AAXX 20184 67655 NIL=
201310201500 AAXX 20154 67655 NIL=
201310201200 AAXX 20124 67655 NIL=
201310200600 AAXX 20064 67655 NIL=
201310191800 AAXX 19184 67655 NIL=
201310190900 AAXX 19094 67655 NIL=
201310190600 AAXX 19061 67655 NIL=
201310181500 AAXX 18150 67655 NIL=
201310181200 AAXX 18120 67655 NIL=
201310180900 AAXX 18094 67655 NIL=
201310180600 AAXX 18064 67655 32980 00910 10260 20060 48537
                   333 10335 20175 59015 91021=
201310180300 AAXX 18034 67655 NIL=
201310180000 AAXX 18004 67655 NIL=
201310171800 AAXX 17184 67655 NIL=
201310171500 AAXX 17154 67655 NIL=
201310171200 AAXX 17124 67655 42780 51005 10315 20086 48522 85200
                   333 59021 85856 91018=
201310170900 AAXX 17090 67655 NIL=
201310170600 AAXX 17060 67655 NIL=
201310161200 AAXX 16124 67655 NIL=
201310160900 AAXX 16094 67655 NIL=
201310151200 AAXX 15124 67655 NIL=
201310150900 AAXX 15094 67655 NIL=
201310150600 AAXX 15061 67655 NIL=
201310141200 AAXX 14124 67655 NIL=
201310140900 AAXX 14090 67655 NIL=
201310140600 AAXX 14064 67655 NIL=
201310131200 AAXX 13120 67655 NIL=
201310130900 AAXX 13090 67655 NIL=
201310130600 AAXX 13060 67655 NIL=
201310122100 AAXX 12214 67655 NIL=
201310121500 AAXX 12154 67655 NIL=
201310121200 AAXX 12120 67655 NIL=
201310120900 AAXX 12094 67655 NIL=
201310120600 AAXX 12060 67655 NIL=
201310120300 AAXX 12034 67655 NIL=
201310112100 AAXX 11214 67655 NIL=
201310111800 AAXX 11184 67655 NIL=
201310111500 AAXX 11154 67655 NIL=
201310111200 AAXX 11120 67655 NIL=
201310110900 AAXX 11094 67655 NIL=
201310110600 AAXX 11060 67655 NIL=
201310110300 AAXX 11034 67655 NIL=
201310101800 AAXX 10184 67655 NIL=
201310101500 AAXX 10154 67655 NIL=
201310101200 AAXX 10124 67655 NIL=
201310100900 AAXX 10094 67655 NIL=
201310100600 AAXX 10060 67655 NIL=
201310100300 AAXX 10034 67655 NIL=
201310100000 AAXX 10004 67655 NIL=
201310091800 AAXX 09184 67655 NIL=
201310091500 AAXX 09154 67655 NIL=
201310091200 AAXX 09120 67655 NIL=
201310090900 AAXX 09094 67655 NIL=
201310090600 AAXX 09060 67655 NIL=
201310081200 AAXX 08120 67655 NIL=
201310080900 AAXX 08090 67655 NIL=
201310080600 AAXX 08060 67655 NIL=
201310071200 AAXX 07120 67655 NIL=
201310070900 AAXX 07094 67655 NIL=
201310070600 AAXX 07060 67655 NIL=
201310061200 AAXX 06120 67655 NIL=
201310060600 AAXX 06060 67655 NIL=
201310060000 AAXX 06004 67655 NIL=
201310051800 AAXX 05184 67655 NIL=
201310051500 AAXX 05154 67655 NIL=
201310051200 AAXX 05120 67655 NIL=
201310050900 AAXX 05094 67655 NIL=
201310050600 AAXX 05060 67655 NIL=
201310050300 AAXX 05034 67655 NIL=
201310041800 AAXX 04184 67655 NIL=
201310041500 AAXX 04154 67655 NIL=
201310041200 AAXX 04120 67655 NIL=
201310040900 AAXX 04094 67655 NIL=
201310040600 AAXX 04064 67655 NIL=
201310040300 AAXX 04034 67655 NIL=
201310040000 AAXX 04004 67655 NIL=
201310032100 AAXX 03214 67655 NIL=
201310031800 AAXX 03184 67655 NIL=
201310031500 AAXX 03154 67655 NIL=
201310031200 AAXX 03120 67655 NIL=
201310030900 AAXX 03094 67655 NIL=
201310030600 AAXX 03064 67655 NIL=
201310030300 AAXX 03034 67655 NIL=
201310030000 AAXX 03004 67655 NIL=
201310021800 AAXX 02184 67655 NIL=
201310021200 AAXX 02120 67655 NIL=
201310020900 AAXX 02094 67655 NIL=
201310020600 AAXX 02060 67655 NIL=
201310011800 AAXX 01184 67655 NIL=
201310011500 AAXX 01154 67655 NIL=
201310011200 AAXX 01124 67655 NIL=
201310010900 AAXX 01094 67655 NIL=
201310010600 AAXX 01064 67655 NIL=

################################################################################
#  SYNOPS from 67659, Kafue Polder (Zambia) | 15-46S | 027-55E | 978 m
################################################################################
201310310600 AAXX 31060 67659 NIL=
201310310000 AAXX 31004 67659 NIL=
201310301800 AAXX 30184 67659 NIL=
201310301500 AAXX 30154 67659 NIL=
201310301200 AAXX 30120 67659 NIL=
201310300900 AAXX 30094 67659 NIL=
201310300600 AAXX 30060 67659 NIL=
201310300300 AAXX 30034 67659 NIL=
201310292100 AAXX 29214 67659 NIL=
201310291800 AAXX 29184 67659 NIL=
201310291500 AAXX 29154 67659 NIL=
201310291200 AAXX 29124 67659 NIL=
201310290900 AAXX 29094 67659 NIL=
201310290600 AAXX 29064 67659 NIL=
201310281800 AAXX 28184 67659 NIL=
201310281200 AAXX 28120 67659 NIL=
201310280900 AAXX 28090 67659 NIL=
201310280600 AAXX 28060 67659 NIL=
201310280300 AAXX 28034 67659 NIL=
201310272100 AAXX 27214 67659 NIL=
201310271800 AAXX 27184 67659 NIL=
201310271500 AAXX 27154 67659 NIL=
201310271200 AAXX 27120 67659 NIL=
201310270900 AAXX 27094 67659 NIL=
201310270600 AAXX 27060 67659 NIL=
201310270300 AAXX 27034 67659 NIL=
201310270000 AAXX 27004 67659 NIL=
201310262100 AAXX 26214 67659 NIL=
201310261500 AAXX 26154 67659 NIL=
201310261200 AAXX 26120 67659 NIL=
201310260900 AAXX 26094 67659 NIL=
201310260600 AAXX 26060 67659 NIL=
201310260300 AAXX 26034 67659 NIL=
201310260000 AAXX 26004 67659 NIL=
201310252100 AAXX 25214 67659 NIL=
201310251800 AAXX 25184 67659 NIL=
201310251200 AAXX 25124 67659 NIL=
201310250900 AAXX 25094 67659 NIL=
201310250600 AAXX 25060 67659 NIL=
201310250000 AAXX 25004 67659 NIL=
201310242100 AAXX 24214 67659 NIL=
201310241800 AAXX 24184 67659 NIL=
201310241500 AAXX 24154 67659 NIL=
201310241200 AAXX 24120 67659 NIL=
201310240600 AAXX 24060 67659 NIL=
201310232100 AAXX 23214 67659 NIL=
201310231800 AAXX 23184 67659 NIL=
201310231500 AAXX 23154 67659 NIL=
201310231200 AAXX 23120 67659 NIL=
201310230900 AAXX 23094 67659 NIL=
201310230600 AAXX 23060 67659 NIL=
201310230300 AAXX 23034 67659 NIL=
201310230000 AAXX 23004 67659 NIL=
201310221800 AAXX 22184 67659 NIL=
201310221500 AAXX 22150 67659 NIL=
201310221200 AAXX 22120 67659 NIL=
201310220900 AAXX 22090 67659 NIL=
201310220600 AAXX 22064 67659 NIL=
201310220300 AAXX 22034 67659 NIL=
201310220000 AAXX 22004 67659 NIL=
201310212100 AAXX 21214 67659 NIL=
201310211800 AAXX 21184 67659 NIL=
201310211500 AAXX 21154 67659 NIL=
201310211200 AAXX 21124 67659 NIL=
201310210900 AAXX 21094 67659 NIL=
201310210600 AAXX 21064 67659 NIL=
201310210300 AAXX 21034 67659 NIL=
201310210000 AAXX 21004 67659 NIL=
201310201800 AAXX 20184 67659 NIL=
201310201500 AAXX 20154 67659 NIL=
201310201200 AAXX 20124 67659 NIL=
201310200600 AAXX 20064 67659 NIL=
201310191800 AAXX 19184 67659 NIL=
201310190900 AAXX 19094 67659 NIL=
201310190600 AAXX 19061 67659 NIL=
201310181500 AAXX 18150 67659 NIL=
201310181200 AAXX 18120 67659 NIL=
201310180900 AAXX 18094 67659 NIL=
201310180600 AAXX 18064 67659 NIL=
201310180300 AAXX 18034 67659 NIL=
201310180000 AAXX 18004 67659 NIL=
201310171800 AAXX 17184 67659 NIL=
201310171500 AAXX 17154 67659 NIL=
201310171200 AAXX 17124 67659 NIL=
201310170900 AAXX 17090 67659 NIL=
201310170600 AAXX 17060 67659 NIL=
201310161200 AAXX 16124 67659 NIL=
201310160900 AAXX 16094 67659 NIL=
201310151200 AAXX 15124 67659 NIL=
201310150900 AAXX 15094 67659 NIL=
201310150600 AAXX 15061 67659 NIL=
201310141200 AAXX 14124 67659 NIL=
201310140900 AAXX 14090 67659 NIL=
201310140600 AAXX 14064 67659 NIL=
201310131200 AAXX 13120 67659 NIL=
201310130900 AAXX 13090 67659 NIL=
201310130600 AAXX 13060 67659 NIL=
201310122100 AAXX 12214 67659 NIL=
201310121500 AAXX 12154 67659 NIL=
201310121200 AAXX 12120 67659 NIL=
201310120900 AAXX 12094 67659 NIL=
201310120600 AAXX 12060 67659 NIL=
201310120300 AAXX 12034 67659 NIL=
201310112100 AAXX 11214 67659 NIL=
201310111800 AAXX 11184 67659 NIL=
201310111500 AAXX 11154 67659 NIL=
201310111200 AAXX 11120 67659 NIL=
201310110900 AAXX 11094 67659 NIL=
201310110600 AAXX 11060 67659 NIL=
201310110300 AAXX 11034 67659 NIL=
201310101800 AAXX 10184 67659 NIL=
201310101500 AAXX 10154 67659 NIL=
201310101200 AAXX 10124 67659 NIL=
201310100900 AAXX 10094 67659 NIL=
201310100600 AAXX 10060 67659 NIL=
201310100300 AAXX 10034 67659 NIL=
201310100000 AAXX 10004 67659 NIL=
201310091800 AAXX 09184 67659 NIL=
201310091500 AAXX 09154 67659 NIL=
201310091200 AAXX 09120 67659 NIL=
201310090900 AAXX 09094 67659 NIL=
201310090600 AAXX 09060 67659 NIL=
201310081200 AAXX 08120 67659 NIL=
201310080900 AAXX 08090 67659 NIL=
201310080600 AAXX 08060 67659 NIL=
201310071200 AAXX 07120 67659 NIL=
201310070900 AAXX 07094 67659 NIL=
201310070600 AAXX 07060 67659 NIL=
201310061200 AAXX 06120 67659 NIL=
201310060600 AAXX 06060 67659 NIL=
201310060000 AAXX 06004 67659 NIL=
201310051800 AAXX 05184 67659 NIL=
201310051500 AAXX 05154 67659 NIL=
201310051200 AAXX 05120 67659 NIL=
201310050900 AAXX 05094 67659 NIL=
201310050600 AAXX 05060 67659 NIL=
201310050300 AAXX 05034 67659 NIL=
201310041800 AAXX 04184 67659 NIL=
201310041500 AAXX 04154 67659 NIL=
201310041200 AAXX 04120 67659 NIL=
201310040900 AAXX 04094 67659 NIL=
201310040600 AAXX 04064 67659 NIL=
201310040300 AAXX 04034 67659 NIL=
201310040000 AAXX 04004 67659 NIL=
201310032100 AAXX 03214 67659 NIL=
201310031800 AAXX 03184 67659 NIL=
201310031500 AAXX 03154 67659 NIL=
201310031200 AAXX 03120 67659 NIL=
201310030900 AAXX 03094 67659 NIL=
201310030600 AAXX 03064 67659 NIL=
201310030300 AAXX 03034 67659 NIL=
201310030000 AAXX 03004 67659 NIL=
201310021800 AAXX 02184 67659 NIL=
201310021200 AAXX 02120 67659 NIL=
201310020900 AAXX 02094 67659 NIL=
201310020600 AAXX 02060 67659 NIL=
201310011800 AAXX 01184 67659 NIL=
201310011500 AAXX 01154 67659 NIL=
201310011200 AAXX 01124 67659 NIL=
201310010900 AAXX 01094 67659 NIL=
201310010600 AAXX 01064 67659 NIL=

################################################################################
#  SYNOPS from 67662, Kabwe Agric (Zambia) | 14-24S | 028-30E | 1165 m
################################################################################
201310310600 AAXX 31060 67662 NIL=
201310310000 AAXX 31004 67662 NIL=
201310301800 AAXX 30184 67662 NIL=
201310301500 AAXX 30154 67662 NIL=
201310301200 AAXX 30120 67662 NIL=
201310300900 AAXX 30094 67662 NIL=
201310300600 AAXX 30060 67662 NIL=
201310300300 AAXX 30034 67662 NIL=
201310292100 AAXX 29214 67662 NIL=
201310291800 AAXX 29184 67662 NIL=
201310291500 AAXX 29154 67662 NIL=
201310291200 AAXX 29124 67662 NIL=
201310290900 AAXX 29094 67662 NIL=
201310290600 AAXX 29064 67662 NIL=
201310281800 AAXX 28184 67662 NIL=
201310281200 AAXX 28120 67662 NIL=
201310280900 AAXX 28090 67662 NIL=
201310280600 AAXX 28060 67662 NIL=
201310280300 AAXX 28034 67662 NIL=
201310272100 AAXX 27214 67662 NIL=
201310271800 AAXX 27184 67662 NIL=
201310271500 AAXX 27154 67662 NIL=
201310271200 AAXX 27120 67662 NIL=
201310270900 AAXX 27094 67662 NIL=
201310270600 AAXX 27060 67662 NIL=
201310270300 AAXX 27034 67662 NIL=
201310270000 AAXX 27004 67662 NIL=
201310262100 AAXX 26214 67662 NIL=
201310261500 AAXX 26154 67662 NIL=
201310261200 AAXX 26120 67662 NIL=
201310260900 AAXX 26094 67662 NIL=
201310260600 AAXX 26060 67662 NIL=
201310260300 AAXX 26034 67662 NIL=
201310260000 AAXX 26004 67662 NIL=
201310252100 AAXX 25214 67662 NIL=
201310251800 AAXX 25184 67662 NIL=
201310251200 AAXX 25124 67662 NIL=
201310250900 AAXX 25094 67662 NIL=
201310250600 AAXX 25060 67662 NIL=
201310250000 AAXX 25004 67662 NIL=
201310242100 AAXX 24214 67662 NIL=
201310241800 AAXX 24184 67662 NIL=
201310241500 AAXX 24154 67662 NIL=
201310241200 AAXX 24120 67662 NIL=
201310240600 AAXX 24060 67662 NIL=
201310232100 AAXX 23214 67662 NIL=
201310231800 AAXX 23184 67662 NIL=
201310231500 AAXX 23154 67662 NIL=
201310231200 AAXX 23120 67662 NIL=
201310230900 AAXX 23094 67662 NIL=
201310230600 AAXX 23060 67662 NIL=
201310230300 AAXX 23034 67662 NIL=
201310230000 AAXX 23004 67662 NIL=
201310221800 AAXX 22184 67662 NIL=
201310221500 AAXX 22150 67662 NIL=
201310221200 AAXX 22120 67662 NIL=
201310220900 AAXX 22090 67662 NIL=
201310220600 AAXX 22064 67662 NIL=
201310220300 AAXX 22034 67662 NIL=
201310220000 AAXX 22004 67662 NIL=
201310212100 AAXX 21214 67662 NIL=
201310211800 AAXX 21184 67662 NIL=
201310211500 AAXX 21154 67662 NIL=
201310211200 AAXX 21124 67662 NIL=
201310210900 AAXX 21094 67662 NIL=
201310210600 AAXX 21064 67662 NIL=
201310210300 AAXX 21034 67662 NIL=
201310210000 AAXX 21004 67662 NIL=
201310201800 AAXX 20184 67662 NIL=
201310201500 AAXX 20154 67662 NIL=
201310201200 AAXX 20124 67662 NIL=
201310200600 AAXX 20064 67662 NIL=
201310191800 AAXX 19184 67662 NIL=
201310190900 AAXX 19094 67662 NIL=
201310190600 AAXX 19061 67662 NIL=
201310181500 AAXX 18150 67662 NIL=
201310181200 AAXX 18120 67662 NIL=
201310180900 AAXX 18094 67662 NIL=
201310180600 AAXX 18064 67662 NIL=
201310180300 AAXX 18034 67662 NIL=
201310180000 AAXX 18004 67662 NIL=
201310171800 AAXX 17184 67662 NIL=
201310171500 AAXX 17154 67662 NIL=
201310171200 AAXX 17124 67662 NIL=
201310170900 AAXX 17090 67662 NIL=
201310170600 AAXX 17060 67662 NIL=
201310161200 AAXX 16124 67662 NIL=
201310160900 AAXX 16094 67662 NIL=
201310151200 AAXX 15124 67662 NIL=
201310150900 AAXX 15094 67662 NIL=
201310150600 AAXX 15061 67662 NIL=
201310141200 AAXX 14124 67662 NIL=
201310140900 AAXX 14090 67662 NIL=
201310140600 AAXX 14064 67662 NIL=
201310131200 AAXX 13120 67662 NIL=
201310130900 AAXX 13090 67662 NIL=
201310130600 AAXX 13060 67662 NIL=
201310122100 AAXX 12214 67662 NIL=
201310121500 AAXX 12154 67662 NIL=
201310121200 AAXX 12120 67662 NIL=
201310120900 AAXX 12094 67662 NIL=
201310120600 AAXX 12060 67662 NIL=
201310120300 AAXX 12034 67662 NIL=
201310112100 AAXX 11214 67662 NIL=
201310111800 AAXX 11184 67662 NIL=
201310111500 AAXX 11154 67662 NIL=
201310111200 AAXX 11120 67662 NIL=
201310110900 AAXX 11094 67662 NIL=
201310110600 AAXX 11060 67662 NIL=
201310110300 AAXX 11034 67662 NIL=
201310101800 AAXX 10184 67662 NIL=
201310101500 AAXX 10154 67662 NIL=
201310101200 AAXX 10124 67662 NIL=
201310100900 AAXX 10094 67662 NIL=
201310100600 AAXX 10060 67662 NIL=
201310100300 AAXX 10034 67662 NIL=
201310100000 AAXX 10004 67662 NIL=
201310091800 AAXX 09184 67662 NIL=
201310091500 AAXX 09154 67662 NIL=
201310091200 AAXX 09120 67662 NIL=
201310090900 AAXX 09094 67662 NIL=
201310090600 AAXX 09060 67662 NIL=
201310081200 AAXX 08120 67662 NIL=
201310080900 AAXX 08090 67662 NIL=
201310080600 AAXX 08060 67662 NIL=
201310071200 AAXX 07120 67662 NIL=
201310070900 AAXX 07094 67662 NIL=
201310070600 AAXX 07060 67662 NIL=
201310061200 AAXX 06120 67662 NIL=
201310060600 AAXX 06060 67662 NIL=
201310060000 AAXX 06004 67662 NIL=
201310051800 AAXX 05184 67662 NIL=
201310051500 AAXX 05154 67662 NIL=
201310051200 AAXX 05120 67662 NIL=
201310050900 AAXX 05094 67662 NIL=
201310050600 AAXX 05060 67662 NIL=
201310050300 AAXX 05034 67662 NIL=
201310041800 AAXX 04184 67662 NIL=
201310041500 AAXX 04154 67662 NIL=
201310041200 AAXX 04120 67662 NIL=
201310040900 AAXX 04094 67662 NIL=
201310040600 AAXX 04064 67662 NIL=
201310040300 AAXX 04034 67662 NIL=
201310040000 AAXX 04004 67662 NIL=
201310032100 AAXX 03214 67662 NIL=
201310031800 AAXX 03184 67662 NIL=
201310031500 AAXX 03154 67662 NIL=
201310031200 AAXX 03120 67662 NIL=
201310030900 AAXX 03094 67662 NIL=
201310030600 AAXX 03064 67662 NIL=
201310030300 AAXX 03034 67662 NIL=
201310030000 AAXX 03004 67662 NIL=
201310021800 AAXX 02184 67662 NIL=
201310021200 AAXX 02120 67662 NIL=
201310020900 AAXX 02094 67662 NIL=
201310020600 AAXX 02060 67662 NIL=
201310011800 AAXX 01184 67662 NIL=
201310011500 AAXX 01154 67662 NIL=
201310011200 AAXX 01124 67662 NIL=
201310010900 AAXX 01094 67662 NIL=
201310010600 AAXX 01064 67662 NIL=

################################################################################
#  SYNOPS from 67663, Kabwe (Zambia) | 14-27S | 028-28E | 1206 m
################################################################################
201310310600 AAXX 31060 67663 NIL=
201310310000 AAXX 31004 67663 NIL=
201310301800 AAXX 30184 67663 NIL=
201310301500 AAXX 30154 67663 NIL=
201310301200 AAXX 30120 67663 NIL=
201310300900 AAXX 30094 67663 NIL=
201310300600 AAXX 30060 67663 NIL=
201310300300 AAXX 30034 67663 NIL=
201310292100 AAXX 29214 67663 NIL=
201310291800 AAXX 29184 67663 NIL=
201310291500 AAXX 29154 67663 NIL=
201310291200 AAXX 29124 67663 NIL=
201310290900 AAXX 29094 67663 NIL=
201310290600 AAXX 29064 67663 NIL=
201310281800 AAXX 28184 67663 NIL=
201310281200 AAXX 28120 67663 NIL=
201310280900 AAXX 28090 67663 NIL=
201310280600 AAXX 28060 67663 NIL=
201310280300 AAXX 28034 67663 NIL=
201310272100 AAXX 27214 67663 NIL=
201310271800 AAXX 27184 67663 NIL=
201310271500 AAXX 27154 67663 NIL=
201310271200 AAXX 27120 67663 NIL=
201310270900 AAXX 27094 67663 NIL=
201310270600 AAXX 27060 67663 NIL=
201310270300 AAXX 27034 67663 NIL=
201310270000 AAXX 27004 67663 NIL=
201310262100 AAXX 26214 67663 NIL=
201310261500 AAXX 26154 67663 NIL=
201310261200 AAXX 26120 67663 NIL=
201310260900 AAXX 26094 67663 NIL=
201310260600 AAXX 26060 67663 NIL=
201310260300 AAXX 26034 67663 NIL=
201310260000 AAXX 26004 67663 NIL=
201310252100 AAXX 25214 67663 NIL=
201310251800 AAXX 25184 67663 NIL=
201310251200 AAXX 25124 67663 NIL=
201310250900 AAXX 25094 67663 NIL=
201310250600 AAXX 25060 67663 NIL=
201310250000 AAXX 25004 67663 NIL=
201310242100 AAXX 24214 67663 NIL=
201310241800 AAXX 24184 67663 NIL=
201310241500 AAXX 24154 67663 NIL=
201310241200 AAXX 24120 67663 NIL=
201310240600 AAXX 24060 67663 NIL=
201310232100 AAXX 23214 67663 NIL=
201310231800 AAXX 23184 67663 NIL=
201310231500 AAXX 23154 67663 NIL=
201310231200 AAXX 23120 67663 NIL=
201310230900 AAXX 23094 67663 NIL=
201310230600 AAXX 23060 67663 NIL=
201310230300 AAXX 23034 67663 NIL=
201310230000 AAXX 23004 67663 NIL=
201310221800 AAXX 22184 67663 NIL=
201310221500 AAXX 22150 67663 NIL=
201310221200 AAXX 22120 67663 NIL=
201310220900 AAXX 22090 67663 NIL=
201310220600 AAXX 22064 67663 NIL=
201310220300 AAXX 22034 67663 NIL=
201310220000 AAXX 22004 67663 NIL=
201310212100 AAXX 21214 67663 NIL=
201310211800 AAXX 21184 67663 NIL=
201310211500 AAXX 21154 67663 NIL=
201310211200 AAXX 21124 67663 NIL=
201310210900 AAXX 21094 67663 NIL=
201310210600 AAXX 21064 67663 NIL=
201310210300 AAXX 21034 67663 NIL=
201310210000 AAXX 21004 67663 NIL=
201310201800 AAXX 20184 67663 NIL=
201310201500 AAXX 20154 67663 NIL=
201310201200 AAXX 20124 67663 NIL=
201310200600 AAXX 20064 67663 NIL=
201310191800 AAXX 19184 67663 NIL=
201310190900 AAXX 19094 67663 NIL=
201310190600 AAXX 19061 67663 NIL=
201310181500 AAXX 18150 67663 NIL=
201310181200 AAXX 18120 67663 NIL=
201310180900 AAXX 18094 67663 NIL=
201310180600 AAXX 18064 67663 NIL=
201310180300 AAXX 18034 67663 NIL=
201310180000 AAXX 18004 67663 NIL=
201310171800 AAXX 17184 67663 NIL=
201310171500 AAXX 17154 67663 NIL=
201310171200 AAXX 17124 67663 NIL=
201310170900 AAXX 17090 67663 NIL=
201310170600 AAXX 17060 67663 NIL=
201310161200 AAXX 16124 67663 NIL=
201310160900 AAXX 16094 67663 NIL=
201310151200 AAXX 15124 67663 NIL=
201310150900 AAXX 15094 67663 NIL=
201310150600 AAXX 15061 67663 NIL=
201310141200 AAXX 14124 67663 NIL=
201310140900 AAXX 14090 67663 NIL=
201310140600 AAXX 14064 67663 NIL=
201310131200 AAXX 13120 67663 NIL=
201310130900 AAXX 13090 67663 NIL=
201310130600 AAXX 13060 67663 NIL=
201310122100 AAXX 12214 67663 NIL=
201310121500 AAXX 12154 67663 NIL=
201310121200 AAXX 12120 67663 NIL=
201310120900 AAXX 12094 67663 NIL=
201310120600 AAXX 12060 67663 NIL=
201310120300 AAXX 12034 67663 NIL=
201310112100 AAXX 11214 67663 NIL=
201310111800 AAXX 11184 67663 NIL=
201310111500 AAXX 11154 67663 NIL=
201310111200 AAXX 11120 67663 NIL=
201310110900 AAXX 11094 67663 NIL=
201310110600 AAXX 11064 67663 31965 30810 10237 20112 48543 70500 80002
                   333 10323 20175 58006 83080=
201310110300 AAXX 11034 67663 NIL=
201310101800 AAXX 10184 67663 NIL=
201310101500 AAXX 10154 67663 NIL=
201310101200 AAXX 10124 67663 NIL=
201310100900 AAXX 10094 67663 NIL=
201310100600 AAXX 10060 67663 NIL=
201310100300 AAXX 10034 67663 NIL=
201310100000 AAXX 10004 67663 NIL=
201310091800 AAXX 09184 67663 NIL=
201310091500 AAXX 09154 67663 NIL=
201310091200 AAXX 09120 67663 NIL=
201310090900 AAXX 09094 67663 NIL=
201310090600 AAXX 09064 67663 31965 30908 10222 20139 48536 70500 80002
                   333 10308 20166 59008 83080
                   555 00///=
201310081200 AAXX 08120 67663 NIL=
201310080900 AAXX 08090 67663 NIL=
201310080600 AAXX 08060 67663 NIL=
201310071200 AAXX 07120 67663 NIL=
201310070900 AAXX 07094 67663 NIL=
201310070600 AAXX 07064 67663 31965 00707 10251 20136 48522 70500
                   333 10337 20186 59002
                   555 00///=
201310061200 AAXX 06120 67663 NIL=
201310060600 AAXX 06060 67663 NIL=
201310060000 AAXX 06004 67663 NIL=
201310051800 AAXX 05184 67663 NIL=
201310051500 AAXX 05154 67663 NIL=
201310051200 AAXX 05120 67663 NIL=
201310050900 AAXX 05094 67663 NIL=
201310050600 AAXX 05060 67663 NIL=
201310050300 AAXX 05034 67663 NIL=
201310041800 AAXX 04184 67663 NIL=
201310041500 AAXX 04154 67663 NIL=
201310041200 AAXX 04120 67663 NIL=
201310040900 AAXX 04094 67663 NIL=
201310040600 AAXX 04064 67663 31965 00808 10209 20059 48542 70500
                   333 10274 20184 58002=
201310040300 AAXX 04034 67663 NIL=
201310040000 AAXX 04004 67663 NIL=
201310032100 AAXX 03214 67663 NIL=
201310031800 AAXX 03184 67663 NIL=
201310031500 AAXX 03154 67663 NIL=
201310031200 AAXX 03120 67663 NIL=
201310030900 AAXX 03094 67663 NIL=
201310030600 AAXX 03064 67663 NIL=
201310030300 AAXX 03034 67663 NIL=
201310030000 AAXX 03004 67663 NIL=
201310021800 AAXX 02184 67663 NIL=
201310021200 AAXX 02120 67663 NIL=
201310020900 AAXX 02094 67663 NIL=
201310020600 AAXX 02060 67663 NIL=
201310011800 AAXX 01184 67663 NIL=
201310011500 AAXX 01154 67663 NIL=
201310011200 AAXX 01124 67663 NIL=
201310010900 AAXX 01094 67663 NIL=
201310010600 AAXX 01064 67663 NIL=

################################################################################
#  SYNOPS from 67665, Lusaka Internationalairport (Zambia) | 15-19S | 028-27E | 1152 m
################################################################################
201310310600 AAXX 31064 67665 31970 71203 10248 20175 48523 70522 87032
                   333 10340 20175 59004 87360 82080=
201310310000 AAXX 31004 67665 42980 01004 10197 20131 48572
                   333 59039=
201310301800 AAXX 30184 67665 42980 30000 10259 20184 48487 70200 80001
                   333 10340 59014 83080=
201310301500 AAXX 30154 67665 42780 50804 10311 20158 48483 70200 83201
                   333 59011 83856 83080=
201310301200 AAXX 30124 67665 42780 50506 10331 20190 48500 70200 83101
                   333 59014 83850 85080=
201310300900 AAXX 30094 67665 42980 51106 10306 20212 48524 80001
                   333 58002 85080 91018=
201310300600 AAXX 30064 67665 32980 60703 10241 20195 48523 81031
                   333 10335 20168 59005 81360 86080=
201310300300 AAXX 30034 67665 42980 11102 10233 20212 48504 70300 81031
                   333 59008 81360 81380=
201310292100 AAXX 29214 67665 42980 11003 10249 20155 48513 81032
                   333 59015 81360 81080=
201310291800 AAXX 29184 67665 42980 21202 10254 20154 48500 81032
                   333 10335 59016 81836 81080=
201310291500 AAXX 29154 67665 42980 60705 10312 20135 48494 81902
                   333 59014 81950 86280=
201310291200 AAXX 29124 67665 41670 20905 10314 20154 48503 81200
                   333 59038 82842=
201310290900 AAXX 29094 67665 41970 10808 10291 20163 48525 70500 80001
                   333 59021=
201310290600 AAXX 29064 67665 31970 01107 10230 20156 48530
                   333 10336 20160 59012=
201310281800 AAXX 28184 67665 42980 41303 10239 20179 48517 70122 84031
                   333 59002 84360 83080=
201310281200 AAXX 28124 67665 42680 50803 10312 20169 48521 70222 82131
                   333 58008 82840 83360 82080=
201310280900 AAXX 28094 67665 42980 60910 10275 20159 48545 86031
                   333 58005 86360 81080=
201310280600 AAXX 28064 67665 12980 20910 10243 20148 48542 69904 82032
                   333 10346 20168 58002 82360 82080=
201310280300 AAXX 28034 67665 42980 10907 10215 20192 48520 81030
                   333 58003 81360=
201310272100 AAXX 27214 67665 42980 00906 10224 20162 48525
                   333 58009=
201310271800 AAXX 27184 67665 42880 11104 10226 20146 48515 81930
                   333 58010 81957 81360=
201310271500 AAXX 27154 67665 41880 41004 10295 20164 48507 72522 81931
                   333 58000 81956 84857 81080=
201310271200 AAXX 27124 67665 42780 11004 10327 20142 48516 81200
                   333 59005 81856=
201310270900 AAXX 27094 67665 42980 10706 10299 20146 48542 81030
                   333 59002 81360=
201310270600 AAXX 27064 67665 32980 11104 10248 20146 48542 81030
                   333 10312 20164 59005 81360=
201310270300 AAXX 27034 67665 42980 00000 10225 20171 48520 70200
                   333 59005=
201310270000 AAXX 27004 67665 42980 00000 10242 20164 48512 70200
                   333 59007=
201310262100 AAXX 26214 67665 42980 00000 10262 20123 48521 70200
                   333 59011=
201310261500 AAXX 26154 67665 42880 11008 10312 20140 48508 81131
                   333 59025 81856 81359 81080=
201310261200 AAXX 26124 67665 42680 11003 10300 20163 48517 81200
                   333 59023 81850=
201310260900 AAXX 26094 67665 42680 10713 10278 20153 48542 81100
                   333 58013 81838=
201310260600 AAXX 26064 67665 32980 00907 10213 20141 48541
                   333 10268 20140 59021=
201310260300 AAXX 26034 67665 42980 01405 10180 20147 48518
                   333 59019=
201310260000 AAXX 26004 67665 42980 01304 10190 20140 48514
                   333 59001=
201310252100 AAXX 25214 67665 42980 01002 10195 20155 48525
                   333 59025=
201310251800 AAXX 25184 67665 NIL=
201310251500 AAXX 25154 67665 42780 20805 10276 48570 70200 82130
                   333 59023 82850 81359=
201310251200 AAXX 25124 67665 42680 50806 10261 20157 48535 70222 85230
                   333 59030 85835 82359=
201310250900 AAXX 25094 67665 42580 70908 10224 20162 48549 70222 85530
                   333 59020 85623 87359=
201310250600 AAXX 25064 67665 32480 70910 10190 20174 48555 60384 70222 83530
                   333 10235 20154 59009 83615 87359=
201310250000 AAXX 25004 67665 NIL=
201310242100 AAXX 24214 67665 42980 01303 10216 20179 48551
                   333 58008=
201310241800 AAXX 24184 67665 42980 21207 10195 20158 48544 82030
                   333 10235 58027 82360=
201310241500 AAXX 24154 67665 42560 61209 10212 20178 48543 84530
                   333 58040 84630 82360=
201310241200 AAXX 24124 67665 42460 81210 10195 20178 48556 8435/
                   333 49041 84618 87360=
201310240900 AAXX 24094 67665 41358 80909 10181 20174 48563 76066 8357/
                   333 58045 83710 88460=
201310240600 AAXX 24064 67665 31358 81011 10179 20176 48566 76066 8162/
                   333 10283 20150 58046 81706 88459=
201310240300 AAXX 24034 67665 41657 83403 10197 20197 48556 79569 8297/
                   333 58050 82940 88459=
201310232100 AAXX 23214 67665 42980 70912 10235 20147 48546 8707/
                   333 58044 87360=
201310231800 AAXX 23184 67665 41960 21008 10244 20167 48523 70200 82031
                   333 58035 81360 81080=
201310231500 AAXX 23154 67665 NIL=
201310231200 AAXX 23120 67665 NIL=
201310230900 AAXX 23094 67665 41659 71211 10267 20161 48538 70522 81530
                   333 58032 81632 87362=
201310230600 AAXX 23064 67665 31970 51209 10259 20149 48532 69914 70522 85030
                   333 10358 20217 58022 85360=
201310230300 AAXX 23034 67665 41970 62308 10181 20162 48507 86030
                   333 58032 86360=
201310230000 AAXX 23004 67665 41960 52409 10244 20196 48506 70522 85030
                   333 85360=
201310221800 AAXX 22184 67665 NIL=
201310221500 AAXX 22154 67665 41870 20000 10345 20110 48474 70500 81130
                   333 59003 81858 81360=
201310221200 AAXX 22124 67665 41770 33505 10359 20120 48488 70500 83200
                   333 58001 83856=
201310220900 AAXX 22094 67665 41970 03608 10337 20089 48510 70500
                   333 59005=
201310220600 AAXX 22064 67665 31970 10804 10267 20112 48512 70500 81080
                   333 10361 20163 59010 81360=
201310220300 AAXX 22034 67665 42980 00000 10189 20135 48481 70500
                   333 59021=
201310220000 AAXX 22004 67665 NIL=
201310212100 AAXX 21214 67665 42980 21202 10234 20146 48491 70500 82030
                   333 59016 82360=
201310211800 AAXX 21184 67665 42980 30000 10272 20156 48484 83030
                   333 10361 59014 83360=
201310211500 AAXX 21154 67665 42780 22902 10345 20134 48477 70500 82200
                   333 59007 82856=
201310211200 AAXX 21124 67665 42680 22903 10349 20086 48486 82100
                   333 59017 82840=
201310210900 AAXX 21094 67665 42980 10707 10310 20101 48511 81030
                   333 59017 81360=
201310210600 AAXX 21064 67665 32980 00503 10243 20146 48518
                   333 10365 20162 59009=
201310210300 AAXX 21034 67665 42980 01302 10176 20064 48494 70200
                   333 59012=
201310210000 AAXX 21004 67665 42980 01202 10192 20094 48589 70200
                   333 59019=
201310202100 AAXX 20214 67665 42980 00904 10214 20121 48504 70200
                   333 59008 91017=
201310201800 AAXX 20184 67665 42980 01003 10250 20116 48495 70200
                   333 10365 59010=
201310201500 AAXX 20154 67665 42980 01007 10334 20110 48483 70200
                   333 59012=
201310201200 AAXX 20124 67665 42780 10806 10336 20112 48503 70200 81100
                   333 59011 81850=
201310200900 AAXX 20094 67665 42980 00908 10316 20104 48521 70200
                   333 59009=
201310200600 AAXX 20064 67665 32980 10904 10250 20121 48524 70200 81001
                   333 10360 20151 59009 81030=
201310200300 AAXX 20034 67665 42980 01003 10180 20130 48506
                   333 59006=
201310192100 AAXX 19214 67665 42980 00903 10204 20075 48510 59007=
201310191800 AAXX 19184 67665 42980 01305 10252 20096 48505 70200
                   333 10356 59010=
201310191200 AAXX 19124 67665 42780 11206 10344 20089 48513 70300 81100
                   333 59001 81856=
201310190900 AAXX 19094 67665 42980 00906 10320 20086 48523 70200
                   333 59007=
201310190600 AAXX 19064 67665 32980 01004 10247 20086 48532 70500
                   333 10330 20147 59010=
201310181500 AAXX 18154 67665 42780 11202 10328 20080 48507 70200 81100
                   333 59017 81856=
201310181200 AAXX 18120 67665 NIL=
201310180900 AAXX 18094 67665 NIL=
201310180600 AAXX 18064 67665 NIL=
201310180300 AAXX 18034 67665 42980 00904 10176 20144 48513
                   333 59011=
201310180000 AAXX 18004 67665 42980 00905 10175 20115 48512
                   333 59007=
201310172100 AAXX 17214 67665 42980 01005 10213 20110 48531
                   333 59016=
201310171800 AAXX 17184 67665 42980 11204 10238 20076 48526 81030
                   333 10335 59024 81360=
201310171500 AAXX 17154 67665 NIL=
201310171200 AAXX 17124 67665 NIL=
201310170900 AAXX 17094 67665 42580 00907 10276 20138 48555 81100
                   333 59021 81825=
201310170600 AAXX 17064 67665 32980 01208 10239 20129 48555
                   333 10320 20123 59029=
201310161200 AAXX 16124 67665 42680 40908 10300 20144 48553 84100
                   333 59005 84840=
201310160900 AAXX 16094 67665 NIL=
201310151200 AAXX 15124 67665 NIL=
201310150900 AAXX 15094 67665 NIL=
201310150600 AAXX 15061 67665 NIL=
201310141200 AAXX 14124 67665 NIL=
201310140900 AAXX 14094 67665 42959 03004 10317 20131 48541 70500
                   333 58014=
201310140600 AAXX 14064 67665 NIL=
201310131200 AAXX 13120 67665 NIL=
201310130900 AAXX 13090 67665 NIL=
201310130600 AAXX 13060 67665 NIL=
201310122100 AAXX 12214 67665 NIL=
201310121500 AAXX 12154 67665 NIL=
201310121200 AAXX 12120 67665 NIL=
201310120900 AAXX 12094 67665 NIL=
201310120600 AAXX 12060 67665 NIL=
201310120300 AAXX 12034 67665 NIL=
201310112100 AAXX 11214 67665 NIL=
201310111800 AAXX 11184 67665 NIL=
201310111500 AAXX 11154 67665 NIL=
201310111200 AAXX 11120 67665 NIL=
201310110900 AAXX 11094 67665 NIL=
201310110600 AAXX 11060 67665 NIL=
201310110300 AAXX 11034 67665 NIL=
201310101800 AAXX 10184 67665 NIL=
201310101500 AAXX 10154 67665 NIL=
201310101200 AAXX 10124 67665 NIL=
201310100900 AAXX 10094 67665 NIL=
201310100600 AAXX 10060 67665 NIL=
201310100300 AAXX 10034 67665 NIL=
201310100000 AAXX 10004 67665 NIL=
201310091800 AAXX 09184 67665 NIL=
201310091500 AAXX 09154 67665 NIL=
201310091200 AAXX 09120 67665 NIL=
201310090900 AAXX 09094 67665 NIL=
201310090600 AAXX 09064 67665 32980 10206 10220 20140 48549
                   333 10320 20130 59010
                   555 00///=
201310081200 AAXX 08120 67665 NIL=
201310080900 AAXX 08090 67665 NIL=
201310080600 AAXX 08060 67665 NIL=
201310071200 AAXX 07120 67665 NIL=
201310070900 AAXX 07094 67665 NIL=
201310070600 AAXX 07060 67665 NIL=
201310061200 AAXX 06120 67665 NIL=
201310060600 AAXX 06060 67665 NIL=
201310060000 AAXX 06004 67665 NIL=
201310051800 AAXX 05184 67665 42980 00000 10234 20127 48526
                   333 10321 59012=
201310051500 AAXX 05154 67665 42780 42902 10306 20120 48520 84100
                   333 59012 84856=
201310051200 AAXX 05124 67665 42680 50304 10300 20104 85200
                   333 59007 85840=
201310050900 AAXX 05094 67665 NIL=
201310050600 AAXX 05060 67665 NIL=
201310050300 AAXX 05034 67665 NIL=
201310041800 AAXX 04184 67665 NIL=
201310041500 AAXX 04154 67665 NIL=
201310041200 AAXX 04120 67665 NIL=
201310040900 AAXX 04094 67665 NIL=
201310040600 AAXX 04064 67665 NIL=
201310040300 AAXX 04034 67665 NIL=
201310040000 AAXX 04004 67665 NIL=
201310032100 AAXX 03214 67665 NIL=
201310031800 AAXX 03184 67665 NIL=
201310031500 AAXX 03154 67665 NIL=
201310031200 AAXX 03120 67665 NIL=
201310030900 AAXX 03094 67665 NIL=
201310030600 AAXX 03064 67665 NIL=
201310030300 AAXX 03034 67665 NIL=
201310030000 AAXX 03004 67665 NIL=
201310021800 AAXX 02184 67665 NIL=
201310021200 AAXX 02120 67665 NIL=
201310020900 AAXX 02094 67665 NIL=
201310020600 AAXX 02060 67665 NIL=
201310011800 AAXX 01184 67665 42980 21004 10164 20122 48573 83030
                   333 10219 58009 82360=
201310011500 AAXX 01154 67665 42680 71006 10203 20120 48564 87500
                   333 58005 87650=
201310011200 AAXX 01124 67665 NIL=
201310010900 AAXX 01094 67665 NIL=
201310010600 AAXX 01064 67665 32380 81212 10174 20128 48583 8553/
                   333 10275 20137 58020 85709 87360=

################################################################################
#  SYNOPS from 67666, Lusaka City Airport (Zambia) | 15-25S | 028-19E | 1280 m
################################################################################
201310310600 AAXX 31064 67666 31980 72605 10240 20155 48513 70500 8708/
                   333 10330 20194 59005 87358
                   555 00/// 91017=
201310310000 AAXX 31004 67666 NIL=
201310301800 AAXX 30184 67666 NIL=
201310301500 AAXX 30154 67666 NIL=
201310301200 AAXX 30124 67666 42780 70909 10320 20130 48493 82105
                   333 59005 82856 86280 91014=
201310300900 AAXX 30094 67666 NIL=
201310300600 AAXX 30064 67666 31975 40910 10245 20141 48519 70500 84032
                   333 10320 20205 59007 84360 84080
                   555 00/// 91018=
201310300300 AAXX 30034 67666 NIL=
201310292100 AAXX 29214 67666 NIL=
201310291800 AAXX 29184 67666 NIL=
201310291500 AAXX 29154 67666 NIL=
201310291200 AAXX 29124 67666 42780 30908 10305 20140 48497 83200
                   333 59019 83850 91015=
201310290900 AAXX 29094 67666 NIL=
201310290600 AAXX 29064 67666 31975 10912 10230 20141 48525 70500 80001
                   333 10325 20190 59010 81080
                   555 00/// 91019=
201310281800 AAXX 28184 67666 NIL=
201310281200 AAXX 28124 67666 NIL=
201310280900 AAXX 28094 67666 42980 70912 10269 20152 48535 8703/
                   333 58004 87360 91020=
201310280600 AAXX 28064 67666 12980 60912 10230 20141 48535 60024 84031
                   333 10330 20204 58002 84360 82080
                   555 00/// 91020=
201310280300 AAXX 28034 67666 NIL=
201310272100 AAXX 27214 67666 NIL=
201310271800 AAXX 27184 67666 NIL=
201310271500 AAXX 27154 67666 NIL=
201310271200 AAXX 27124 67666 NIL=
201310270900 AAXX 27094 67666 NIL=
201310270600 AAXX 27064 67666 NIL=
201310270300 AAXX 27034 67666 NIL=
201310270000 AAXX 27004 67666 NIL=
201310262100 AAXX 26214 67666 NIL=
201310261500 AAXX 26154 67666 NIL=
201310261200 AAXX 26124 67666 NIL=
201310260900 AAXX 26094 67666 NIL=
201310260600 AAXX 26064 67666 NIL=
201310260300 AAXX 26034 67666 NIL=
201310260000 AAXX 26004 67666 NIL=
201310252100 AAXX 25214 67666 NIL=
201310251800 AAXX 25184 67666 NIL=
201310251200 AAXX 25124 67666 42580 50907 10235 20165 48526 85200
                   333 59027 85830 91019=
201310250900 AAXX 25094 67666 42480 70910 10210 20164 48550 8583/
                   333 59016 83616 84818 87360 91022=
201310250600 AAXX 25064 67666 12480 70913 10180 20156 48552 60034 8453/
                   333 10205 20165 59005 84610 87359 20059 91022=
201310250000 AAXX 25004 67666 NIL=
201310242100 AAXX 24214 67666 NIL=
201310241800 AAXX 24184 67666 NIL=
201310241500 AAXX 24154 67666 NIL=
201310241200 AAXX 24124 67666 NIL=
201310240600 AAXX 24060 67666 NIL=
201310232100 AAXX 23214 67666 NIL=
201310231800 AAXX 23184 67666 NIL=
201310231500 AAXX 23154 67666 NIL=
201310231200 AAXX 23120 67666 NIL=
201310230900 AAXX 23094 67666 42680 70905 10275 20159 48531 83137
                   333 58012 83830 81360 87280 91019=
201310230600 AAXX 23064 67666 32980 72408 10255 20153 48526 83037
                   333 10350 20221 58014 83360 87280 91019=
201310230300 AAXX 23034 67666 NIL=
201310230000 AAXX 23004 67666 NIL=
201310221800 AAXX 22184 67666 NIL=
201310221500 AAXX 22154 67666 NIL=
201310221200 AAXX 22124 67666 NIL=
201310220900 AAXX 22090 67666 NIL=
201310220600 AAXX 22064 67666 31958 30000 10270 20100 48504 70500 83030
                   333 10345 20172 59008 83359 91016=
201310220300 AAXX 22034 67666 NIL=
201310220000 AAXX 22004 67666 NIL=
201310212100 AAXX 21214 67666 NIL=
201310211800 AAXX 21184 67666 NIL=
201310211500 AAXX 21154 67666 NIL=
201310211200 AAXX 21124 67666 NIL=
201310210900 AAXX 21094 67666 NIL=
201310210600 AAXX 21064 67666 31959 00410 10238 20159 48570 70500
                   333 10337 20199 59010 91017=
201310210300 AAXX 21034 67666 NIL=
201310210000 AAXX 21004 67666 NIL=
201310201800 AAXX 20184 67666 NIL=
201310201500 AAXX 20154 67666 NIL=
201310201200 AAXX 20124 67666 NIL=
201310200600 AAXX 20064 67666 NIL=
201310191800 AAXX 19184 67666 NIL=
201310190900 AAXX 19094 67666 NIL=
201310190600 AAXX 19064 67666 NIL=
201310181500 AAXX 18150 67666 NIL=
201310181200 AAXX 18120 67666 NIL=
201310180900 AAXX 18094 67666 NIL=
201310180600 AAXX 18064 67666 32980 00910 10235 20096 48534
                   333 10315 20189 59013 91020=
201310180300 AAXX 18034 67666 NIL=
201310180000 AAXX 18004 67666 NIL=
201310171800 AAXX 17184 67666 NIL=
201310171500 AAXX 17154 67666 NIL=
201310171200 AAXX 17124 67666 42780 40907 10305 20106 48522 84200
                   333 59025 84856 91018=
201310170900 AAXX 17094 67666 NIL=
201310170600 AAXX 17064 67666 32980 00910 10215 20142 48545
                   333 10310 20165 59025 91021=
201310161200 AAXX 16124 67666 42680 40909 10295 20136 48544 84200
                   333 59005 84835 91020=
201310160900 AAXX 16094 67666 42580 20912 10260 20160 48566 82500
                   333 59001 82620 91023=
201310160600 AAXX 16064 67666 32480 30910 10200 20155 48568 83500
                   333 10295 20165 58005 83612 91024=
201310151200 AAXX 15124 67666 NIL=
201310150900 AAXX 15094 67666 NIL=
201310150600 AAXX 15064 67666 12980 30810 10220 20173 48564 69904 83030
                   333 10346 20184 58019 83360
                   555 00/// 91024=
201310141200 AAXX 14124 67666 NIL=
201310140900 AAXX 14094 67666 42980 00104 10319 20132 48534
                   333 58024 91019=
201310140600 AAXX 14064 67666 31960 00104 10246 20140 48530 70500
                   333 10350 20204 58016
                   555 00/// Q1019.6=
201310131200 AAXX 13120 67666 NIL=
201310130900 AAXX 13090 67666 NIL=
201310130600 AAXX 13060 67666 NIL=
201310122100 AAXX 12214 67666 NIL=
201310121500 AAXX 12154 67666 NIL=
201310121200 AAXX 12120 67666 NIL=
201310120900 AAXX 12094 67666 NIL=
201310120600 AAXX 12060 67666 NIL=
201310120300 AAXX 12034 67666 NIL=
201310112100 AAXX 11214 67666 NIL=
201310111800 AAXX 11184 67666 NIL=
201310111500 AAXX 11154 67666 NIL=
201310111200 AAXX 11120 67666 NIL=
201310110900 AAXX 11094 67666 NIL=
201310110600 AAXX 11064 67666 32980 00910 10235 20096 48556
                   333 10315 20190 58008 91022=
201310110300 AAXX 11034 67666 NIL=
201310101800 AAXX 10184 67666 NIL=
201310101500 AAXX 10154 67666 NIL=
201310101200 AAXX 10124 67666 NIL=
201310100900 AAXX 10094 67666 NIL=
201310100600 AAXX 10064 67666 32980 00915 10220 20099 48548
                   333 10305 20176 59005 91022=
201310100300 AAXX 10034 67666 NIL=
201310100000 AAXX 10004 67666 NIL=
201310091800 AAXX 09184 67666 NIL=
201310091500 AAXX 09154 67666 NIL=
201310091200 AAXX 09124 67666 42780 40907 10290 20084 48526 84200
                   333 59008 84850 91018=
201310090900 AAXX 09094 67666 42680 01008 10255 20114 48551 82100
                   333 59008 82848 91022=
201310090600 AAXX 09064 67666 32980 00915 10210 20137 48552
                   333 10310 20170 59009 91022=
201310081200 AAXX 08120 67666 NIL=
201310080900 AAXX 08090 67666 NIL=
201310080600 AAXX 08064 67666 12480 30808 10210 20154 48560 60014 83500
                   333 10305 20174 58018 83615 91023=
201310071200 AAXX 07120 67666 NIL=
201310070900 AAXX 07094 67666 42680 20910 10285 20133 48549 82100
                   333 5//// 82845 91021=
201310070600 AAXX 07064 67666 32980 00916 10245 20121 48546
                   333 10315 20200 58004 91021=
201310061200 AAXX 06120 67666 NIL=
201310060600 AAXX 06060 67666 NIL=
201310060000 AAXX 06004 67666 NIL=
201310051800 AAXX 05184 67666 NIL=
201310051500 AAXX 05154 67666 NIL=
201310051200 AAXX 05120 67666 NIL=
201310050900 AAXX 05094 67666 NIL=
201310050600 AAXX 05060 67666 NIL=
201310050300 AAXX 05034 67666 NIL=
201310041800 AAXX 04184 67666 NIL=
201310041500 AAXX 04154 67666 NIL=
201310041200 AAXX 04124 67666 42680 1//// 10271 20043 48526 81100
                   333 58002 81848 91019=
201310040900 AAXX 04094 67666 NIL=
201310040600 AAXX 04064 67666 32980 00914 10190 20055 48555
                   333 10270 20145 58001 91023=
201310040300 AAXX 04034 67666 NIL=
201310040000 AAXX 04004 67666 NIL=
201310032100 AAXX 03214 67666 NIL=
201310031800 AAXX 03184 67666 NIL=
201310031500 AAXX 03154 67666 NIL=
201310031200 AAXX 03120 67666 NIL=
201310030900 AAXX 03094 67666 42680 20903 10230 20090 48550 82100
                   333 59026 82830 91022=
201310030600 AAXX 03064 67666 32980 00910 10183 20087 48553
                   333 10248 20120 59025 91023=
201310030300 AAXX 03034 67666 NIL=
201310030000 AAXX 03004 67666 NIL=
201310021800 AAXX 02184 67666 NIL=
201310021200 AAXX 02124 67666 42680 30405 10236 20075 48545 83100
                   333 59020 83847 91021=
201310020900 AAXX 02094 67666 NIL=
201310020600 AAXX 02064 67666 32480 71015 10146 20099 48575 878//
                   333 10195 20118 59001 85615 83818
                   555 00/// 91025=
201310011800 AAXX 01184 67666 NIL=
201310011500 AAXX 01154 67666 NIL=
201310011200 AAXX 01124 67666 NIL=
201310010900 AAXX 01094 67666 42580 81412 10185 20118 48578 888//
                   333 58015 86620 84825 91025=
201310010600 AAXX 01064 67666 32580 71316 10164 20119 48576 875//
                   333 10329 20141 58019 87618 91026=

################################################################################
#  SYNOPS from 67667, Mount Makulu (Zambia) | 15-33S | 028-15E | 1213 m
################################################################################
201310310600 AAXX 31064 67667 NIL=
201310310000 AAXX 31004 67667 NIL=
201310301800 AAXX 30184 67667 NIL=
201310301500 AAXX 30154 67667 NIL=
201310301200 AAXX 30124 67667 NIL=
201310300900 AAXX 30094 67667 NIL=
201310300600 AAXX 30064 67667 NIL=
201310300300 AAXX 30034 67667 NIL=
201310292100 AAXX 29214 67667 NIL=
201310291800 AAXX 29184 67667 NIL=
201310291500 AAXX 29154 67667 NIL=
201310291200 AAXX 29124 67667 NIL=
201310290900 AAXX 29094 67667 NIL=
201310290600 AAXX 29064 67667 NIL=
201310281800 AAXX 28184 67667 NIL=
201310281200 AAXX 28124 67667 NIL=
201310280900 AAXX 28094 67667 NIL=
201310280600 AAXX 28064 67667 NIL=
201310280300 AAXX 28034 67667 NIL=
201310272100 AAXX 27214 67667 NIL=
201310271800 AAXX 27184 67667 NIL=
201310271500 AAXX 27154 67667 NIL=
201310271200 AAXX 27124 67667 NIL=
201310270900 AAXX 27094 67667 NIL=
201310270600 AAXX 27064 67667 NIL=
201310270300 AAXX 27034 67667 NIL=
201310270000 AAXX 27004 67667 NIL=
201310262100 AAXX 26214 67667 NIL=
201310261500 AAXX 26154 67667 NIL=
201310261200 AAXX 26124 67667 NIL=
201310260900 AAXX 26094 67667 NIL=
201310260600 AAXX 26064 67667 NIL=
201310260300 AAXX 26034 67667 NIL=
201310260000 AAXX 26004 67667 NIL=
201310252100 AAXX 25214 67667 NIL=
201310251800 AAXX 25184 67667 NIL=
201310251200 AAXX 25124 67667 NIL=
201310250900 AAXX 25094 67667 NIL=
201310250600 AAXX 25064 67667 NIL=
201310250000 AAXX 25004 67667 NIL=
201310242100 AAXX 24214 67667 NIL=
201310241800 AAXX 24184 67667 NIL=
201310241500 AAXX 24154 67667 NIL=
201310241200 AAXX 24124 67667 NIL=
201310240600 AAXX 24060 67667 NIL=
201310232100 AAXX 23214 67667 NIL=
201310231800 AAXX 23184 67667 NIL=
201310231500 AAXX 23154 67667 NIL=
201310231200 AAXX 23120 67667 NIL=
201310230900 AAXX 23094 67667 NIL=
201310230600 AAXX 23064 67667 NIL=
201310230300 AAXX 23034 67667 NIL=
201310230000 AAXX 23004 67667 NIL=
201310221800 AAXX 22184 67667 NIL=
201310221500 AAXX 22154 67667 NIL=
201310221200 AAXX 22124 67667 NIL=
201310220900 AAXX 22090 67667 NIL=
201310220600 AAXX 22064 67667 NIL=
201310220300 AAXX 22034 67667 NIL=
201310220000 AAXX 22004 67667 NIL=
201310212100 AAXX 21214 67667 NIL=
201310211800 AAXX 21184 67667 NIL=
201310211500 AAXX 21154 67667 NIL=
201310211200 AAXX 21124 67667 NIL=
201310210900 AAXX 21094 67667 NIL=
201310210600 AAXX 21064 67667 NIL=
201310210300 AAXX 21034 67667 NIL=
201310210000 AAXX 21004 67667 NIL=
201310201800 AAXX 20184 67667 NIL=
201310201500 AAXX 20154 67667 NIL=
201310201200 AAXX 20124 67667 NIL=
201310200600 AAXX 20064 67667 NIL=
201310191800 AAXX 19184 67667 NIL=
201310190900 AAXX 19094 67667 NIL=
201310190600 AAXX 19064 67667 NIL=
201310181500 AAXX 18150 67667 NIL=
201310181200 AAXX 18120 67667 NIL=
201310180900 AAXX 18094 67667 NIL=
201310180600 AAXX 18064 67667 NIL=
201310180300 AAXX 18034 67667 NIL=
201310180000 AAXX 18004 67667 NIL=
201310171800 AAXX 17184 67667 NIL=
201310171500 AAXX 17154 67667 NIL=
201310171200 AAXX 17124 67667 NIL=
201310170900 AAXX 17094 67667 NIL=
201310170600 AAXX 17064 67667 NIL=
201310161200 AAXX 16124 67667 NIL=
201310160900 AAXX 16094 67667 NIL=
201310151200 AAXX 15124 67667 NIL=
201310150900 AAXX 15094 67667 NIL=
201310150600 AAXX 15061 67667 NIL=
201310141200 AAXX 14124 67667 NIL=
201310140900 AAXX 14094 67667 NIL=
201310140600 AAXX 14064 67667 NIL=
201310131200 AAXX 13120 67667 NIL=
201310130900 AAXX 13090 67667 NIL=
201310130600 AAXX 13060 67667 NIL=
201310122100 AAXX 12214 67667 NIL=
201310121500 AAXX 12154 67667 NIL=
201310121200 AAXX 12120 67667 NIL=
201310120900 AAXX 12094 67667 NIL=
201310120600 AAXX 12060 67667 NIL=
201310120300 AAXX 12034 67667 NIL=
201310112100 AAXX 11214 67667 NIL=
201310111800 AAXX 11184 67667 NIL=
201310111500 AAXX 11154 67667 NIL=
201310111200 AAXX 11120 67667 NIL=
201310110900 AAXX 11094 67667 NIL=
201310110600 AAXX 11060 67667 NIL=
201310110300 AAXX 11034 67667 NIL=
201310101800 AAXX 10184 67667 NIL=
201310101500 AAXX 10154 67667 NIL=
201310101200 AAXX 10124 67667 NIL=
201310100900 AAXX 10094 67667 NIL=
201310100600 AAXX 10060 67667 NIL=
201310100300 AAXX 10034 67667 NIL=
201310100000 AAXX 10004 67667 NIL=
201310091800 AAXX 09184 67667 NIL=
201310091500 AAXX 09154 67667 NIL=
201310091200 AAXX 09124 67667 NIL=
201310090900 AAXX 09094 67667 NIL=
201310090600 AAXX 09060 67667 NIL=
201310081200 AAXX 08120 67667 NIL=
201310080900 AAXX 08090 67667 NIL=
201310080600 AAXX 08060 67667 NIL=
201310071200 AAXX 07120 67667 NIL=
201310070900 AAXX 07094 67667 NIL=
201310070600 AAXX 07060 67667 NIL=
201310061200 AAXX 06120 67667 NIL=
201310060600 AAXX 06060 67667 NIL=
201310060000 AAXX 06004 67667 NIL=
201310051800 AAXX 05184 67667 NIL=
201310051500 AAXX 05154 67667 NIL=
201310051200 AAXX 05120 67667 NIL=
201310050900 AAXX 05094 67667 NIL=
201310050600 AAXX 05060 67667 NIL=
201310050300 AAXX 05034 67667 NIL=
201310041800 AAXX 04184 67667 NIL=
201310041500 AAXX 04154 67667 NIL=
201310041200 AAXX 04124 67667 NIL=
201310040900 AAXX 04094 67667 NIL=
201310040600 AAXX 04064 67667 NIL=
201310040300 AAXX 04034 67667 NIL=
201310040000 AAXX 04004 67667 NIL=
201310032100 AAXX 03214 67667 NIL=
201310031800 AAXX 03184 67667 NIL=
201310031500 AAXX 03154 67667 NIL=
201310031200 AAXX 03120 67667 NIL=
201310030900 AAXX 03094 67667 NIL=
201310030600 AAXX 03064 67667 NIL=
201310030300 AAXX 03034 67667 NIL=
201310030000 AAXX 03004 67667 NIL=
201310021800 AAXX 02184 67667 NIL=
201310021200 AAXX 02124 67667 NIL=
201310020900 AAXX 02094 67667 NIL=
201310020600 AAXX 02060 67667 NIL=
201310011800 AAXX 01184 67667 NIL=
201310011500 AAXX 01154 67667 NIL=
201310011200 AAXX 01124 67667 NIL=
201310010900 AAXX 01094 67667 NIL=
201310010600 AAXX 01064 67667 NIL=

################################################################################
#  SYNOPS from 67673, Petauke (Zambia) | 14-15S | 031-17E | 1035 m
################################################################################
201310310600 AAXX 31064 67673 31570 53604 10295 20007 48536 70522 81101
                   333 10349 20236 59019 81825 85080
                   555 00/// 20000=
201310310000 AAXX 31004 67673 NIL=
201310301800 AAXX 30184 67673 NIL=
201310301500 AAXX 30154 67673 NIL=
201310301200 AAXX 30124 67673 NIL=
201310300900 AAXX 30094 67673 NIL=
201310300600 AAXX 30064 67673 NIL=
201310300300 AAXX 30034 67673 NIL=
201310292100 AAXX 29214 67673 NIL=
201310291800 AAXX 29184 67673 NIL=
201310291500 AAXX 29154 67673 NIL=
201310291200 AAXX 29124 67673 41670 60502 10350 20106 48520 70522
                   333 59016 86840=
201310290900 AAXX 29094 67673 41670 50103 10305 20132 48546 70522
                   333 59013 85835=
201310290600 AAXX 29064 67673 31570 23602 10265 20146 48552 70500
                   333 10355 20205 59014
                   555 00/// 20000=
201310281800 AAXX 28184 67673 NIL=
201310281200 AAXX 28124 67673 41670 50902 10335 20128 48534 70522
                   333 5//// 85840=
201310280900 AAXX 28094 67673 NIL=
201310280600 AAXX 28064 67673 31970 00902 10268 20153 48567 70500
                   333 10365 20210 58010
                   555 00/// 20000=
201310280300 AAXX 28034 67673 NIL=
201310272100 AAXX 27214 67673 NIL=
201310271800 AAXX 27184 67673 NIL=
201310271500 AAXX 27154 67673 NIL=
201310271200 AAXX 27124 67673 NIL=
201310270900 AAXX 27094 67673 NIL=
201310270600 AAXX 27064 67673 NIL=
201310270300 AAXX 27034 67673 NIL=
201310270000 AAXX 27004 67673 NIL=
201310262100 AAXX 26214 67673 NIL=
201310261500 AAXX 26154 67673 NIL=
201310261200 AAXX 26124 67673 NIL=
201310260900 AAXX 26094 67673 NIL=
201310260600 AAXX 26064 67673 NIL=
201310260300 AAXX 26034 67673 NIL=
201310260000 AAXX 26004 67673 NIL=
201310252100 AAXX 25214 67673 NIL=
201310251800 AAXX 25184 67673 NIL=
201310251200 AAXX 25124 67673 41670 60902 10295 20130 48539 70522
                   333 5//// 82840=
201310250900 AAXX 25094 67673 NIL=
201310250600 AAXX 25064 67673 31570 31203 10229 20153 48573 70500 83100
                   333 10345 20185 58000 83825
                   555 00/// 20000=
201310250000 AAXX 25004 67673 NIL=
201310242100 AAXX 24214 67673 NIL=
201310241800 AAXX 24184 67673 NIL=
201310241500 AAXX 24154 67673 NIL=
201310241200 AAXX 24124 67673 NIL=
201310240600 AAXX 24060 67673 NIL=
201310232100 AAXX 23214 67673 NIL=
201310231800 AAXX 23184 67673 NIL=
201310231500 AAXX 23154 67673 NIL=
201310231200 AAXX 23120 67673 NIL=
201310230900 AAXX 23094 67673 41670 21009 10323 20133 48551 70500
                   333 58026 82835=
201310230600 AAXX 23064 67673 31970 00905 10280 20165 48554 70500
                   333 10380 20220 555 00/// 20000=
201310230300 AAXX 23034 67673 NIL=
201310230000 AAXX 23004 67673 NIL=
201310221800 AAXX 22184 67673 NIL=
201310221500 AAXX 22154 67673 NIL=
201310221200 AAXX 22124 67673 41670 40902 10365 20087 48512 70500
                   333 58002 84840=
201310220900 AAXX 22094 67673 41970 00904 10335 20088 48528 70500
                   333 59004=
201310220600 AAXX 22064 67673 31670 03604 10280 20104 48529 70500
                   333 10370 20231 555 00/// 20000=
201310220300 AAXX 22034 67673 NIL=
201310220000 AAXX 22004 67673 NIL=
201310212100 AAXX 21214 67673 NIL=
201310211800 AAXX 21184 67673 NIL=
201310211500 AAXX 21154 67673 NIL=
201310211200 AAXX 21124 67673 NIL=
201310210900 AAXX 21094 67673 41970 03606 10330 20115 48527 70500
                   333 5////=
201310210600 AAXX 21064 67673 31970 00504 10280 20115 48580 70500
                   333 59018 555 00/// 20000=
201310210300 AAXX 21034 67673 NIL=
201310210000 AAXX 21004 67673 NIL=
201310201800 AAXX 20184 67673 NIL=
201310201500 AAXX 20154 67673 NIL=
201310201200 AAXX 20124 67673 NIL=
201310200600 AAXX 20064 67673 NIL=
201310191800 AAXX 19184 67673 NIL=
201310190900 AAXX 19094 67673 NIL=
201310190600 AAXX 19064 67673 NIL=
201310181500 AAXX 18150 67673 NIL=
201310181200 AAXX 18124 67673 41670 40901 10330 20085 48534 70500 84100
                   333 59012 84840=
201310180900 AAXX 18094 67673 41670 33604 10315 20106 48560 70500 83100
                   333 59016 83835=
201310180600 AAXX 18064 67673 31570 30902 10275 20085 48568 70500 83100
                   333 59006 83825 555 00/// 20000=
201310180300 AAXX 18034 67673 NIL=
201310180000 AAXX 18004 67673 NIL=
201310171800 AAXX 17184 67673 NIL=
201310171500 AAXX 17154 67673 41670 30102 10312 20102 48542 70500 83100
                   333 59022 83840 555 10334=
201310171200 AAXX 17124 67673 41670 60902 10322 20118 48544 70522 86200
                   333 59026 86840=
201310170900 AAXX 17094 67673 41670 40902 10295 20135 48572 70500 84131
                   333 59033 84835 83360 81080=
201310170600 AAXX 17064 67673 32570 41002 10256 20133 48570 70500
                   333 10305 20190 59029
                   555 00/// 20000=
201310161200 AAXX 16124 67673 41670 60402 10298 20146 48566 70522 86200
                   333 59015 86840=
201310160900 AAXX 16094 67673 NIL=
201310151200 AAXX 15124 67673 NIL=
201310150900 AAXX 15094 67673 NIL=
201310150600 AAXX 15064 67673 11970 00904 10260 20159 48600 69904 70500
                   333 10379 20200 58048
                   555 00///=
201310141200 AAXX 14124 67673 NIL=
201310140900 AAXX 14094 67673 NIL=
201310140600 AAXX 14064 67673 NIL=
201310131200 AAXX 13120 67673 NIL=
201310130900 AAXX 13090 67673 NIL=
201310130600 AAXX 13060 67673 NIL=
201310122100 AAXX 12214 67673 NIL=
201310121500 AAXX 12154 67673 NIL=
201310121200 AAXX 12120 67673 NIL=
201310120900 AAXX 12094 67673 NIL=
201310120600 AAXX 12060 67673 NIL=
201310120300 AAXX 12034 67673 NIL=
201310112100 AAXX 11214 67673 NIL=
201310111800 AAXX 11184 67673 NIL=
201310111500 AAXX 11154 67673 NIL=
201310111200 AAXX 11124 67673 41670 60804 10320 20064 48544 70522 86200
                   333 58002 86840=
201310110900 AAXX 11094 67673 NIL=
201310110600 AAXX 11064 67673 31970 10804 10270 20123 48585 70500 80001
                   333 10344 20196 58011 81080
                   555 00///=
201310110300 AAXX 11034 67673 NIL=
201310101800 AAXX 10184 67673 NIL=
201310101500 AAXX 10154 67673 NIL=
201310101200 AAXX 10124 67673 NIL=
201310100900 AAXX 10094 67673 NIL=
201310100600 AAXX 10060 67673 NIL=
201310100300 AAXX 10034 67673 NIL=
201310100000 AAXX 10004 67673 NIL=
201310091800 AAXX 09184 67673 NIL=
201310091500 AAXX 09154 67673 NIL=
201310091200 AAXX 09124 67673 41670 50902 10300 20089 48547 70522 85200
                   333 59003 85840=
201310090900 AAXX 09094 67673 41670 50903 10280 20119 48571 70522 85200
                   333 59008 85835=
201310090600 AAXX 09060 67673 NIL=
201310081200 AAXX 08124 67673 41670 50904 10315 20112 48553 70522 85231
                   333 58010 85840 83360 82080=
201310080900 AAXX 08094 67673 41670 40904 10284 20313 48578 70500 84200
                   333 58002 84835=
201310080600 AAXX 08064 67673 31570 20904 10238 20146 48585 70500 82100
                   333 10345 20175 58018 82825
                   555 00///=
201310071200 AAXX 07120 67673 NIL=
201310070900 AAXX 07094 67673 NIL=
201310070600 AAXX 07064 67673 31970 00906 10270 20132 48573 70500
                   333 10340 20190 59002
                   555 00///=
201310061200 AAXX 06120 67673 NIL=
201310060600 AAXX 06060 67673 NIL=
201310060000 AAXX 06004 67673 NIL=
201310051800 AAXX 05184 67673 NIL=
201310051500 AAXX 05154 67673 NIL=
201310051200 AAXX 05120 67673 NIL=
201310050900 AAXX 05094 67673 NIL=
201310050600 AAXX 05060 67673 NIL=
201310050300 AAXX 05034 67673 NIL=
201310041800 AAXX 04184 67673 NIL=
201310041500 AAXX 04154 67673 NIL=
201310041200 AAXX 04124 67673 NIL=
201310040900 AAXX 04094 67673 41670 40904 10270 20112 48579 70500 84100
                   333 58005 84835=
201310040600 AAXX 04064 67673 31970 00904 10238 20096 48582 70500
                   333 10290 20156 58000
                   555 00///=
201310040300 AAXX 04034 67673 NIL=
201310040000 AAXX 04004 67673 NIL=
201310032100 AAXX 03214 67673 NIL=
201310031800 AAXX 03184 67673 NIL=
201310031500 AAXX 03154 67673 NIL=
201310031200 AAXX 03120 67673 NIL=
201310030900 AAXX 03094 67673 41670 41003 10255 20065 48573 70500 84100
                   333 59033 84835=
201310030600 AAXX 03064 67673 31570 11004 10232 20038 48580 70500 81100
                   333 10250 20130 59026 81525
                   555 00///=
201310030300 AAXX 03034 67673 NIL=
201310030000 AAXX 03004 67673 NIL=
201310021800 AAXX 02184 67673 NIL=
201310021200 AAXX 02124 67673 NIL=
201310020900 AAXX 02094 67673 42680 51005 10215 20100 48597 85100
                   333 59003 85830=
201310020600 AAXX 02064 67673 32580 61707 10174 20105 48593 86500
                   333 10194 20149 58003 86620
                   555 00///=
201310011800 AAXX 01184 67673 NIL=
201310011500 AAXX 01154 67673 NIL=
201310011200 AAXX 01124 67673 42580 81510 10165 20118 48581 885//
                   333 58041 88630=
201310010900 AAXX 01094 67673 42580 71009 10190 20115 48594 875//
                   333 58020 87630=
201310010600 AAXX 01064 67673 12580 81005 10175 20124 48592 69904 885//
                   333 10290 20165 58022 88620
                   555 00///=

################################################################################
#  SYNOPS from 67731, Senanga (Zambia) | 16-06S | 023-16E | 1027 m
################################################################################
201310310600 AAXX 31064 67731 NIL=
201310310000 AAXX 31004 67731 NIL=
201310301800 AAXX 30184 67731 NIL=
201310301500 AAXX 30154 67731 NIL=
201310301200 AAXX 30120 67731 NIL=
201310300900 AAXX 30094 67731 NIL=
201310300600 AAXX 30064 67731 12480 618// 10226 20160 48/// 60094 84130
                   333 10391 20141 5//// 84823 85361
                   555 00/// 20003=
201310300300 AAXX 30034 67731 NIL=
201310292100 AAXX 29214 67731 NIL=
201310291800 AAXX 29184 67731 NIL=
201310291500 AAXX 29154 67731 NIL=
201310291200 AAXX 29124 67731 NIL=
201310290900 AAXX 29094 67731 NIL=
201310290600 AAXX 29064 67731 NIL=
201310281800 AAXX 28184 67731 NIL=
201310281200 AAXX 28124 67731 NIL=
201310280900 AAXX 28094 67731 NIL=
201310280600 AAXX 28064 67731 NIL=
201310280300 AAXX 28034 67731 NIL=
201310272100 AAXX 27214 67731 NIL=
201310271800 AAXX 27184 67731 NIL=
201310271500 AAXX 27154 67731 NIL=
201310271200 AAXX 27124 67731 NIL=
201310270900 AAXX 27094 67731 NIL=
201310270600 AAXX 27064 67731 NIL=
201310270300 AAXX 27034 67731 NIL=
201310270000 AAXX 27004 67731 NIL=
201310262100 AAXX 26214 67731 NIL=
201310261500 AAXX 26154 67731 NIL=
201310261200 AAXX 26124 67731 NIL=
201310260900 AAXX 26094 67731 NIL=
201310260600 AAXX 26064 67731 NIL=
201310260300 AAXX 26034 67731 NIL=
201310260000 AAXX 26004 67731 NIL=
201310252100 AAXX 25214 67731 NIL=
201310251800 AAXX 25184 67731 NIL=
201310251200 AAXX 25124 67731 NIL=
201310250900 AAXX 25094 67731 NIL=
201310250600 AAXX 25064 67731 NIL=
201310250000 AAXX 25004 67731 NIL=
201310242100 AAXX 24214 67731 NIL=
201310241800 AAXX 24184 67731 NIL=
201310241500 AAXX 24154 67731 NIL=
201310241200 AAXX 24124 67731 NIL=
201310240600 AAXX 24060 67731 NIL=
201310232100 AAXX 23214 67731 NIL=
201310231800 AAXX 23184 67731 NIL=
201310231500 AAXX 23154 67731 NIL=
201310231200 AAXX 23120 67731 NIL=
201310230900 AAXX 23094 67731 NIL=
201310230600 AAXX 23060 67731 NIL=
201310230300 AAXX 23034 67731 NIL=
201310230000 AAXX 23004 67731 NIL=
201310221800 AAXX 22184 67731 NIL=
201310221500 AAXX 22154 67731 NIL=
201310221200 AAXX 22120 67731 NIL=
201310220900 AAXX 22094 67731 NIL=
201310220600 AAXX 22064 67731 NIL=
201310220300 AAXX 22034 67731 NIL=
201310220000 AAXX 22004 67731 NIL=
201310212100 AAXX 21214 67731 NIL=
201310211800 AAXX 21184 67731 NIL=
201310211500 AAXX 21154 67731 NIL=
201310211200 AAXX 21124 67731 NIL=
201310210900 AAXX 21094 67731 NIL=
201310210600 AAXX 21064 67731 NIL=
201310210300 AAXX 21034 67731 NIL=
201310210000 AAXX 21004 67731 NIL=
201310201800 AAXX 20184 67731 NIL=
201310201500 AAXX 20154 67731 NIL=
201310201200 AAXX 20124 67731 NIL=
201310200600 AAXX 20064 67731 NIL=
201310191800 AAXX 19184 67731 NIL=
201310190900 AAXX 19094 67731 NIL=
201310190600 AAXX 19064 67731 NIL=
201310181500 AAXX 18150 67731 NIL=
201310181200 AAXX 18120 67731 NIL=
201310180900 AAXX 18094 67731 NIL=
201310180600 AAXX 18064 67731 NIL=
201310180300 AAXX 18034 67731 NIL=
201310180000 AAXX 18004 67731 NIL=
201310171800 AAXX 17184 67731 NIL=
201310171500 AAXX 17154 67731 NIL=
201310171200 AAXX 17124 67731 NIL=
201310170900 AAXX 17094 67731 NIL=
201310170600 AAXX 17064 67731 NIL=
201310161200 AAXX 16124 67731 NIL=
201310160900 AAXX 16094 67731 NIL=
201310151200 AAXX 15124 67731 NIL=
201310150900 AAXX 15094 67731 NIL=
201310150600 AAXX 15061 67731 NIL=
201310141200 AAXX 14124 67731 NIL=
201310140900 AAXX 14094 67731 NIL=
201310140600 AAXX 14064 67731 NIL=
201310131200 AAXX 13120 67731 NIL=
201310130900 AAXX 13090 67731 NIL=
201310130600 AAXX 13060 67731 NIL=
201310122100 AAXX 12214 67731 NIL=
201310121500 AAXX 12154 67731 NIL=
201310121200 AAXX 12120 67731 NIL=
201310120900 AAXX 12094 67731 NIL=
201310120600 AAXX 12060 67731 NIL=
201310120300 AAXX 12034 67731 NIL=
201310112100 AAXX 11214 67731 NIL=
201310111800 AAXX 11184 67731 NIL=
201310111500 AAXX 11154 67731 NIL=
201310111200 AAXX 11120 67731 NIL=
201310110900 AAXX 11094 67731 NIL=
201310110600 AAXX 11064 67731 32980 010// 10241 20134 48///
                   333 10374 20171 5////=
201310110300 AAXX 11034 67731 NIL=
201310101800 AAXX 10184 67731 NIL=
201310101500 AAXX 10154 67731 NIL=
201310101200 AAXX 10124 67731 NIL=
201310100900 AAXX 10094 67731 NIL=
201310100600 AAXX 10060 67731 NIL=
201310100300 AAXX 10034 67731 NIL=
201310100000 AAXX 10004 67731 NIL=
201310091800 AAXX 09184 67731 NIL=
201310091500 AAXX 09154 67731 NIL=
201310091200 AAXX 09124 67731 NIL=
201310090900 AAXX 09094 67731 NIL=
201310090600 AAXX 09060 67731 NIL=
201310081200 AAXX 08120 67731 NIL=
201310080900 AAXX 08090 67731 NIL=
201310080600 AAXX 08060 67731 NIL=
201310071200 AAXX 07120 67731 NIL=
201310070900 AAXX 07094 67731 NIL=
201310070600 AAXX 07060 67731 NIL=
201310061200 AAXX 06120 67731 NIL=
201310060600 AAXX 06060 67731 NIL=
201310060000 AAXX 06004 67731 NIL=
201310051800 AAXX 05184 67731 NIL=
201310051500 AAXX 05154 67731 NIL=
201310051200 AAXX 05120 67731 NIL=
201310050900 AAXX 05094 67731 NIL=
201310050600 AAXX 05060 67731 NIL=
201310050300 AAXX 05034 67731 NIL=
201310041800 AAXX 04184 67731 NIL=
201310041500 AAXX 04154 67731 NIL=
201310041200 AAXX 04124 67731 NIL=
201310040900 AAXX 04094 67731 NIL=
201310040600 AAXX 04064 67731 NIL=
201310040300 AAXX 04034 67731 NIL=
201310040000 AAXX 04004 67731 NIL=
201310032100 AAXX 03214 67731 NIL=
201310031800 AAXX 03184 67731 NIL=
201310031500 AAXX 03154 67731 NIL=
201310031200 AAXX 03120 67731 NIL=
201310030900 AAXX 03094 67731 NIL=
201310030600 AAXX 03064 67731 NIL=
201310030300 AAXX 03034 67731 NIL=
201310030000 AAXX 03004 67731 NIL=
201310021800 AAXX 02184 67731 NIL=
201310021200 AAXX 02124 67731 NIL=
201310020900 AAXX 02094 67731 NIL=
201310020600 AAXX 02060 67731 NIL=
201310011800 AAXX 01184 67731 NIL=
201310011500 AAXX 01154 67731 NIL=
201310011200 AAXX 01124 67731 NIL=
201310010900 AAXX 01094 67731 NIL=
201310010600 AAXX 01064 67731 NIL=

################################################################################
#  SYNOPS from 67741, Sesheke (Zambia) | 17-28S | 024-18E | 949 m
################################################################################
201310310600 AAXX 31064 67741 NIL=
201310310000 AAXX 31004 67741 NIL=
201310301800 AAXX 30184 67741 NIL=
201310301500 AAXX 30154 67741 NIL=
201310301200 AAXX 30120 67741 NIL=
201310300900 AAXX 30094 67741 NIL=
201310300600 AAXX 30064 67741 NIL=
201310300300 AAXX 30034 67741 NIL=
201310292100 AAXX 29214 67741 NIL=
201310291800 AAXX 29184 67741 NIL=
201310291500 AAXX 29154 67741 NIL=
201310291200 AAXX 29124 67741 NIL=
201310290900 AAXX 29094 67741 NIL=
201310290600 AAXX 29064 67741 NIL=
201310281800 AAXX 28184 67741 NIL=
201310281200 AAXX 28124 67741 NIL=
201310280900 AAXX 28094 67741 NIL=
201310280600 AAXX 28064 67741 NIL=
201310280300 AAXX 28034 67741 NIL=
201310272100 AAXX 27214 67741 NIL=
201310271800 AAXX 27184 67741 NIL=
201310271500 AAXX 27154 67741 NIL=
201310271200 AAXX 27124 67741 NIL=
201310270900 AAXX 27094 67741 NIL=
201310270600 AAXX 27064 67741 NIL=
201310270300 AAXX 27034 67741 NIL=
201310270000 AAXX 27004 67741 NIL=
201310262100 AAXX 26214 67741 NIL=
201310261500 AAXX 26154 67741 NIL=
201310261200 AAXX 26124 67741 NIL=
201310260900 AAXX 26094 67741 NIL=
201310260600 AAXX 26064 67741 NIL=
201310260300 AAXX 26034 67741 NIL=
201310260000 AAXX 26004 67741 NIL=
201310252100 AAXX 25214 67741 NIL=
201310251800 AAXX 25184 67741 NIL=
201310251200 AAXX 25124 67741 NIL=
201310250900 AAXX 25094 67741 NIL=
201310250600 AAXX 25064 67741 NIL=
201310250000 AAXX 25004 67741 NIL=
201310242100 AAXX 24214 67741 NIL=
201310241800 AAXX 24184 67741 NIL=
201310241500 AAXX 24154 67741 NIL=
201310241200 AAXX 24124 67741 NIL=
201310240600 AAXX 24060 67741 NIL=
201310232100 AAXX 23214 67741 NIL=
201310231800 AAXX 23184 67741 NIL=
201310231500 AAXX 23154 67741 NIL=
201310231200 AAXX 23120 67741 NIL=
201310230900 AAXX 23094 67741 NIL=
201310230600 AAXX 23060 67741 NIL=
201310230300 AAXX 23034 67741 NIL=
201310230000 AAXX 23004 67741 NIL=
201310221800 AAXX 22184 67741 NIL=
201310221500 AAXX 22154 67741 NIL=
201310221200 AAXX 22120 67741 NIL=
201310220900 AAXX 22094 67741 NIL=
201310220600 AAXX 22064 67741 NIL=
201310220300 AAXX 22034 67741 NIL=
201310220000 AAXX 22004 67741 NIL=
201310212100 AAXX 21214 67741 NIL=
201310211800 AAXX 21184 67741 NIL=
201310211500 AAXX 21154 67741 NIL=
201310211200 AAXX 21124 67741 NIL=
201310210900 AAXX 21094 67741 NIL=
201310210600 AAXX 21064 67741 NIL=
201310210300 AAXX 21034 67741 NIL=
201310210000 AAXX 21004 67741 NIL=
201310201800 AAXX 20184 67741 NIL=
201310201500 AAXX 20154 67741 NIL=
201310201200 AAXX 20124 67741 NIL=
201310200600 AAXX 20064 67741 NIL=
201310191800 AAXX 19184 67741 NIL=
201310190900 AAXX 19094 67741 NIL=
201310190600 AAXX 19064 67741 NIL=
201310181500 AAXX 18150 67741 NIL=
201310181200 AAXX 18120 67741 NIL=
201310180900 AAXX 18094 67741 NIL=
201310180600 AAXX 18064 67741 NIL=
201310180300 AAXX 18034 67741 NIL=
201310180000 AAXX 18004 67741 NIL=
201310171800 AAXX 17184 67741 NIL=
201310171500 AAXX 17154 67741 NIL=
201310171200 AAXX 17124 67741 NIL=
201310170900 AAXX 17094 67741 NIL=
201310170600 AAXX 17064 67741 NIL=
201310161200 AAXX 16124 67741 NIL=
201310160900 AAXX 16094 67741 NIL=
201310151200 AAXX 15124 67741 NIL=
201310150900 AAXX 15094 67741 NIL=
201310150600 AAXX 15061 67741 NIL=
201310141200 AAXX 14124 67741 NIL=
201310140900 AAXX 14094 67741 NIL=
201310140600 AAXX 14064 67741 NIL=
201310131200 AAXX 13120 67741 NIL=
201310130900 AAXX 13090 67741 NIL=
201310130600 AAXX 13060 67741 NIL=
201310122100 AAXX 12214 67741 NIL=
201310121500 AAXX 12154 67741 NIL=
201310121200 AAXX 12120 67741 NIL=
201310120900 AAXX 12094 67741 NIL=
201310120600 AAXX 12060 67741 NIL=
201310120300 AAXX 12034 67741 NIL=
201310112100 AAXX 11214 67741 NIL=
201310111800 AAXX 11184 67741 NIL=
201310111500 AAXX 11154 67741 NIL=
201310111200 AAXX 11120 67741 NIL=
201310110900 AAXX 11094 67741 NIL=
201310110600 AAXX 11064 67741 32980 00902 10253 20158 48554
                   333 10367 20147 58010=
201310110300 AAXX 11034 67741 NIL=
201310101800 AAXX 10184 67741 NIL=
201310101500 AAXX 10154 67741 NIL=
201310101200 AAXX 10124 67741 NIL=
201310100900 AAXX 10094 67741 NIL=
201310100600 AAXX 10060 67741 NIL=
201310100300 AAXX 10034 67741 NIL=
201310100000 AAXX 10004 67741 NIL=
201310091800 AAXX 09184 67741 NIL=
201310091500 AAXX 09154 67741 NIL=
201310091200 AAXX 09124 67741 NIL=
201310090900 AAXX 09094 67741 NIL=
201310090600 AAXX 09064 67741 32980 00903 10264 20170 48546
                   333 10368 20151 59015
                   555 00///=
201310081200 AAXX 08120 67741 NIL=
201310080900 AAXX 08090 67741 NIL=
201310080600 AAXX 08060 67741 NIL=
201310071200 AAXX 07120 67741 NIL=
201310070900 AAXX 07094 67741 NIL=
201310070600 AAXX 07060 67741 NIL=
201310061200 AAXX 06120 67741 NIL=
201310060600 AAXX 06060 67741 NIL=
201310060000 AAXX 06004 67741 NIL=
201310051800 AAXX 05184 67741 NIL=
201310051500 AAXX 05154 67741 NIL=
201310051200 AAXX 05120 67741 NIL=
201310050900 AAXX 05094 67741 NIL=
201310050600 AAXX 05060 67741 NIL=
201310050300 AAXX 05034 67741 NIL=
201310041800 AAXX 04184 67741 NIL=
201310041500 AAXX 04154 67741 NIL=
201310041200 AAXX 04124 67741 NIL=
201310040900 AAXX 04094 67741 NIL=
201310040600 AAXX 04064 67741 NIL=
201310040300 AAXX 04034 67741 NIL=
201310040000 AAXX 04004 67741 NIL=
201310032100 AAXX 03214 67741 NIL=
201310031800 AAXX 03184 67741 NIL=
201310031500 AAXX 03154 67741 NIL=
201310031200 AAXX 03120 67741 NIL=
201310030900 AAXX 03094 67741 NIL=
201310030600 AAXX 03064 67741 32980 00902 10192 20101 48561
                   333 10293 20076 59025
                   555 00/// 20000=
201310030300 AAXX 03034 67741 NIL=
201310030000 AAXX 03004 67741 NIL=
201310021800 AAXX 02184 67741 NIL=
201310021200 AAXX 02124 67741 NIL=
201310020900 AAXX 02094 67741 42680 21002 10250 20151 48592 82100
                   333 5//// 82840=
201310020600 AAXX 02064 67741 32980 20903 10177 20125 48577 82030
                   333 10356 20109 5//// 82363
                   555 00/// 20000=
201310011800 AAXX 01184 67741 NIL=
201310011500 AAXX 01154 67741 NIL=
201310011200 AAXX 01124 67741 NIL=
201310010900 AAXX 01094 67741 NIL=
201310010600 AAXX 01064 67741 NIL=

################################################################################
#  SYNOPS from 67743, Livingstone (Zambia) | 17-49S | 025-49E | 985 m
################################################################################
201310310600 AAXX 31064 67743 NIL=
201310310000 AAXX 31004 67743 NIL=
201310301800 AAXX 30184 67743 NIL=
201310301500 AAXX 30154 67743 NIL=
201310301200 AAXX 30120 67743 NIL=
201310300900 AAXX 30094 67743 NIL=
201310300600 AAXX 30064 67743 NIL=
201310300300 AAXX 30034 67743 NIL=
201310292100 AAXX 29214 67743 NIL=
201310291800 AAXX 29184 67743 NIL=
201310291500 AAXX 29154 67743 NIL=
201310291200 AAXX 29124 67743 NIL=
201310290900 AAXX 29094 67743 NIL=
201310290600 AAXX 29064 67743 NIL=
201310281800 AAXX 28184 67743 NIL=
201310281200 AAXX 28124 67743 NIL=
201310280900 AAXX 28094 67743 NIL=
201310280600 AAXX 28064 67743 NIL=
201310280300 AAXX 28034 67743 NIL=
201310272100 AAXX 27214 67743 NIL=
201310271800 AAXX 27184 67743 NIL=
201310271500 AAXX 27154 67743 NIL=
201310271200 AAXX 27124 67743 NIL=
201310270900 AAXX 27094 67743 NIL=
201310270600 AAXX 27064 67743 NIL=
201310270300 AAXX 27034 67743 NIL=
201310270000 AAXX 27004 67743 NIL=
201310262100 AAXX 26214 67743 NIL=
201310261500 AAXX 26154 67743 NIL=
201310261200 AAXX 26124 67743 NIL=
201310260900 AAXX 26094 67743 NIL=
201310260600 AAXX 26064 67743 NIL=
201310260300 AAXX 26034 67743 NIL=
201310260000 AAXX 26004 67743 NIL=
201310252100 AAXX 25214 67743 NIL=
201310251800 AAXX 25184 67743 NIL=
201310251200 AAXX 25124 67743 NIL=
201310250900 AAXX 25094 67743 NIL=
201310250600 AAXX 25064 67743 NIL=
201310250000 AAXX 25004 67743 NIL=
201310242100 AAXX 24214 67743 NIL=
201310241800 AAXX 24184 67743 NIL=
201310241500 AAXX 24154 67743 NIL=
201310241200 AAXX 24124 67743 NIL=
201310240600 AAXX 24060 67743 NIL=
201310232100 AAXX 23214 67743 NIL=
201310231800 AAXX 23184 67743 NIL=
201310231500 AAXX 23154 67743 NIL=
201310231200 AAXX 23120 67743 NIL=
201310230900 AAXX 23094 67743 NIL=
201310230600 AAXX 23060 67743 NIL=
201310230300 AAXX 23034 67743 NIL=
201310230000 AAXX 23004 67743 NIL=
201310221800 AAXX 22184 67743 NIL=
201310221500 AAXX 22154 67743 NIL=
201310221200 AAXX 22120 67743 NIL=
201310220900 AAXX 22094 67743 NIL=
201310220600 AAXX 22064 67743 NIL=
201310220300 AAXX 22034 67743 NIL=
201310220000 AAXX 22004 67743 NIL=
201310212100 AAXX 21214 67743 NIL=
201310211800 AAXX 21184 67743 NIL=
201310211500 AAXX 21154 67743 NIL=
201310211200 AAXX 21124 67743 NIL=
201310210900 AAXX 21094 67743 NIL=
201310210600 AAXX 21064 67743 NIL=
201310210300 AAXX 21034 67743 NIL=
201310210000 AAXX 21004 67743 NIL=
201310201800 AAXX 20184 67743 NIL=
201310201500 AAXX 20154 67743 NIL=
201310201200 AAXX 20124 67743 NIL=
201310200900 AAXX 20094 67743 41975 00413 10355 20122 48518 70500
                   333 59005 91015=
201310200600 AAXX 20064 67743 NIL=
201310191800 AAXX 19184 67743 NIL=
201310190900 AAXX 19094 67743 NIL=
201310190600 AAXX 19064 67743 NIL=
201310181500 AAXX 18154 67743 42880 11113 10364 20094 48502 81100
                   333 59023 81858 555 10390 91013=
201310181200 AAXX 18124 67743 42880 10510 10379 20084 48511 81100
                   333 59025 555 91013=
201310180900 AAXX 18094 67743 42980 00610 10351 20079 48538
                   333 59023 555 91017=
201310180600 AAXX 18064 67743 NIL=
201310180300 AAXX 18034 67743 NIL=
201310180000 AAXX 18004 67743 NIL=
201310171800 AAXX 17184 67743 NIL=
201310171500 AAXX 17154 67743 NIL=
201310171200 AAXX 17124 67743 NIL=
201310170900 AAXX 17094 67743 NIL=
201310170600 AAXX 17064 67743 32980 00910 10240 20180 48547
                   333 10365 20195 59025 91020=
201310161200 AAXX 16124 67743 42880 11209 10354 20150 48559 81100
                   333 59002 81857 91019=
201310160900 AAXX 16094 67743 42980 00908 10320 20170 48581
                   333 58003 91022=
201310160600 AAXX 16064 67743 32980 00711 10248 20166 48571
                   333 10340 20195 58005
                   555 91023=
201310151200 AAXX 15124 67743 NIL=
201310150900 AAXX 15094 67743 41975 30915 10315 20164 48576 70522 82030
                   333 58050 82360 83360
                   555 91022=
201310150600 AAXX 15064 67743 31975 61112 10238 20152 48564 70522 86030
                   333 10387 20234 86360
                   555 00/// CC234 DD/// Q1022.8=
201310141200 AAXX 14124 67743 NIL=
201310140900 AAXX 14094 67743 NIL=
201310140600 AAXX 14064 67743 NIL=
201310131200 AAXX 13124 67743 42980 21810 10380 20132 48499 82030
                   333 59019 82360 555 91012=
201310130900 AAXX 13090 67743 NIL=
201310130600 AAXX 13060 67743 NIL=
201310122100 AAXX 12214 67743 NIL=
201310121500 AAXX 12154 67743 NIL=
201310121200 AAXX 12120 67743 NIL=
201310120900 AAXX 12094 67743 42875 11403 10353 20117 48540 81100
                   333 59024 81857 91017=
201310120600 AAXX 12064 67743 32980 00607 10275 20109 48536
                   333 10364 20185 56902
                   555 91018=
201310120300 AAXX 12034 67743 NIL=
201310112100 AAXX 11214 67743 NIL=
201310111800 AAXX 11184 67743 NIL=
201310111500 AAXX 11154 67743 41975 11210 10344 20121 48524 70500 81100
                   333 59003 81857 555 10364 91015=
201310111200 AAXX 11124 67743 41875 117/8 10353 20120 48530 70500 81100
                   333 58001 81857 91016=
201310110900 AAXX 11094 67743 NIL=
201310110600 AAXX 11060 67743 NIL=
201310110300 AAXX 11034 67743 NIL=
201310101800 AAXX 10184 67743 NIL=
201310101500 AAXX 10154 67743 42880 11213 10337 20107 48525 81100
                   333 59003 81858 555 10366 91016=
201310101200 AAXX 10124 67743 NIL=
201310100900 AAXX 10094 67743 42880 11210 10328 20124 48557 81100
                   333 59006 555 91019=
201310100600 AAXX 10064 67743 42980 11304 10255 20094 48548 80001
                   333 10358 20195 59007 81080
                   555 91020=
201310100300 AAXX 10034 67743 NIL=
201310100000 AAXX 10004 67743 NIL=
201310091800 AAXX 09184 67743 NIL=
201310091500 AAXX 09154 67743 NIL=
201310091200 AAXX 09124 67743 NIL=
201310090900 AAXX 09094 67743 42975 10608 10313 20145 48550 70200 81001
                   333 59011 81080 91020=
201310090600 AAXX 09064 67743 32980 00912 10245 20142 48553
                   333 10360 20195 59008
                   555 00/// 91021=
201310081500 AAXX 08154 67743 42875 11313 10340 20115 48534 81100
                   333 58003 81858 555 10360 91017=
201310081200 AAXX 08124 67743 42875 11209 10344 20135 48542 81100
                   333 58006 81857 91017=
201310080900 AAXX 08090 67743 NIL=
201310080600 AAXX 08064 67743 32980 01015 10255 20153 48572
                   333 10368 20210 58022
                   555 00/// 91023=
201310071500 AAXX 07154 67743 42980 21210 10344 20134 48529 70200
                   333 82100 82857 91016=
201310071200 AAXX 07124 67743 42975 11012 10356 20132 48538 70200 81100
                   333 58009 81859 555 91017=
201310070900 AAXX 07094 67743 42975 00911 10330 20147 48562 70200
                   333 58011 91020=
201310070600 AAXX 07064 67743 32980 01011 10261 20124 48551 70200
                   333 58002 91020=
201310061500 AAXX 06154 67743 42880 11010 10346 20130 48519 81100
                   333 59007 81858 555 10359 91015=
201310061200 AAXX 06124 67743 42880 11709 10348 20134 48527 81100
                   333 59013 81858 555 91016=
201310060900 AAXX 06094 67743 42880 11506 10327 20127 48551 81100
                   333 59019 81858 555 91019=
201310060600 AAXX 06064 67743 42980 01505 10245 20106 48547
                   333 10350 20176 59012
                   555 91020=
201310060000 AAXX 06004 67743 NIL=
201310051800 AAXX 05184 67743 NIL=
201310051500 AAXX 05154 67743 NIL=
201310051200 AAXX 05120 67743 NIL=
201310050900 AAXX 05094 67743 42980 01206 10300 20112 48564
                   333 59006 555 91021=
201310050600 AAXX 05060 67743 NIL=
201310050300 AAXX 05034 67743 NIL=
201310041800 AAXX 04184 67743 NIL=
201310041500 AAXX 04154 67743 42980 01408 10315 20130 48525
                   333 59018 555 10330 91016=
201310041200 AAXX 04124 67743 42980 01706 10330 20123 48543
                   333 59013 91018=
201310040900 AAXX 04094 67743 42980 00905 10300 20133 48570
                   333 58011 91021=
201310040600 AAXX 04064 67743 32980 00911 10210 20096 48559
                   333 10307 20125 59008
                   555 91022=
201310040300 AAXX 04034 67743 NIL=
201310040000 AAXX 04004 67743 NIL=
201310032100 AAXX 03214 67743 NIL=
201310031800 AAXX 03184 67743 NIL=
201310031500 AAXX 03154 67743 NIL=
201310031200 AAXX 03124 67743 42980 00910 10292 20131 48547 70200
                   333 59027 91019=
201310030900 AAXX 03094 67743 42980 01109 10259 20114 48573 70200
                   333 59030 91023=
201310030600 AAXX 03064 67743 32980 01305 10190 20100 48561 70200
                   333 10301 20113 59029
                   555 00/// BB/// CC113 DD114 91023=
201310030300 AAXX 03034 67743 NIL=
201310030000 AAXX 03004 67743 NIL=
201310021800 AAXX 02184 67743 NIL=
201310021500 AAXX 02154 67743 42980 01107 10279 20156 48557
                   333 59015 555 10285 91020=
201310021200 AAXX 02124 67743 42980 01210 10272 20152 48571
                   333 59009 555 91022=
201310020900 AAXX 02094 67743 42680 21110 10240 20146 48557 82100
                   333 59006 82840 555 91026=
201310020600 AAXX 02064 67743 32980 11114 10173 20113 48584 81030
                   333 10273 20144 59006 81360
                   555 91026=
201310011800 AAXX 01184 67743 NIL=
201310011500 AAXX 01154 67743 42880 11410 10260 20174 48565 81100
                   333 58007 81857 555 10273 91022=
201310011200 AAXX 01124 67743 42780 21212 10750 20105 48574 82100
                   333 58026 82856 91023=
201310010900 AAXX 01094 67743 42780 10912 10220 20139 48597 81100
                   333 58033 81850 91027=
201310010600 AAXX 01064 67743 32980 71213 10160 20105 48590 8705/
                   333 10315 20130 58063 87358
                   555 91027=

################################################################################
#  SYNOPS from 67751, Magoye (Zambia) | 16-00S | 027-36E | 1018 m
################################################################################
201310310600 AAXX 31064 67751 NIL=
201310310000 AAXX 31004 67751 NIL=
201310301800 AAXX 30184 67751 NIL=
201310301500 AAXX 30154 67751 NIL=
201310301200 AAXX 30120 67751 NIL=
201310300900 AAXX 30094 67751 NIL=
201310300600 AAXX 30064 67751 NIL=
201310300300 AAXX 30034 67751 NIL=
201310292100 AAXX 29214 67751 NIL=
201310291800 AAXX 29184 67751 NIL=
201310291500 AAXX 29154 67751 NIL=
201310291200 AAXX 29124 67751 NIL=
201310290900 AAXX 29094 67751 NIL=
201310290600 AAXX 29064 67751 NIL=
201310281800 AAXX 28184 67751 NIL=
201310281200 AAXX 28124 67751 NIL=
201310280900 AAXX 28094 67751 NIL=
201310280600 AAXX 28064 67751 NIL=
201310280300 AAXX 28034 67751 NIL=
201310272100 AAXX 27214 67751 NIL=
201310271800 AAXX 27184 67751 NIL=
201310271500 AAXX 27154 67751 NIL=
201310271200 AAXX 27124 67751 NIL=
201310270900 AAXX 27094 67751 NIL=
201310270600 AAXX 27064 67751 NIL=
201310270300 AAXX 27034 67751 NIL=
201310270000 AAXX 27004 67751 NIL=
201310262100 AAXX 26214 67751 NIL=
201310261500 AAXX 26154 67751 NIL=
201310261200 AAXX 26124 67751 NIL=
201310260900 AAXX 26094 67751 NIL=
201310260600 AAXX 26064 67751 NIL=
201310260300 AAXX 26034 67751 NIL=
201310260000 AAXX 26004 67751 NIL=
201310252100 AAXX 25214 67751 NIL=
201310251800 AAXX 25184 67751 NIL=
201310251200 AAXX 25124 67751 NIL=
201310250900 AAXX 25094 67751 NIL=
201310250600 AAXX 25064 67751 NIL=
201310250000 AAXX 25004 67751 NIL=
201310242100 AAXX 24214 67751 NIL=
201310241800 AAXX 24184 67751 NIL=
201310241500 AAXX 24154 67751 NIL=
201310241200 AAXX 24124 67751 NIL=
201310240600 AAXX 24060 67751 NIL=
201310232100 AAXX 23214 67751 NIL=
201310231800 AAXX 23184 67751 NIL=
201310231500 AAXX 23154 67751 NIL=
201310231200 AAXX 23120 67751 NIL=
201310230900 AAXX 23094 67751 NIL=
201310230600 AAXX 23060 67751 NIL=
201310230300 AAXX 23034 67751 NIL=
201310230000 AAXX 23004 67751 NIL=
201310221800 AAXX 22184 67751 NIL=
201310221500 AAXX 22154 67751 NIL=
201310221200 AAXX 22120 67751 NIL=
201310220900 AAXX 22094 67751 NIL=
201310220600 AAXX 22064 67751 NIL=
201310220300 AAXX 22034 67751 NIL=
201310220000 AAXX 22004 67751 NIL=
201310212100 AAXX 21214 67751 NIL=
201310211800 AAXX 21184 67751 NIL=
201310211500 AAXX 21154 67751 NIL=
201310211200 AAXX 21124 67751 NIL=
201310210900 AAXX 21094 67751 NIL=
201310210600 AAXX 21064 67751 NIL=
201310210300 AAXX 21034 67751 NIL=
201310210000 AAXX 21004 67751 NIL=
201310201800 AAXX 20184 67751 NIL=
201310201500 AAXX 20154 67751 NIL=
201310201200 AAXX 20124 67751 NIL=
201310200600 AAXX 20064 67751 NIL=
201310191800 AAXX 19184 67751 NIL=
201310190900 AAXX 19094 67751 NIL=
201310190600 AAXX 19064 67751 NIL=
201310181500 AAXX 18150 67751 NIL=
201310181200 AAXX 18120 67751 NIL=
201310180900 AAXX 18094 67751 NIL=
201310180600 AAXX 18064 67751 NIL=
201310180300 AAXX 18034 67751 NIL=
201310180000 AAXX 18004 67751 NIL=
201310171800 AAXX 17184 67751 NIL=
201310171500 AAXX 17154 67751 NIL=
201310171200 AAXX 17124 67751 NIL=
201310170900 AAXX 17094 67751 NIL=
201310170600 AAXX 17064 67751 NIL=
201310161200 AAXX 16124 67751 NIL=
201310160900 AAXX 16094 67751 NIL=
201310151200 AAXX 15124 67751 NIL=
201310150900 AAXX 15094 67751 NIL=
201310150600 AAXX 15061 67751 NIL=
201310141200 AAXX 14124 67751 NIL=
201310140900 AAXX 14094 67751 NIL=
201310140600 AAXX 14064 67751 NIL=
201310131200 AAXX 13120 67751 NIL=
201310130900 AAXX 13090 67751 NIL=
201310130600 AAXX 13060 67751 NIL=
201310122100 AAXX 12214 67751 NIL=
201310121500 AAXX 12154 67751 NIL=
201310121200 AAXX 12120 67751 NIL=
201310120900 AAXX 12094 67751 NIL=
201310120600 AAXX 12060 67751 NIL=
201310120300 AAXX 12034 67751 NIL=
201310112100 AAXX 11214 67751 NIL=
201310111800 AAXX 11184 67751 NIL=
201310111500 AAXX 11154 67751 NIL=
201310111200 AAXX 11120 67751 NIL=
201310110900 AAXX 11094 67751 NIL=
201310110600 AAXX 11060 67751 NIL=
201310110300 AAXX 11034 67751 NIL=
201310101800 AAXX 10184 67751 NIL=
201310101500 AAXX 10154 67751 NIL=
201310101200 AAXX 10124 67751 NIL=
201310100900 AAXX 10094 67751 NIL=
201310100600 AAXX 10060 67751 NIL=
201310100300 AAXX 10034 67751 NIL=
201310100000 AAXX 10004 67751 NIL=
201310091800 AAXX 09184 67751 NIL=
201310091500 AAXX 09154 67751 NIL=
201310091200 AAXX 09124 67751 NIL=
201310090900 AAXX 09094 67751 NIL=
201310090600 AAXX 09060 67751 NIL=
201310081200 AAXX 08120 67751 NIL=
201310080900 AAXX 08090 67751 NIL=
201310080600 AAXX 08060 67751 NIL=
201310071200 AAXX 07120 67751 NIL=
201310070900 AAXX 07094 67751 NIL=
201310070600 AAXX 07060 67751 NIL=
201310061200 AAXX 06120 67751 NIL=
201310060600 AAXX 06060 67751 NIL=
201310060000 AAXX 06004 67751 NIL=
201310051800 AAXX 05184 67751 NIL=
201310051500 AAXX 05154 67751 NIL=
201310051200 AAXX 05120 67751 NIL=
201310050900 AAXX 05094 67751 NIL=
201310050600 AAXX 05060 67751 NIL=
201310050300 AAXX 05034 67751 NIL=
201310041800 AAXX 04184 67751 NIL=
201310041500 AAXX 04154 67751 NIL=
201310041200 AAXX 04124 67751 NIL=
201310040900 AAXX 04094 67751 NIL=
201310040600 AAXX 04064 67751 NIL=
201310040300 AAXX 04034 67751 NIL=
201310040000 AAXX 04004 67751 NIL=
201310032100 AAXX 03214 67751 NIL=
201310031800 AAXX 03184 67751 NIL=
201310031500 AAXX 03154 67751 NIL=
201310031200 AAXX 03120 67751 NIL=
201310030900 AAXX 03094 67751 NIL=
201310030600 AAXX 03064 67751 NIL=
201310030300 AAXX 03034 67751 NIL=
201310030000 AAXX 03004 67751 NIL=
201310021800 AAXX 02184 67751 NIL=
201310021200 AAXX 02124 67751 NIL=
201310020900 AAXX 02094 67751 NIL=
201310020600 AAXX 02060 67751 NIL=
201310011800 AAXX 01184 67751 NIL=
201310011500 AAXX 01154 67751 NIL=
201310011200 AAXX 01124 67751 NIL=
201310010900 AAXX 01094 67751 NIL=
201310010600 AAXX 01064 67751 NIL=

################################################################################
#  SYNOPS from 67753, Choma (Zambia) | 16-50S | 027-04E | 1213 m
################################################################################
201310310600 AAXX 31064 67753 NIL=
201310310000 AAXX 31004 67753 NIL=
201310301800 AAXX 30184 67753 NIL=
201310301500 AAXX 30154 67753 NIL=
201310301200 AAXX 30120 67753 NIL=
201310300900 AAXX 30094 67753 NIL=
201310300600 AAXX 30064 67753 NIL=
201310300300 AAXX 30034 67753 NIL=
201310292100 AAXX 29214 67753 NIL=
201310291800 AAXX 29184 67753 NIL=
201310291500 AAXX 29154 67753 NIL=
201310291200 AAXX 29124 67753 NIL=
201310290900 AAXX 29094 67753 NIL=
201310290600 AAXX 29064 67753 NIL=
201310281800 AAXX 28184 67753 NIL=
201310281200 AAXX 28124 67753 NIL=
201310280900 AAXX 28094 67753 NIL=
201310280600 AAXX 28064 67753 NIL=
201310280300 AAXX 28034 67753 NIL=
201310272100 AAXX 27214 67753 NIL=
201310271800 AAXX 27184 67753 NIL=
201310271500 AAXX 27154 67753 NIL=
201310271200 AAXX 27124 67753 NIL=
201310270900 AAXX 27094 67753 NIL=
201310270600 AAXX 27064 67753 NIL=
201310270300 AAXX 27034 67753 NIL=
201310270000 AAXX 27004 67753 NIL=
201310262100 AAXX 26214 67753 NIL=
201310261500 AAXX 26154 67753 NIL=
201310261200 AAXX 26124 67753 NIL=
201310260900 AAXX 26094 67753 NIL=
201310260600 AAXX 26064 67753 NIL=
201310260300 AAXX 26034 67753 NIL=
201310260000 AAXX 26004 67753 NIL=
201310252100 AAXX 25214 67753 NIL=
201310251800 AAXX 25184 67753 NIL=
201310251200 AAXX 25124 67753 NIL=
201310250900 AAXX 25094 67753 NIL=
201310250600 AAXX 25064 67753 31560 60515 10198 20146 48/// 70500 81130
                   333 10282 20161 5//// 81825 85360
                   555 00///=
201310250000 AAXX 25004 67753 NIL=
201310242100 AAXX 24214 67753 NIL=
201310241800 AAXX 24184 67753 NIL=
201310241500 AAXX 24154 67753 NIL=
201310241200 AAXX 24124 67753 NIL=
201310240600 AAXX 24064 67753 NIL=
201310232100 AAXX 23214 67753 NIL=
201310231800 AAXX 23184 67753 NIL=
201310231500 AAXX 23154 67753 NIL=
201310231200 AAXX 23120 67753 NIL=
201310230900 AAXX 23094 67753 NIL=
201310230600 AAXX 23064 67753 11560 11560 10214 20164 48/// 69904 75052 8453/
                   333 10351 20196 5//// 84625 86360
                   555 00///=
201310230300 AAXX 23034 67753 NIL=
201310230000 AAXX 23004 67753 NIL=
201310221800 AAXX 22184 67753 NIL=
201310221500 AAXX 22154 67753 NIL=
201310221200 AAXX 22124 67753 NIL=
201310220900 AAXX 22094 67753 NIL=
201310220600 AAXX 22064 67753 31560 21608 10276 20132 48/// 70500 81130
                   333 10359 20216 5//// 81820 81360
                   555 00///=
201310220300 AAXX 22034 67753 NIL=
201310220000 AAXX 22004 67753 NIL=
201310212100 AAXX 21214 67753 NIL=
201310211800 AAXX 21184 67753 NIL=
201310211500 AAXX 21154 67753 NIL=
201310211200 AAXX 21124 67753 NIL=
201310210900 AAXX 21094 67753 NIL=
201310210600 AAXX 21064 67753 32960 13418 10241 20126 48/// 70500 80001
                   333 10356 20173 5//// 81080=
201310210300 AAXX 21034 67753 NIL=
201310210000 AAXX 21004 67753 NIL=
201310201800 AAXX 20184 67753 NIL=
201310201500 AAXX 20154 67753 NIL=
201310201200 AAXX 20124 67753 NIL=
201310200600 AAXX 20064 67753 NIL=
201310191800 AAXX 19184 67753 NIL=
201310190900 AAXX 19094 67753 NIL=
201310190600 AAXX 19064 67753 NIL=
201310181500 AAXX 18150 67753 NIL=
201310181200 AAXX 18120 67753 NIL=
201310180900 AAXX 18094 67753 NIL=
201310180600 AAXX 18064 67753 NIL=
201310180300 AAXX 18034 67753 NIL=
201310180000 AAXX 18004 67753 NIL=
201310171800 AAXX 17184 67753 NIL=
201310171500 AAXX 17154 67753 NIL=
201310171200 AAXX 17124 67753 NIL=
201310170900 AAXX 17094 67753 NIL=
201310170600 AAXX 17064 67753 NIL=
201310161200 AAXX 16124 67753 NIL=
201310160900 AAXX 16094 67753 NIL=
201310151200 AAXX 15124 67753 NIL=
201310150900 AAXX 15094 67753 NIL=
201310150600 AAXX 15061 67753 NIL=
201310141200 AAXX 14124 67753 NIL=
201310140900 AAXX 14094 67753 NIL=
201310140600 AAXX 14064 67753 31960 13312 10247 20111 48/// 70500 81030
                   333 10356 20169 5//// 81360
                   555 00///=
201310131200 AAXX 13120 67753 NIL=
201310130900 AAXX 13090 67753 NIL=
201310130600 AAXX 13060 67753 NIL=
201310122100 AAXX 12214 67753 NIL=
201310121500 AAXX 12154 67753 NIL=
201310121200 AAXX 12124 67753 NIL=
201310120900 AAXX 12094 67753 NIL=
201310120600 AAXX 12064 67753 NIL=
201310120300 AAXX 12034 67753 NIL=
201310112100 AAXX 11214 67753 NIL=
201310111800 AAXX 11184 67753 NIL=
201310111500 AAXX 11154 67753 NIL=
201310111200 AAXX 11124 67753 NIL=
201310110900 AAXX 11094 67753 NIL=
201310110600 AAXX 11064 67753 NIL=
201310110300 AAXX 11034 67753 NIL=
201310101800 AAXX 10184 67753 NIL=
201310101500 AAXX 10154 67753 NIL=
201310101200 AAXX 10124 67753 NIL=
201310100900 AAXX 10094 67753 NIL=
201310100600 AAXX 10064 67753 NIL=
201310100300 AAXX 10034 67753 NIL=
201310100000 AAXX 10004 67753 NIL=
201310091800 AAXX 09184 67753 NIL=
201310091500 AAXX 09154 67753 NIL=
201310091200 AAXX 09124 67753 NIL=
201310090900 AAXX 09094 67753 NIL=
201310090600 AAXX 09064 67753 31960 00615 10226 20142 48/// 70500
                   333 10319 20169 5////
                   555 00///=
201310081200 AAXX 08120 67753 NIL=
201310080900 AAXX 08090 67753 NIL=
201310080600 AAXX 08064 67753 31560 10816 10225 20152 48/// 70500 81100
                   333 10321 20166 5//// 81825
                   555 00///=
201310071200 AAXX 07120 67753 NIL=
201310070900 AAXX 07094 67753 NIL=
201310070600 AAXX 07064 67753 31960 00912 10254 20141 48/// 70500
                   333 10324 20151 5////
                   555 00///=
201310061200 AAXX 06120 67753 NIL=
201310060600 AAXX 06060 67753 NIL=
201310060000 AAXX 06004 67753 NIL=
201310051800 AAXX 05184 67753 NIL=
201310051500 AAXX 05154 67753 NIL=
201310051200 AAXX 05124 67753 NIL=
201310050900 AAXX 05094 67753 NIL=
201310050600 AAXX 05064 67753 NIL=
201310050300 AAXX 05034 67753 NIL=
201310041800 AAXX 04184 67753 NIL=
201310041500 AAXX 04154 67753 NIL=
201310041200 AAXX 04124 67753 NIL=
201310040900 AAXX 04094 67753 NIL=
201310040600 AAXX 04064 67753 31960 00612 10211 20076 48/// 70500
                   333 10276 20179 5////
                   555 00///=
201310040300 AAXX 04034 67753 NIL=
201310040000 AAXX 04004 67753 NIL=
201310032100 AAXX 03214 67753 NIL=
201310031800 AAXX 03184 67753 NIL=
201310031500 AAXX 03154 67753 NIL=
201310031200 AAXX 03124 67753 NIL=
201310030900 AAXX 03094 67753 NIL=
201310030600 AAXX 03064 67753 NIL=
201310030300 AAXX 03034 67753 NIL=
201310030000 AAXX 03004 67753 NIL=
201310021800 AAXX 02184 67753 NIL=
201310021200 AAXX 02124 67753 NIL=
201310020900 AAXX 02094 67753 31560 40815 10151 20103 48/// 70500 84200
                   333 10233 20103 5//// 84825
                   555 00///=
201310020600 AAXX 02060 67753 NIL=
201310011800 AAXX 01184 67753 NIL=
201310011500 AAXX 01154 67753 NIL=
201310011200 AAXX 01124 67753 NIL=
201310010900 AAXX 01094 67753 NIL=
201310010600 AAXX 01064 67753 31560 81014 10141 20108 48/// 69904 70522 8653/
                   333 10315 20132 5//// 86625 84360
                   555 00///=

################################################################################
#  SYNOPS from 67855, Lupaki (Zambia) | 17-03-00S | 024-46-00E | 1000 m
################################################################################
201310310600 AAXX 31064 67855 11675 60303 10230 20156 38/// 48/// 60044 72591 81530
                   333 20184 5//// 81630 86360=
201310301200 AAXX 30124 67855 41670 53305 10268 20140 38/// 48/// 71791 85203
                   333 5//// 81925 84830=
201310300600 AAXX 30064 67855 31970 20503 10266 20153 38/// 48/// 70500 82080
                   333 20193 5//// 82360=
201310291200 AAXX 29124 67855 42780 53604 10346 20138 38/// 48/// 85200
                   333 5//// 85850=
201310290600 AAXX 29064 67855 32975 00604 10250 20140 3//// 48///
                   333 20173 5////=
201310281200 AAXX 28124 67855 42675 53602 10328 20129 3//// 48/// 85200
                   333 5//// 85845=
201310280600 AAXX 28064 67855 12975 10302 10236 20160 3//// 48/// 60084 81030
                   333 20170 5//// 81360=
201310271200 AAXX 27124 67855 NIL=
201310270600 AAXX 27064 67855 11975 13603 10260 20148 3//// 48/// 69904 72161 80001
                   333 20188 5//// 81080=
201310260600 AAXX 26064 67855 32980 13603 10248 20153 38/// 48/// 81030
                   333 20183 5//// 81360=
201310251200 AAXX 25124 67855 NIL=
201310250600 AAXX 25064 67855 32975 20306 10204 20145 3//// 48/// 82030
                   333 20138 5//// 82360=
201310241200 AAXX 24124 67855 42675 70605 10264 20158 3//// 48/// 8327/
                   333 5//// 83830 87460=
201310240600 AAXX 24064 67855 12375 70907 10210 20155 3//// 48/// 69904 8467/
                   333 20162 5//// 84707 87460=
201310231200 AAXX 23124 67855 41675 60305 10288 20159 3//// 48/// 72992 86231
                   333 5//// 86830 83360=
201310230600 AAXX 23064 67855 12975 51604 10210 20160 38/// 48/// 60014 85070
                   333 20183 5//// 85460=
201310221200 AAXX 22124 67855 41670 70601 10284 20138 3//// 48/// 76061 8127/
                   333 5//// 81830 87459=
201310220600 AAXX 22064 67855 11975 70000 10218 20186 38/// 48/// 60024 72161 8707/
                   333 20192 5//// 87460=
201310211200 AAXX 21124 67855 41770 43106 10364 20130 38/// 48/// 70511 81131
                   333 5//// 81856 84360=
201310210600 AAXX 21064 67855 31970 63303 10252 20128 3//// 48/// 70511 86050
                   333 20174 5//// 86360=
201310201200 AAXX 20124 67855 NIL=
201310200600 AAXX 20064 67855 31970 00608 10248 20123 3//// 48/// 70500
                   333 20170 5////=
201310191200 AAXX 19124 67855 41960 01404 10374 20083 3//// 48/// 70500
                   333 5////=
201310190600 AAXX 19064 67855 31970 03603 10270 20096 3//// 48/// 70500
                   333 20167 5////=
201310181200 AAXX 18124 67855 41770 23403 10358 20108 3//// 48/// 82100
                   333 5//// 82856=
201310180600 AAXX 18064 67855 31970 00603 10264 20101 3//// 48/// 70500
                   333 20169 5////=
201310171200 AAXX 17124 67855 41870 11805 10366 20065 38/// 48/// 70500 81100
                   333 5//// 81857=
201310170600 AAXX 17064 67855 31970 01402 10238 20100 3//// 48/// 70500
                   333 20139 5////=
201310161200 AAXX 16124 67855 41770 20702 10332 20168 3//// 48/// 70500 82100
                   333 5//// 82856=
201310160600 AAXX 16064 67855 31970 01901 10224 20149 38/// 48/// 70500
                   333 20174 5////=
201310151200 AAXX 15124 67855 41770 10303 10344 20196 38/// 48/// 70500 81100
                   333 5//// 81856=
201310150600 AAXX 15064 67855 11970 11403 10208 20148 38/// 48/// 69904 70511 81030
                   333 20176 5//// 81360=
201310141200 AAXX 14124 67855 41770 40000 10372 20125 38/// 48/// 70500 81130
                   333 5//// 84856 83360=
201310140600 AAXX 14064 67855 31970 00604 10260 20157 3//// 48/// 70500
                   333 20192 5////=
201310131200 AAXX 13124 67855 NIL=
201310130600 AAXX 13064 67855 31670 33403 10262 20099 3//// 48/// 70500 83530
                   333 20148 5//// 83645=
201310121200 AAXX 12124 67855 41770 41804 10270 20043 3//// 48/// 70500 84100
                   333 5//// 81485=
201310120600 AAXX 12064 67855 31970 03602 10258 20119 3//// 48/// 70500
                   333 20119 5////=
201310111200 AAXX 11124 67855 41770 31903 10344 20087 3//// 48/// 70500 83100
                   333 5//// 83856=
201310110600 AAXX 11064 67855 31970 00304 10248 20132 38/// 4//// 70500
                   333 20165 5////=
201310101200 AAXX 10124 67855 41775 10904 10352 20080 38/// 48/// 70500 81100
                   333 5//// 81856=
201310100600 AAXX 10064 67855 31970 00605 10240 20130 38/// 48/// 70500
                   333 20120 5////=
201310091200 AAXX 09124 67855 41770 21602 10322 20091 38/// 48/// 70500 82100
                   333 5//// 82856=
201310090600 AAXX 09064 67855 31970 00303 10228 20136 3//// 48/// 70500
                   333 20152 5////=
201310081200 AAXX 08124 67855 41770 21802 10330 20104 3//// 48/// 70500 82200
                   333 5//// 82856=
201310080600 AAXX 08064 67855 31970 11106 10222 20144 3//// 48/// 70500 81030
                   333 20185 5//// 81360=
201310071200 AAXX 07124 67855 41770 40705 10350 20113 3//// 48/// 70500 84200
                   333 5//// 84856=
201310070600 AAXX 07064 67855 31970 00805 10236 20120 3//// 48/// 70500
                   333 20144 5////=
201310061200 AAXX 06124 67855 NIL=
201310060600 AAXX 06064 67855 31970 00605 10236 20101 38/// 48/// 70500
                   333 20139 5////=
201310051200 AAXX 05124 67855 42775 32102 10324 20055 38/// 48/// 83100
                   333 5//// 83850=
201310050600 AAXX 05064 67855 32980 00602 10218 20113 38/// 48///
                   333 20119 5////=
201310041200 AAXX 04124 67855 41970 03202 10300 20080 38/// 48/// 70500
                   333 5////=
201310040600 AAXX 04064 67855 31970 00301 10190 20078 3//// 48/// 70500
                   333 20079 5////=
201310031200 AAXX 03124 67855 41970 00405 10294 20028 3//// 48/// 70500
                   333 5////=
201310030600 AAXX 03064 67855 31070 00801 10162 20050 3//// 48/// 70500
                   333 20060 5////=
201310021200 AAXX 02124 67855 42975 01803 10266 20064 3//// 48///
                   333 5////=
201310020600 AAXX 02064 67855 32975 00902 10140 20073 3//// 48///
                   333 20069 5////=
201310011200 AAXX 01124 67855 42675 50605 10258 20110 3//// 48/// 85100
                   333 5//// 85845=
201310010600 AAXX 01064 67855 32375 60707 10148 20088 3//// 48/// 86630
                   333 20125 5//// 86707=
