################################################################################
# Query made at 04/14/2022 16:31:02 UTC
# Country like Zamb*
# Time interval: from 01/01/2012 05:30  to 01/31/2012 05:30  UTC
################################################################################

################################################################################
#  SYNOPS from 67413, Mbala (Zambia) | 08-51S | 031-20E | 1673 m
################################################################################
201201260600 AAXX 26064 67413 32890 70000 10192 48518 8707/
                   333 10250 20140 58002 87459=
201201170600 AAXX 17064 67413 12960 70504 10180 20164 48515 69904 8703/
                   333 10230 20141 59003 87359=

################################################################################
#  SYNOPS from 67441, Mwinilunga (Zambia) | 11-45S | 024-26E | 1361 m
################################################################################
201201270600 AAXX 27064 67441 12980 80000 10185 20174 48537 60184 8807/
                   333 10290 20/// 58011 88360=
201201260600 AAXX 26064 67441 12380 70000 10194 20180 48526 69904 8663/
                   333 10300 20//0 58002 86709 82360=
201201230900 AAXX 23094 67441 42682 52704 10260 20191 48540 83131
                   333 5//// 83830 81360 83080=
201201180600 AAXX 18064 67441 11980 80000 10285 20177 48535 60024 74442 8807/
                   333 10250 20//0 58007 88360=
201201170600 AAXX 17064 67441 12480 80000 10180 20180 48528 60714 885//
                   333 10240 20/// 58002 88618=
201201090600 AAXX 09064 67441 12480 70000 10193 20180 48544 69904 8113/
                   333 10290 20//0 59006 81818 87360=
201201050600 AAXX 0506/ 67441 11380 80000 10119 20189 48554 69984 72842 886//
                   333 10290 20/// 58015 88608=
201201040600 AAXX 04064 67441 12580 80000 10201 20187 48540 60184 885//
                   333 10275 20/// 58002 88620=
201201031200 AAXX 03124 67441 41460 70000 10180 20172 48519 76362 8123/
                   333 5//// 81818 87460=
201201030900 AAXX 03094 67441 42680 70000 10252 20189 48543 8213/
                   333 5//// 82835 87361=
201201030600 AAXX 03064 67441 12980 70000 10195 20183 48542 69904 8707/
                   333 10265 20/// 59010 87360=

################################################################################
#  SYNOPS from 67461, Mansa (Zambia) | 11-06S | 028-51E | 1382 m
################################################################################
201201270600 AAXX 27064 67461 11575 70000 10190 20185 48510 60134 72844 8157/
                   333 10287 20162 58004 81615 87462=
201201170600 AAXX 17064 67461 11970 70000 10191 20174 48494 60054 76166 8707/
                   333 10264 20175 59010 87461=
201201091200 AAXX 09124 67461 41570 73506 10187 20182 48490 76166 857//
                   333 59007 84620 87462 91015=
201201040600 AAXX 04064 67461 11580 80000 10184 20184 48513 60584 76366 8357/
                   333 10275 20176 58000 83620 88461=
201201020900 AAXX 02094 67461 42580 83506 10219 20163 48525 8357/
                   333 58015 83625 88462=
201201020600 AAXX 02064 67461 11560 83602 10194 20188 48518 60054 76166 8257/
                   333 10268 20174 58003 82624 88461=

################################################################################
#  SYNOPS from 67469, Samfya (Zambia) | 11-22S | 029-54E | 1171 m
################################################################################
201201020600 AAXX 02064 67469 11960 70000 10192 20//0 48582 60074 76166 8707/
                   333 10256 20167 5/// 87461=

################################################################################
#  SYNOPS from 67475, Kasama (Zambia) | 10-13S | 031-08E | 1382 m
################################################################################
201201270600 AAXX 27064 67475 12980 81703 10182 20166 48515 69904 83037
                   333 10273 20155 5//// 83360 88280=
201201180600 AAXX 18064 67475 12480 82603 10182 20169 48518 60024 8457/
                   333 10272 20170 5//// 84610 88460 91020=
201201170600 AAXX 17064 67475 12980 72703 10185 20169 48/// 60054 8707/
                   333 10268 20165 5//// 87460=
201201030600 AAXX 03064 67475 11960 83504 10195 20187 48517 60024 72842 8807/
                   333 10260 20175 59011 88459=

################################################################################
#  SYNOPS from 67477, Mpika (Zambia) | 11-54S | 031-26E | 1400 m
################################################################################
201201301200 AAXX 30124 67477 42680 50902 10262 20175 48471 82130
                   333 59017 82840 83361=
201201270600 AAXX 27064 67477 11980 80000 10190 20172 48514 60194 8807/
                   333 10272 20147 58008 88359=
201201170600 AAXX 17064 67477 12480 70000 10199 20178 48497 60094 876//
                   333 10276 20154 59006 87710=
201201030600 AAXX 03064 67477 11480 72602 10204 20178 48514 60014 87606 8157/ 33 10261
                   20156 59009 81612 87360=
201201020600 AAXX 02064 67477 11260 82803 10183 20178 48533 60154 76066 8677/
                   333 10275 20156 58001 86704 88360=

################################################################################
#  SYNOPS from 67531, Zambezi (Zambia) | 13-32S | 023-07E | 1077 m
################################################################################
201201280600 AAXX 28064 67531 11380 80000 10190 20184 48/// 60264 70296 8177/
                   333 10301 20176 58001 81706 88460
                   555 00/// 20003=
201201270600 AAXX 27064 67531 12380 73304 10217 20199 48/// 60034 8557/
                   333 10311 20191 58012 85609 87460=
201201260600 AAXX 26064 67531 12380 70302 10200 20178 48/// 60014 8117/
                   333 10327 20179 5//// 81809 87360=
201201231200 AAXX 23124 67531 42780 53007 10311 20144 48/// 83108
                   333 5//// 83856 84281=
201201230900 AAXX 23094 67531 42980 73606 10270 20186 48/// 80008
                   333 5//// 87281=
201201170600 AAXX 17064 67531 11380 80000 10184 20178 48/// 60474 76166 8672/
                   333 10250 20170 5//// 86703 88460=
201201091200 AAXX 09124 67531 42780 62103 10313 20183 48/// 86100 86850=
201201090600 AAXX 09064 67531 32480 33301 10216 20184 48/// 81102
                   333 10311 20182 59006 81816 83081=
201201050600 AAXX 0506/ 67531 12980 23602 10223 20196 48/// 69904 81032 10298 20164 59004
                   81361 82081=
201201040600 AAXX 04064 67531 11980 60902 10218 20191 48/// 60034 81038
                   333 10295 20170 59004 81361 86280=
201201030900 AAXX 03094 67531 41580 71001 10262 20210 48/// 70242 82108
                   333 5//// 82822 87280=

################################################################################
#  SYNOPS from 67541, Kasempa (Zambia) | 13-32S | 025-51E | 1234 m
################################################################################
201201270600 AAXX 27064 67541 NIL=
201201170600 AAXX 17064 67541 NIL=

################################################################################
#  SYNOPS from 67561, Ndola (Zambia) | 13-00S | 028-39E | 1269 m
################################################################################
201201270600 AAXX 27064 67561 11960 70000 10194 20173 48516 69904 70522 85038
                   333 10276 20175 58013 85360 87280=
201201220900 AAXX 22094 67561 41575 50000 10258 20181 48491 70542 81138
                   333 58003 81825 82361 85280=
201201220600 AAXX 22064 67561 11340 70303 10180 20173 48491 60054 74044 84638
                   333 10294 20164 58000 84707 85360 87280=
201201181200 AAXX 18124 67561 41560 70000 10226 20180 48481 72122 83238
                   333 58018 83825 85360 87280=
201201170600 AAXX 17064 67561 11340 70000 10188 20177 48505 60014 74044 81638
                   333 10263 20179 59001 81705 86359 87280=
201201070600 AAXX 07064 67561 31460 70000 10204 20183 48521 70542 83232
                   333 10298 20174 59003 83810 84361 83080=
201201050600 AAXX 0506/ 67561 11970 60000 10214 20186 48523 60024 70522 84038
                   333 10284 20172 58011 84361 86280=
201201031200 AAXX 03124 67561 41660 71005 10203 20177 48485 76122 85238
                   333 58000 81940 85840 83360 86280=
201201030600 AAXX 03064 67561 12480 70000 10205 20187 48517 60214 83538
                   333 10255 20179 58001 82610 85360 86280=
201201020600 AAXX 02064 67561 11360 80103 10200 20186 48516 60134 70522 8467/
                   333 10269 20181 59004 84706 88459=

################################################################################
#  SYNOPS from 67563, Kafironda (Zambia) | 12-36S | 028-07E | 1243 m
################################################################################
201201270600 AAXX 27064 67563 11982 83201 10190 20180 48/// 60034 70522 8802/
                   333 10275 20174 58017 88456=
201201260600 AAXX 26064 67563 11980 80000 10191 20190 48/// 60044 76166 8802/
                   333 10300 20165 58010 88456=
201201241200 AAXX 24124 67563 41580 60000 10285 20140 48/// 70522 86230
                   333 59005 86848 82360 82080=
201201180600 AAXX 18064 67563 11478 73502 10194 20180 48/// 60064 70522 8357/
                   333 10270 20177 58012 83630 86358=
201201170600 AAXX 17064 67563 11478 80000 10189 20180 48/// 60214 70522 83670
                   333 10265 20175 59002 83704 87358=
201201090600 AAXX 09064 67563 11478 72401 10192 20190 48/// 60034 70522 83670
                   333 10282 20176 59004 83704 86358=
201201020600 AAXX 02064 67563 11378 83402 10197 20190 48/// 60254 75062 8577/
                   333 10280 20180 59003 85708 88358=

################################################################################
#  SYNOPS from 67571, Serenje (Zambia) | 13-14S | 030-13E | 1384 m
################################################################################
201201270600 AAXX 27064 67571 11079 80000 10175 20167 48481 60634 8167/
                   333 10271 20159 58012 81701 88460=
201201241200 AAXX 24124 67571 41580 82702 10250 20182 48492 70196 8327/
                   333 59008 81936 83835 87361=
201201130900 AAXX 13094 67571 42582 72704 10227 20179 48483 86538
                   333 58004 86625 85360 87280=
201201091200 AAXX 09124 67571 41175 80903 10199 20186 48452 79596 885//
                   333 59020 82702 81920 88620=
201201090600 AAXX 09064 67571 12482 82702 10198 20184 48482 60014 885//
                   333 10251 20167 59005 88616=
201201040600 AAXX 04064 67571 12480 60603 10209 20178 48472 60614 81138
                   333 10244 20166 59008 81815 82360 87280=
201201020900 AAXX 02094 67571 41582 82703 10222 20189 48482 885//
                   333 58006 88623=
201201020600 AAXX 02064 67571 11460 82703 10189 20186 48481 60364 76566 885//
                   333 10280 20173 58000 88617=

################################################################################
#  SYNOPS from 67580, Msekera (Zambia) | 13-39S | 032-34E | 1025 m
################################################################################
201201270600 AAXX 27064 67580 11380 81202 10186 20176 48/// 60344 76162 8367/
                   333 10289 20/// 58014 83709 87459=
201201260600 AAXX 26064 67580 11480 82406 10204 20191 48/// 60004 71762 8197/
                   333 10304 20//0 58021 81910 86710 88459=
201201230900 AAXX 23094 67580 42580 73305 10236 20191 48/// 84838
                   333 58018 83829 81630 84361 85280=
201201180600 AAXX 18064 67580 12480 73302 10214 20193 48/// 60014 8557/
                   333 10290 20//0 58013 85814 86360=
201201170600 AAXX 17064 67580 12480 73603 10234 20205 48/// 60134 86801
                   333 10283 20/// 59005 82817 84620 83080=
201201130900 AAXX 13094 67580 41580 72101 10227 20200 48/// 70262 8387/
                   333 58017 82820 81623 87360=
201201090600 AAXX 09064 67580 11980 71602 10220 20194 48/// 60024 70252 8707/
                   333 10288 20//0 59007 87360=
201201020900 AAXX 02094 67580 42680 73306 10245 20206 48/// 8627/
                   333 58004 86830 87460=

################################################################################
#  SYNOPS from 67581, Chipata (Zambia) | 13-33S | 032-35E | 1028 m
################################################################################
201201270600 AAXX 27064 67581 11360 81405 10182 20178 48523 60774 76366 8377/
                   333 10278 20176 58011 83706 88459=
201201220600 AAXX 22064 67581 12580 82701 10215 20187 48491 60024 8117/
                   333 10247 20191 58003 81825 87460=
201201170600 AAXX 17064 67581 12480 73206 10219 20200 48499 60014 87808
                   333 10275 20184 59004 86610 83812 85280=
201201040600 AAXX 04064 67581 12680 72802 10228 20188 48521 60034 82138
                   333 10268 20175 59002 82830 83360 87280=
201201031200 AAXX 03124 67581 41680 71606 10235 20196 48488 72162 84232
                   333 59005 84830 83360 82080=
201201030600 AAXX 03064 67581 11370 82704 10204 20198 48520 60254 72162 8677/
                   333 10278 20192 58000 86706 88460=

################################################################################
#  SYNOPS from 67583, Lundazi (Zambia) | 12-17S | 033-12E | 1143 m
################################################################################
201201040600 AAXX 04064 67583 11980 80000 10205 20190 48/// 60074 72162 8807/
                   333 10295 20195 5//// 88460=

################################################################################
#  SYNOPS from 67599, Mfuwe (Zambia) | 13-16S | 031-56E | 568 m
################################################################################
201201220900 AAXX 22094 67599 41480 80000 10250 20214 48505 8387/
                   333 58010 82615 83818 88460=
201201220600 AAXX 22064 67599 11275 80000 10220 20205 48464 75066 8377/
                   333 10283 20205 59002 83705 88460=
201201181200 AAXX 18124 67599 42580 42405 10295 20209 48509 83230
                   333 58008 83825 83360=
201201170600 AAXX 17064 67599 12460 63003 10242 20218 48509 69904 82570
                   333 10321 20206 59004 82610 86460=
201201131200 AAXX 13124 67599 42560 70103 10265 20223 48533 8327/
                   333 58015 83825 87460=
201201130900 AAXX 13094 67599 42460 80000 10241 20223 48547 70362 8717/
                   333 58018 87813 88460 91019=
201201130600 AAXX 13064 67599 11359 80000 10219 20209 48550 60084 8572/
                   333 10322 20202 85706 88460
                   555 00/// 20002 91020=
201201090600 AAXX 09064 67599 12380 71204 10240 20218 48540 60014 8167/
                   333 10345 20220 59008 81705 87459=
201201070600 AAXX 07064 67599 32380 70000 10250 20221 8457/
                   333 10344 20230 58001 84608 87460=
201201040600 AAXX 04064 67599 11375 70000 10244 20229 48528 60054 70522 8457/
                   333 10316 20219 59006 84608 87460=
201201031200 AAXX 03124 67599 42580 60806 10300 20238 48507 81930
                   333 59009 81920 84825 84360=

################################################################################
#  SYNOPS from 67633, Mongu (Zambia) | 15-15S | 023-09E | 1052 m
################################################################################
201201270600 AAXX 27064 67633 12980 70000 10223 20198 48495 60064 8707/
                   333 10320 20190 58007 87460=
201201220600 AAXX 22064 67633 32980 70000 10230 20201 48483 8707/
                   333 10315 20215 59010 87460=
201201181200 AAXX 18124 67633 42680 72708 10255 20203 48477 84230
                   333 58008 84840 86361=
201201170600 AAXX 17064 67633 12280 70206 10198 20190 48486 60064 8663/
                   333 10275 20189 58002 86605 87360=
201201031200 AAXX 03124 67633 42780 53603 10300 20208 48499 85200
                   333 58001 81940 84850=
201201030600 AAXX 03064 67633 12980 40000 10240 20211 48515 60034 81032
                   333 10324 20165 58004 81361 83080=

################################################################################
#  SYNOPS from 67641, Kaoma (Zambia) | 14-48S | 024-48E | 1213 m
################################################################################
201201270600 AAXX 27064 67641 12580 70602 10212 20191 48494 60024 84530
                   333 10306 20195 58006 84640 86360=
201201170600 AAXX 17064 67641 NIL=

################################################################################
#  SYNOPS from 67655, Mumbwa (Zambia) | 15-04S | 027-11E | 1216 m
################################################################################
201201270600 AAXX 27064 67655 31480 80000 10187 20187 48506 76062 8577/
                   333 10285 20/// 58003 85610 88457=
201201170600 AAXX 17064 67655 12880 73402 10220 20183 48502 60424 86071
                   333 10279 20/// 59007 86459 82080=
201201090600 AAXX 09064 67655 32980 62704 10231 20186 48521 82085
                   333 10302 20//0 59006 82360 85280=

################################################################################
#  SYNOPS from 67663, Kabwe (Zambia) | 14-27S | 028-28E | 1206 m
################################################################################
201201270600 AAXX 27064 67663 NIL=
201201170600 AAXX 17064 67663 12480 60000 10196 20191 48496 60344 81570
                   333 10282 20187 58002 81618 86460=
201201030600 AAXX 03064 67663 12380 70000 10199 20191 48508 60084 83670
                   333 10261 20176 58002 83708 86460=

################################################################################
#  SYNOPS from 67665, Lusaka Internationalairport (Zambia) | 15-19S | 028-27E | 1152 m
################################################################################
201201310300 AAXX 31034 67665 42980 43201 10190 20190 48495 70100 84031
                   333 5//// 84360 81080 91016=
201201310000 AAXX 31004 67665 42980 51301 10186 20186 48489 85031
                   333 5//// 85360 81080 91015=
201201301800 AAXX 30184 67665 41780 20000 10223 20215 48483 71300 81932
                   333 59005 81950 82360 81080=
201201301500 AAXX 30154 67665 42680 20802 10260 20210 48472 81932
                   333 59003 81945 81845 82360 81080=
201201301200 AAXX 30124 67665 42680 70503 10249 20213 48488 83232
                   333 59008 83830 86360 82080=
201201300600 AAXX 30064 67665 32380 71103 10205 20177 48499 8163/
                   333 10257 20179 59007 81708 87360=
201201291800 AAXX 29184 67665 42780 70501 10218 20218 48488 70222 8193/
                   333 10255 81950 87360 91015=
201201291200 AAXX 29124 67665 42680 70602 10242 48495 8323/
                   333 59006 83835 83760=
201201290900 AAXX 29094 67665 42560 83202 10208 20194 48508 8353/
                   333 59012 83620 87360=
201201290600 AAXX 29064 67665 11360 70501 10192 20192 48505 60484 72842 8163/
                   333 10280 20165 59009 81709 87360=
201201281800 AAXX 28184 67665 41680 21402 10221 20221 48500 71300 81931
                   333 10280 59029 81930 81360 81080=
201201281500 AAXX 28154 67665 42680 20101 10266 20214 48486 82231
                   333 59016 82840 82360 81080=
201201281200 AAXX 28124 67665 42580 60101 10267 20218 48505 83132
                   333 59006 83825 85360 83080=
201201280900 AAXX 28094 67665 42380 70000 10225 20218 48522 70322 8283/
                   333 59002 81709 81810 87360 91018=
201201280600 AAXX 28064 67665 12380 70000 10194 20194 48514 60084 70122 8163/
                   333 10285 20180 59005 81708 87360
                   555 00/// 91018=
201201271200 AAXX 27124 67665 42580 70102 10234 20219 48507 8323/
                   333 58013 83828 86360=
201201270900 AAXX 27094 67665 41379 73501 10221 20213 48523 76022 83731
                   333 58009 83708 82820 86360 82080=
201201270600 AAXX 27064 67665 11360 72801 10221 20221 48522 60324 76066 84731
                   333 10254 20173 58008 84706 86360 82080
                   555 00/// 20028 91019=
201201270400 AAXX 27044 67665 42359 80000 10213 20213 48516 76166 8573/
                   333 58016 85705 88359=
201201270300 AAXX 27034 67665 42359 80000 10213 20213 48516 76166 8573/
                   333 58016 85705 88359=
201201261200 AAXX 26124 67665 42480 72903 10239 20232 48493 70166 81232
                   333 59025 81814 83360 86080=
201201260600 AAXX 26064 67665 11356 82805 10201 20201 48512 79562 8577/
                   333 10303 20//0 58012 85706 81915 88459=
201201260300 AAXX 26034 67665 42980 30000 10196 20196 48489 83030
                   333 58014 83360=
201201260000 AAXX 26004 67665 42980 32801 10201 20201 48485 83030
                   333 58009 83360=
201201252100 AAXX 2521/ 67665 42980 41501 10206 20206 48494 84030
                   333 58001 84360 Q1015.9=
201201251800 AAXX 25184 67665 41780 70602 10222 20222 48484 72992 81932
                   333 58005 81955 84360 87080=
201201251500 AAXX 25154 67665 42780 72802 10272 20215 48462 81932
                   333 59003 81950 82360 87280=
201201251200 AAXX 25124 67665 42680 42904 10286 20215 48475 83202
                   333 59010 83840 81080=
201201250900 AAXX 25093 67665 42580 63005 10265 20213 48492 81102
                   333 59006 81820 86080=
201201250600 AAXX 25064 67665 32380 63303 10213 20183 48494 81532
                   333 10305 20185 59012 81707 86360 82080=
201201250300 AAXX 25034 67665 42980 22901 10191 20191 48472 82031
                   333 59013 82360 81080=
201201250000 AAXX 25004 67665 42380 43002 10212 20212 48477 83530
                   333 59022 83505 83360=
201201242100 AAXX 24214 67665 42980 22401 10215 20215 48494 82030
                   333 59015 82360=
201201241800 AAXX 24184 67665 42780 50000 10238 20203 48483 81032
                   333 10305 59011 81956 81360 85280=
201201241500 AAXX 24154 67665 42680 32704 10275 20178 48465 81032
                   333 58013 81945 81360 83080
                   555 10305 91011=
201201241200 AAXX 24124 67665 42680 32505 10293 20189 48482 83230
                   333 59010 83835 81360 91013=
201201240900 AAXX 24094 67665 42580 42704 10256 20220 48499 83830
                   333 59012 82825 81627 82360=
201201231800 AAXX 23184 67665 42980 61201 10232 20218 48491 86031
                   333 10276 58016 86360 82080=
201201231500 AAXX 23154 67665 42680 62602 10258 20207 48477 82132
                   333 58009 82845 83360 84080=
201201231200 AAXX 23124 67665 42580 52704 10266 20193 48492 81131
                   333 58020 81825 85360 81080=
201201230900 AAXX 23094 67665 42480 62904 10219 20212 48507 81130
                   333 58018 81810 86360 91017=
201201221200 AAXX 22124 67665 42680 62605 10277 20213 48474 85232
                   333 59009 81930 84835 85360 83080=
201201220900 AAXX 22094 67665 42480 53002 10258 20222 48494 82132
                   333 59001 82815 83360 84280=
201201220600 AAXX 22064 67665 12360 70801 10201 20201 48489 60024 84731
                   333 10284 20184 58002 84707 86360 82080=
201201220400 AAXX 22044 67665 41359 83102 10197 20197 48493 79522 8573/
                   333 58001 85706 819// 87359=
201201220000 AAXX 22004 67665 42980 60000 10204 20204 48474 82032
                   333 58003 555 832360 85080=
201201212100 AAXX 21214 67665 42980 60000 10203 20203 48484 82032
                   333 59001 82360 85080=
201201211800 AAXX 21184 67665 42980 52803 10230 20201 48474 70222 85002
                   333 58001 85080=
201201211500 AAXX 21154 67665 42680 72405 10274 20194 48460 70222 82232
                   333 59013 82845 82360 86080=
201201211200 AAXX 21124 67665 42680 62406 10271 20222 48482 85232
                   333 59002 85835 84360 83080=
201201210600 AAXX 21064 67665 12380 72702 10196 20196 48490 60154 8263/
                   333 10239 20185 59005 82709 87360=
201201210000 AAXX 21004 67665 42980 32402 10197 20197 48491 83032
                   333 59016 83360 82080=
201201202100 AAXX 20214 67665 42780 32402 10192 20192 48484 83032
                   333 59007 81956 83360 82380=
201201201800 AAXX 20184 67665 42780 72603 10204 20204 48470 70222 8373/
                   333 59016 81950 83710 87360=
201201201500 AAXX 20154 67665 41360 72604 10208 20208 48463 72166 8273/
                   333 59005 82709 87360=
201201201200 AAXX 20124 67665 41359 82705 10200 20200 48476 76166 8473/
                   333 59009 84709 88359=
201201200400 AAXX 2004/ 67665 42380 72801 10195 20195 48494 81532
                   333 58005 81606 85360 87280=
201201200300 AAXX 20034 67665 42380 72902 10195 20195 48480 81532
                   333 58001 81605 84360 87280=
201201191200 AAXX 19124 67665 41460 72901 10226 20226 48488 70162 8553/
                   333 58010 85710 87370 91015=
201201190600 AAXX 19064 67665 11359 82804 10196 20196 48500 60154 76122 8577/
                   333 10275 20//0 58001 85706 88359=
201201181500 AAXX 18154 67665 42659 72803 10254 20226 82132
                   333 5800 82845 83360 85280=
201201181200 AAXX 18124 67665 42480 62905 10263 20221 48482 81931
                   333 59005 81925 85830 83360 82080=
201201180900 AAXX 18094 67665 41480 73003 10235 20228 48504 71622 8553/
                   333 58012 85612 87360=
201201180600 AAXX 18064 67665 12380 72903 10200 20185 48499 60074 70222 8167/
                   333 10270 20//0 58003 81707 87360=
201201171200 AAXX 17124 67665 41670 60602 10226 20226 48483 71722 81932
                   333 58003 81935 85838 85360 82080=
201201170900 AAXX 17094 67665 41580 63002 10254 20226 48493 71522 81931
                   333 59010 81920 85825 82360 83080=
201201170600 AAXX 17064 67665 12980 62901 10216 20216 48499 69904 83531
                   333 10275 20/// 59010 83610 85360 82080=
201201170400 AAXX 17044 67665 42980 73101 10199 20199 48489 87030
                   333 59008 87360=
201201170300 AAXX 17034 67665 42980 73101 10199 20199 48489 87030
                   333 59008 87360=
201201162100 AAXX 16214 67665 42980 62101 10202 20202 48493 86032
                   333 59016 86360 81080=
201201161200 AAXX 16124 67665 42680 60602 10262 20204 48484 85230
                   333 59027 81930 85832 84360=
201201160300 AAXX 16034 67665 42980 30000 10220 20220 48491 83031
                   333 59027 83360 81080=
201201160000 AAXX 16004 67665 42/80 41501 10227 20227 48497 84030
                   333 58001 819// 84360=
201201152100 AAXX 15214 67665 42780 40000 10230 20230 48512 84030
                   333 59009 81950 84360 91017=
201201151800 AAXX 15184 67665 42680 51201 10244 20244 48502 83370
                   333 58002 81945 83845 83360=
201201151500 AAXX 15154 67665 42680 61803 10239 20233 48495 85872
                   333 58002 83635 83838 82360 82080=
201201150600 AAXX 15064 67665 12380 70000 10223 20223 48519 72166 8167/
                   333 10285 20145 59002 81709 87359=
201201150400 AAXX 15044 67665 41350 82802 10219 20219 48517 78892 8193/
                   333 59002 84708 88360=
201201150300 AAXX 15034 67665 41950 83003 10215 20121 48505 79792 8193/
                   333 59002 81909 88360=
201201150000 AAXX 15004 67665 41980 53102 10208 20208 48498 71722 81932
                   333 59013 81909 85360 85280=
201201142100 AAXX 14214 67665 42980 50701 10212 20212 47511 80002
                   333 59002 84080=
201201141800 AAXX 14184 67665 42760 70000 10201 20201 48506 70222 81932
                   333 10285 59008 81950 83360 87280=
201201141500 AAXX 14154 67665 41660 72402 10213 20213 48488 71622 81938
                   333 59001 81940 83360 87280
                   555 91015=
201201141200 AAXX 14124 67665 42560 62904 10260 20232 48501 82208
                   333 59005 82825 86280 91016=
201201140900 AAXX 14094 67665 42460 83202 10221 20221 48521 8557/
                   333 59007 85610 87460=
201201140600 AAXX 14064 67665 11358 83201 10215 20215 48520 60054 76066 8577/
                   333 10269 20143 59014 85706 88459=
201201131500 AAXX 13154 67665 41560 81902 10219 20219 48490 71722 81932
                   333 59016 81925 83830 83360 87280=
201201131200 AAXX 13124 67665 42480 63203 10249 20236 48505 85802
                   333 59014 82615 85820 83080=
201201130900 AAXX 13094 67665 41458 73202 10204 20204 48526 76066 8557/
                   333 59005 85610 87459 91019=
201201130600 AAXX 13064 67665 11360 73403 10220 20220 48535 60024 76066 8577/
                   333 10260 20150 58003 85707 87459
                   555 00/// 91020=
201201120900 AAXX 12094 67665 42579 73503 10242 20220 48535 72582 85380
                   333 58018 85822 84360=
201201120600 AAXX 12064 67665 32580 60102 10218 20218 48533 83480
                   333 10224 20150 83625 82825 86360=
201201120400 AAXX 12044 67665 42980 60701 10191 20191 48521 86080
                   333 58008 86360=
201201112100 AAXX 11214 67665 42980 50000 10198 20198 48515 85030
                   333 58006 85360=
201201111800 AAXX 11184 67665 42780 31301 10206 20206 48505 81932
                   333 10301 59009 81950 83360 81080=
201201111200 AAXX 11124 67665 41575 70000 10214 20214 48497 72922 86933
                   333 58006 82930 96832 81360 82080=
201201110900 AAXX 11094 67665 42680 50704 10272 20221 48523 85200
                   333 59001 85840=
201201110600 AAXX 11064 67665 32980 40203 10215 20215 48522 81032
                   333 10308 20180 59001 81360 84080=
201201110400 AAXX 1104/ 67665 41980 40000 10189 20189 48514 74100 82032
                   333 58003 82360 84080=
201201110300 AAXX 11034 67665 42980 20000 10203 20203 48508 82031
                   333 58008 81360 81080 91017=
201201110000 AAXX 11004 67665 42980 22801 10192 20192 48499 82031
                   333 58004 81360 81080 91016=
201201102100 AAXX 10214 67665 42980 30000 10201 20201 48509 83031
                   333 59005 83360 81080 91017=
201201101800 AAXX 10184 67665 42980 41102 10219 20219 48498 84030
                   333 59003 84360=
201201101500 AAXX 10154 67665 41780 72402 10241 20220 48494 71799 81932
                   333 59007 81950 81850 86360 81080=
201201101200 AAXX 10124 67665 41680 60304 10266 20208 48498 71722 83242
                   333 59007 81930 83830 83460 81080=
201201100600 AAXX 10064 67665 12980 30000 10225 20191 48523 69904 82031
                   333 10320 20160 58000 82360 81080=
201201100400 AAXX 1004/ 67665 42980 41701 10192 20192 48509 82031
                   333 59007 82360 84080=
201201100300 AAXX 10034 67665 42980 11801 10184 20184 48500 81031
                   333 59013 81360 81080=
201201100000 AAXX 10004 67665 42980 12201 10193 20193 48495 80001
                   333 59013 81080=
201201092100 AAXX 09214 67665 42980 40000 10202 20202 48514 81032
                   333 59001 81360 84080=
201201091800 AAXX 09184 67665 41760 60000 10222 20222 48501 71300 84032
                   333 10320 59006 81956 84360 83080=
201201091500 AAXX 09154 67665 42780 60402 10260 20224 48490 83231
                   333 59011 81950 82850 83360 81080
                   555 10320 91014=
201201091200 AAXX 09124 67665 42680 61603 10296 20185 48508 86230
                   333 59013 81940 86845 81360 91016=
201201090900 AAXX 09094 67665 42680 30602 10274 30204 48530 83200
                   333 59011 83835 91019=
201201090600 AAXX 09064 67665 32480 13102 10225 20186 48524 70200 81130
                   333 10306 20158 59012 81815 81360=
201201081800 AAXX 08184 67665 42980 11701 10235 20206 48509 81030
                   333 10306 59009 81360=
201201081500 AAXX 08154 67665 42780 40601 10270 20220 48502 84231
                   333 59003 84850 82360 82080=
201201081200 AAXX 08124 67665 42680 50803 10282 20176 48519 85201
                   333 59002 85840 81080=
201201080900 AAXX 08094 67665 42580 60804 10269 20212 48539 85102
                   333 58002 85825 83080 91020=
201201080600 AAXX 08064 67665 32980 60000 10220 20193 48506 81032
                   333 10296 20165 58014 81360 85079
                   555 00/// 91020=
201201071800 AAXX 07184 67665 42780 60000 10233 20204 48517 71300 83032
                   333 10296 58015 81956 83360 86080=
201201070900 AAXX 07094 67665 42580 70401 10253 20208 48535 87200
                   333 58008 87820=
201201070600 AAXX 07064 67665 12380 20501 10224 20224 48529 60054 82131
                   333 10294 20161 59005 82810 82360 81080=
201201062100 AAXX 06214 67665 41780 60000 10216 20211 48516 71322 81930
                   333 59004 81956 86360=
201201061800 AAXX 06184 67665 41780 51402 10243 20222 48503 71322 81930
                   333 10294 59007 81956 85360=
201201061200 AAXX 06124 67665 42680 41403 10279 20212 48505 72522 83201
                   333 59011 83842 82080=
201201060600 AAXX 06064 67665 12470 71303 10211 20211 48533 60014 8683/
                   333 10300 20186 58007 85610 83815 84360=
201201060400 AAXX 06044 67665 41660 71202 10217 20127 48520 72992 81938
                   333 59001 81845 85360 87280=
201201060300 AAXX 06034 67665 41660 60000 10205 20205 48508 71799 81930
                   333 59009 81940 85360=
201201052100 AAXX 05214 67665 42980 20000 10208 20208 48519 82031
                   333 59001 81360 81080=
201201051800 AAXX 05184 67665 42980 20000 10235 20227 48510 82031
                   333 10300 59006 81360 81080=
201201051500 AAXX 05154 67665 42780 30000 10266 20224 48504 82232
                   333 58001 81950 81850 81360 82080=
201201051200 AAXX 05124 67665 42680 60502 10285 20214 48518 86202
                   333 58005 86840 81080=
201201050600 AAXX 0506/ 67665 32980 30601 10229 20204 48532 80001
                   333 10300 20150 58012 83080=
201201050400 AAXX 0504/ 67665 42980 11502 10167 20167 48505 81031
                   333 58014 81360 81080=
201201050300 AAXX 05034 67665 42980 11502 10164 20164 48511 81030
                   333 58017 81360=
201201050000 AAXX 05004 67665 42980 01801 10179 20179 48509
                   333 58014=
201201042100 AAXX 04214 67665 42980 01601 10191 20191 48517
                   333 58012=
201201041800 AAXX 04184 67665 42980 31401 10238 20201 48516 83031
                   333 10300 58013 83360 81080 91018=
201201041200 AAXX 04124 67665 42680 51202 10289 20194 48513 85202
                   333 58008 85840 81080
                   555 91017=
201201040900 AAXX 04094 67665 42680 50802 10259 20216 48524 85202
                   333 58001 85830 81080=
201201040600 AAXX 04064 67665 31960 21201 10224 20188 48520 72844 80002
                   333 10295 20155 59006 82080=
201201031800 AAXX 03184 67665 42980 31601 10233 20204 48502 83031
                   333 10295 59006 83360 81080=
201201031500 AAXX 03154 67665 42780 21302 10281 20171 48491 82101
                   333 59009 82850 81080=
201201031200 AAXX 03124 67665 42680 51001 10281 20204 48503 85200
                   333 59019 85835=
201201030900 AAXX 03094 67665 42580 50901 10249 20239 48522 85201
                   333 58004 85820 81080 91018=
201201030600 AAXX 03064 67665 31370 70801 10235 20228 48529 74744 867//
                   333 10227 20190 58007 87708=
201201021200 AAXX 02124 67665 41680 60504 10200 20200 48498 71762 86931
                   333 58004 81930 85832 84360 83080=
201201020900 AAXX 02094 67665 42580 63202 10255 20227 48519 85231
                   333 59004 85820 84360 83080=
201201020600 AAXX 02064 67665 12380 73201 10213 20203 48518 60164 86630
                   333 10266 20196 58000 86608 86360=
201201020400 AAXX 02044 67665 42380 70000 10226 20226 48510 8673/
                   333 59003 86707 87360=
201201012100 AAXX 01214 67665 42780 73601 10213 20213 48513 8197/
                   333 59005 81950 87360=
201201011200 AAXX 01124 67665 42580 73004 10249 20233 48598 71622 8523/
                   333 59005 85825 86360=
201201010900 AAXX 01094 67665 41459 73302 10218 20218 48518 76066 8457/
                   333 58000 84609 87459=
201201010600 AAXX 01064 67665 12380 73302 10204 20189 48517 60114 8463/
                   333 10299 20176 59009 84708 87360=

################################################################################
#  SYNOPS from 67666, Lusaka City Airport (Zambia) | 15-25S | 028-19E | 1280 m
################################################################################
201201280600 AAXX 28064 67666 32980 80602 10195 20173 48508 8803/
                   333 10//0 20176 59004 88360 91017=
201201270600 AAXX 27064 67666 12480 72502 10187 20176 48512 60434 8213/
                   333 10/// 20170 58007 82825 86360=
201201230900 AAXX 23094 67666 42580 72506 10235 20158 48501 70222 82530
                   333 58017 82622 86360 91016=
201201181200 AAXX 18124 67666 42680 60610 10231 20185 48476 85270
                   333 59001 81935 85835 84360=
201201180600 AAXX 18064 67666 12580 72006 10196 20178 48496 60044 8343/
                   333 10//0 20180 58003 83620 86360=
201201170600 AAXX 17064 67666 12680 70000 10215 20190 48491 60054 81170
                   333 10/// 20182 59006 81835 86360=
201201090600 AAXX 09064 67666 32980 02005 10225 20179 48518
                   333 10//0 20160 59012=
201201040600 AAXX 04064 67666 32980 30902 10230 20181 48516 80001
                   333 10267 20160 59004 83080=
201201031200 AAXX 03124 67666 42680 43602 10277 20154 48496 84100
                   333 58003 84842=
201201030900 AAXX 03094 67666 42580 50000 10248 20199 48513 85100
                   333 58000 85823=
201201020900 AAXX 02094 67666 42580 60000 10248 20191 48513 86830
                   333 58000 82625 85830 82360=

################################################################################
#  SYNOPS from 67673, Petauke (Zambia) | 14-15S | 031-17E | 1035 m
################################################################################
201201270600 AAXX 27064 67673 11970 80202 10197 20190 48523 60154 76162 8807/
                   333 10280 20183 58016 88460=
201201241200 AAXX 24124 67673 42680 72602 10280 20184 49546 84131
                   333 58001 84840 86360 83080=
201201181200 AAXX 18124 67673 42680 51901 10270 20188 48490 85231
                   333 58015 85840 82360 84080=
201201130900 AAXX 13094 67673 41580 83601 10208 20190 48540 76166 8557/
                   333 58010 85630 88459=
201201091200 AAXX 09124 67673 41680 70205 10270 20200 48505 71522 8327/
                   333 59003 81940 83840 87362=
201201040600 AAXX 04064 67673 12580 60902 10243 20179 48529 8173/
                   333 10285 20190 59021 81820 82360 86080=
201201031200 AAXX 03124 67673 42684 51205 10278 20171 48500 82234
                   333 59002 82836 81364 83080=
201201030900 AAXX 03094 67673 42684 71402 10247 20198 48515 8527/
                   333 59008 85830 87363=

################################################################################
#  SYNOPS from 67743, Livingstone (Zambia) | 17-49S | 025-49E | 985 m
################################################################################
201201281200 AAXX 28124 67743 42580 71105 10265 20191 48501 83340
                   333 59005 81930 82830 84460=
201201270600 AAXX 27064 67743 32680 81204 10208 20193 48508 81132
                   333 10305 20193 58017 81830 85359 82080=
201201231200 AAXX 23124 67743 42680 52305 10288 20198 48480 83835 82360 81080=
201201220600 AAXX 22064 67743 32480 63307 10217 20194 48482 81581
                   333 10306 20195 59003 81610 85360 81075=
201201191200 AAXX 19124 67743 41680 73507 10254 20204 48475 72992 81931
                   333 58004 81630 81935 84835 86360=
201201181200 AAXX 18124 67743 42680 40902 10282 20187 48469 84231
                   333 58004 84840 82360 81080=
201201180600 AAXX 18064 67743 31580 63212 10234 20194 48491 69904 70122 81132
                   333 10301 20208 59003 81825 84360 82080=
201201170600 AAXX 17064 67743 32780 70803 20203 48494 82532
                   333 10310 20193 59010 82645 83359 83080=
201201131200 AAXX 13124 67743 42780 80302 10307 20163 48499 83101
                   333 59024 83856 81080=
201201130900 AAXX 13094 67743 42680 52504 10266 20186 48524 82132
                   333 58002 82840 81360 91017=
201201130600 AAXX 13064 67743 32980 70102 10227 20183 48522 70222 84032
                   333 10309 20//0 58004 84360 83080
                   555 00/// 20000 91018=
201201091500 AAXX 09154 67743 42980 61903 20123 48479 70222 85202
                   333 59009 85857 82080=
201201091200 AAXX 09124 67743 42680 51806 10302 20135 48508 70222 83200
                   333 58006 85832 91014=
201201081500 AAXX 08154 67743 42880 21204 10339 20134 48495 82100
                   333 59009 82857=
201201081200 AAXX 08124 67743 42780 30805 10327 20159 48518 83100
                   333 59006 83856=
201201080600 AAXX 08064 67743 32980 10906 10246 20170 48533 81080
                   333 10352 20199 58010 81360
                   555 00/// 20000 91019=
201201070600 AAXX 07064 67743 32980 41008 10248 20182 48524 80002
                   333 10350 20198 58002 84080=
201201050600 AAXX 0506/ 67743 32980 11253 20174 48514 70300 81001 10340 20191 81080
                   555 00/// BB/// CC192 DD114 Q1017.9=
201201031200 AAXX 03124 67743 42780 52702 10321 20192 48507 84200
                   333 59006 84856=
201201030600 AAXX 03064 67743 12980 21202 10243 20200 48524 80001
                   333 10323 20202 58006 81080=
201201020900 AAXX 02094 67743 42580 50904 10275 20198 48521 81102
                   333 58010 81830 85080=
201201020600 AAXX 02064 67743 12380 72902 10225 20209 48517 60034 81637
                   333 10317 20199 58004 81706 81360 87280=

################################################################################
#  SYNOPS from 67753, Choma (Zambia) | 16-50S | 027-04E | 1213 m
################################################################################
201201270600 AAXX 27064 67753 NIL=
201201170600 AAXX 17064 67753 NIL=

################################################################################
#  SYNOPS from 67855, Lupaki (Zambia) | 17-03-00S | 024-46-00E | 1000 m
################################################################################
201201281200 AAXX 28124 67855 42780 73402 10304 20173 38/// 48/// 85201
                   333 5//// 85850 87080=
201201280600 AAXX 28064 67855 31970 70603 10208 20148 3//// 48/// 70522 8707/
                   333 20169 5//// 87460=
201201271800 AAXX 27184 67855 NIL=
201201271200 AAXX 27124 67855 42780 60304 10324 20141 3//// 48/// 83261
                   333 5//// 83850 86080=
201201270600 AAXX 27064 67855 32980 70606 10226 20168 3//// 48/// 8507/
                   333 20180 5//// 85460=
201201261200 AAXX 26124 67855 42680 71502 10268 20198 38/// 48/// 8327/
                   333 5//// 83830 87460=
201201260600 AAXX 26064 67855 11370 41203 10222 20198 3//// 48/// 60064 70511 81631
                   333 20198 5//// 81707 84360=
201201251200 AAXX 25124 67855 42680 51803 10314 20186 3//// 48/// 85201
                   333 5//// 85840=
201201250600 AAXX 25064 67855 11970 53001 10244 20190 3//// 48/// 69904 85031
                   333 20195 5//// 85360=
201201241200 AAXX 24124 67855 NIL=
201201240600 AAXX 24064 67855 11370 63301 10226 20201 3//// 48/// 70522 81631
                   333 20190 5//// 81707 83360=
201201231200 AAXX 23124 67855 41670 43303 10292 20215 38/// 48/// 72595 86261
                   333 5//// 86840=
201201230600 AAXX 23064 67855 31970 40701 10230 20201 3//// 48/// 70511 84070
                   333 20190 5//// 84460=
201201221200 AAXX 22124 67855 NIL=
201201220600 AAXX 22064 67855 11970 60602 10218 20193 38/// 48/// 60014 72162 86070
                   333 20198 5//// 86458=
201201211200 AAXX 21124 67855 42780 52701 10290 20189 38/// 48/// 85231
                   333 5//// 85850=
201201210600 AAXX 21064 67855 31970 71302 10220 20183 3//// 48/// 70522 85071
                   333 20203 5//// 85360 87080=
201201201200 AAXX 20124 67855 42680 61301 10276 20191 3//// 48/// 86231
                   333 5//// 86840=
201201200600 AAXX 20064 67855 11370 53601 10200 20193 3//// 48/// 60054 72598 81681
                   333 20188 5//// 81707 85360 97080=
201201191200 AAXX 19124 67855 NIL=
201201181200 AAXX 18124 67855 NIL=
201201180600 AAXX 18064 67855 NIL=
201201171200 AAXX 17124 67855 42780 43002 10326 20134 3//// 48/// 84201
                   333 5//// 84850=
201201170600 AAXX 17064 67855 31970 21302 10215 20153 38/// 48/// 70511 80001
                   333 20158 5//// 82080=
201201161800 AAXX 16184 67855 NIL=
201201161200 AAXX 16124 67855 42780 60303 10302 20174 38/// 48/// 86200
                   333 5//// 86850=
201201160600 AAXX 16064 67855 11370 10706 10212 20188 3//// 48/// 60124 70500 81601
                   333 20155 5//// 81707=
201201151200 AAXX 15124 67855 NIL=
201201150600 AAXX 15064 67855 11970 60601 10230 20201 3//// 48/// 60104 70511 80001
                   333 20188 5//// 86080=
201201141200 AAXX 14124 67855 42780 51802 10320 20155 3//// 48/// 85231
                   333 5//// 85850=
201201140600 AAXX 14064 67855 11370 32001 10210 20183 38/// 48/// 60024 70511 83630
                   333 20159 5//// 83707=
201201131200 AAXX 13124 67855 NIL=
201201130600 AAXX 13064 67855 31970 73601 10230 20188 38/// 48/// 70522 8707/
                   333 20178 5//// 87460=
201201121800 AAXX 12184 67855 NIL=
201201121200 AAXX 12124 67855 41780 72702 10262 20203 3//// 48/// 71792 85233
                   333 5//// 81945 85850 87080=
201201120600 AAXX 12064 67855 11970 13602 10232 20200 38/// 48/// 60034 70500 81030
                   333 20165 5//// 81360=
201201111800 AAXX 11184 67855 NIL=
201201111200 AAXX 11124 67855 41570 70302 10238 20200 38/// 48/// 72598 84203
                   333 5//// 81920 83830 87080=
201201110600 AAXX 11064 67855 31970 10601 10236 20183 38/// 48/// 70500 81030
                   333 20180 5//// 81360=
201201101200 AAXX 10124 67855 42880 40301 10338 20144 3//// 48/// 84231
                   333 5//// 84857=
201201100600 AAXX 10064 67855 31970 40601 10244 20157 3//// 48/// 70500 84080
                   333 20178 5//// 84360=
201201091200 AAXX 09124 67855 42780 42003 10338 20109 3//// 48/// 84200
                   333 5//// 84856=
201201090600 AAXX 09064 67855 31670 31801 10238 20168 38/// 48/// 70500 83530
                   333 20164 5//// 83630=
201201081800 AAXX 08184 67855 NIL=
201201081200 AAXX 08124 67855 NIL=
201201080600 AAXX 08064 67855 32980 00303 10232 20163 38/// 48///
                   333 20155 5////=
201201071800 AAXX 07184 67855 NIL=
201201071200 AAXX 07124 67855 42780 71202 10340 20142 38/// 48/// 83201
                   333 5//// 83850=
201201070600 AAXX 07064 67855 31970 71303 10240 20143 3//// 48/// 70522 80001
                   333 20140 5//// 87080=
201201061200 AAXX 06124 67855 42780 21902 10340 20111 3//// 48/// 82200
                   333 5//// 82850=
201201060600 AAXX 06064 67855 31970 11307 10250 20178 3//// 48/// 70500 80001
                   333 20172 5//// 81080=
201201051200 AAXX 05124 67855 42780 21603 10348 20118 3//// 4//// 82100
                   333 5//// 82850=
201201050600 AAXX 05064 67855 31970 01801 10242 20198 38/// 48/// 70500
                   333 20164 5////=
201201041800 AAXX 04184 67855 NIL=
201201041200 AAXX 04124 67855 42780 21602 10332 20148 38/// 48/// 82101
                   333 5//// 82850=
201201040600 AAXX 04064 67855 31970 02001 10234 20159 38/// 48/// 70500
                   333 20188 5////=
201201031200 AAXX 03124 67855 42780 42002 10332 20148 38/// 48/// 84200
                   333 5//// 84850=
201201030600 AAXX 03064 67855 31970 11201 10238 20173 3//// 48/// 70500 80001
                   333 20167 5//// 81080=
201201021200 AAXX 02124 67855 42780 71903 10326 20155 3//// 48/// 84201
                   333 5//// 84850 87080=
201201020600 AAXX 02064 67855 31970 71801 10230 20195 3//// 48/// 70522 80001
                   333 20184 5//// 87080=
201201011200 AAXX 01124 67855 NIL=
201201010600 AAXX 01064 67855 11370 70302 10230 20216 38/// 48/// 60054 70522 84601
                   333 20195 5//// 84707 87080=
