################################################################################
# Query made at 04/14/2022 12:06:47 UTC
# Country like Zamb*
# Time interval: from 01/01/2013 05:30  to 01/31/2013 06:30  UTC
################################################################################

################################################################################
#  SYNOPS from 67561, Ndola (Zambia) | 13-00S | 028-39E | 1269 m
################################################################################
201301241200 AAXX 24124 67561 42580 70000 10275 20187 48495 86230
                   333 59010 81935 86835 86360=

################################################################################
#  SYNOPS from 67599, Mfuwe (Zambia) | 13-16S | 031-56E | 568 m
################################################################################
201301310600 AAXX 31064 67599 12380 70000 10211 20199 48507 60164 82730
                   333 10246 20191 59013 82707 87360=
201301291500 AAXX 29154 67599 42780 71808 10290 20198 48524 70222 82230
                   333 58000 82856 87360=

################################################################################
#  SYNOPS from 67665, Lusaka Internationalairport (Zambia) | 15-19S | 028-27E | 1152 m
################################################################################
201301310600 AAXX 31064 67665 32386 21004 10207 20168 48519 70300 82631
                   333 10284 20173 58004 81710 81360 81080=
201301302100 AAXX 30214 67665 42980 12101 10212 20189 48511 81030
                   333 59024 81360=
201301301200 AAXX 30124 67665 42680 60906 10275 20248 48517 86201
                   333 59016 86840 81080=
201301300900 AAXX 30094 67665 42580 60704 10241 20204 48535 85202
                   333 59016 85825 82080 91020=
201301300600 AAXX 30064 67665 12980 41403 10205 20176 48532 60074 83031
                   333 10274 20167 59011 83360 82080=
201301291800 AAXX 29184 67665 42980 10000 10//0 20//0 48/// 81030
                   333 10274 59006 81360=
201301291500 AAXX 29154 67665 42780 40000 10230 20185 48516 83131
                   333 59001 83850 83360 83080=
201301290600 AAXX 29064 67665 11859 31112 10204 20204 48541 60044 76022 83631
                   333 10294 20182 59006 83707 85359 84080=
201301281200 AAXX 28124 67665 42680 51803 10271 20172 48534 85201
                   333 58005 85840 82080=
201301280900 AAXX 28094 67665 42480 40101 10257 20161 48560 84101
                   333 58014 84815 82080=
201301280600 AAXX 28064 67665 32980 61202 10199 20173 48547 81038
                   333 10279 20155 81360 85279=
201301280300 AAXX 28034 67665 42980 11702 10178 20134 48529 80001
                   333 58007 81080 91020=
201301280000 AAXX 28004 67665 42980 11703 10183 20141 48526 80001
                   333 59001 81080=
201301272100 AAXX 27214 67665 42980 11403 10194 20154 48533 80001
                   333 58002 81080 91020=
201301261800 AAXX 26184 67665 41760 70000 10198 20189 48522 70222 81932
                   333 10289 58010 81950 85360 83080=
201301261500 AAXX 26154 67665 41359 71704 10228 20228 48507 79599 8197/
                   333 58009 81709 81945 87459 91019=
201301261200 AAXX 26124 67665 41660 70906 10262 20205 48503 72582 81932
                   333 58027 81935 85838 83360 81080 91016=
201301260600 AAXX 26064 67665 32380 31105 10226 20203 48823 70300 81630
                   333 10280 20185 59010 81710 83360=
201301251200 AAXX 25124 67665 41659 71206 10241 20241 48514 79599 8197/
                   333 59003 81930 85835 84459 91017=
201301250900 AAXX 25094 67665 42580 63004 10256 20205 48528 83132
                   333 59009 83820 81360 84080 91019=
201301250600 AAXX 25064 67665 11359 72704 10200 20190 48529 60264 71022 8363/
                   333 10282 20183 59003 83708 87360=
201301241500 AAXX 24154 67665 41680 51003 10267 20188 48504 71722 81931
                   333 59015 81935 83840 83360 84080=
201301241200 AAXX 24124 67665 42580 60304 10266 20192 48521 85231
                   333 59002 85825 84360 83080=
201301231200 AAXX 23124 67665 41570 70507 10251 20224 48520 71792 8597/
                   333 55014 85620 81925 86360=
201301230900 AAXX 23094 67665 42480 61304 10246 20207 48533 84232
                   333 5//// 84815 82360 85280=
201301230600 AAXX 23064 67665 12360 81404 10204 20189 48525 60044 70122 8373/
                   333 10285 20188 58006 83708 87360=
201301230300 AAXX 23034 67665 42375 62003 10184 20168 48508 81631
                   333 58020 81706 85360 81080 91017=
201301230000 AAXX 23004 67665 42980 30000 10190 20174 48476 83032
                   333 59005 83360 81060=
201301222100 AAXX 22214 67665 42980 60802 10196 20181 83032
                   333 58013 83360 83080 91018=
201301220600 AAXX 22064 67665 32480 61509 10220 20205 48520 82132
                   333 10299 20130 58004 82818 85360 83080=
201301211800 AAXX 21184 67665 42780 73302 10221 20206 48494 83032
                   333 10299 59005 81957 83360 83080=
201301211500 AAXX 21154 67665 42780 52606 10289 20201 48484 82232
                   333 58011 81950 81360 83080
                   555 10299 91014=
201301211200 AAXX 21124 67665 42680 62806 10281 20209 48498 85203
                   333 58006 85840 83080 91015=
201301140600 AAXX 14064 67665 11350 83602 10198 20190 48498 60234 76262 8773/
                   333 10255 20189 58000 87707 85359=
201301131800 AAXX 13184 67665 42980 13302 10207 20199 48484 80001
                   333 10255 59005 81080=
201301131500 AAXX 13154 67665 42480 63403 10228 20221 48473 82532
                   333 59005 82610 83835 83360 85280=
201301131200 AAXX 13124 67665 41370 63004 10215 20201 48483 72996 85970
                   333 58005 84709 81920 85359=
201301130900 AAXX 13094 67665 41358 71805 10204 20204 48491 79566 8597/
                   333 59006 85708 81920 85459=
201301130600 AAXX 13064 67665 31357 80304 10200 20200 48526 76122 8577/
                   333 10265 2//// 58020 819// 85706 87459=
201301130300 AAXX 13034 67665 42380 62905 10196 20189 48495 81630
                   333 58012 81606 85360 91016=
201301130000 AAXX 13004 67665 41780 63202 10207 20199 48489 71322 81930
                   333 58005 81956 86360=
201301122100 AAXX 12214 67665 41760 73604 10202 20194 48498 71322 81932
                   333 58003 81950 86360 81080 91016=
201301121800 AAXX 12184 67665 41660 72505 10215 20206 48490 78099 8197/
                   333 10289 58009 81945 87459=
201301121200 AAXX 12124 67665 42680 63010 10266 20231 48484 85202
                   333 58007 85840 84080=
201301120600 AAXX 12064 67665 32460 63304 10217 20210 48500 70322 84501
                   333 59007 85615 84080=
201301110900 AAXX 11094 67665 42580 62709 10269 20227 48509 83102
                   333 59020 83820 86080 91016=
201301110300 AAXX 11034 67665 42980 22902 10194 20194 48492 82030
                   333 59023 82360=
201301110000 AAXX 11004 67665 42980 32703 10203 20203 48496 83030
                   333 59016 83360=
201301102100 AAXX 10214 67665 42980 10801 10203 48501 81360
                   333 59017 81360=
201301101500 AAXX 10154 67665 42680 51909 10252 20223 48485 81032
                   333 59007 81940 81360 83080
                   555 10289 91014=
201301101200 AAXX 10124 67665 42680 61205 10291 20253 48505 70222 86202
                   333 59002 86835 82080 91016=
201301100600 AAXX 10064 67665 12480 62402 10207 20199 48519 60104 81530
                   333 10273 20184 59002 82612 86360=
201301090900 AAXX 09094 67665 42580 51503 10238 20216 48532 84230
                   333 59005 84820 83360=
201301090600 AAXX 09064 67665 11360 43007 10199 20184 48520 60074 72842 83630
                   333 10259 20179 59014 83706 84360=
201301082100 AAXX 08214 67665 41959 11603 10196 20196 48521 74100 81030
                   333 59005 81360=
201301081800 AAXX 08184 67665 42680 53302 10207 20192 48521 81931
                   333 10259 58005 81935 85360 81080=
201301081200 AAXX 08124 67665 42580 60607 10248 20213 48523 85231
                   333 58009 85820 82360 81080=
201301080900 AAXX 08094 67665 41356 80611 10201 20201 48532 76166 8677/
                   333 58004 86706 85459=
201301080600 AAXX 08064 67665 11360 71109 10210 20195 48535 69954 75022 8667/
                   333 10261 20188 58002 86706 84359=
201301071800 AAXX 07184 67665 42580 71205 10208 20193 48516 8357/
                   333 10261 58008 83625 87360=
201301070900 AAXX 07094 67665 42360 83003 10207 20200 48530 8577/
                   333 58019 85706 87459=
201301070300 AAXX 07034 67665 41358 71303 10185 20185 48514 76166 8377/
                   333 58035 83705 87459 91018=
201301070000 AAXX 07004 67665 41657 83304 10179 20179 48509 79596 8197/
                   333 59023 81940 87459=
201301062100 AAXX 06214 67665 41670 10214 20209 48514 81930
                   333 58005 81945 85360 91018=
201301061500 AAXX 06154 67665 42680 53305 10280 20245 48491 83931
                   333 58003 81940 83840 83360 81080=
201301061200 AAXX 06124 67665 42680 72704 10276 20227 48501 85202
                   333 58000 85835 86080=
201301021500 AAXX 02154 67665 41358 71801 10212 20204 48495 76182 81932
                   333 58022 81709 81845 82847 87460=
201301021200 AAXX 02124 67665 42680 73403 10297 20219 48489 81332=
201301020900 AAXX 02094 67665 42680 73303 10277 20220 48513 8223/
                   333 59002 82835 87360=
201301020600 AAXX 02064 67665 12980 70000 10223 20206 48516 69904 87080
                   333 10309 20195 59004 87360=
201301011200 AAXX 01124 67665 42680 52104 10308 20223 48500 85202
                   333 59009 81945 85848 82080=
201301010900 AAXX 01094 67665 42680 63203 10170 20228 48514 86230
                   333 59013 86835 81360=
201301010600 AAXX 01064 67665 12460 60202 10224 20196 48520 60114 81530
                   333 10291 20184 59007 81620 86360=

################################################################################
#  SYNOPS from 67743, Livingstone (Zambia) | 17-49S | 025-49E | 985 m
################################################################################
201301310600 AAXX 31064 67743 32980 00203 10228 20176 48510
                   333 10330 20//0 59013=
201301280600 AAXX 28064 67743 32980 51402 10218 20169 48517 80002
                   333 10311 20111 58014 85080=
201301241500 AAXX 24154 67743 41680 51602 10233 20210 48499 76266 81940
                   333 59002 81940 84840 82360=
201301241200 AAXX 24124 67743 41680 61212 10274 20204 48520 71722 81930
                   333 59002 81915 83845 83360=
201301131500 AAXX 13154 67743 42680 62905 10240 20211 48462 83832
                   333 59009 83830 82360 82080=
201301131200 AAXX 13124 67743 42680 63407 10265 20203 48479 82831
                   333 58002 84830 82360 81080=
201301020600 AAXX 02064 67743 32980 43602 10250 20206 48506 83031
                   333 10330 20//0 59006 83360 82080=
201301010600 AAXX 01064 67743 12980 70604 10231 20197 48507 60014 87080
                   333 10291 20/// 59010 87360=

################################################################################
#  SYNOPS from 67855, Lupaki (Zambia) | 17-03-00S | 024-46-00E | 1000 m
################################################################################
201301310600 AAXX 31064 67855 32980 00301 10216 20160 3//// 48///
                   333 20134 5////=
201301301200 AAXX 30124 67855 42680 42001 10306 20143 38/// 48/// 84200
                   333 5//// 84840=
201301300600 AAXX 30064 67855 32680 51301 10210 20160 3//// 48/// 83530
                   333 20158 5//// 83630 85360=
201301291200 AAXX 29124 67855 42680 40303 10328 20160 3//// 48/// 84200
                   333 5//// 84840=
201301290600 AAXX 29064 67855 32980 11304 10232 20179 38/// 48/// 80001
                   333 20193 5//// 81080=
201301281200 AAXX 28124 67855 42680 32004 10316 20138 38/// 48/// 83202
                   333 5//// 83830=
201301280600 AAXX 28064 67855 32980 31401 10212 20167 38/// 48/// 80001
                   333 20158 5//// 83080=
201301271800 AAXX 27184 67855 NIL=
201301271200 AAXX 27124 67855 NIL=
201301270600 AAXX 27064 67855 32980 70702 10216 20160 3//// 48/// 80002
                   333 20149 5//// 87080=
201301261200 AAXX 26124 67855 42980 21804 10322 20134 3//// 48/// 80001
                   333 5//// 82080=
201301260600 AAXX 26064 67855 NIL=
201301251200 AAXX 25124 67855 NIL=
201301250600 AAXX 25064 67855 32980 51701 10224 20192 3//// 48/// 81031
                   333 20173 5//// 81360 85080=
201301241200 AAXX 24124 67855 42680 61801 10292 20171 3//// 48/// 84270
                   333 5//// 84830 86459=
201301240600 AAXX 24064 67855 32980 20702 10218 20166 38/// 48/// 82030
                   333 20160 5//// 82360=
201301231200 AAXX 23124 67855 NIL=
201301230600 AAXX 23064 67855 NIL=
201301221200 AAXX 22124 67855 NIL=
201301220600 AAXX 22064 67855 NIL=
201301211200 AAXX 21124 67855 42680 62002 10282 20199 3//// 48/// 84202
                   333 5//// 84830=
201301210600 AAXX 21064 67855 12680 73001 10212 20207 3//// 48/// 60244 875//
                   333 20183 5//// 87630=
201301201200 AAXX 20124 67855 NIL=
201301200600 AAXX 20064 67855 11380 73601 10218 20210 3//// 48/// 60474 72162 8667/
                   333 20212 5//// 86707 87459=
201301191200 AAXX 19124 67855 NIL=
201301181200 AAXX 18124 67855 NIL=
201301180600 AAXX 18064 67855 12980 70201 10214 20190 38/// 48/// 60284 8707/
                   333 20190 5//// 87459=
201301171200 AAXX 17124 67855 NIL=
201301170600 AAXX 17064 67855 NIL=
201301161200 AAXX 16124 67855 41680 73604 10254 20193 3//// 48/// 72162 83231
                   333 5//// 83830 87360=
201301160600 AAXX 16064 67855 11370 70303 10200 20194 3//// 48/// 60454 76162 8577/
                   333 20190 5//// 85707 87458=
201301151200 AAXX 15124 67855 41370 73602 10210 20205 3//// 48/// 76166 8577/
                   333 5//// 85707 87458=
201301150600 AAXX 15064 67855 11380 72302 10224 20210 3//// 48/// 60064 72161 82672
                   333 20203 5//// 82707 85459 87080=
201301141200 AAXX 14124 67855 42680 62401 10288 20190 3//// 48/// 86200
                   333 5//// 86830=
201301140600 AAXX 14064 67855 12380 31401 10222 20190 38/// 48/// 60024 83602
                   333 20177 5//// 83707=
201301131800 AAXX 13184 67855 NIL=
201301131200 AAXX 13124 67855 42680 52201 10278 20188 38/// 48/// 85201
                   333 5//// 85830=
201301130600 AAXX 13064 67855 12380 61802 10218 20207 38/// 48/// 60594 82682
                   333 20190 5//// 82707 84360 86080=
201301121200 AAXX 12124 67855 42680 72402 10306 20200 38/// 48/// 84202
                   333 5//// 84830 87080=
201301120600 AAXX 12064 67855 12980 61401 10226 20203 38/// 48/// 69904 84072
                   333 20200 5//// 84459 86080=
201301111800 AAXX 11184 67855 NIL=
201301111200 AAXX 11124 67855 41980 72901 10242 20184 38/// 48/// 72162 8707/
                   333 5//// 87459=
201301110600 AAXX 11064 67855 11580 71801 10214 20194 3//// 48/// 60164 71798 83283
                   333 20185 5//// 81925 83359 87080=
201301101800 AAXX 10184 67855 NIL=
201301101200 AAXX 10124 67855 42680 53601 10284 20208 3//// 48/// 83232
                   333 5//// 83830=
201301100600 AAXX 10064 67855 11670 62001 10208 20199 3//// 48/// 69904 71798 84273
                   333 20194 5//// 81925 83830 86459=
201301091200 AAXX 09124 67855 42680 53301 10310 20191 3//// 48/// 85200
                   333 5//// 85840=
201301090600 AAXX 09064 67855 32980 00601 10228 20196 3//// 48///
                   333 20175 5////=
201301081200 AAXX 08124 67855 42680 61203 10302 20186 3//// 48/// 86200
                   333 5//// 86840=
201301080600 AAXX 08064 67855 11380 11102 10220 20192 38/// 48/// 60134 72841 81630
                   333 20176 5//// 81707=
201301071800 AAXX 07184 67855 NIL=
201301071200 AAXX 07124 67855 41680 51402 10296 20198 38/// 48/// 72582 85232
                   333 5//// 85830 83080=
201301070600 AAXX 07064 67855 11380 70603 10218 20201 3//// 48/// 60044 72162 8267/
                   333 20195 5//// 82707 87459=
201301061800 AAXX 06184 67855 NIL=
201301061200 AAXX 06124 67855 NIL=
201301060600 AAXX 06064 67855 11370 71402 10210 20190 3//// 48/// 60064 75152 8577/
                   333 20195 5//// 85707 87458=
201301051800 AAXX 05184 67855 NIL=
201301051200 AAXX 05124 67855 41370 71401 10208 20298 3//// 48/// 76162 8177/
                   333 5//// 81707 87458=
201301050600 AAXX 05064 67855 12380 70302 10216 20201 3//// 48/// 60184 8467/
                   333 20191 5//// 84707 87460=
201301041800 AAXX 04184 67855 NIL=
201301041200 AAXX 04124 67855 NIL=
201301040600 AAXX 04064 67855 12980 53601 10236 20218 38/// 48/// 60054 85070
                   333 20200 5//// 85459=
201301031200 AAXX 03124 67855 42680 53603 10300 20200 38/// 48/// 85200
                   333 5//// 85840=
201301030600 AAXX 03064 67855 11380 42201 10228 20212 38/// 48/// 60134 72841 84631
                   333 20181 5//// 84707 83360=
201301020600 AAXX 02064 67855 11980 70603 10224 20213 38/// 48/// 60014 76162 8707/
                   333 20209 5//// 87458=
201301011800 AAXX 01184 67855 NIL=
201301011200 AAXX 01124 67855 NIL=
201301010600 AAXX 01064 67855 12680 70302 10236 20196 3//// 48/// 60074 8707/
                   333 20205 5//// 87460=
