################################################################################
# Query made at 04/15/2022 01:53:46 UTC
# Country like Zamb*
# Time interval: from 07/01/2010 05:30  to 07/31/2010 06:30  UTC
################################################################################

################################################################################
#  SYNOPS from 67403, Kawambwa (Zambia) | 09-48S | 029-05E | 1323 m
################################################################################
201007230600 AAXX 23064 67403 31975 01602 10152 20102 48546 70500
                   333 10272 20102 58007=

################################################################################
#  SYNOPS from 67413, Mbala (Zambia) | 08-51S | 031-20E | 1673 m
################################################################################
201007260600 AAXX 26064 67413 32580 41707 10155 20103 48651 81130
                   333 10233 20115 58006 81822 83358=
201007230600 AAXX 23064 67413 32980 01415 10150 20124 48565
                   333 10248 20112 58004=
201007160600 AAXX 16064 67413 31975 01010 10174 20095 48546 70500
                   333 10267 20114 58005=
201007020900 AAXX 02094 67413 42480 31518 10200 20115 48553 83100
                   333 59009 83835=

################################################################################
#  SYNOPS from 67441, Mwinilunga (Zambia) | 11-45S | 024-26E | 1361 m
################################################################################
201007290900 AAXX 29094 67441 41975 10245 20099 48571 70500
                   333 59010=
201007290600 AAXX 29064 67441 31970 01311 10140 20095 48571 70500
                   333 10270 20/// 59006=
201007280600 AAXX 28064 67441 31980 712// 10150 20115 48577 70522 87030
                   333 10265 20/// 58001 87360=
201007230600 AAXX 23064 67441 31965 600// 10145 20105 48588 70522 86030
                   333 10270 20/// 58009 86360=
201007210900 AAXX 21094 67441 41970 710// 10195 20186 48588 70522
                   333 58003 87360=
201007190900 AAXX 19094 67441 41970 010// 10225 20105 48593 70500
                   333 5////=
201007160600 AAXX 16064 67441 31960 20000 10125 20107 48565 70500 82030
                   333 10275 20/// 58014 82360=
201007070600 AAXX 07064 67441 31970 00000 10105 20065 48581 70500
                   333 10245 20/// 5////=
201007020900 AAXX 02094 67441 41470 81506 10166 20124 48588 70522 885//
                   333 58003 88610=
201007020600 AAXX 02064 67441 31370 80000 10124 20121 48577 70522 886//
                   333 10270 20//0 59002 88709=

################################################################################
#  SYNOPS from 67461, Mansa (Zambia) | 11-06S | 028-51E | 1382 m
################################################################################
201007290900 AAXX 29094 67461 41975 00805 10230 20098 48547 70500
                   333 59011=
201007290600 AAXX 29064 67461 31970 01203 10140 20096 48533 70500
                   333 10275 20102 59022=
201007160600 AAXX 16064 67461 31970 00902 10245 20096 48532 70500
                   333 10255 20101 58005=
201007130900 AAXX 13094 67461 41565 11412 10235 20107 48547 70500 81100
                   333 58003 81837=
201007130600 AAXX 13064 67461 31965 00902 10162 48539 70500
                   333 10285 20106 58008=
201007120900 AAXX 12094 67461 41075 41205 10240 20114 48539 70500 84030
                   333 58006 84362=

################################################################################
#  SYNOPS from 67475, Kasama (Zambia) | 10-13S | 031-08E | 1382 m
################################################################################
201007280600 AAXX 28064 67475 31970 61201 10177 20078 48564 70522 86030
                   333 10262 20113 58003 86360=
201007260600 AAXX 26064 67475 31970 00909 10163 20112 48555 70500
                   333 10240 20119 58003=
201007230600 AAXX 23064 67475 31975 11510 10158 20098 48565 70500 81100
                   333 10255 20104 58007 81820=
201007160600 AAXX 16064 67475 31970 00108 10170 20102 48543 70500
                   333 10266 20092 58003=
201007120900 AAXX 12094 67475 41975 01206 10246 20120 48541 70500
                   333 58006=
201007070600 AAXX 07064 67475 31975 01013 10157 20087 48555 70500
                   333 10240 20104 59001=

################################################################################
#  SYNOPS from 67477, Mpika (Zambia) | 11-54S | 031-26E | 1400 m
################################################################################
201007290600 AAXX 29064 67477 31976 01209 10160 20080 48551 70500
                   333 10236 20105 59012=
201007230600 AAXX 23064 67477 32480 20909 10151 20102 48567 82100
                   333 10220 20115 58007 82818=
201007160600 AAXX 16064 67477 32980 01106 10150 20092 48544
                   333 10226 20112 58000=

################################################################################
#  SYNOPS from 67531, Zambezi (Zambia) | 13-32S | 023-07E | 1077 m
################################################################################
201007291200 AAXX 29124 67531 42975 11503 10254 20040 48560 81030
                   333 59014 81360=
201007290600 AAXX 29064 67531 ///// 01206 10157 20086 48/// 70500
                   333 10276 20097 59012=
201007281200 AAXX 28124 67531 42780 11804 10268 20103 48/// 81100
                   333 59004 81856=
201007280600 AAXX 28064 67531 31975 71504 10165 20122 48/// 70522 8703/
                   333 10279 20140 58000 87360=
201007260600 AAXX 26064 67531 31970 60000 10136 20112 48/// 70522 86030
                   333 10257 20076 58001 86362=
201007231200 AAXX 23124 67531 41875 41306 10265 20083 48/// 70511 84100
                   333 5//// 84857=
201007230900 AAXX 23094 67531 41978 00910 10227 20121 48/// 70500
                   333 5////=
201007230600 AAXX 23064 67531 31970 01305 10131 20095 48/// 70500
                   333 10271 20107 58000=
201007210900 AAXX 21094 67531 41978 11310 10216 20069 48/// 70510 81030
                   333 59003 81361=
201007201200 AAXX 20124 67531 41978 61307 10252 20062 48/// 70522 86030
                   333 59003 86363=
201007200900 AAXX 20094 67531 41978 11308 10225 20082 48/// 70500 81030
                   333 59021 81363=
201007190900 AAXX 19094 67531 41975 01308 10236 20113 48/// 70500
                   333 5////=
201007160600 AAXX 16064 67531 31975 11603 10136 20100 48/// 70500 81030
                   333 10270 20083 5//// 81363=

################################################################################
#  SYNOPS from 67541, Kasempa (Zambia) | 13-32S | 025-51E | 1234 m
################################################################################
201007160600 AAXX 16064 67541 NIL=

################################################################################
#  SYNOPS from 67561, Ndola (Zambia) | 13-00S | 028-39E | 1269 m
################################################################################
201007160600 AAXX 16064 67561 31930 10119 20095 48539 70400
                   333 10267 20084 59003=

################################################################################
#  SYNOPS from 67580, Msekera (Zambia) | 13-39S | 032-34E | 1025 m
################################################################################
201007280600 AAXX 28064 67580 32980 60000 10185 20123 48/// 86030
                   333 10244 20114 59002 86360=
201007230600 AAXX 23064 67580 31475 21209 10179 20119 48/// 70500 82500
                   333 10259 20122 59008 82618=
201007210900 AAXX 21094 67580 41675 61204 10230 20119 48577 70510 85230
                   333 58003 85835 81360=
201007160900 AAXX 16094 67580 41675 60905 10251 20110 48/// 70510 86100
                   333 59001 86835=
201007021200 AAXX 02124 67580 42780 61608 10237 20104 48/// 86100
                   333 59012 86840=
201007020900 AAXX 02094 67580 42680 11507 10237 20090 48/// 81130
                   333 59008 81830 81362=
201007020600 AAXX 02064 67580 12480 11806 10178 20104 48/// 69904 81130
                   333 10218 20137 59004 81815 81362=

################################################################################
#  SYNOPS from 67581, Chipata (Zambia) | 13-33S | 032-35E | 1028 m
################################################################################
201007290600 AAXX 29064 67581 32980 01803 10202 20104 48562
                   333 10269 20116 59020=
201007230600 AAXX 23064 67581 32682 11612 10180 20110 48582 81100
                   333 10269 20140 59006 81830=
201007160600 AAXX 16064 67581 32980 00805 10206 20112 48559
                   333 10268 20152 59002=

################################################################################
#  SYNOPS from 67599, Mfuwe (Zambia) | 13-16S | 031-56E | 568 m
################################################################################
201007240600 AAXX 24064 67599 32980 30000 10185 20135 48583 83030
                   333 10//0 20125 59007 83360=
201007230600 AAXX 23064 67599 32980 30000 10192 20141 48592 83030
                   333 10308 20135 58000 83360=
201007201200 AAXX 20124 67599 40000 10286 20106 48576 82180
                   333 59022 83360=
201007170600 AAXX 17064 67599 31975 01004 10195 20129 48567 70500
                   333 10314 20138 58005=
201007070600 AAXX 07064 67599 32980 20000 10180 20118 48584 82030
                   333 10280 20116 58003 82360=
201007061200 AAXX 06124 67599 42780 71810 10270 20123 48578 8427/
                   333 59004 84850 87460=

################################################################################
#  SYNOPS from 67633, Mongu (Zambia) | 15-15S | 023-09E | 1052 m
################################################################################
201007290600 AAXX 29064 67633 31975 70906 10170 20088 48547 70522 8703/
                   333 10278 20162 59007 87360=
201007230600 AAXX 23064 67633 31980 60905 10153 20082 48557 70522 86030
                   333 10280 20135 59004 86361=
201007210900 AAXX 21094 67633 41975 61210 10213 20075 48572 70522 86030
                   333 58009 86361=
201007201200 AAXX 20124 67633 41775 71306 10243 20044 48557 70522 86230
                   333 58000 86856 82361=
201007160600 AAXX 16064 67633 31980 00905 10145 20086 48534 70500
                   333 10280 20123 58006=
201007130900 AAXX 13094 67633 41980 00907 10230 20000 48568 70500
                   333 58009=

################################################################################
#  SYNOPS from 67641, Kaoma (Zambia) | 14-48S | 024-48E | 1213 m
################################################################################
201007290600 AAXX 29064 67641 31978 20602 10131 20100 48536 70500 80002
                   333 10270 20109 59009 82080=
201007230600 AAXX 23064 67641 31978 00902 10102 20077 48552 70500
                   333 10265 20072 58004=
201007160600 AAXX 16064 67641 31978 00301 10130 20103 48531 70500
                   333 10267 20080 58008=

################################################################################
#  SYNOPS from 67663, Kabwe (Zambia) | 14-27S | 028-28E | 1206 m
################################################################################
201007291200 AAXX 29124 67663 42980 01805 10247 20078 48537
                   333 59012=
201007230600 AAXX 23064 67663 32980 00903 10137 20104 48569
                   333 10235 20099 58000=
201007160600 AAXX 16064 67663 32980 20904 10147 20098 48546 82030
                   333 10253 20106 58001 82360=
201007120900 AAXX 12094 67663 42980 00902 10235 20086 48555
                   333 58012=

################################################################################
#  SYNOPS from 67665, Lusaka Internationalairport (Zambia) | 15-19S | 028-27E | 1152 m
################################################################################
201007310600 AAXX 31064 67665 32480 10806 10130 20109 48565 81500
                   333 10238 20080 58002 81610=
201007310400 AAXX 31044 67665 42380 11004 10085 20085 48550 81530
                   333 58000 81607 81359=
201007310300 AAXX 31034 67665 42980 00904 10085 20085 48545
                   333 58000=
201007310000 AAXX 31004 67665 42980 00908 10104 20104 48550
                   333 58016=
201007302100 AAXX 30214 67665 42980 00905 10099 20089 48544
                   333 58006=
201007301800 AAXX 30184 67665 41970 01104 10136 20100 48552 70500
                   333 102=
201007301200 AAXX 30124 67665 42670 30912 10225 20084 48557 70500 83100 333=
201007300900 AAXX 30094 67665 42980 00615 10201 20095 48577
                   333 58006=
201007300600 AAXX 30064 67665 31970 00712 10145 48556 70500
                   333 10256 20095 58007 555=
201007291800 AAXX 29184 67665 42980 01303 10155 20110 48559
                   333 10256 59012=
201007291500 AAXX 29154 67665 42980 11211 10232 20096 48546 81030
                   333 59016 81360=
201007291200 AAXX 29124 67665 41770 10906 10245 20096 48553 70500 81100
                   333 59014 81850=
201007290900 AAXX 29094 67665 41970 00509 10216 20092 48572 70500
                   333 59013=
201007290600 AAXX 29064 67665 31970 01304 10146 20087 48559 70500
                   333 10263 20100 59019=
201007290400 AAXX 29044 67665 42980 01402 10106 20098 48547 70200
                   333 59018=
201007290300 AAXX 29034 67665 42980 01203 10107 20099 48548 70200
                   333 59014=
201007282100 AAXX 28214 67665 41960 11203 10134 20117 48563 70500 81030
                   333 59007 81360=
201007281500 AAXX 28154 67665 42780 40909 10228 20089 48561 84100
                   333 59015 84856=
201007281200 AAXX 28124 67665 42680 60908 10259 20096 48569 70522 86100
                   333 59012 86840=
201007280900 AAXX 28094 67665 42580 10222 20112 48586 81100
                   333 59011 81825=
201007280600 AAXX 28064 67665 32980 50906 10154 20108 48577 85030
                   333 10244 20120 58000 85360=
201007280400 AAXX 28044 67665 42980 70502 10136 20128 48566 87030
                   333 58005 87360=
201007280300 AAXX 28034 67665 42980 71003 10145 20133 48565 87030
                   333 58003 87360=
201007272100 AAXX 27214 67665 41960 71603 10151 20144 48571 70522 8703/
                   333 58008 87360=
201007271200 AAXX 27124 67665 42680 70612 10201 20116 48572 8313/
                   333 58011 83840 86360=
201007270900 AAXX 27094 67665 42580 70710 10182 20124 48591 70222 8353/
                   333 58012 83628 87360=
201007270600 AAXX 27064 67665 32380 70704 10150 20129 48577 70222 81530
                   333 10251 20120 58007 81606 87360
                   555 00105=
201007261800 AAXX 26184 67665 42980 70804 10180 20108 48571 87030
                   333 10251 58005 87360=
201007261500 AAXX 26154 67665 42780 70709 10220 20115 48563 81230
                   333 59001 81850 87360=
201007261200 AAXX 26124 67665 42680 70811 10230 20111 48565 83230
                   333 59006 83835 84360=
201007260900 AAXX 26094 67665 42580 60613 10220 20088 48585 70222 83230
                   333 58001 83820 83360=
201007260600 AAXX 26064 67665 32380 60907 10151 20141 48570 70222 81530
                   333 10230 20120 58001 81606 85360
                   555 00105=
201007251800 AAXX 25184 67665 42980 70904 10159 20142 48563 87030
                   333 10230 58002 87360=
201007251500 AAXX 25154 67665 42780 60912 10190 20120 48560 81230
                   333 58006 81850 86360=
201007251200 AAXX 25124 67665 42680 70609 10185 20128 48564 82230
                   333 58009 82830 86360=
201007250900 AAXX 25094 67665 42480 70511 10205 20158 48583 70522 83130
                   333 59008 82810 86360=
201007250600 AAXX 25064 67665 32980 70805 10152 20144 48569 70222 87030
                   333 10239 20132 59013 87360
                   555 00136 91025=
201007250400 AAXX 25044 67665 42980 71004 10144 20131 48557 87030
                   333 59015 87360=
201007250000 AAXX 25004 67665 42980 71304 10142 20125 48557 87030
                   333 59010 87360=
201007242100 AAXX 24214 67665 42980 71303 10141 20124 48564 87030
                   333 59009 87360=
201007241800 AAXX 24184 67665 42980 71103 10163 20120 48561 87030
                   333 10239 59012 87360=
201007241500 AAXX 24154 67665 42580 60305 10206 20111 48557 70222 82130
                   333 59011 82850 86360=
201007241200 AAXX 24124 67665 42580 50410 10216 20084 48561 70222 85100
                   333 59010 85835=
201007240900 AAXX 24094 67665 42580 40612 10205 20104 48591 83130
                   333 59004 83820 81360 91027=
201007240600 AAXX 24064 67665 32480 31107 10130 20104 48579 81130
                   333 10235 20085 58001 81815 83360=
201007231200 AAXX 23124 67665 42680 60708 10216 20090 48571 86200
                   333 59003 86848=
201007230900 AAXX 23094 67665 42680 40512 10206 20110 48595 84100=
201007230600 AAXX 23064 67665 31970 00805 10118 20104 48576 70500
                   333 10240 20085 59004=
201007230400 AAXX 23044 67665 41960 10904 10086 20086 48562 70500 81030
                   333 59005 81360=
201007230300 AAXX 23034 67665 41960 00905 10095 20095 48558 70500
                   333 59006=
201007230000 AAXX 23004 67665 41960 01005 10095 20095 48562 70500
                   333 58003=
201007222100 AAXX 22214 67665 41960 01303 10124 20114 48573 70500
                   333 58004=
201007221800 AAXX 22184 67665 41980 01002 10136 20119 48569 70500
                   333 10240 58005=
201007221500 AAXX 22154 67665 41980 10909 10214 20099 48567 70500 81030
                   333 58000 81359=
201007221200 AAXX 22124 67665 42780 30609 10234 20109 48575 83100
                   333 58014 83850=
201007220900 AAXX 22094 67665 42580 30614 10201 20116 48593 83100
                   333 58005 83825=
201007220600 AAXX 22064 67665 31460 20807 10122 20086 48580 70500 82530
                   333 10240 20085 58005 82612 81360=
201007220400 AAXX 22044 67665 41960 20904 10090 20090 48567 70500
                   333 58012=
201007220300 AAXX 22034 67665 41960 01106 10101 20101 48561 70500
                   333 58009=
201007212100 AAXX 21214 67665 41960 01104 10117 20117 48570 70500
                   333 58009=
201007211800 AAXX 21184 67665 41970 10605 10143 20115 48567 70500 81030
                   333 10240 58007 81360=
201007211200 AAXX 21124 67665 41670 30611 10221 20089 48568 70500 83100
                   333 58001 83840=
201007210900 AAXX 21094 67665 42580 20611 10201 20114 48588 70100 81102
                   333 59002 81825 83080=
201007210600 AAXX 21064 67665 32480 70906 10124 20113 48575 70322 8753/
                   333 10241 20073 58001 87610 82360
                   555 00080=
201007201500 AAXX 20154 67665 42780 60907 10210 20081 48564 81230
                   333 59012 81856 85360=
201007201200 AAXX 20124 67665 42680 60909 10219 20079 48567 86800
                   333 59026 83840 83642=
201007200900 AAXX 20094 67665 42580 30512 10195 20118 48560 70300 83200
                   333 59017 83825=
201007200600 AAXX 20064 67665 31970 10904 10118 20099 48514 70500 81030
                   333 10226 20075 59015 81360
                   555 00060=
201007191500 AAXX 19154 67665 41770 30707 10208 20100 48575 70500 81530
                   333 59006 81650 82360=
201007191200 AAXX 19124 67665 42680 30811 10214 20105 48581 83500
                   333 58000 83635=
201007190900 AAXX 19094 67665 42560 60715 10171 20139 48602 85500
                   333 58004 85620=
201007190600 AAXX 19064 67665 31459 60906 10122 20114 48589 70511 85500
                   333 10249 20090 58003 85612
                   555 00089 91028=
201007180900 AAXX 18094 67665 42980 10612 10208 20152 48604 70500 81500
                   333 58033 81615 91028=
201007180600 AAXX 18064 67665 32980 31005 10132 20104 48589 82031
                   333 10260 20105 58035 83360 82080
                   555 00096 91028=
201007180300 AAXX 18034 67665 42980 01005 10131 20127 48568
                   333 58023=
201007172100 AAXX 17214 67665 42980 11204 10140 20122 48575 81030
                   333 58023 81360=
201007171800 AAXX 17184 67665 41970 01304 10161 20127 48565 70500
                   333 10260 58016=
201007171500 AAXX 17154 67665 41870 50908 10233 20100 48560 70522 85100
                   333 58016 85857=
201007171200 AAXX 17124 67665 41670 50707 10251 20098 48559 70522 85100
                   333 58009 85845=
201007170600 AAXX 17064 67665 31970 01104 10135 20101 48556 70500
                   333 10281 20090 58000
                   555 00055 91024=
201007170400 AAXX 17044 67665 41970 00000 10094 20094 48540 70500
                   333 58000=
201007170300 AAXX 17034 67665 41970 00902 10095 20095 48543 70500
                   333 58007=
201007170000 AAXX 17004 67665 41970 01503 10105 20099 48543 70500
                   333 58004=
201007162100 AAXX 16214 67665 42980 01203 10123 20104 48550
                   333 58009=
201007161800 AAXX 16184 67665 41970 11204 10164 20111 48550 70500 81030
                   333 10281 58009 81360=
201007161500 AAXX 16154 67665 41970 00908 10234 20095 48544 70500
                   333 58011=
201007161200 AAXX 16124 67665 41770 20905 10245 20075 48551 70500 82100
                   333 58006 82856=
201007160600 AAXX 16064 67665 31980 01203 10234 20084 48553 70500
                   333 10245 20093 58008=
201007160400 AAXX 16044 67665 41970 01403 10093 20093 48540 70500
                   333 58006=
201007160300 AAXX 16034 67665 41970 01304 10098 20098 48536 70500
                   333 58001=
201007152100 AAXX 15214 67665 41970 01104 10125 20125 48543 70500
                   333 59004=
201007151800 AAXX 15184 67665 41970 10904 10144 20125 48539 70500 81030
                   333 10245 59006 81360=
201007151200 AAXX 15124 67665 41680 30306 10234 20095 48540 70500 83100
                   333 59012 83845=
201007150600 AAXX 15064 67665 31960 01104 10112 20106 48544 70500
                   333 10213 20071 59009
                   555 00060=
201007141500 AAXX 14154 67665 42780 60809 10185 20106 48545 83530
                   333 58001 83650 83360=
201007141200 AAXX 14124 67665 41670 70708 10198 20105 48546 70522 875//
                   333 59002 87640=
201007140900 AAXX 14094 67665 42580 70509 10184 20107 48570 875//
                   333 59001 87625=
201007140600 AAXX 14064 67665 31460 60905 10106 20102 48553 70500 86500
                   333 10252 20080 59002 86610
                   555 00049=
201007130900 AAXX 13094 67665 41580 10712 10228 20099 48578 81500
                   333 58008 81625=
201007130600 AAXX 13064 67665 32980 01204 10115 20070 48554
                   333 10265 20085 58007=
201007130400 AAXX 13044 67665 42980 00000 10087 20068 48539
                   333 58010=
201007130300 AAXX 13034 67665 42980 01602 10077 20071 48536
                   333 58016=
201007130000 AAXX 13004 67665 42980 01103 10123 20064 48529
                   333 58004=
201007122100 AAXX 12214 67665 42980 01403 10143 20065 48526
                   333 58016=
201007121500 AAXX 12154 67665 41970 01110 10236 20088 48547 70500
                   333 58025 91021=
201007121200 AAXX 12124 67665 41970 01305 10254 20080 48553 70500
                   333 58022 91022=
201007120900 AAXX 12094 67665 41970 00706 10230 20094 48570 70500
                   333 58014=
201007120600 AAXX 12064 67665 31960 00000 10124 20099 48549 70500
                   333 10269 20094 58012=
201007111800 AAXX 11184 67665 41980 01503 10156 20131 48531 70500
                   333 10269 59002=
201007111500 AAXX 11154 67665 41950 00000 10255 20124 48526 70500
                   333 59011=
201007111200 AAXX 11124 67665 42980 02002 10252 20104 48532
                   333 59015=
201007110600 AAXX 11064 67665 32970 01403 10117 20092 48537
                   333 10231 20076 59011
                   555 10224=
201007110400 AAXX 11044 67665 42980 11403 10080 20080 48512 70300 81030
                   333 59013 81360=
201007110300 AAXX 11034 67665 42980 01503 10076 20076 48517 70200
                   333 59016=
201007110000 AAXX 11004 67665 42980 01503 10097 20097 48524 70200
                   333 59009=
201007102100 AAXX 10214 67665 42980 01303 10107 20107 48535 70200
                   333 59010=
201007101800 AAXX 10184 67665 42980 01004 10134 20124 48529
                   333 10231 59027=
201007101500 AAXX 10154 67665 42780 23402 10220 20095 48532 82100
                   333 59029 82856=
201007101200 AAXX 10124 67665 42680 63503 10208 20089 48541 86100
                   333 59030 86840=
201007100900 AAXX 10094 67665 42580 50511 10194 20105 48562 85200
                   333 59034 85825=
201007100600 AAXX 10064 67665 32980 20905 10137 20091 48550 82030
                   333 10228 20084 59032 82360=
201007100400 AAXX 10044 67665 42980 71202 10116 20116 48541 87030
                   333 59030 87359=
201007100300 AAXX 10034 67665 42980 70000 10116 20116 48537 87030
                   333 59028 87359=
201007092100 AAXX 09214 67665 42980 01404 10100 20100 48555
                   333 59024=
201007091800 AAXX 09184 67665 42980 40302 10141 20105 48556 84030
                   333 10228 59034 84360=
201007091200 AAXX 09124 67665 42680 50609 10196 20100 48569 85200
                   333 59015 85840=
201007090900 AAXX 09094 67665 42580 40610 10176 20099 48593 84800
                   333 59013 83820 81622=
201007090600 AAXX 09064 67665 32980 21003 10099 20078 48577 70200 82030
                   333 10213 20055 59012 82360
                   555 00050=
201007081800 AAXX 08184 67665 42980 11003 10122 20113 48585 81030
                   333 58007 81360=
201007081500 AAXX 08154 67665 42780 70911 10179 20090 48589 82530
                   333 58020 82650 86360=
201007081200 AAXX 08124 67665 42680 60712 10190 20080 48588 86500
                   333 58019 86637=
201007080600 AAXX 08064 67665 32480 20707 10110 20082 48588 70300 81130
                   333 10220 20065 58012 81810 81360
                   555 00060=
201007071200 AAXX 07124 67665 42680 60411 10209 20085 48576 86500
                   333 59001 86635=
201007070900 AAXX 07094 67665 42580 70713 10174 20095 48590 86800
                   333 580=
201007070600 AAXX 07064 67665 32480 10904 10091 20075 48574 81130
                   333 10185 20061 58001 81810 81360=
201007070300 AAXX 07034 67665 42980 01203 10072 20072 48552
                   333 59003=
201007070000 AAXX 07004 67665 42980 01403 10078 20078 48548
                   333 59019=
201007062100 AAXX 06214 67665 42980 00802 10102 20102 48562
                   333 59008=
201007061800 AAXX 06184 67665 42980 71004 10148 20127 48571 8703/
                   333 10185 59006 87360=
201007061200 AAXX 06124 67665 42580 80807 10172 20106 48571 882//
                   333 59002 88828=
201007060900 AAXX 06094 67665 42480 70610 10175 20121 48591 70222 85530
                   333 59010 85618=
201007060600 AAXX 06064 67665 32480 60907 10139 20112 48580 70222 84530
                   333 10230 20129 59008 84610 86310
                   555 00124 91027=
201007051200 AAXX 05124 67665 42680 70610 10200 20098 87200
                   333 58004 87842=
201007050900 AAXX 05094 67665 42580 60709 10180 20113 48601 86200
                   333 58006 86825=
201007050600 AAXX 05064 67665 32380 21005 10125 20102 48558 82500
                   333 10225 20069 58004 82670=
201007050400 AAXX 05044 67665 42980 11203 10091 20091 48569 70200 81030
                   333 58007 81360=
201007050300 AAXX 05034 67665 42980 11303 10085 20085 48567 70200 81030
                   333 58007 81360=
201007050000 AAXX 05004 67665 42980 11402 10088 20088 48569 70100 81030
                   333 58010 81360=
201007042100 AAXX 04214 67665 42980 31203 10121 20121 48579 70200 83030
                   333 58011 83360=
201007041800 AAXX 04184 67665 42980 50905 10152 20127 48577 70100 85030
                   333 10225 58005 85360=
201007041200 AAXX 04124 67665 42680 60408 10205 20097 48575 86200
                   333 58003 86835 91025=
201007040900 AAXX 04094 67665 42580 40712 10189 20104 48596 84200
                   333 58002 84820=
201007040400 AAXX 04044 67665 41960 11203 10091 20089 48563 74100 81030
                   333 59004 81359=
201007032100 AAXX 03214 67665 42980 01303 10106 20105 48568
                   333 59007=
201007031800 AAXX 03184 67665 42980 30902 10124 20105 48568 83030
                   333 59008 83360=
201007031200 AAXX 03124 67665 42680 60610 10201 20124 48577 84230
                   333 58002 84835 83360=
201007030900 AAXX 03094 67665 42480 50612 10185 20102 48597 70222 85800
                   333 58007 83818 82620=
201007021500 AAXX 02154 67665 42780 70609 10183 20118 48575 87100
                   333 58005 87850=
201007021200 AAXX 02124 67665 42980 60612 10202 20111 48575 86500
                   333 58000 86630=
201007020900 AAXX 02094 67665 42580 70816 10185 20110 48588 87500
                   333 59008 87520=
201007020600 AAXX 02064 67665 32480 30909 10145 20120 48582 83500
                   333 10250 20092 59004 83610=
201007011800 AAXX 01184 67665 42980 01004 10143 20115 48574
                   333 10250 58005=
201007011500 AAXX 01154 67665 42980 10610 10220 20091 48576 81030
                   333 58008 81359=
201007011200 AAXX 01124 67665 42680 50610 10245 20090 48582 85100
                   333 58012 85845=

################################################################################
#  SYNOPS from 67666, Lusaka City Airport (Zambia) | 15-25S | 028-19E | 1280 m
################################################################################
201007290900 AAXX 29094 67666 42980 01010 10210 20107 48564
                   333 59013=
201007281200 AAXX 28124 67666 42680 40905 10236 20095 48556 84200
                   333 59011 84835=
201007280600 AAXX 28064 67666 32980 70905 10156 20106 48568 8703/
                   333 10198 20130 59002 87360=
201007261200 AAXX 26124 67666 42680 50910 10230 20132 48555 84230
                   333 59005 84830 85360=
201007260600 AAXX 26064 67666 32380 70809 10150 20133 48564 84730
                   333 10237 20120 59002 84708 84360=
201007231200 AAXX 23124 67666 42580 40910 10215 20091 48560 84200
                   333 59002 84825=
201007230600 AAXX 23064 67666 32980 00912 10140 20121 48569
                   333 10225 20110 59008=
201007210900 AAXX 21094 67666 42780 41003 10185 20116 48577 81131
                   333 59001 81830 81360 82080 91025=
201007201200 AAXX 20124 67666 42680 50912 10204 20090 48556 85200
                   333 59015=
201007200900 AAXX 20094 67666 42680 31018 10194 20108 48579 82300
                   333 59014 83830 91026=
201007190900 AAXX 19094 67666 42480 50915 10160 20106 48589 85500
                   333 58000 85260 91027=
201007160900 AAXX 16094 67666 42580 10909 10210 20107 48559 81100
                   333 58005 81820=
201007160600 AAXX 16064 67666 31975 00803 10159 20096 48574 70500
                   333 10213 20113 58011=
201007140900 AAXX 14094 67666 42580 60914 10165 20106 48556 86500
                   333 59006 86625=
201007131200 AAXX 13124 67666 42980 20611 10245 20099 48556 70500 82500
                   333 58003 82640=
201007130900 AAXX 13094 67666 42980 20910 10214 20103 48567 82100
                   333 58004 82820=
201007120900 AAXX 12094 67666 42980 00903 10225 20075 48563
                   333 58017=
201007071200 AAXX 07124 67666 42580 61416 10185 20094 48565 86200
                   333 58000 86820=
201007070600 AAXX 07064 67666 32980 20911 10129 20080 48572 82030
                   333 10235 20087 59002 82360=
201007021200 AAXX 02124 67666 42580 60914 10190 20118 48576 86800
                   333 58003 81625 85825=
201007020900 AAXX 02094 67666 42580 61017 10181 20119 48577 86500
                   333 59008 86620=
201007020600 AAXX 02064 67666 32480 40916 10143 20113 48572 84500
                   333 10240 20114 59005 84614=

################################################################################
#  SYNOPS from 67673, Petauke (Zambia) | 14-15S | 031-17E | 1035 m
################################################################################
201007290900 AAXX 29094 67673 41575 11503 10240 20092 48582 70500 81100
                   333 59017 81830=
201007210900 AAXX 21094 67673 41375 41502 10234 20119 48599 70500 84230
                   333 59002 84830 82360=
201007200900 AAXX 20094 67673 41575 20902 10223 20114 48599 70500 81130
                   333 59007 81830 82360=
201007190900 AAXX 19094 67673 41575 41508 10214 20091 48604 70500 84130
                   333 5//// 84830 81360=
201007140900 AAXX 14094 67673 51575 60902 10190 20125 48581 70522 86500
                   333 58009 86630=
201007120900 AAXX 12094 67673 41975 01802 10260 20109 48574 70500
                   333 5////=

################################################################################
#  SYNOPS from 67743, Livingstone (Zambia) | 17-49S | 025-49E | 985 m
################################################################################
201007291500 AAXX 29154 67743 42975 00000 10258 20041 48549 70200
                   333 59018=
201007291200 AAXX 29124 67743 42975 11503 10254 20040 48560 81030
                   333 59014 81360=
201007290900 AAXX 29094 67743 42980 00803 10236 20038 48579
                   333 59018=
201007290600 AAXX 29064 67743 32975 81103 10164 20085 48562 88030
                   333 10249 20/// 59013 88360=
201007281500 AAXX 28154 67743 41975 71004 10241 20060 48562 70522 87030
                   333 59010 87362=
201007281200 AAXX 28124 67743 41975 70806 10239 20074 48571 70522 8703/
                   333 59003 87362=
201007280600 AAXX 28064 67743 31975 80902 10164 20060 48575 70522 88030
                   333 10247 20/// 58005 88359=
201007261500 AAXX 26154 67743 42680 81206 10238 20109 48566 82130
                   333 58008 82848 87360=
201007261200 AAXX 26124 67743 42680 81504 10248 20122 48570 82130
                   333 58004 82845 87360=
201007240600 AAXX 24064 67743 31970 80000 10156 20080 48575 70500 8807/
                   333 10257 20//0 59008 88360=
201007231200 AAXX 23124 67743 42775 60000 10244 20069 48596 83181
                   333 59002 83856 82360 81080=
201007230900 AAXX 23094 67743 41970 00404 10217 20100 48596
                   333 59002=
201007230600 AAXX 23064 67743 32970 00000 10132 20094 48576
                   333 10251 20/// 59006=
201007221500 AAXX 22154 67743 41875 10807 10235 20077 48569 70500 81100
                   333 58005 81857=
201007221200 AAXX 22124 67743 41775 10806 10239 20090 48577 70500 81100
                   333 58008 81856=
201007201200 AAXX 20124 67743 42780 41603 10230 20072 48572 81130
                   333 59009 82856 81360=
201007190600 AAXX 19064 67743 32980 11403 10130 20093 48582 70200 80002
                   333 20270 58005 81080 91027=
201007171500 AAXX 17154 67743 42980 01804 10245 20049 48558
                   333 58010=
201007171200 AAXX 17124 67743 42980 01506 10245 20016 48566
                   333 58014=
201007160600 AAXX 16064 67743 NIL=
201007141200 AAXX 14124 67743 42780 30810 10242 20069 48543 82130
                   333 59022 82856 81360=
201007140900 AAXX 14094 67743 42980 10510 10215 20080 48569 81100
                   333 59019 81850=
201007120900 AAXX 12094 67743 41970 01102 10190 20052 48573 70500
                   333 58029=
201007120600 AAXX 12064 67743 31970 01805 10121 20035 48549 70500
                   333 10268 20//0 58025=
201007111500 AAXX 11154 67743 42980 03005 10256 20040 48526
                   333 59010=
201007111200 AAXX 11124 67743 42980 02106 10251 20049 48530
                   333 59015=
201007081200 AAXX 08124 67743 41775 10708 10232 20063 48596 70500 81100
                   333 58019 81856=
201007071200 AAXX 07124 67743 41675 41008 10220 20072 48580 70522 84200
                   333 58001 84848=
201007070600 AAXX 07064 67743 32980 02704 10129 20090 48578
                   333 10245 20/// 59004=
201007061200 AAXX 06124 67743 41770 70908 10225 20070 48577 70522 83130
                   333 59006 83856 87360=
201007050900 AAXX 05094 67743 42680 70810 10216 20095 48601 83230
                   333 59003 83840 84361=
201007050600 AAXX 05064 67743 32980 20000 10154 20108 48580 82030
                   333 10242 20//0 58006 82364=
201007021500 AAXX 02154 67743 42680 70806 10218 20105 48585 81130
                   333 59009 81848 86360=
201007021200 AAXX 02124 67743 42680 70910 10228 20108 48577 82130
                   333 59007 82848 86360=
201007020900 AAXX 02094 67743 42980 70909 10192 20093 48590 86030
                   333 59005 86362=
201007020600 AAXX 02064 67743 32980 71108 10166 20094 48579
                   333 10235 20111 58001 87360=

################################################################################
#  SYNOPS from 67753, Choma (Zambia) | 16-50S | 027-04E | 1213 m
################################################################################
201007230600 AAXX 23064 67753 31960 00903 10116 20090 48/// 70500
                   333 10215 20058 5////=
201007160600 AAXX 16064 67753 31975 00905 10104 20095 48/// 70500
                   333 10219 20035 5////=
201007020600 AAXX 02064 67753 31970 70901 10144 20096 48/// 70522 87530
                   333 10//0 20099 87614=

################################################################################
#  SYNOPS from 67855, Lupaki (Zambia) | 17-03-00S | 024-46-00E | 1000 m
################################################################################
201007310600 AAXX 31064 67855 31970 71607 10132 20095 3//// 48/// 70522 8703/
                   333 20075 5//// 87360=
201007301200 AAXX 30124 67855 42780 61005 10232 20061 3//// 48/// 86100
                   333 5//// 86850=
201007300600 AAXX 30064 67855 31970 01806 10126 20080 3//// 48/// 70500
                   333 20065 5////=
201007291200 AAXX 29124 67855 42980 00901 10260 20036 3//// 48///
                   333 5////=
201007290600 AAXX 29064 67855 NIL=
201007281200 AAXX 28124 67855 NIL=
201007270600 AAXX 27064 67855 NIL=
201007261200 AAXX 26124 67855 42780 80902 10244 20113 3//// 48/// 8313/
                   333 5//// 83856 88360=
201007260600 AAXX 26064 67855 31970 81601 10142 20121 3//// 48/// 70522 8803/
                   333 20125 5//// 88360=
201007250600 AAXX 25064 67855 31970 80000 10144 20110 3//// 48/// 70522 88030
                   333 20125 5//// 88360=
201007241200 AAXX 24124 67855 NIL=
201007240600 AAXX 24064 67855 31970 71301 10128 20095 3//// 48/// 70522 8703/
                   333 20078 5//// 87360=
201007231200 AAXX 23124 67855 NIL=
201007230600 AAXX 23064 67855 31970 50000 10082 20077 3//// 48/// 70522 85030
                   333 20045 5//// 85360=
201007221200 AAXX 22124 67855 42880 50607 10256 20093 3//// 48/// 85100
                   333 5//// 85857=
201007220600 AAXX 22064 67855 31970 00000 10098 20090 3//// 48///
                   333 20072 5////=
201007211200 AAXX 21124 67855 42780 60906 10246 20089 38/// 48/// 83130
                   333 5//// 83856 83360=
201007210600 AAXX 21064 67855 31970 71502 10150 20100 38/// 48/// 70522 8703/
                   333 20093 5//// 87360=
201007191200 AAXX 19124 67855 42780 60901 10244 20098 3//// 48/// 86100
                   333 5//// 86856=
201007190600 AAXX 19064 67855 31970 51403 10110 20079 3//// 48/// 70522 85030
                   333 20077 5//// 85358=
201007181200 AAXX 18124 67855 42980 70802 10248 20098 3//// 48/// 8703/
                   333 5//// 87358=
201007180600 AAXX 18064 67855 31970 70000 10094 20060 3//// 48/// 70522 8703/
                   333 20063 5//// 87358=
201007171200 AAXX 17124 67855 NIL=
201007170600 AAXX 17064 67855 31970 01601 10066 21021 38/// 48/// 70500
                   333 20010 5////=
201007160900 AAXX 16094 67855 42980 10902 10216 20073 3//// 4////
                   333 5////=
201007160600 AAXX 16064 67855 31970 00000 10070 20062 3//// 48/// 70500
                   333 20038 5////=
201007151200 AAXX 15124 67855 42880 53605 10244 20085 3//// 48/// 85100
                   333 5//// 85857=
201007150600 AAXX 15064 67855 31970 30000 10090 20083 3//// 48/// 70500 83030
                   333 20050 5//// 83358=
201007141200 AAXX 14124 67855 42980 60805 10234 20084 3//// 4//// 86030
                   333 5//// 86359=
201007140600 AAXX 14064 67855 31970 00902 10098 20078 3//// 48/// 70500
                   333 20050 5////=
201007130600 AAXX 13064 67855 NIL=
201007121200 AAXX 12124 67855 42980 02304 10254 20013 3//// 4////
                   333 5////=
201007120600 AAXX 12064 67855 31970 01901 10062 20040 3//// 4//// 70500
                   333 20030 5////=
201007111200 AAXX 11124 67855 NIL=
201007110600 AAXX 11064 67855 31970 41701 10076 20056 38/// 48/// 70500 84030
                   333 20039 5//// 84358=
201007101200 AAXX 10124 67855 42980 43402 10254 20075 3//// 48/// 84500
                   333 5//// 84658=
201007100600 AAXX 10064 67855 31970 00000 10070 20066 3//// 48/// 70500
                   333 20038 5////=
201007091200 AAXX 09124 67855 42980 02404 10242 20063 38/// 48///
                   333 5////=
201007090600 AAXX 09064 67855 31965 01701 10056 20045 3//// 48/// 70500
                   333 20023 5////=
201007081200 AAXX 08124 67855 NIL=
201007080600 AAXX 08064 67855 31965 00603 10110 20070 38/// 48/// 70500
                   333 20081 5////=
201007071200 AAXX 07124 67855 42980 11803 10240 20076 38/// 48/// 81030
                   333 5//// 81359=
201007070600 AAXX 07064 67855 31970 00301 10100 20074 38/// 48/// 70500
                   333 20084 5////=
201007061200 AAXX 06124 67855 42880 50203 10254 20087 38/// 48/// 85500
                   333 5//// 85657=
201007060600 AAXX 06064 67855 31970 50901 10104 20085 38/// 48/// 70522 85030
                   333 20084 5//// 85358=
201007051200 AAXX 05124 67855 42880 70605 10238 20091 3//// 48/// 8353/
                   333 5//// 83657 85359=
201007050900 AAXX 05094 67855 42780 50902 10218 20116 3//// 48/// 82530
                   333 5//// 82650 85359=
201007050600 AAXX 05064 67855 31970 80302 10120 20105 3//// 48/// 70522 8803/
                   333 20093 5//// 88359=
201007040600 AAXX 04064 67855 NIL=
201007031200 AAXX 03124 67855 NIL=
201007030600 AAXX 03064 67855 NIL=
201007021200 AAXX 02124 67855 42880 51804 10244 20095 38/// 48/// 85100
                   333 5//// 85857=
201007020600 AAXX 02064 67855 31970 51102 10110 20091 3//// 48/// 70522 85030
                   333 20078 5//// 85358=
201007011200 AAXX 01124 67855 42880 71303 10234 20080 3//// 48/// 8313/
                   333 5//// 83857 86360=
201007010600 AAXX 01064 67855 NIL=
