################################################################################
# Query made at 04/14/2022 03:59:04 UTC
# Country like Zamb*
# Time interval: from 09/01/2015 05:30  to 10/01/2015 06:30  UTC
################################################################################

################################################################################
#  SYNOPS from 67403, Kawambwa (Zambia) | 09-48S | 029-05E | 1323 m
################################################################################
201509290600 AAXX 29064 67403 31960 70000 10229 20172 48508 70500 8703/
                   333 10/// 20189 59012 87360
                   555 00/// 20000=
201509251500 AAXX 25154 67403 NIL=
201509250600 AAXX 25064 67403 31970 11012 10221 20108 48520 70500 80001
                   333 10/// 20180 59018 81080=
201509240600 AAXX 24064 67403 31970 21005 10220 20098 48536 70500 80001
                   333 10/// 20171 58005 82080=
201509230600 AAXX 23064 67403 31975 00908 10221 20112 48533 70500
                   333 10/// 20169 58003=
201509220600 AAXX 22064 67403 31975 20906 10217 20107 48529 70500 80001
                   333 10/// 20168 59003 82080=

################################################################################
#  SYNOPS from 67413, Mbala (Zambia) | 08-51S | 031-20E | 1673 m
################################################################################
201509251500 AAXX 25154 67413 NIL=
201509230600 AAXX 23064 67413 NIL=
201509220600 AAXX 22064 67413 31975 01310 10205 20120 48552 70500
                   333 10300 20/// 5//// 91025=

################################################################################
#  SYNOPS from 67441, Mwinilunga (Zambia) | 11-45S | 024-26E | 1361 m
################################################################################
201509290600 AAXX 29064 67441 11975 800// 10175 20150 48547 60014 70522 8807/
                   333 10310 20/// 59002 88360
                   555 00/// 20004=
201509251500 AAXX 25154 67441 NIL=
201509250600 AAXX 25064 67441 31970 000// 10178 20112 48559 70500
                   333 10320 20/// 59009=
201509240600 AAXX 24064 67441 31970 000// 10215 20080 48568 70500
                   333 10320 20/// 58002=
201509230600 AAXX 23064 67441 31970 700// 10185 20116 48582 70522 80005
                   333 10318 20/// 58000 87280=
201509220600 AAXX 22064 67441 31970 200// 10180 20120 48582 70500 80001
                   333 10315 20/// 59006 82080=

################################################################################
#  SYNOPS from 67461, Mansa (Zambia) | 11-06S | 028-51E | 1382 m
################################################################################
201509290600 AAXX 29064 67461 31970 70000 10241 20150 48518 70522 8707/
                   333 10332 20188 59015 87465 91018=
201509251500 AAXX 25154 67461 NIL=
201509240600 AAXX 24064 67461 31970 70908 10248 20098 48554 70500 80008
                   333 10328 20168 58012 91022=
201509230600 AAXX 23064 67461 NIL=

################################################################################
#  SYNOPS from 67475, Kasama (Zambia) | 10-13S | 031-08E | 1382 m
################################################################################
201509290600 AAXX 29064 67475 11970 00511 10222 20133 48521 69914 70500
                   333 10323 20160 59013
                   555 91020=
201509251500 AAXX 25154 67475 NIL=
201509250600 AAXX 25064 67475 31975 01215 10215 20103 48547 70500
                   333 10/// 20/// 59004 91023=
201509240600 AAXX 24064 67475 31970 11213 10228 20091 48551 70500 80001
                   333 10321 20156 58013 81080 91023=
201509231200 AAXX 23124 67475 41875 11710 10314 20052 48508 70500 81100
                   333 59006 81857 91018=
201509230600 AAXX 23064 67475 31970 00709 10213 20100 48537 70500
                   333 10316 20141 59010 91022=
201509220600 AAXX 22064 67475 31975 01215 10215 20103 48547 70500
                   333 10/// 20/// 59004 91023=

################################################################################
#  SYNOPS from 67476, Misamfu (Zambia) | 10-06S | 031-15E | 1536 m
################################################################################
201509290600 AAXX 29064 67476 11979 00406 10218 20159 70500
                   333 55/// 000// 20000=
201509251500 AAXX 25154 67476 NIL=
201509230600 AAXX 23064 67476 NIL=

################################################################################
#  SYNOPS from 67477, Mpika (Zambia) | 11-54S | 031-26E | 1400 m
################################################################################
201509290600 AAXX 29064 67477 31978 00907 10232 20/// 48/// 70500
                   333 10320 20175 5////
                   555 00///=
201509251500 AAXX 25154 67477 NIL=
201509250600 AAXX 25064 67477 31968 01209 10215 20/// 48541 70500
                   333 10299 20176 59015=
201509240600 AAXX 24064 67477 31975 01202 10215 20/// 48556 70500
                   333 10300 20135 58000=
201509230600 AAXX 23064 67477 31978 00910 10225 20/// 48557 70500
                   333 10295 20164 5////=
201509220600 AAXX 22064 67477 31978 00906 10210 20/// 48/// 70500
                   333 10280 20145 5////=

################################################################################
#  SYNOPS from 67481, Isoka (Zambia) | 10-07S | 032-38E | 1360 m
################################################################################
201509251500 AAXX 25154 67481 NIL=
201509250600 AAXX 25064 67481 31970 03303 10225 20108 48/// 70500
                   333 10325 20162 59016=
201509240600 AAXX 24064 67481 31970 02402 10235 20107 48/// 70500
                   333 10316 20162 58001=
201509230600 AAXX 23064 67481 31970 00000 10230 20102 48/// 70500
                   333 10310 20165 58002=
201509220600 AAXX 22064 67481 31970 02402 10220 20102 48/// 70500
                   333 10305 20160 59009=

################################################################################
#  SYNOPS from 67531, Zambezi (Zambia) | 13-32S | 023-07E | 1077 m
################################################################################
201509290600 AAXX 29064 67531 11975 73303 10202 20158 48/// 60034 70522 8703/
                   333 10345 20174 58000 87360
                   555 00///=
201509251500 AAXX 25154 67531 NIL=
201509250600 AAXX 25064 67531 31975 00902 10221 20073 48/// 70500
                   333 10362 20140 59007=
201509240600 AAXX 24064 67531 31970 00904 10211 20068 48/// 70500
                   333 10366 20132 58004=
201509230600 AAXX 23064 67531 31970 10802 10217 20096 48/// 70500 80002
                   333 10358 20133 58007 81081=
201509220600 AAXX 22064 67531 31970 00704 10210 20082 48/// 70500
                   333 10352 20120 59012=

################################################################################
#  SYNOPS from 67541, Kasempa (Zambia) | 13-32S | 025-51E | 1234 m
################################################################################
201509251500 AAXX 25154 67541 NIL=
201509230600 AAXX 23064 67541 NIL=

################################################################################
#  SYNOPS from 67543, Kabompo (Zambia) | 13-36S | 024-12E | 1075 m
################################################################################
201509251500 AAXX 25154 67543 NIL=
201509250600 AAXX 25064 67543 31975 0//// 10217 20076 48/// 70500
                   333 10370 20/// 59006=
201509240600 AAXX 24064 67543 31970 0//// 10217 20085 48/// 70500
                   333 10368 20/// 58008=
201509230600 AAXX 23064 67543 31975 3//// 10217 20098 48/// 70500 80001
                   333 10374 20/// 58002 83080=
201509220600 AAXX 22064 67543 31975 0//// 10210 20108 48/// 70500
                   333 10372 20/// 59009=

################################################################################
#  SYNOPS from 67551, Solwezi (Zambia) | 12-11S | 026-23E | 1386 m
################################################################################
201509251500 AAXX 25154 67551 NIL=
201509250600 AAXX 25064 67551 31958 01703 10208 20078 48537 70500
                   333 10326 20149 59012 91021=
201509240600 AAXX 24064 67551 31959 00905 10221 20086 48549 70500
                   333 10327 20132 91022=
201509230600 AAXX 23064 67551 31958 30905 10216 20091 48543 70511 80001
                   333 10316 20162 58004 83080 91022=

################################################################################
#  SYNOPS from 67561, Ndola (Zambia) | 13-00S | 028-39E | 1269 m
################################################################################
201509300600 AAXX 30064 67561 31959 50000 10242 20118 48514 70411 85030
                   333 10331 20191 59009 85360
                   555 00/// 91018=
201509291200 AAXX 29124 67561 41860 61205 10320 20120 48494 70522 85208
                   333 59009 85859 85280
                   555 91015=
201509280600 AAXX 28064 67561 31958 51305 10220 20127 48532 70422 85050
                   333 10321 20179 58005 85360
                   555 00/// 91020=
201509260600 AAXX 26064 67561 31959 00605 10209 20126 48527 70400
                   333 10321 20168 59013
                   555 00///=
201509251500 AAXX 25154 67561 41960 50000 10301 20073 48499 70522 85060
                   333 59013=
201509250600 AAXX 25064 67561 31959 00909 10226 20072 48541 70400
                   333 10326 20166 59010
                   555 00/// 91021=
201509241200 AAXX 24124 67561 41960 00908 10320 20054 48518 70500
                   333 58004 91018=
201509240600 AAXX 24064 67561 31958 00909 10227 20085 48551 70400
                   333 10/// 20172 58004
                   555 00/// 91023=
201509240300 AAXX 24034 67561 41960 00806 10200 20067 48532 70500
                   333 58003 91020=
201509230600 AAXX 23064 67561 NIL=
201509220600 AAXX 22064 67561 31959 00805 10210 20086 48543 70400
                   333 10310 20141 59013 91022=
201509220300 AAXX 22034 67561 41960 00000 10170 20098 48527 70500
                   333 59017 555 91020=

################################################################################
#  SYNOPS from 67563, Kafironda (Zambia) | 12-36S | 028-07E | 1243 m
################################################################################
201509251500 AAXX 25154 67563 NIL=
201509230600 AAXX 23064 67563 NIL=

################################################################################
#  SYNOPS from 67571, Serenje (Zambia) | 13-14S | 030-13E | 1384 m
################################################################################
201509251500 AAXX 25154 67571 NIL=
201509250600 AAXX 25064 67571 32970 01206 10205 20089 48542 70500
                   333 10306 20171 59014=
201509240600 AAXX 24064 67571 32970 01205 10220 20067 48553 70500
                   333 10314 20167 58003=
201509230600 AAXX 23064 67571 32970 60908 10237 20083 48554 70500 80008
                   333 10306 20174 58004 86280=
201509220600 AAXX 22064 67571 32970 01206 10219 20088 48543 70500
                   333 10/// 20/// 59006=

################################################################################
#  SYNOPS from 67575, Mkushi (Zambia) | 13-38-00S | 029-26-00E | 1237 m
################################################################################
201509251500 AAXX 25154 67575 NIL=
201509230600 AAXX 23064 67575 NIL=

################################################################################
#  SYNOPS from 67580, Msekera (Zambia) | 13-39S | 032-34E | 1025 m
################################################################################
201509251500 AAXX 25154 67580 NIL=
201509250600 AAXX 25064 67580 31970 21206 10240 20124 48/// 70500 80001
                   333 10340 20/// 59015 82080=
201509231200 AAXX 23124 67580 41875 70305 10340 20066 48/// 70521 81108
                   333 59009 81857 87280=
201509230600 AAXX 23064 67580 31975 00304 10277 20120 48/// 70500
                   333 10345 20/// 58003=
201509220600 AAXX 22064 67580 31975 01203 10271 20116 48/// 70500
                   333 10335 20/// 59013=
201509070600 AAXX 07064 67580 31970 10806 10215 20106 38830 48551 70500 80001
                   333 01011 20114 51221 55102 59028 81080
                   555 10268 7//00=

################################################################################
#  SYNOPS from 67581, Chipata (Zambia) | 13-33S | 032-35E | 1028 m
################################################################################
201509290600 AAXX 29064 67581 31960 00403 10270 20135 48/// 70500
                   333 10339 20205 5////
                   555 00206 9////=
201509251500 AAXX 25154 67581 NIL=
201509240600 AAXX 24064 67581 31960 01704 10257 20065 48574 70500
                   333 10341 20180 58005 91023=
201509230600 AAXX 23064 67581 31960 00905 10266 20129 48570 70500
                   333 10332 20164 5//// 91022=
201509220600 AAXX 22064 67581 31960 00604 10259 20103 48/// 70500
                   333 10325 20160 5////=

################################################################################
#  SYNOPS from 67583, Lundazi (Zambia) | 12-17S | 033-12E | 1143 m
################################################################################
201509251500 AAXX 25154 67583 NIL=
201509230600 AAXX 23064 67583 NIL=

################################################################################
#  SYNOPS from 67599, Mfuwe (Zambia) | 13-16S | 031-56E | 568 m
################################################################################
201509251500 AAXX 25154 67599 NIL=
201509250600 AAXX 25064 67599 31960 00000 10250 20146 48563 70500
                   333 10365 20175 59015 91020=
201509230600 AAXX 23064 67599 31958 00903 10265 20131 48563 70544
                   333 10380 20170 59003 91020=
201509220600 AAXX 22064 67599 31960 00000 10250 20146 48563 70500
                   333 10365 20175 59015 91020=

################################################################################
#  SYNOPS from 67625, Kalabo (Zambia) | 14-51S | 022-42E | 1033 m
################################################################################
201509251500 AAXX 25154 67625 NIL=
201509230600 AAXX 23064 67625 NIL=

################################################################################
#  SYNOPS from 67633, Mongu (Zambia) | 15-15S | 023-09E | 1052 m
################################################################################
201509251500 AAXX 25154 67633 NIL=
201509250600 AAXX 25064 67633 31980 00903 10235 20081 48536 70500
                   333 10368 20180 59005 91019=
201509240900 AAXX 24094 67633 41980 00907 10330 20086 48556 70500
                   333 58013 91020=
201509240600 AAXX 24064 67633 31980 00903 10250 20076 48542 70500
                   333 10375 20190 58006 91020=
201509230600 AAXX 23064 67633 31980 00903 10230 20086 48533 70500
                   333 10378 20175 58000 91018=

################################################################################
#  SYNOPS from 67641, Kaoma (Zambia) | 14-48S | 024-48E | 1213 m
################################################################################
201509251500 AAXX 25154 67641 NIL=
201509250600 AAXX 25064 67641 31975 00000 10201 20089 48531 70500
                   333 10351 20140 59012 91020=
201509240600 AAXX 24064 67641 31975 01002 10232 20051 48546 70500
                   333 10354 20147 58009 91021=
201509230600 AAXX 23064 67641 31975 20101 10214 20085 48535 70500 80001
                   333 10352 20145 58003 91020=
201509220600 AAXX 22064 67641 31975 11602 10219 20100 48532 70500 80001
                   333 10340 20138 59011 81080 91020=

################################################################################
#  SYNOPS from 67655, Mumbwa (Zambia) | 15-04S | 027-11E | 1216 m
################################################################################
201509290600 AAXX 29064 67655 32980 50407 10270 20084 48534 85030
                   333 10336 20/// 59006 85360
                   555 00/// 91019=
201509251500 AAXX 25154 67655 NIL=
201509230600 AAXX 23064 67655 32980 01008 10219 20053 48569
                   333 10330 20/// 58008 91024=
201509220600 AAXX 22064 67655 32980 00610 10229 20113 48562
                   333 10325 20/// 59008 91023=

################################################################################
#  SYNOPS from 67659, Kafue Polder (Zambia) | 15-46S | 027-55E | 978 m
################################################################################
201509251500 AAXX 25154 67659 NIL=
201509230600 AAXX 23064 67659 NIL=

################################################################################
#  SYNOPS from 67662, Kabwe Agric (Zambia) | 14-24S | 028-30E | 1165 m
################################################################################
201509251500 AAXX 25154 67662 NIL=
201509230600 AAXX 23064 67662 NIL=

################################################################################
#  SYNOPS from 67663, Kabwe (Zambia) | 14-27S | 028-28E | 1206 m
################################################################################
201509251500 AAXX 25154 67663 NIL=
201509230600 AAXX 23064 67663 31960 10305 10230 20101 48555 70500 80002
                   333 10320 20180 58016 81080=

################################################################################
#  SYNOPS from 67665, Lusaka Internationalairport (Zambia) | 15-19S | 028-27E | 1152 m
################################################################################
201510010600 AAXX 01064 67665 31959 31009 10237 20140 48518 70500 80002
                   333 10339 20//0 59009 83080=
201510010000 AAXX 01004 67665 42980 01602 10176 20096 48485
                   333 59012=
201509302100 AAXX 30214 67665 42980 01503 10194 20116 48496
                   333 59015=
201509301800 AAXX 30184 67665 42960 01203 10250 20157 48495
                   333 59013=
201509301500 AAXX 30154 67665 41959 51006 10317 20185 48486 70500 85031
                   333 59013 85360 82080=
201509301200 AAXX 30124 67665 41959 20809 10326 20196 48497 70501 82500
                   333 59013 82640=
201509300900 AAXX 30094 67665 41959 20512 10308 20199 48521 70501 82030
                   333 59003 82360=
201509300600 AAXX 30064 67665 31959 21005 10239 20162 48523 70500 82030
                   333 10340 20//0 59005 82360=
201509291800 AAXX 29184 67665 42980 01203 10254 20133 48508
                   333 59004=
201509291500 AAXX 29154 67665 42980 30807 10313 20179 48498 81032
                   333 59006 81360 82080=
201509291200 AAXX 29124 67665 42980 30710 10318 20187 48509 82031
                   333 59006 82360 81080=
201509290300 AAXX 29034 67665 42980 31402 10176 20116 48502 70200 83030
                   333 59014 83360=
201509290000 AAXX 29004 67665 42980 01402 10199 20127 70200
                   333 59012=
201509282100 AAXX 28214 67665 42980 01404 10209 20127 48522 70200
                   333 59003=
201509281500 AAXX 28154 67665 41759 31107 10308 20182 48504 70500 83201
                   333 59001 83850 81080=
201509281200 AAXX 28124 67665 41659 33009 10312 20188 48514 70500 83201
                   333 58000 83835 81080=
201509280900 AAXX 28094 67665 41980 10712 10290 20195 48540 70200 80001
                   333 59002 81080=
201509280600 AAXX 28064 67665 32980 32980 11003 10224 20155 48531 80001
                   333 59007 81080=
201509280000 AAXX 28004 67665 42980 01403 10184 20114 48515
                   333 58000=
201509272100 AAXX 27214 67665 42980 01203 10200 20114 48524
                   333 58000=
201509271800 AAXX 27184 67665 42980 01005 10239 20122 48516
                   333 59006=
201509271500 AAXX 27154 67665 42780 21702 10307 20133 48505 82100
                   333 59011 82850=
201509271200 AAXX 27124 67665 42780 21003 10299 20152 48513 83100
                   333 59007 83847=
201509270900 AAXX 27094 67665 42680 20513 10274 20149 48545 82100
                   333 59005 82835=
201509270600 AAXX 27064 67665 31970 01008 10215 20146 48541 70500
                   333 10320 20//0 59008=
201509270300 AAXX 27034 67665 42980 01402 10154 20085 48511 70200
                   333 59010=
201509270000 AAXX 27004 67665 42980 01404 10166 20085 48504 70200
                   333 59009=
201509261800 AAXX 26184 67665 42980 01207 10234 20127 48521
                   333 58000=
201509261200 AAXX 26124 67665 42680 20807 10296 20138 82100
                   333 59011 82840=
201509260900 AAXX 26094 67665 42980 00912 10258 20121 48548
                   333 59007=
201509260600 AAXX 26064 67665 32980 01113 10200 20114 48546
                   333 10324 20//0 59012=
201509251800 AAXX 25184 67665 42980 00904 10215 20114 48530 70200
                   333 59008=
201509251500 AAXX 25154 67665 NIL=
201509251200 AAXX 25124 67665 42680 11806 10295 20147 48530 70300 81100
                   333 59014 81840=
201509250900 AAXX 25094 67665 42980 00912 10266 20138 48566
                   333 59009=
201509250600 AAXX 25064 67665 42980 01112 10213 20129 48559 70200
                   333 10320 59013=
201509250300 AAXX 25034 67665 42980 01303 10160 20115 48529 70200
                   333 59004=
201509250000 AAXX 25004 67665 42980 01306 10174 20095 48536 70200
                   333 59004 91021=
201509242100 AAXX 24214 67665 42980 01603 10193 20084 48549 70200
                   333 58006=
201509240900 AAXX 24094 67665 41959 00614 10281 20149 48576 70500
                   333 58010=
201509240600 AAXX 24064 67665 31959 01015 10224 20125 48573 70500
                   333 58009=
201509240000 AAXX 24004 67665 42980 02902 10188 20119 48543
                   333 58007=
201509232100 AAXX 23214 67665 42980 01404 10195 20128 48545
                   333 58000=
201509231500 AAXX 23154 67665 41960 00916 10305 20178 48538 70500
                   333 58004=
201509231200 AAXX 23124 67665 41659 10912 10330 20183 48540 70500 81100
                   333 58001 81830 555 91019=
201509230600 AAXX 23064 67665 NIL=
201509230300 AAXX 23034 67665 42980 01302 10146 20092 48534
                   333 59001=
201509222100 AAXX 22214 67665 42980 01502 10165 20056 48541
                   333 59011=
201509221800 AAXX 22184 67665 42980 01205 10228 20109 48547
                   333 59008=
201509221500 AAXX 22154 67665 42980 10712 10303 20158 48533 80001
                   333 59013 81080=
201509221200 AAXX 22124 67665 42980 11604 10304 20149 48530 80001
                   333 59017 81080=
201509220600 AAXX 22064 67665 32980 01206 10206 20120 48562 70200
                   333 10305 59013=
201509220300 AAXX 22034 67665 42980 01102 10145 20079 48535 70200
                   333 59016=
201509220000 AAXX 22004 67665 42980 01102 10148 20082 48534 70200
                   333 59021=
201509212100 AAXX 21214 67665 42980 01103 10181 20091 48553 70200
                   333 59023=
201509211800 AAXX 21184 67665 42980 01108 10215 20091 48553
                   333 59018=
201509211500 AAXX 21154 67665 42980 00814 10281 20120 48544
                   333 59010=
201509210900 AAXX 21094 67665 42980 00615 10256 20135 48577
                   333 59018=
201509210600 AAXX 21064 67665 32980 00712 10193 20105 48572
                   333 59013=
201509210000 AAXX 21004 67665 42980 09004 10155 20080 48556
                   333 58004=
201509202100 AAXX 20214 67665 41980 01008 10173 20101 48573
                   333 58015=
201509201800 AAXX 20184 67665 41959 00910 10211 20108 48569 70500
                   333 10308 58020=
201509201500 AAXX 20154 67665 41959 01016 10278 20138 48554 70500
                   333 58018=
201509201200 AAXX 20124 67665 41958 00818 10296 20136 48565 70500
                   333 58024=
201509200900 AAXX 20094 67665 41959 20616 10255 20154 48595 70500
                   333 58032=
201509200600 AAXX 20064 67665 31558 20813 10210 20136 48587 70500 82100
                   333 10332 20//0 58035 82825=
201509200300 AAXX 20034 67665 42980 00807 10186 20117 48555 70200
                   333 58021=
201509192100 AAXX 19214 67665 42980 00803 10207 20112 48668 70200
                   333 58028=
201509191800 AAXX 19184 67665 41957 11108 10247 20134 48555 70500 80001
                   333 10330 20//0 58033 81080=
201509191500 AAXX 19154 67665 41958 01015 10318 20158 48541 70500
                   333 58026=
201509190900 AAXX 19094 67665 41956 10918 10318 20162 48572 70500 80001
                   333 58022 81080=
201509181500 AAXX 18154 67665 42980 00308 10327 20171 48514 70200
                   333 58004=
201509180900 AAXX 18094 67665 41959 00904 10309 20184 48548 70500
                   333 59002=
201509180600 AAXX 18064 67665 41960 01302 10234 20155 48539 70500
                   333 59001=
201509180300 AAXX 18034 67665 42980 01702 10129 20070 48509
                   333 59002=
201509180000 AAXX 18004 67665 42980 01404 10158 20072 48509
                   333 59015=
201509172100 AAXX 17214 67665 42980 02102 10177 20074 48522
                   333 59010=
201509170900 AAXX 17094 67665 42980 00803 10278 20173 48538 70200
                   333 59015=
201509170600 AAXX 17064 67665 32980 01006 10202 20117 48527 70200
                   333 10313 20//0 59020=
201509170300 AAXX 17034 67665 42980 01603 10110 20047 48508
                   333 59030=
201509162100 AAXX 16214 67665 42980 01503 10171 20067 48531
                   333 59029=
201509161800 AAXX 16184 67665 42980 01004 10199 20080 48523
                   333 59032=
201509161500 AAXX 16154 67665 42980 02503 10283 20129 48521
                   333 59029=
201509161200 AAXX 16124 67665 42980 01606 10274 20128 48530
                   333 59028=
201509160600 AAXX 16064 67665 32980 01304 10170 20088 48552 70200
                   333 10302 20//0 59027=
201509160300 AAXX 16034 67665 42980 01302 10101 20050 48535 70200
                   333 59021=
201509160000 AAXX 16004 67665 42980 01201 10106 20045 48534 70200
                   333 59022=
201509151500 AAXX 15154 67665 42980 01008 10238 20111 48544
                   333 59034=
201509150900 AAXX 15094 67665 42980 00913 10209 20123 48582
                   333 59022=
201509150600 AAXX 15064 67665 32580 10914 10156 20086 48576 81825=
201509150000 AAXX 15004 67665 42980 01004 10104 20064 48563
                   333 59011=
201509142100 AAXX 14214 67665 42980 01204 10126 20069 48578
                   333 59009=
201509141800 AAXX 14184 67665 42980 00808 10167 20084 48579 70200
                   333 10245 58005=
201509141500 AAXX 14154 67665 41960 01014 10218 20100 48575 70500
                   333 58009=
201509141200 AAXX 14124 67665 41659 20915 10230 20110 48584 70500 82500
                   333 58006 82640=
201509140900 AAXX 14094 67665 41660 30917 10213 20111 48603 70500 83501
                   333 83630 81080=
201509140300 AAXX 14034 67665 42980 01005 10134 20071 48565 70200
                   333 58013=
201509132100 AAXX 13214 67665 42980 01006 10164 20080 48589 70200
                   333 58020=
201509131800 AAXX 13184 67665 42980 01009 10206 20101 48580
                   333 10300 58017=
201509131500 AAXX 13154 67665 42980 30712 10268 20110 48572 80001
                   333 58027 83080=
201509131200 AAXX 13124 67665 41980 01015 10277 20099 48585 70500
                   333 58020=
201509130900 AAXX 13094 67665 42580 10813 10235 20085 48607 70200 81100
                   333 58023 81825=
201509130600 AAXX 13064 67665 32980 00713 10185 20083 48595 70200
                   333 10288 20//0 58024=
201509121800 AAXX 12184 67665 41958 01007 10200 20082 48556 70500
                   333 58011=
201509121500 AAXX 12154 67665 41958 00816 10260 20104 48555 70500
                   333 58010=
201509121200 AAXX 12124 67665 41658 10912 10279 20111 48557 70500 81100
                   333 58016 81835=
201509120900 AAXX 12094 67665 41956 00825 10254 20124 48586 70500
                   333 58014=
201509120600 AAXX 12064 67665 31956 00915 10217 20139 48577 71000
                   333 58013=
201509120300 AAXX 12034 67665 42980 01107 10149 20059 48541
                   333 58006=
201509120000 AAXX 12004 67665 42980 00408 10160 20064 48542
                   333 58012=
201509112100 AAXX 11214 67665 42980 00911 10163 20055 48553
                   333 58009=
201509111500 AAXX 11154 67665 41959 00918 10301 20149 48551 70500
                   333 58018=
201509110900 AAXX 11094 67665 41958 00617 10292 20180 48569 70500
                   333 58010=
201509102100 AAXX 10214 67665 42960 01505 10190 20068 48548
                   333 58008=
201509101800 AAXX 10184 67665 41958 01205 10214 20078 48540 70500
                   333 58008=
201509101500 AAXX 10154 67665 41958 00914 10305 20130 48534 70500
                   333 58012=
201509101200 AAXX 10124 67665 41958 00615 10316 20135 48545 70500
                   333 58018=
201509100900 AAXX 10094 67665 41959 00907 10280 20133 48567 70500
                   333 58020=
201509100600 AAXX 10064 67665 31980 01105 10206 20111 48556 70500
                   333 10330 20//0 58001=
201509100300 AAXX 10034 67665 42980 01002 10142 20091 48527 70200
                   333 58015=
201509092100 AAXX 09214 67665 42980 01402 10189 20106 48541 70200
                   333 58014=
201509091800 AAXX 09184 67665 42960 01005 10222 20111 70200
                   333 58013=
201509091200 AAXX 09124 67665 41960 00605 10327 20150 70300 81100
                   333 58008 81850=
201509090900 AAXX 09094 67665 41959 03110 10300 20163 70500
                   333 58006=
201509090600 AAXX 09064 67665 32980 01104 10214 20123 48539
                   333 58002=
201509090000 AAXX 09004 67665 42980 01402 10161 20089 48514
                   333 58000=
201509082100 AAXX 08214 67665 42980 01703 10195 20099 48460
                   333 59004=
201509081800 AAXX 08184 67665 42980 01003 10233 20115 48522
                   333 59005=
201509081500 AAXX 08154 67665 42980 00608 10311 20168 48512
                   333 59007=
201509081200 AAXX 08124 67665 42980 01009 10315 20164 48518
                   333 59016=
201509080600 AAXX 08064 67665 32980 01204 10203 20138 48527 70200
                   333 10312 20//0 59016=
201509080300 AAXX 08034 67665 42980 01202 10137 20071 48510 70200
                   333 59011=
201509080000 AAXX 08004 67665 42980 00000 10160 20090 48513 70200
                   333 59019=
201509071500 AAXX 07154 67665 42980 00806 10296 20149 48518
                   333 59020=
201509071200 AAXX 07124 67665 42780 13004 10299 20153 48532 81100
                   333 59017 81856=
201509070900 AAXX 07094 67665 42980 00907 10262 20143 48557 70200
                   333 59015=
201509070600 AAXX 07064 67665 32980 01104 10181 20130 48549 70200
                   333 10304 20//0 59014=
201509070300 AAXX 07034 67665 42980 01003 10138 20058 48527 70200
                   333 59015 91020=
201509070000 AAXX 07004 67665 42980 01204 10148 20061 48530 70200
                   333 59016=
201509062100 AAXX 06214 67665 42980 01303 10171 20076 48547 70200
                   333 59013=
201509061800 AAXX 06184 67665 42980 00803 10200 20094 48537 70201
                   333 59017=
201509061200 AAXX 06124 67665 41659 20705 10284 20132 48538 70500 82100
                   333 59007 82840=
201509060900 AAXX 06094 67665 42980 00710 10251 20159 48570
                   333 58002=
201509060600 AAXX 06064 67665 32980 00912 10169 20107 48557
                   333 59010=
201509060300 AAXX 06034 67665 42980 01007 10144 20114 70200
                   333 59012=
201509060000 AAXX 06004 67665 42980 01004 10146 20091 48546 70200
                   333 59009=
201509052100 AAXX 05214 67665 42980 01005 10158 20084 70200
                   333 59007=
201509050900 AAXX 05094 67665 41559 40914 10238 20150 48562 70522 84100
                   333 59013=
201509050300 AAXX 05034 67665 42960 01106 10133 20074 48550
                   333 58009=
201509041800 AAXX 04184 67665 42960 01004 10194 20085 48558
                   333 58025=
201509041500 AAXX 04154 67665 41957 00717 10247 20114 48548 70500
                   333 58028=
201509041200 AAXX 04124 67665 41657 30814 10264 20125 48552 70500 83500
                   333 58025 83645=
201509040600 AAXX 04064 67665 32960 01012 1//// 20105 48571 70200
                   333 10330 20//0 58026=
201509040300 AAXX 04034 67665 42980 00907 10175 20104 48548 70200
                   333 58025=
201509040000 AAXX 04004 67665 42980 00000 10148 20082 48538 70200
                   333 58024=
201509032100 AAXX 03214 67665 42980 01002 10185 20106 48548 70200
                   333 58016=
201509031800 AAXX 03184 67665 42960 01403 10223 20113 48538 70200
                   333 58007=
201509031500 AAXX 03154 67665 41959 00607 10304 20139 48526 70500
                   333 58004=
201509031200 AAXX 03124 67665 41959 00307 10315 20123 48535 70500
                   333 58005=
201509030600 AAXX 03064 67665 31960 01304 10209 20115 48547 70500
                   333 58006=
201509030000 AAXX 03004 67665 42980 00000 10162 20099 48517
                   333 59008=
201509022100 AAXX 02214 67665 42980 01902 10169 20096 48531
                   333 59001=
201509021800 AAXX 02184 67665 42960 01003 10229 20141 48533 70200
                   333 58003=
201509021500 AAXX 02154 67665 41959 01109 10316 20144 48525 70500
                   333 59001=
201509021200 AAXX 02124 67665 41959 00806 10321 20143 48530 70500
                   333 59009=
201509020900 AAXX 02094 67665 41959 00305 10285 20153 48552 70500
                   333 59007=
201509020600 AAXX 02064 67665 31959 01603 10192 20147 48536 70500
                   333 10318 20//0 59008=
201509020300 AAXX 02034 67665 42980 01504 10130 20045 48509 70200
                   333 59008=
201509020000 AAXX 02004 67665 42980 01602 10178 20075 48525 70200
                   333 59010=
201509012100 AAXX 01214 67665 42980 01302 10176 20060 48525 70200
                   333 59011=
201509011800 AAXX 01184 67665 42980 01306 10197 20078 48526
                   333 10350 59005=
201509011500 AAXX 01154 67665 41960 00206 10303 20104 48523 70500
                   333 59006=
201509011200 AAXX 01124 67665 41960 00504 10302 20102 48536 70500
                   333 58000=
201509010900 AAXX 01094 67665 42980 00706 10275 20120 48557 70200
                   333 59016=

################################################################################
#  SYNOPS from 67666, Lusaka City Airport (Zambia) | 15-25-00S | 028-28-00E | 1280 m
################################################################################
201509251500 AAXX 25154 67666 NIL=
201509250600 AAXX 25064 67666 31959 00910 10212 20109 48552 70500
                   333 10310 20/// 59014 91022=
201509240600 AAXX 24064 67666 31970 01011 10220 20100 48565 70500
                   333 10320 20/// 58010 91024=
201509231200 AAXX 23124 67666 42680 11211 10310 20070 48530 81100
                   333 58002 81835 91019=
201509230600 AAXX 23064 67666 31960 01211 10225 20075 48566 70500
                   333 10310 20/// 58002 91023=
201509220600 AAXX 22064 67666 31959 00913 10208 20112 48553 70500
                   333 10295 20/// 59014 91022=

################################################################################
#  SYNOPS from 67667, Mount Makulu (Zambia) | 15-33S | 028-15E | 1213 m
################################################################################
201509251500 AAXX 25154 67667 NIL=
201509230600 AAXX 23064 67667 NIL=

################################################################################
#  SYNOPS from 67673, Petauke (Zambia) | 14-15S | 031-17E | 1035 m
################################################################################
201509251500 AAXX 25154 67673 NIL=
201509240600 AAXX 24064 67673 31970 00902 10255 20088 48575 70500
                   333 10340 20190 58004=
201509231200 AAXX 23124 67673 41670 10904 10334 20035 48555 70500 81100
                   333 58001 81840=
201509230600 AAXX 23064 67673 NIL=

################################################################################
#  SYNOPS from 67731, Senanga (Zambia) | 16-06S | 023-16E | 1027 m
################################################################################
201509290600 AAXX 29064 67731 32980 320// 10243 20143 48/// 70100 83008
                   333 10369 20160 5//// 83280
                   555 00///=
201509251500 AAXX 25154 67731 NIL=
201509250600 AAXX 25064 67731 31975 022// 10251 20054 48/// 70500
                   333 10367 20179 59015=
201509241200 AAXX 24124 67731 42980 013// 10363 20037 48///
                   333 58014=
201509240600 AAXX 24064 67731 32980 012// 10253 20058 48///
                   333 10352 20128 58014=
201509231200 AAXX 23124 67731 42980 004// 10372 20019 48///
                   333 59004=
201509230600 AAXX 23064 67731 32980 015// 10248 20072 48///
                   333 10347 20128 5////=
201509220600 AAXX 22064 67731 32980 023// 10231 20085 48///
                   333 10338 20123 5////=

################################################################################
#  SYNOPS from 67741, Sesheke (Zambia) | 17-28S | 024-18E | 949 m
################################################################################
201509251500 AAXX 25154 67741 NIL=
201509230600 AAXX 23064 67741 NIL=

################################################################################
#  SYNOPS from 67743, Livingstone (Zambia) | 17-49S | 025-49E | 985 m
################################################################################
201509301500 AAXX 30154 67743 41775 21804 10360 20043 48472 70511 82200
                   333 59019 822857 10385 Q1010.6=
201509300600 AAXX 30064 67743 31975 00910 10256 20041 48513 70500
                   333 10375 20175 59008
                   555 00/// BB/// CC175 DD/// Q1016.7=
201509280600 AAXX 28064 67743 31975 50803 10230 20067 48524 70500 80001
                   333 10353 20168 59002 85080
                   555 00/// 91018=
201509260600 AAXX 26064 67743 31975 01006 10229 20020 48543 70500
                   333 10345 20155 59020
                   555 00/// 91020=
201509251500 AAXX 25154 67743 41975 00913 10321 20010 48527 70500
                   333 59008=
201509250600 AAXX 25064 67743 31975 01010 10245 20040 48559 70500
                   333 10358 20179 59012 91022=
201509230600 AAXX 23064 67743 31970 11006 10231 20005 48561 70500 80001
                   333 10362 20140 58008 81080
                   555 00/// 91022=
201509220600 AAXX 22064 67743 32980 10613 10234 20025 48554 80001
                   333 10345 20150 59021 81080
                   555 00/// 91021=
201509210600 AAXX 21064 67743 31970 01011 10212 20101 48563 70500
                   333 10370 20148 59009
                   555 00/// BB/// CC148 DD/// Q1024=
201509191500 AAXX 19154 67743 41770 10916 10349 20024 48519 70511 81100
                   333 58020 10388 Q1016.4=
201509190600 AAXX 19064 67743 31959 00612 10258 20015 48542 70500
                   333 10380 20174 58020
                   555 00/// BB/// CC174 DD/// Q1020.8=
201509160600 AAXX 16064 67743 31970 01006 10167 20014 48534 70500
                   333 10292 20084 59036
                   555 00/// BB/// CC084 DD// Q1021=
201509140600 AAXX 14064 67743 31970 11016 10180 20088 48585 70511 81030
                   333 10330 20168 58004 81359
                   555 00/// BB/// CC168 DD/// Q1027.8=
201509130600 AAXX 13064 67743 31970 71009 10195 20096 48594 70500 80001
                   333 10340 20159 58023 87079
                   555 00/// BB/// CC159 DD/// Q1027.3=
201509090900 AAXX 09094 67743 41970 00710 10334 20059 48537 70500
                   333 59006 Q1017=

################################################################################
#  SYNOPS from 67751, Magoye (Zambia) | 16-00S | 027-36E | 1018 m
################################################################################
201509251500 AAXX 25154 67751 NIL=
201509230600 AAXX 23064 67751 NIL=

################################################################################
#  SYNOPS from 67753, Choma (Zambia) | 16-50S | 027-04E | 1213 m
################################################################################
201509251500 AAXX 25154 67753 NIL=
201509250600 AAXX 25064 67753 31960 00910 10220 20098 48559 70500
                   333 10309 20150 5////=
201509240600 AAXX 24064 67753 31960 00000 10235 20078 48/// 70500
                   333 10318 20140 5////=
201509230600 AAXX 23064 67753 31960 00410 10226 20057 48560 70500
                   333 10316 20111 58009=
201509220600 AAXX 22064 67753 31960 20612 10211 20104 48550 70500 80002
                   333 10310 20125 5//// 82080=

################################################################################
#  SYNOPS from 67855, Lupaki (Zambia) | 17-03-00S | 024-46-00E | 1000 m
################################################################################
201510010600 AAXX 01064 67855 NIL=
201509301800 AAXX 30184 67855 NIL=
201509301200 AAXX 30124 67855 NIL=
201509300600 AAXX 30064 67855 31970 00303 10260 20085 3//// 48/// 70500
                   333 20159 5////=
201509291200 AAXX 29124 67855 41770 40303 10350 20080 3//// 48/// 70500 84102
                   333 5//// 84850=
201509290600 AAXX 29064 67855 31970 11301 10242 20062 3//// 48/// 70511 80002
                   333 20139 5//// 81080=
201509281800 AAXX 28184 67855 NIL=
201509281200 AAXX 28124 67855 41870 70302 10342 20094 3//// 48/// 70522 83402
                   333 5//// 83657 87080=
201509280600 AAXX 28064 67855 31970 50000 10202 20073 3//// 48/// 70522 80001
                   333 20129 5//// 85080=
201509271800 AAXX 27184 67855 NIL=
201509271200 AAXX 27124 67855 41870 23603 10336 20089 3//// 48/// 70500 82400
                   333 5//// 82657=
201509270600 AAXX 27064 67855 31970 01103 10206 20029 3//// 48/// 70500
                   333 20119 5////=
201509261800 AAXX 26184 67855 NIL=
201509261200 AAXX 26124 67855 41970 01802 10326 20049 3//// 48/// 70500
                   333 5////=
201509260600 AAXX 26064 67855 31970 00906 10208 20089 3//// 48/// 70500
                   333 20106 5////=
201509251800 AAXX 25184 67855 NIL=
201509251200 AAXX 25124 67855 41970 00604 10338 20033 3//// 48/// 70500
                   333 5////=
201509250600 AAXX 25064 67855 31970 01301 10194 20073 3//// 48/// 70500
                   333 20104 5////=
201509241800 AAXX 24184 67855 NIL=
201509241200 AAXX 24124 67855 41870 41306 10360 20053 3//// 48/// 70500 84400
                   333 5//// 84657=
201509240600 AAXX 24064 67855 31970 00905 10246 20105 3//// 48/// 70500
                   333 20164 5////=
201509231800 AAXX 23184 67855 NIL=
201509231200 AAXX 23124 67855 41870 20603 10354 20069 3//// 48/// 70500 82400
                   333 5//// 82657=
201509230600 AAXX 23064 67855 31970 00802 10224 20069 3//// 48/// 70500
                   333 20113 5////=
201509221800 AAXX 22184 67855 NIL=
201509221200 AAXX 22124 67855 41870 13601 10332 20053 3//// 48/// 70500 81500
                   333 5//// 81657=
201509220600 AAXX 22064 67855 31970 00000 10196 20066 3//// 48/// 70500
                   333 20108 5////=
201509211800 AAXX 21184 67855 NIL=
201509211200 AAXX 21124 67855 41960 00306 10330 20080 3//// 48/// 70500 81030
                   333 5//// 81360=
201509210600 AAXX 21064 67855 31970 00903 10208 20110 3//// 48/// 70500
                   333 20130 5////=
201509201800 AAXX 20184 67855 NIL=
201509201200 AAXX 20124 67855 NIL=
201509200600 AAXX 20064 67855 31970 00604 10208 20126 3//// 48/// 70500
                   333 20165 5////=
201509191800 AAXX 19184 67855 NIL=
201509191200 AAXX 19124 67855 41870 10401 10354 20073 3//// 48/// 70500 81500
                   333 5////=
201509190600 AAXX 19064 67855 31970 01103 10230 20073 3//// 48/// 70500
                   333 20126 5////=
201509181800 AAXX 18184 67855 NIL=
201509181200 AAXX 18124 67855 41970 00602 10370 20043 3//// 48/// 70500
                   333 5////=
201509180600 AAXX 18064 67855 31970 00000 10234 20053 3//// 48/// 70500
                   333 20108 5////=
201509171800 AAXX 17184 67855 NIL=
201509171200 AAXX 17124 67855 NIL=
201509170600 AAXX 17064 67855 31970 02001 10172 20015 3//// 48/// 70500
                   333 20074 5////=
201509161800 AAXX 16184 67855 NIL=
201509161200 AAXX 16124 67855 42975 02002 10306 20010 3//// 48///
                   333 5////=
201509160600 AAXX 16064 67855 32975 00303 10180 20055 3//// 48///
                   333 20056 5////=
201509151200 AAXX 15124 67855 41970 12703 10278 20099 3//// 48/// 70500 81030
                   333 5//// 81360=
201509150600 AAXX 15064 67855 31970 00301 10146 20063 3//// 48/// 70500
                   333 20066 5////=
201509141800 AAXX 14184 67855 NIL=
201509141200 AAXX 14124 67855 41970 10703 10256 20060 3//// 48/// 70500 81500
                   333 5//// 81650=
201509140600 AAXX 14064 67855 31970 00605 10157 20085 3//// 48///
                   333 20130 5////=
201509131200 AAXX 13124 67855 NIL=
201509130600 AAXX 13064 67855 31970 50603 10172 20126 3//// 48/// 70511 80002
                   333 20135 5//// 85080=
201509121800 AAXX 12184 67855 NIL=
201509121200 AAXX 12124 67855 41970 00604 10370 20020 3//// 48/// 70500
                   333 5////=
201509120600 AAXX 12064 67855 31970 01112 10214 20138 3//// 48/// 70500
                   333 20185 5////=
201509111800 AAXX 11184 67855 NIL=
201509111200 AAXX 11124 67855 41970 00603 10370 20035 3//// 48/// 70500
                   333 5////=
201509110600 AAXX 11064 67855 31970 00000 10196 20045 3//// 48/// 70500
                   333 20130 5////=
201509101800 AAXX 10184 67855 NIL=
201509101200 AAXX 10124 67855 41970 03602 10350 20098 3//// 48/// 70500
                   333 5////=
201509100600 AAXX 10064 67855 31970 00000 10234 20090 3//// 48/// 70500
                   333 20170 5////=
201509091800 AAXX 09184 67855 NIL=
201509091200 AAXX 09124 67855 41970 03603 10354 20084 3//// 48/// 70500
                   333 5////=
201509090600 AAXX 09064 67855 31970 00201 10216 20075 3//// 48/// 70500
                   333 20129 5////=
201509081800 AAXX 08184 67855 NIL=
201509081200 AAXX 08124 67855 41970 10402 10346 20115 3//// 48/// 70500 81030
                   333 5//// 81360=
201509080600 AAXX 08064 67855 31970 00304 10200 20117 3//// 48/// 70500
                   333 20118 5////=
201509071800 AAXX 07184 67855 NIL=
201509071200 AAXX 07124 67855 42975 02703 10316 20085 3//// 48///
                   333 5////=
201509070600 AAXX 07064 67855 32975 00401 10142 20113 3//// 48///
                   333 20090 5////=
201509061800 AAXX 06184 67855 NIL=
201509061200 AAXX 06124 67855 42775 60801 10296 20111 3//// 48/// 86500
                   333 5//// 86650=
201509060600 AAXX 06064 67855 32675 31102 10166 20130 3//// 48/// 83500
                   333 20118 5//// 83630=
201509051800 AAXX 05184 67855 NIL=
201509051200 AAXX 05124 67855 42775 50601 10252 20142 3//// 48/// 85500
                   333 5//// 85650=
201509041800 AAXX 04184 67855 NIL=
201509041200 AAXX 04124 67855 42975 70603 10258 20143 3//// 48/// 8707/
                   333 5//// 87459=
201509040600 AAXX 04064 67855 32975 71208 10180 20123 3//// 48/// 8703/
                   333 20168 5//// 87360=
201509031200 AAXX 03124 67855 NIL=
201509030600 AAXX 03064 67855 31970 01802 10168 20053 3//// 48/// 70500
                   333 20120 5////=
201509021800 AAXX 02184 67855 NIL=
201509021200 AAXX 02124 67855 41970 03103 10348 20083 3//// 48/// 70500
                   333 5////=
201509020600 AAXX 02064 67855 31970 00000 10180 20070 3//// 48/// 70500
                   333 20120 5////=
201509011200 AAXX 01124 67855 41970 00402 10342 20072 3//// 48/// 70500
                   333 5////=
201509010600 AAXX 01064 67855 31970 00603 10200 20078 3//// 48/// 70500
                   333 20115 5////=
