################################################################################
# Query made at 04/14/2022 02:52:37 UTC
# Country like Zamb*
# Time interval: from 07/01/2018 05:30  to 07/31/2018 06:30  UTC
################################################################################

################################################################################
#  SYNOPS from 67403, Kawambwa (Zambia) | 09-48S | 029-05E | 1323 m
################################################################################
201807201200 AAXX 20124 67403 NIL=
201807200600 AAXX 20064 67403 32980 00905 10132 20036 48553
                   333 10250 20098 59013
                   555 00094=
201807190600 AAXX 19064 67403 31380 11408 10126 20043 48565 70300 81500
                   333 10240 20092 5//// 81608
                   555 00085=
201807180900 AAXX 18094 67403 NIL=
201807120600 AAXX 12064 67403 32980 11205 10159 20052 48558 80001
                   333 10273 20128 58001 81080=
201807040600 AAXX 04064 67403 NIL=

################################################################################
#  SYNOPS from 67413, Mbala (Zambia) | 08-51S | 031-20E | 1673 m
################################################################################
201807201200 AAXX 20124 67413 NIL=
201807190600 AAXX 19064 67413 NIL=
201807180900 AAXX 18094 67413 NIL=
201807040600 AAXX 04064 67413 NIL=

################################################################################
#  SYNOPS from 67441, Mwinilunga (Zambia) | 11-45S | 024-26E | 1361 m
################################################################################
201807201200 AAXX 20124 67441 NIL=
201807200600 AAXX 20064 67441 32960 01402 10100 20066 48///
                   333 10250 20030 5////=
201807190600 AAXX 19064 67441 32960 01302 10110 20085 48///
                   333 10230 20045 5////=
201807180900 AAXX 18094 67441 NIL=
201807110600 AAXX 11064 67441 32960 01801 10130 20096 48///
                   333 10260 20060=
201807040600 AAXX 04064 67441 32960 01504 10125 20074 48///
                   333 10280 20060 555 00///=

################################################################################
#  SYNOPS from 67461, Mansa (Zambia) | 11-06S | 028-51E | 1382 m
################################################################################
201807201200 AAXX 20124 67461 NIL=
201807200600 AAXX 20064 67461 32480 20806 10128 20095 48554 82500
                   333 10228 20070 59017 82612 91025=
201807190600 AAXX 19064 67461 32480 11105 10124 20090 48580 81500
                   333 10215 20055 58000 81610 91026=
201807180900 AAXX 18094 67461 NIL=
201807120600 AAXX 12064 67461 31975 01206 10150 20115 48562 70500
                   333 10262 20095 59007 91024=
201807110600 AAXX 11064 67461 32980 01202 10157 20115 48569
                   333 10255 20089 58003 91025=
201807040600 AAXX 04064 67461 NIL=

################################################################################
#  SYNOPS from 67469, Samfya (Zambia) | 11-22S | 029-54E | 1171 m
################################################################################
201807201200 AAXX 20124 67469 NIL=
201807190600 AAXX 19064 67469 NIL=
201807180900 AAXX 18094 67469 NIL=
201807040600 AAXX 04064 67469 NIL=

################################################################################
#  SYNOPS from 67475, Kasama (Zambia) | 10-13S | 031-08E | 1382 m
################################################################################
201807201200 AAXX 20124 67475 NIL=
201807200600 AAXX 20064 67475 31960 01407 10136 20086 48568 70500
                   333 10232 20066 59015 91026=
201807190600 AAXX 19064 67475 31560 11410 10125 20090 48582 70500 81100
                   333 10214 20074 58000 81820 91027=
201807180900 AAXX 18094 67475 NIL=
201807120600 AAXX 12064 67475 31960 00911 10152 20109 48574 70503
                   333 10264 20111 58001 91026=
201807110600 AAXX 11064 67475 31960 00907 10164 20103 48574 70500
                   333 10250 20099 85001 91026=
201807040600 AAXX 04064 67475 31960 01510 10155 48564 70500
                   333 10270 20122 58016
                   555 00/// 91025=

################################################################################
#  SYNOPS from 67476, Misamfu (Zambia) | 10-06S | 031-15E | 1536 m
################################################################################
201807201200 AAXX 20124 67476 NIL=
201807200600 AAXX 20064 67476 31975 01105 10130 20107 48/// 70500
                   333 10247 20054 59014=
201807190600 AAXX 19064 67476 31475 11209 10130 20089 48/// 70500 81500
                   333 10209 20050 59000 81617=
201807181200 AAXX 18124 67476 41675 41510 10195 20078 48/// 70522 84200
                   333 59005 84845=
201807180900 AAXX 18094 67476 NIL=
201807110600 AAXX 11064 67476 31795 01407 10154 20/// 48/// 70500
                   333 10250 20078 58002=
201807040600 AAXX 04064 67476 31978 01316 10160 20130 48/// 70500
                   333 10261 20103 58018
                   555 00///=

################################################################################
#  SYNOPS from 67477, Mpika (Zambia) | 11-54S | 031-26E | 1400 m
################################################################################
201807201200 AAXX 20124 67477 42680 60903 10176 20090 48564 86500
                   333 59006 86635=
201807200600 AAXX 20064 67477 32480 31205 10122 20102 48575 83500
                   333 10192 20103 59018 83613
                   555 00094=
201807191200 AAXX 19124 67477 42680 21203 10179 20071 48569 82100
                   333 59010 82835=
201807190900 AAXX 19094 67477 42480 71204 10135 20090 48593 87500
                   333 59003 87614=
201807190600 AAXX 19064 67477 32380 71504 10115 20102 48593 87600
                   333 10184 20095 58003 87706
                   555 00080=
201807181200 AAXX 18124 67477 42660 21504 10175 20078 48579 82500
                   333 59008 82637=
201807180900 AAXX 18094 67477 42580 50905 10150 20080 48596 85500
                   333 59002 85627=
201807110600 AAXX 11064 67477 32480 60904 10157 20170 48578 86500
                   333 10222 20112 58001 86610=
201807040600 AAXX 04064 67477 32480 21207 10143 20090 48572 82500
                   333 10223 20105 58019 82610
                   555 00102=

################################################################################
#  SYNOPS from 67481, Isoka (Zambia) | 10-07S | 032-38E | 1360 m
################################################################################
201807201200 AAXX 20124 67481 NIL=
201807200600 AAXX 20064 67481 31478 13005 10148 20106 48/// 70500 81500
                   333 10218 20088 59014 81615=
201807190600 AAXX 19064 67481 31478 73002 10128 20093 48/// 70522 875//
                   333 10202 20090 59001 87610=
201807180900 AAXX 18094 67481 NIL=
201807110600 AAXX 11064 67481 31478 13002 10168 20116 48/// 70500 81100
                   333 10248 20104 58000 81817=
201807040600 AAXX 04064 67481 31978 03002 10168 20095 48/// 70500
                   333 10250 20108 58020
                   555 00///=

################################################################################
#  SYNOPS from 67531, Zambezi (Zambia) | 13-32S | 023-07E | 1077 m
################################################################################
201807201200 AAXX 20124 67531 NIL=
201807200600 AAXX 20064 67531 32980 10906 10110 20065 48/// 80001
                   333 10250 20036 59007 81081
                   555 00040=
201807190600 AAXX 19064 67531 32980 01204 10115 20070 48///
                   333 10245 20060 59010
                   555 00050=
201807180900 AAXX 18094 67531 NIL=
201807120600 AAXX 12064 67531 32980 70000 10155 20116 48/// 8703/
                   333 10281 20110 58005 87362=
201807040600 AAXX 04064 67531 NIL=

################################################################################
#  SYNOPS from 67541, Kasempa (Zambia) | 13-32S | 025-51E | 1234 m
################################################################################
201807201200 AAXX 20124 67541 NIL=
201807200600 AAXX 20064 67541 32980 10907 10136 20083 48551 70222 80001
                   333 10230 20072 59009 81080=
201807190600 AAXX 19064 67541 32980 10904 10138 20075 48560 70222 80001
                   333 10230 20070 58002 81080=
201807180900 AAXX 18094 67541 NIL=
201807110600 AAXX 11064 67541 32980 10702 10165 20102 48549 70222 8000/
                   333 10270 59003 81080=
201807040600 AAXX 04064 67541 NIL=

################################################################################
#  SYNOPS from 67543, Kabompo (Zambia) | 13-36S | 024-12E | 1075 m
################################################################################
201807201200 AAXX 20124 67543 NIL=
201807190600 AAXX 19064 67543 31970 00602 10112 20074 48/// 70500
                   333 10250 20096 59009=
201807180900 AAXX 18094 67543 NIL=
201807110600 AAXX 11064 67543 31970 70000 10510 20115 48/// 70522 87030
                   333 10280 20136 59001 87360=
201807040600 AAXX 04064 67543 NIL=

################################################################################
#  SYNOPS from 67551, Solwezi (Zambia) | 12-11S | 026-23E | 1386 m
################################################################################
201807201200 AAXX 20124 67551 NIL=
201807200600 AAXX 20064 67551 31958 01006 10095 20069 48560 70500
                   333 1//// 2//// 59006
                   555 00091 91024=
201807190600 AAXX 19064 67551 31959 01006 10094 20074 48571 70500
                   333 10//0 20//0 59009
                   555 00092 91025=
201807180900 AAXX 18094 67551 NIL=
201807120600 AAXX 12064 67551 31957 71706 10128 20100 48564 70522 87030
                   333 10269 20//0 59003 87360 91025=
201807110600 AAXX 11064 67551 31957 00120 10133 20096 48568 70500
                   333 10249 20/// 58002 91026=
201807040600 AAXX 04064 67551 NIL=

################################################################################
#  SYNOPS from 67561, Ndola (Zambia) | 13-00S | 028-39E | 1269 m
################################################################################
201807220600 AAXX 22064 67561 31970 01109 10146 20083 48579 70500
                   333 10239 20098 58015
                   555 00///=
201807201200 AAXX 20124 67561 NIL=
201807200600 AAXX 20064 67561 31975 11600 1//// 20082 48570 70500 81030
                   333 10224 20081 59011 81360 91026=
201807190600 AAXX 19064 67561 32970 21217 10130 20087 48573 70500
                   333 10211 20085 59015 82360 91026=
201807180900 AAXX 18094 67561 NIL=
201807110600 AAXX 11064 67561 31970 00703 10138 20109 48571 70500
                   333 10256 20094 58001 91026=
201807040600 AAXX 04064 67561 NIL=

################################################################################
#  SYNOPS from 67563, Kafironda (Zambia) | 12-36S | 028-07E | 1243 m
################################################################################
201807201200 AAXX 20124 67563 NIL=
201807190600 AAXX 19064 67563 31970 01206 10120 20082 48/// 70500
                   333 10150 20025 59011
                   555 00016=
201807180900 AAXX 18094 67563 NIL=
201807110600 AAXX 11064 67563 31970 00802 10140 20084 48/// 70500
                   333 10250 20060 58000=
201807040600 AAXX 04064 67563 NIL=

################################################################################
#  SYNOPS from 67571, Serenje (Zambia) | 13-14S | 030-13E | 1384 m
################################################################################
201807201200 AAXX 20124 67571 NIL=
201807190600 AAXX 19064 67571 NIL=
201807180900 AAXX 18094 67571 42682 51208 10143 20065 48/// 70122 83501
                   333 5//// 83634 84080=
201807120600 AAXX 12064 67571 32482 40904 10167 20104 48/// 70300 84500
                   333 10246 20122 5//// 84168=
201807040600 AAXX 04064 67571 NIL=

################################################################################
#  SYNOPS from 67575, Mkushi (Zambia) | 13-38-00S | 029-26-00E | 1237 m
################################################################################
201807201200 AAXX 20124 67575 NIL=
201807200600 AAXX 20064 67575 32480 71205 10125 20090 48538 87500
                   333 10172 20081 59009 87612
                   555 00051=
201807190600 AAXX 19064 67575 32480 71104 10127 20086 48547 87500
                   333 10205 20110 59003 87613
                   555 00102=
201807180900 AAXX 18094 67575 NIL=
201807120600 AAXX 12064 67575 32480 20901 10175 20112 48537 82530
                   333 10260 20108 58001 83615 81360=
201807110600 AAXX 11064 67575 32980 00902 10154 20110 48533
                   333 10250 20106 59003=
201807040600 AAXX 04064 67575 31475 11210 10143 20070 48527 70500 81500
                   333 10252 20106 58017 81615
                   555 00082=

################################################################################
#  SYNOPS from 67580, Msekera (Zambia) | 13-39S | 032-34E | 1025 m
################################################################################
201807201200 AAXX 20124 67580 NIL=
201807200600 AAXX 20064 67580 32480 81206 10142 20103 48/// 8153/
                   333 10224 20120 59014 81616 88360=
201807190900 AAXX 19094 67580 42680 41506 10184 20101 48/// 84100
                   333 59006 84830=
201807190600 AAXX 19064 67580 32480 71507 10134 20105 48/// 8453/
                   333 10200 20120 58000 84616 87360=
201807180900 AAXX 18094 67580 42680 71505 10185 20090 48/// 85830
                   333 59007 84830 81632 83360=
201807040600 AAXX 04064 67580 32580 31505 10155 20101 48/// 82830
                   333 10280 20109 58030 81820 81320 81622 81360
                   555 00///=

################################################################################
#  SYNOPS from 67581, Chipata (Zambia) | 13-33S | 032-35E | 1028 m
################################################################################
201807201200 AAXX 20124 67581 NIL=
201807200600 AAXX 20064 67581 31670 80908 10144 20096 48601 70522 8353/
                   333 10201 20118 59018 83632 88360 91027=
201807190600 AAXX 19064 67581 31678 71215 10144 20096 48605 70522 8383/
                   333 10170 20116 59001 83531 87360 91028=
201807180900 AAXX 18094 67581 NIL=
201807120600 AAXX 12064 67581 31660 21609 10177 20117 48600 70500 81132
                   333 10268 20125 58007 81830 81306 82080 91027=
201807110600 AAXX 11064 67581 31960 01408 10198 20114 48591 70500
                   333 10261 20140 59006 91026=
201807040600 AAXX 04064 67581 NIL=

################################################################################
#  SYNOPS from 67583, Lundazi (Zambia) | 12-17S | 033-12E | 1143 m
################################################################################
201807201200 AAXX 20124 67583 NIL=
201807200600 AAXX 20064 67583 31959 71205 10146 20109 48/// 70522 87030
                   333 10234 20//0 5//// 87359=
201807190600 AAXX 19064 67583 31459 71803 10140 20112 48/// 70522 8157/
                   333 10238 2//// 5//// 81615 87359=
201807180900 AAXX 18094 67583 NIL=
201807110600 AAXX 11064 67583 31458 11205 10168 20138 48/// 70500 81600
                   333 10250 20/// 5//// 81710=
201807040600 AAXX 04064 67583 NIL=

################################################################################
#  SYNOPS from 67599, Mfuwe (Zambia) | 13-16S | 031-56E | 568 m
################################################################################
201807201200 AAXX 20124 67599 NIL=
201807200600 AAXX 20064 67599 32480 71208 10184 20105 48587 81530
                   333 10275 20164 59018 81615 87359
                   555 00065 91026=
201807190600 AAXX 19064 67599 32480 71905 10184 20105 48605 70222 8257/
                   333 10251 20136 59005 82612 87459
                   555 00120 91027=
201807180900 AAXX 18094 67599 NIL=
201807120600 AAXX 12064 67599 32980 30000 10171 20133 48583 83030
                   333 10319 20121 58005 83360 91026=
201807040600 AAXX 04064 67599 NIL=

################################################################################
#  SYNOPS from 67625, Kalabo (Zambia) | 14-51S | 022-42E | 1033 m
################################################################################
201807201200 AAXX 20124 67625 NIL=
201807200600 AAXX 20064 67625 32982 01510 10109 20074 48///
                   333 10242 20089 59015=
201807190600 AAXX 19064 67625 32982 11309 10110 20083 48/// 80001
                   333 10229 20088 59006 81075=
201807180900 AAXX 18094 67625 NIL=
201807120600 AAXX 12064 67625 32982 51206 10142 20102 48/// 85030
                   333 10265 20120 58003 85360=
201807110600 AAXX 11064 67625 32982 81304 10162 20124 48/// 8803/
                   333 10265 20155 59003 88360=
201807040600 AAXX 04064 67625 32982 01608 10100 20053 48///
                   333 10266 20074 555 00///=

################################################################################
#  SYNOPS from 67633, Mongu (Zambia) | 15-15S | 023-09E | 1052 m
################################################################################
201807201200 AAXX 20124 67633 NIL=
201807190600 AAXX 19064 67633 32980 10000 10120 20074 48577 81030
                   333 10241 20085 59006 81362 91026=
201807180900 AAXX 18094 67633 NIL=
201807120600 AAXX 12064 67633 32680 50902 10152 20106 48566 85030
                   333 10281 20132 58003 85360 91025=
201807040600 AAXX 04064 67633 32980 00902 10119 20062 48559
                   333 10271 20073 58014
                   555 00/// 91025=

################################################################################
#  SYNOPS from 67641, Kaoma (Zambia) | 14-48S | 024-48E | 1213 m
################################################################################
201807201200 AAXX 20124 67641 NIL=
201807200600 AAXX 20064 67641 32980 00802 10112 20081 48562
                   333 10236 20059 59007 91024=
201807190600 AAXX 19064 67641 NIL=
201807180900 AAXX 18094 67641 NIL=
201807040600 AAXX 04064 67641 NIL=

################################################################################
#  SYNOPS from 67655, Mumbwa (Zambia) | 15-04S | 027-11E | 1216 m
################################################################################
201807201200 AAXX 20124 67655 NIL=
201807190600 AAXX 19064 67655 NIL=
201807180900 AAXX 18094 67655 NIL=
201807040600 AAXX 04064 67655 NIL=

################################################################################
#  SYNOPS from 67659, Kafue Polder (Zambia) | 15-46S | 027-55E | 978 m
################################################################################
201807201200 AAXX 20124 67659 NIL=
201807200600 AAXX 20064 67659 32480 70706 10147 20102 48/// 70222 81530
                   333 10220 20090 59012 81610 86360=
201807190600 AAXX 19064 67659 32980 20909 10150 20106 48/// 70222 82030
                   333 10221 20132 59009 82360=
201807180900 AAXX 18094 67659 NIL=
201807120600 AAXX 12064 67659 32480 50906 10164 20126 48/// 70322 84530
                   333 10243 20162 85006 84614 81360=
201807110600 AAXX 11064 67659 32980 11006 10164 20125 48/// 70322 81500
                   333 10252 20173 58006 81614=
201807040600 AAXX 04064 67659 NIL=

################################################################################
#  SYNOPS from 67662, Kabwe Agric (Zambia) | 14-24S | 028-30E | 1165 m
################################################################################
201807201200 AAXX 20124 67662 NIL=
201807190600 AAXX 19064 67662 31475 60907 10126 20086 48/// 70522 82530
                   333 10200 20072 82614 85360
                   555 00040=
201807180900 AAXX 18094 67662 NIL=
201807040600 AAXX 04064 67662 NIL=

################################################################################
#  SYNOPS from 67663, Kabwe (Zambia) | 14-27S | 028-28E | 1206 m
################################################################################
201807201200 AAXX 20124 67663 NIL=
201807190600 AAXX 19064 67663 32580 50806 10102 20083 48529 82530
                   333 10196 20078 59015 82620 85360
                   555 00122=
201807180900 AAXX 18094 67663 NIL=
201807120600 AAXX 12064 67663 32980 60709 10167 20106 48578 86030
                   333 10240 20102 58002 86360=
201807110600 AAXX 11064 67663 32900 00905 10143 20107 48578
                   333 10245 20098 58006=
201807040600 AAXX 04064 67663 NIL=

################################################################################
#  SYNOPS from 67665, Lusaka Internationalairport (Zambia) | 15-19S | 028-27E | 1152 m
################################################################################
201807310600 AAXX 31064 67665 32980 00000 10153 20066 48552 70200
                   333 10277 20//0 59007
                   555 00///=
201807310300 AAXX 31034 67665 42980 00000 10089 20034 48511
                   333 58003=
201807310000 AAXX 31004 67665 42980 00000 10127 20045 48537
                   333 58004=
201807302100 AAXX 30214 67665 42980 01803 10140 20050 48546 70200
                   333 59006=
201807301800 AAXX 30184 67665 42980 01404 10172 20056 48545 70200
                   333 10277 59010=
201807301500 AAXX 30154 67665 42780 11507 10254 20066 48542 70200 81100
                   333 59008 81856=
201807301200 AAXX 30124 67665 42680 11308 10275 20005 48555 70200 81100
                   333 59012 81845=
201807300900 AAXX 30094 67665 42980 00907 10231 20075 48574
                   333 59013=
201807300600 AAXX 30064 67665 32980 01305 10165 20070 48562
                   333 10272 20//0 59007=
201807300300 AAXX 30034 67665 42980 01503 10091 20056 48533
                   333 59011=
201807300000 AAXX 30004 67665 42980 01803 10108 20068 48540
                   333 59012=
201807292100 AAXX 29214 67665 42980 01502 10135 20077 48556
                   333 59005=
201807291800 AAXX 29184 67665 42980 01404 10165 20045 48554
                   333 10272 58006=
201807291500 AAXX 29154 67665 42980 11306 10253 20025 48550
                   333 59002 555 10272=
201807291200 AAXX 29124 67665 42680 20907 10260 20045 48564 82100
                   333 58004 82840=
201807290900 AAXX 29094 67665 42980 00810 10234 20070 48581 70200
                   333 59005=
201807280900 AAXX 28094 67665 42980 00508 10212 20052 48583 70200
                   333 59010=
201807280600 AAXX 28064 67665 32980 11701 10135 20070 48564 81030
                   333 10254 59011 81360=
201807280000 AAXX 28004 67665 42980 01702 10106 20055 48549
                   333 59012=
201807272100 AAXX 27214 67665 42980 01003 10113 20054 48558
                   333 59005=
201807270900 AAXX 27094 67665 42980 00908 10205 20037 48588
                   333 59005=
201807261800 AAXX 26184 67665 42980 01404 10150 20063 48563
                   333 59021=
201807261500 AAXX 26154 67665 42980 10408 10225 20041 48565 81060
                   333 59015 81360=
201807261200 AAXX 26124 67665 42680 21012 10228 20050 48574 82500
                   333 59010 82640=
201807260600 AAXX 26064 67665 32980 01304 10125 20081 48579 70200
                   333 10223 20//0 59005=
201807260300 AAXX 26034 67665 42980 01603 10079 20054 48561 70200
                   333 59005=
201807260000 AAXX 26004 67665 42980 01602 10089 20061 48563 70200
                   333 59009=
201807252100 AAXX 25214 67665 42980 01504 10115 20065 48581 70200
                   333 59010=
201807251800 AAXX 25184 67665 42980 01005 10131 20065 48580
                   333 59011=
201807251500 AAXX 25154 67665 42680 11010 10206 20054 48577 81500
                   333 59012 81645=
201807251200 AAXX 25124 67665 42680 40910 10220 20063 48582 84500
                   333 59016 84635=
201807250900 AAXX 25094 67665 42580 70914 10167 20088 48600 87500
                   333 59016 87620=
201807250000 AAXX 25004 67665 42980 01102 10112 20084 48574
                   333 59012=
201807241800 AAXX 24184 67665 42980 41207 10158 20073 48595 70200 84030
                   333 59002 84360=
201807241500 AAXX 24154 67665 42680 51213 10203 20074 48587 70222 85500
                   333 59008 85645=
201807241200 AAXX 24124 67665 42680 60918 10196 20051 48595 70300 86500
                   333 59008 86630=
201807240300 AAXX 24034 67665 42980 00000 10080 20060 48566
                   333 59013=
201807240000 AAXX 24004 67665 42980 01102 10112 20084 48574
                   333 59012=
201807230900 AAXX 23094 67665 42580 51110 10201 20007 48623 70300 85500
                   333 58014 85630=
201807210900 AAXX 21094 67665 42480 60818 10182 20130 48607 84530
                   333 59005 84518 82360=
201807201200 AAXX 20124 67665 NIL=
201807200900 AAXX 20094 67665 42680 50913 10176 20071 48602 70222 85500
                   333 59008 85630=
201807200600 AAXX 20064 67665 32580 50916 10135 20073 48590 70222 84530
                   333 10191 20//0 59014 84620 82360=
201807190900 AAXX 19094 67665 42580 70915 10151 20081 48606 87500
                   333 59011 87620=
201807190600 AAXX 19064 67665 NIL=
201807181800 AAXX 18184 67665 42980 41205 10119 20070 48599 70200 84030
                   333 59003 84360=
201807181200 AAXX 18124 67665 42680 71015 10179 20055 48601 70322 86530
                   333 59009 86630 83360=
201807180900 AAXX 18094 67665 NIL=
201807170900 AAXX 17094 67665 42580 71019 10161 20061 48624 70222 86530
                   333 58002 86628 85360=
201807160600 AAXX 16064 67665 42480 61107 10128 20093 48605 85530
                   333 10255 20//0 58022 85610 85360=
201807100900 AAXX 10094 67665 42680 70912 10185 20106 48600 875//
                   333 59003 87630=
201807040600 AAXX 04064 67665 NIL=

################################################################################
#  SYNOPS from 67666, Lusaka City Airport (Zambia) | 15-25-00S | 028-28-00E | 1280 m
################################################################################
201807201200 AAXX 20124 67666 NIL=
201807200600 AAXX 20064 67666 32580 60909 10121 20084 48582 70220 83530
                   333 10180 20084 59010 83620 85358 91027=
201807190600 AAXX 19064 67666 32480 70910 10101 20085 48587 70222 85630
                   333 10194 20081 59011 85609 83360 91028=
201807180900 AAXX 18094 67666 42580 60910 10152 20086 48608 83830
                   333 59007 82620 84823 84360 91030=
201807120600 AAXX 12064 67666 32380 71010 10140 20104 48581 875//
                   333 10220 20120 58002 87609 91027=
201807110600 AAXX 11064 67666 32380 50910 10137 20108 48580 70122 85500
                   333 10229 20120 58001 85609 91026=
201807040600 AAXX 04064 67666 31980 00910 10138 20065 48581 70500
                   333 10241 20112 58023
                   555 00/// 91027=

################################################################################
#  SYNOPS from 67667, Mount Makulu (Zambia) | 15-33S | 028-15E | 1213 m
################################################################################
201807201200 AAXX 20124 67667 NIL=
201807200600 AAXX 20064 67667 32580 60904 10128 20085 48624 81130
                   333 10206 20074 59013 81825 86360=
201807190600 AAXX 19064 67667 32580 30905 10130 20093 48637 81130
                   333 10218 20075 59011 81825 82360=
201807180900 AAXX 18094 67667 NIL=
201807110600 AAXX 11064 67667 32580 21001 10152 20116 48640 70200 82500
                   333 10252 20100 58006 82625=
201807040600 AAXX 04064 67667 NIL=

################################################################################
#  SYNOPS from 67673, Petauke (Zambia) | 14-15S | 031-17E | 1035 m
################################################################################
201807201200 AAXX 20124 67673 NIL=
201807200600 AAXX 20064 67673 32680 80908 10140 20110 48591 8113/
                   333 10200 20115 59010 81830 88360=
201807190600 AAXX 19064 67673 32580 71008 10135 20112 48574 8357/
                   333 10200 20115 58013 83620 86460=
201807181200 AAXX 18124 67673 42580 50902 10186 20125 48603 85130
                   333 59014 85830 83360=
201807180900 AAXX 18094 67673 42580 40908 10174 20106 48608 84801
                   333 59020 82820 84624 84360=
201807040600 AAXX 04064 67673 NIL=

################################################################################
#  SYNOPS from 67731, Senanga (Zambia) | 16-06S | 023-16E | 1027 m
################################################################################
201807201200 AAXX 20124 67731 NIL=
201807200600 AAXX 20064 67731 32980 417// 10149 20062 48/// 70222 84030
                   333 10246 20103 59009 84360
                   555 00089=
201807190600 AAXX 19064 67731 32980 210// 10114 20061 48/// 70200 82030
                   333 10246 20084 59013 82360
                   555 00052=
201807180900 AAXX 18094 67731 NIL=
201807120600 AAXX 12064 67731 32980 211// 10179 20076 48111 70200 82030
                   333 10278 20110 58008=
201807110600 AAXX 11064 67731 32980 710// 10149 20064 48/// 70222 87030
                   333 10261 20119 59004 87360=
201807040600 AAXX 04064 67731 32980 009// 10131 20036 48///
                   333 10261 20092 58002
                   555 00031=

################################################################################
#  SYNOPS from 67741, Sesheke (Zambia) | 17-28S | 024-18E | 949 m
################################################################################
201807201200 AAXX 20124 67741 NIL=
201807200600 AAXX 20064 67741 32660 70903 10135 20106 48585 875//
                   333 10225 20107 59011 87650
                   555 00072=
201807190600 AAXX 19064 67741 32980 70000 10122 20080 48591 8703/
                   333 10214 20050 59006 87362
                   555 00030=
201807180900 AAXX 18094 67741 NIL=
201807120600 AAXX 12064 67741 32980 10000 10092 20085 48567 81030
                   333 10268 20064 58000 81362=
201807110600 AAXX 11064 67741 32980 10000 10125 20113 81030
                   333 10254 20059 81362=
201807040600 AAXX 04064 67741 32980 00901 10112 20069 48580
                   333 10258 20066 58019
                   555 00///=

################################################################################
#  SYNOPS from 67743, Livingstone (Zambia) | 17-49S | 025-49E | 985 m
################################################################################
201807201200 AAXX 20124 67743 NIL=
201807200600 AAXX 20064 67743 32980 81506 10127 20037 48586 8803/
                   333 10238 20105 59011 88359 91028=
201807190600 AAXX 19064 67743 32980 61405 10118 20041 48592 70222 86030
                   333 10204 20066 59006 86359 91029=
201807180900 AAXX 18094 67743 NIL=
201807120600 AAXX 12064 67743 32980 10905 10131 20082 48575 81030
                   333 10260 20085 58004 81359 91027=
201807110600 AAXX 11064 67743 32980 00707 10143 20095 48582
                   333 10255 70106 91027=
201807040600 AAXX 04064 67743 NIL=

################################################################################
#  SYNOPS from 67751, Magoye (Zambia) | 16-00S | 027-36E | 1018 m
################################################################################
201807201200 AAXX 20124 67751 NIL=
201807200600 AAXX 20064 67751 32980 50703 10143 20086 48/// 70222 85030
                   333 10232 20020 58007 85360=
201807190600 AAXX 19064 67751 32980 30804 10138 20080 48/// 70200
                   333 10224 20039 58012 83360=
201807180900 AAXX 18094 67751 NIL=
201807120600 AAXX 12064 67751 32980 01001 10158 20121
                   333 10252 20084 59002=
201807040600 AAXX 04064 67751 NIL=

################################################################################
#  SYNOPS from 67753, Choma (Zambia) | 16-50S | 027-04E | 1213 m
################################################################################
201807201200 AAXX 20124 67753 NIL=
201807200600 AAXX 20064 67753 32960 72706 10124 20087 48579 87030
                   333 10254 20024 59011 87360=
201807190600 AAXX 19064 67753 32960 22703 10130 20084 48590 82030
                   333 10196 20046 59008 82360=
201807180900 AAXX 18094 67753 NIL=
201807120600 AAXX 12064 67753 32960 22703 10135 20113 48581 82030
                   333 10220 20020 59001 82360=
201807110600 AAXX 11064 67753 32980 32703 10141 20112 48581 83030
                   333 10224 20040 58003 83360=
201807040600 AAXX 04064 67753 31960 02703 10110 20094 48587 70500
                   333 10239 20038 58032
                   555 00///=

################################################################################
#  SYNOPS from 67855, Lupaki (Zambia) | 17-03-00S | 024-46-00E | 1000 m
################################################################################
201807310600 AAXX 31064 67855 31970 00801 10100 20035 38/// 48/// 70500
                   333 20068 5////=
201807301200 AAXX 30124 67855 41970 00901 10286 20070 38/// 48/// 70500
                   333 5////=
201807300600 AAXX 30064 67855 31970 01801 10088 20045 38/// 48/// 70500
                   333 20053 5////=
201807290600 AAXX 29064 67855 31970 00302 10078 20024 3//// 48/// 70500
                   333 20030 5////=
201807281200 AAXX 28124 67855 41970 00000 10276 20040 38/// 48/// 70500
                   333 5////=
201807280900 AAXX 28094 67855 41970 01901 10232 20060 38/// 48/// 70500
                   333 5////=
201807280600 AAXX 28064 67855 31970 00000 10074 20020 38/// 48/// 70500
                   333 20030 5////=
201807260600 AAXX 26064 67855 31970 00000 10052 20038 38/// 48/// 70500
                   333 20016 5////=
201807250900 AAXX 25094 67855 41970 00305 10204 20075 38/// 48/// 70500
                   333 5////=
201807241200 AAXX 24124 67855 41670 20302 10246 20088 38/// 48/// 70500 82100
                   333 5//// 82840=
201807240900 AAXX 24094 67855 41570 41604 10216 20080 3//// 48/// 70500 84100
                   333 5//// 84825=
201807240600 AAXX 24064 67855 31970 60000 10070 20050 38/// 48/// 86070
                   333 20045 5//// 86360=
201807230600 AAXX 23064 67855 31970 12103 10113 20071 3//// 48/// 70500 81030
                   333 20080 5//// 81360=
201807221200 AAXX 22124 67855 42675 20407 10246 20065 3//// 48/// 82100
                   333 5//// 82840=
201807220600 AAXX 22064 67855 32975 00902 10090 20077 3//// 48///
                   333 20064 5////=
201807211200 AAXX 21124 67855 42975 20303 10236 20061 3//// 48/// 80002
                   333 5//// 82080=
201807201500 AAXX 20154 67855 42975 60000 10214 20060 3//// 48/// 81032
                   333 5//// 81360 86080=
201807201200 AAXX 20124 67855 42675 50000 10224 20060 3//// 48/// 82102
                   333 5//// 82835 85080=
201807200900 AAXX 20094 67855 42975 60901 10188 20055 3//// 48/// 86031
                   333 5//// 86360=
201807191200 AAXX 19124 67855 42975 70302 10212 20065 3//// 48/// 8707/
                   333 5//// 87360=
201807190900 AAXX 19094 67855 42975 71603 10160 20058 3//// 48/// 8707/
                   333 5//// 87360=
201807181500 AAXX 18154 67855 42975 70901 10200 20058 3//// 48/// 8707/
                   333 5//// 87360=
201807180900 AAXX 18094 67855 42975 50902 10182 20071 3//// 48/// 85030
                   333 5//// 85360=
201807180600 AAXX 18064 67855 32975 72001 10064 20045 3//// 48/// 8707/
                   333 20036 5//// 87360=
201807171500 AAXX 17154 67855 42675 72102 10176 20062 3//// 48/// 8707/
                   333 5//// 87360=
201807171200 AAXX 17124 67855 42675 71606 10194 20068 3//// 48/// 8217/
                   333 5//// 82830 87360=
201807150600 AAXX 15064 67855 32975 01801 10092 20059 3//// 48///
                   333 20059 5////=
201807140900 AAXX 14094 67855 42975 70000 10216 20107 3//// 48/// 8707/
                   333 5//// 87360=
201807140600 AAXX 14064 67855 32975 80000 10136 20114 3//// 48/// 8807/
                   333 20108 5//// 88360=
201807131200 AAXX 13124 67855 42675 70301 10228 20104 3//// 48/// 8427/
                   333 5//// 84835 87360=
201807130900 AAXX 13094 67855 42575 70301 10202 20115 3//// 48/// 8117/
                   333 5//// 81825 87360=
201807130600 AAXX 13064 67855 32975 70000 10106 20090 3//// 48/// 8707/
                   333 20072 5//// 87360=
201807110600 AAXX 11064 67855 31970 41801 10110 20090 3//// 48/// 70511 84030
                   333 20080 5//// 84360=
201807101500 AAXX 10154 67855 41670 72101 10216 20115 3//// 48/// 78182 8523/
                   333 5//// 85840 83360=
201807101200 AAXX 10124 67855 41670 50804 10248 20098 3//// 48/// 70522 83230
                   333 5//// 83840 85360=
201807100600 AAXX 10064 67855 31970 70301 10120 20103 3//// 48/// 70522 8707/
                   333 20085 5//// 87360=
201807091200 AAXX 09124 67855 42675 70301 10224 20119 3//// 48/// 8427/
                   333 5//// 84835 87360=
201807090900 AAXX 09094 67855 42675 60304 10202 20124 3//// 48/// 82170
                   333 5//// 82830 86360=
201807090600 AAXX 09064 67855 12975 20301 10136 20115 3//// 48/// 69904 82030
                   333 20093 5//// 82360=
201807071500 AAXX 07154 67855 41675 82101 10194 20078 3//// 48/// 70352 885//
                   333 5//// 88635=
201807070900 AAXX 07094 67855 42675 51809 10192 20083 3//// 48/// 85530
                   333 5//// 85630 83360=
201807070600 AAXX 07064 67855 12575 50707 10132 20090 3//// 48/// 69904 82570
                   333 20079 5//// 82620 85360=
201807060900 AAXX 06094 67855 42675 70809 10174 20074 3//// 48/// 8557/
                   333 5//// 85630 87360=
201807060600 AAXX 06064 67855 11575 70713 10134 20071 3//// 48/// 69904 70262 875//
                   333 875// 555 20120 5//// 87625=
201807050900 AAXX 05094 67855 41675 70412 10206 20085 3//// 48/// 70262 83131
                   333 5//// 83830 87360=
201807050600 AAXX 05064 67855 11570 70601 10134 20105 3//// 48/// 69904 76162 8557/
                   333 20105 5//// 85620 87458=
201807041500 AAXX 04154 67855 41970 61603 10196 20086 3//// 48/// 70522 86070
                   333 5//// 86360=
201807031500 AAXX 03154 67855 41970 03602 10248 20048 3//// 48/// 70500
                   333 5////=
201807031200 AAXX 03124 67855 41970 00903 10268 20024 3//// 48/// 70500
                   333 5////=
201807021200 AAXX 02124 67855 41970 03601 10256 20052 3//// 48/// 70500
                   333 5////=
201807020600 AAXX 02064 67855 31970 00000 10058 20028 3//// 48/// 70500
                   333 20016 5////=
201807010600 AAXX 01064 67855 31970 00000 10056 20008 3//// 48/// 70500
                   333 20015 5////=
