################################################################################
# Query made at 04/18/2022 00:40:40 UTC
# Country like Zamb*
# Time interval: from 02/01/2006 05:30  to 03/03/2006 05:30  UTC
################################################################################

################################################################################
#  SYNOPS from 67403, Kawambwa (Zambia) | 09-48S | 029-05E | 1323 m
################################################################################
200602200600 AAXX 20064 67403 12580 50902 10211 20168 48522 60094 81131
                   333 10274 20154 59009 81822 84362 81080=

################################################################################
#  SYNOPS from 67413, Mbala (Zambia) | 08-51S | 031-20E | 1673 m
################################################################################
200602211200 AAXX 21124 67413 41580 70910 10220 20149 48511 71799 8790/
                   333 58000 82930 87830=
200602200900 AAXX 20094 67413 42480 60000 10235 20174 48529 85201
                   333 59013 85820 82080=
200602200600 AAXX 20064 67413 12980 40000 10205 20166 48543 60604 80001
                   333 10210 20160 59008 84080=
200602090600 AAXX 09064 67413 32480 60718 10212 20156 48525 81933
                   333 10285 20154 58003 81925 81360 85080=

################################################################################
#  SYNOPS from 67441, Mwinilunga (Zambia) | 11-45S | 024-26E | 1361 m
################################################################################
200603021200 AAXX 02124 67441 41680 62709 10250 20175 48512 71522 82232
                   333 59012 82830 86362 81080=
200602270600 AAXX 27064 67441 12980 63302 10197 20184 48543 69904 86030
                   333 10285 20174 5//// 86361=
200602090600 AAXX 09064 67441 11970 80000 10178 20174 60194 76166 8802/
                   333 10295 20173 88460=

################################################################################
#  SYNOPS from 67461, Mansa (Zambia) | 11-06S | 028-51E | 1382 m
################################################################################
200602281200 AAXX 28124 67461 42580 70124 10230 20173 48478 8637/
                   333 86830 87362 91015=
200602200600 AAXX 20064 67461 32980 60602 10200 20164 48510 83032
                   333 10283 20164 59005 83362 83080=
200602110600 AAXX 11064 67461 32980 70801 10191 20179 48525 8707/
                   333 10301 20176 59003 87362=
200602090600 AAXX 09064 67461 12480 71203 10210 20179 48506 60034 82538
                   333 10266 20166 59002 82618 84362 86280=
200602060600 AAXX 06064 67461 32480 81830 10206 20182 48515 8257/
                   333 10310 20182 58003 82618 88462=
200602020600 AAXX 02064 67461 12480 73601 10229 20182 48508 60084 8157/
                   333 10296 20175 58000 81610 87363=

################################################################################
#  SYNOPS from 67475, Kasama (Zambia) | 10-13S | 031-08E | 1382 m
################################################################################
200602200600 AAXX 20064 67475 11475 51503 10198 20179 48517 60074 72842 81132
                   333 10271 20167 58016 81810 83360 85080=
200602140900 AAXX 14094 67475 42580 63205 10237 20189 48511 85532
                   333 59001 85820 82360 82080=
200602090600 AAXX 09064 67475 32480 61501 10215 20192 48517 83532
                   333 10284 20169 59002 83610 85361 86080=
200602060600 AAXX 06064 67475 32480 80000 10206 20182 48519 8357/
                   333 10270 20184 5//// 83615 88460=
200602020600 AAXX 02064 67475 11370 83608 10179 20179 48512 60774 76166 8277/
                   333 10255 20160 58005 82708 88460=

################################################################################
#  SYNOPS from 67477, Mpika (Zambia) | 11-54S | 031-26E | 1400 m
################################################################################
200603021200 AAXX 02124 67477 41680 72905 10262 20198 48466 71792 83237
                   333 59019 81942 83842 81362 87280=
200602281200 AAXX 28124 67477 41675 73305 10222 20131 48477 79598 872//
                   333 58015 81940 87740=
200602200900 AAXX 20094 67477 41680 72502 10275 20194 48513 71522 85231
                   333 59014 81935 85835 82362 82080=
200602140900 AAXX 14094 67477 41580 70000 10221 20198 48512 78082 8627/
                   333 58005 81923 86823 87361=
200602110600 AAXX 11064 67477 12980 70903 10200 20177 48534 69954 8703/
                   333 10277 20160 59005 87361=
200602060600 AAXX 06064 67477 12980 71003 10210 20194 48518 60024 8707/
                   333 10280 20189 58008 87360=
200602020600 AAXX 02064 67477 11380 72703 10193 20187 48510 60314 72842 86531
                   333 10284 20162 58005 86608 83360 82080=

################################################################################
#  SYNOPS from 67531, Zambezi (Zambia) | 13-32S | 023-07E | 1077 m
################################################################################
200603021200 AAXX 02124 67531 42680 73006 10288 20188 48/// 84102
                   333 5//// 84840 84081=
200602270600 AAXX 27064 67531 12380 73603 10215 20201 60034 8167/
                   333 10295 20195 81706 87360=
200602211200 AAXX 21124 67531 41380 73604 10220 20213 48/// 72166 8372/
                   333 5//// 83708 82825 87460=
200602200900 AAXX 20094 67531 42580 63307 10256 20197 48/// 86101
                   333 5//// 86825 81081=
200602200600 AAXX 20064 67531 11380 50303 10211 20196 48/// 60124 70351 82130
                   333 10262 20191 5//// 83807 83362=
200602140900 AAXX 14094 67531 41380 73604 10190 20186 48/// 79196 8172/
                   333 5//// 81707 87460=
200602110600 AAXX 11064 67531 32980 70802 10223 20204 87030
                   333 10312 20195 87362=
200602090600 AAXX 09064 67531 32480 70909 10215 20186 8117/
                   333 10297 20200 81813 87360=
200602060900 AAXX 06094 67531 42680 71101 10271 20196 8113/
                   333 81832 87360=
200602060600 AAXX 06064 67531 12980 71103 10218 20196 48/// 69914 82078
                   333 10296 20200 5//// 82361 87281=
200602020600 AAXX 02064 67531 32980 70000 10218 20192 48/// 8707/
                   333 10305 20199 5//// 87360=

################################################################################
#  SYNOPS from 67541, Kasempa (Zambia) | 13-32S | 025-51E | 1234 m
################################################################################
200602070000 AAXX 07004 67541 31959 31804 10224 20143 38548 40147 53002 70511 81031
                   333 10272 20100 30/// 56099 59005 81362=

################################################################################
#  SYNOPS from 67551, Solwezi (Zambia) | 12-11S | 026-23E | 1386 m
################################################################################
200602200600 AAXX 20064 67551 32980 73506 10194 20169 48508 87030
                   333 10280 20159 59010 87362=
200602140900 AAXX 14094 67551 42582 62603 10249 20167 48514 84230
                   333 59006 84825 85362=
200602090600 AAXX 09064 67551 11380 70000 10184 20174 48525 60014 72166 8267/
                   333 10281 20177 58010 82707 87361=

################################################################################
#  SYNOPS from 67561, Ndola (Zambia) | 13-00S | 028-39E | 1269 m
################################################################################
200603021200 AAXX 02124 67561 42580 70000 10250 20199 48473 85238
                   333 59021 85830 83360 87280=
200602281200 AAXX 28124 67561 41670 70602 10219 20191 48476 79592 82668
                   333 58009 82937 83837 84360 87280 91014=
200602270600 AAXX 27064 67561 11359 70000 10180 20175 48497 60244 76166 81771
                   333 10300 20172 59005 81709 87459=
200602200600 AAXX 20064 67561 11975 70404 10204 20183 48513 69904 70522 86032
                   333 10265 20180 59010 86361 82080=
200602110600 AAXX 11064 67561 32980 60504 10191 20171 48531 81038
                   333 10290 20156 59002 81361 86280=
200602060600 AAXX 06064 67561 11358 72103 10191 20183 48522 60184 70166 8477/
                   333 10226 20177 58016 84707 87459=
200602020600 AAXX 02064 67561 12980 40000 10210 20187 48510 60074 80001
                   333 10293 20170 58005 84080=

################################################################################
#  SYNOPS from 67563, Kafironda (Zambia) | 12-36S | 028-07E | 1243 m
################################################################################
200602211200 AAXX 21124 67563 41580 60303 10254 20170 48/// 78092 85932
                   333 5//// 81930 85848 83361 82080=
200602140900 AAXX 14094 67563 42580 60904 10264 20160 48/// 86200
                   333 5//// 86840=

################################################################################
#  SYNOPS from 67571, Serenje (Zambia) | 13-14S | 030-13E | 1384 m
################################################################################
200602200900 AAXX 20094 67571 42584 72704 10250 20191 48483 85231
                   333 59016 85825 81360 87080=
200602140900 AAXX 14094 67571 41576 73602 10248 20183 48483 76122 86241
                   333 59014 81920 86825 82360 86080=

################################################################################
#  SYNOPS from 67581, Chipata (Zambia) | 13-33S | 032-35E | 1028 m
################################################################################
200603021200 AAXX 02124 67581 41675 71803 10235 20215 48476 79599 8297/
                   333 59013 82935 81840 87460=
200602270600 AAXX 27064 67581 12684 30602 10234 20197 48504 60014 81982
                   333 10300 20181 59009 81945 81360 82080=
200602211200 AAXX 21124 67581 41684 61804 10267 20214 48500 71792 82973
                   333 58007 82940 81845 81460 83080=
200602200900 AAXX 20094 67581 41684 53108 10275 20208 48522 72992 84232
                   333 59009 81940 84840 81362 81080=
200602200600 AAXX 20064 67581 12684 50608 10246 20207 48523 69904 81138
                   333 10292 20185 59017 81840 83362 85280=
200602140900 AAXX 14094 67581 42684 60703 10272 20198 48522 85102
                   333 58002 85845 82080=
200602100600 AAXX 10064 67581 32684 20806 10245 20189 48545 81102
                   333 10299 20189 58015 81830 82080=
200602090600 AAXX 09064 67581 32584 10814 10244 20178 48532 81132
                   333 10294 20199 58002 81824 82362 81080=
200602060900 AAXX 06094 67581 41680 73404 10267 20204 48533 76062 8217/
                   333 58010 82825 87260=
200602060600 AAXX 06064 67581 11484 70405 10235 20198 48525 69904 70262 81137
                   333 10289 20206 58010 81819 84362 87280=
200602020600 AAXX 02064 67581 12584 72904 10218 20206 48517 60124 81138
                   333 10283 20180 58009 81824 84361 87280=

################################################################################
#  SYNOPS from 67599, Mfuwe (Zambia) | 13-16S | 031-56E | 568 m
################################################################################
200602211200 AAXX 21124 67599 42680 40000 10300 20230 48509 81932
                   333 58004 81945 81845 83360 82080=
200602200900 AAXX 20094 67599 42680 60000 10301 20230 48539 84232
                   333 5//// 84830 83360 82080=
200602200600 AAXX 20064 67599 32480 60000 10269 20229 48538 81132
                   333 10311 20/// 59016 81810 85360 82080=
200602100900 AAXX 10094 67599 42680 50000 10310 20218 48563 83232
                   333 58010 83830 83360 82080=
200602100600 AAXX 10064 67599 32980 70000 10260 20217 48558 84038
                   333 10344 20//0 58016 84360 87280=
200602060600 AAXX 06064 67599 12480 80000 10245 20231 48530 60014 76062 8157/
                   333 10310 20/// 58012 81610 88459=
200602020600 AAXX 02064 67599 32480 80000 10255 20219 48530 8157/
                   333 10325 20//0 58011 81610 88460=

################################################################################
#  SYNOPS from 67633, Mongu (Zambia) | 15-15S | 023-09E | 1052 m
################################################################################
200603021200 AAXX 02124 67633 41582 43605 10283 20195 48490 71792 83232
                   333 59010 81930 82835 81362 81080=
200602270600 AAXX 27064 67633 32482 43604 10234 20214 48489 81532
                   333 10312 20204 59014 81615 83361 81080=
200602211200 AAXX 21124 67633 41575 70302 10201 20193 48480 79599 85238
                   333 58012 81925 84830 83362 85280=
200602200900 AAXX 20094 67633 42582 53606 10257 20203 48499 85832
                   333 59026 83825 82630 82361 81080=
200602140900 AAXX 14094 67633 42682 73404 10262 20192 48515 84232
                   333 59007 84840 83361 83080=
200602060900 AAXX 06094 67633 42682 73606 10248 20195 48499 83238
                   333 58002 83830 83361 86280=
200602060600 AAXX 06064 67633 12680 70508 10210 20206 48496 60124 82538
                   333 10322 20197 58009 82630 84361 87080=
200602020600 AAXX 02064 67633 11980 63606 10215 20201 48477 69934 76066 85072
                   333 10281 20206 59003 85462 81080=

################################################################################
#  SYNOPS from 67655, Mumbwa (Zambia) | 15-04S | 027-11E | 1216 m
################################################################################
200602211200 AAXX 21124 67655 42580 60000 10270 20195 48511 8580/
                   333 58001 84620 83825=
200602200900 AAXX 20094 67655 42580 70207 10226 20195 48534 83571
                   333 59003 83625 86457 82077=

################################################################################
#  SYNOPS from 67662, Kabwe Agric (Zambia) | 14-24S | 028-30E | 1165 m
################################################################################
200602200900 AAXX 20094 67662 42680 70307 10262 20162 48/// 86236
                   333 5//// 86830 86363 87280=

################################################################################
#  SYNOPS from 67663, Kabwe (Zambia) | 14-27S | 028-28E | 1206 m
################################################################################
200603021200 AAXX 02124 67663 41680 60000 10261 20192 48468 70262 84238
                   333 59019 81930 84360 84280=
200602090600 AAXX 09064 67663 12380 80807 10211 20202 48513 60024 8467/
                   333 10230 20196 58008 84709 88460=
200602060600 AAXX 06064 67663 11360 83601 10182 20178 48515 60144 76166 8577/
                   333 10209 20175 58015 85707 88460=
200602020600 AAXX 02064 67663 32580 60403 10224 20196 48506 82132
                   333 10239 20181 58002 82820 84360 82080=

################################################################################
#  SYNOPS from 67665, Lusaka Internationalairport (Zambia) | 15-19S | 028-27E | 1152 m
################################################################################
200603021800 AAXX 02184 67665 42680 62801 10213 20213 48487 71392 81930
                   333 59009 81945 84360 83080=
200603021500 AAXX 02154 67665 41680 73305 10219 20219 48468 71799 83232
                   333 59014 81942 82842 84360 83080=
200603021200 AAXX 02124 67665 42680 62604 10266 20244 48481 85232
                   333 59021 81935 81360 81080=
200603020600 AAXX 02064 67665 32380 10210 20210 48506 70322 83632
                   333 10265 20199 59010 83608 85360 84080
                   555 91017=
200603020300 AAXX 02034 67665 41780 60000 10199 20199 48497 81932
                   333 59001 81950 84359 85080
                   555 91016=
200603011800 AAXX 01184 67665 41680 61405 10224 20224 48497 71522 81932
                   333 10282 58007 81935 84840 85360 86080 91016=
200603011500 AAXX 01154 67665 42680 52306 10259 20246 48486 84232
                   333 58002 84283=
200603010900 AAXX 01094 67665 42480 72706 10224 20224 48521 83832
                   333 58014 81818 82618 85360 83080=
200602281800 AAXX 28184 67665 42680 72506 10221 20221 48490 71322 81932
                   333 58021 81930 83360 85080 91015=
200602281500 AAXX 28154 67665 41670 72308 10205 20205 48477 76099 8197/
                   333 58023 81915 83637 82840 83459 91014=
200602281200 AAXX 28124 67665 41680 70303 10279 20238 86201
                   333 58000 86835 81935 82080 91013=
200602280900 AAXX 28094 67665 42580 70106 10267 20247 48510 86101
                   333 58001 86820 81080=
200602271500 AAXX 27154 67665 42680 50502 10276 20226 48463 70222 84202
                   333 59009 84842 84080
                   555 10297 90297=
200602271200 AAXX 27124 67665 42680 63406 10267 20246 48481 70222 85202
                   333 59002 85830 84080
                   555 91013=
200602270900 AAXX 27094 67665 42480 70204 10256 20243 48507 85132=
200602270600 AAXX 27064 67665 32380 73402 10204 20204 48503 8363/
                   333 10294 20197 59005 83707 87360=
200602261800 AAXX 26184 67665 41980 30000 10210 20210 48484 71322 81932
                   333 10294 20184 59009 81950 82845 82360 83080
                   555 91014=
200602261500 AAXX 26154 67665 42680 51207 10239 20239 48468 83232
                   333 59017 83845 82360 84080
                   555 10294 91012=
200602261200 AAXX 26124 67665 42680 53404 10286 20237 48487 85230
                   333 59015 85835 82360
                   555 91013=
200602260600 AAXX 26064 67665 32580 30000 10214 20214 48509 81931
                   333 59014 81922 81360 81080=
200602260400 AAXX 26044 67665 42980 33301 10185 20185 48497 83030
                   333 59014 83359=
200602252100 AAXX 25214 67665 42780 40000 10205 20205 48511 81932
                   333 59008 81950 83360 82080=
200602251800 AAXX 25184 67665 42680 50301 10224 20224 48491 81932
                   333 10277 58020 81945 84360 82080 91015=
200602250900 AAXX 25094 67665 42580 53206 10250 20224 48525 85232
                   333 59016 85820 81360 81080=
200602241200 AAXX 24124 67665 41656 73209 10218 20218 48512 76322 8523/
                   333 58013 81930 85830 83360=
200602240600 AAXX 24064 67665 32480 63604 10196 20196 48536 83530
                   333 10281 20184 59009 81610 86359=
200602231200 AAXX 23124 67665 42580 60407 10264 20237 48504 81932
                   333 59011 81930 84832 81360 82080 91016=
200602220900 AAXX 22094 67665 42480 70810 10221 20221 48537 84830
                   333 58001 81815 84615 85360=
200602220600 AAXX 22064 67665 42380 30000 10207 20207 48526 60404 70322 82532
                   333 10295 20178 82608 83360 85080
                   555 91019=
200602220400 AAXX 22044 67665 41780 72803 10203 20203 48508 71322 81932
                   333 59011 819// 86360 85080
                   555 91017=
200602220300 AAXX 22034 67665 41780 70000 10200 20200 48511 79596 81932
                   333 58006 81950 86360 83080
                   555 91018=
200602212100 AAXX 21214 67665 41780 53502 10214 20214 48524 71322 81932
                   333 58010 81950 83360 85080
                   555 91019=
200602211800 AAXX 21184 67665 41780 51104 10222 20222 48508 71322 81932
                   333 10/// 20/// 58011 81950 84360 84080
                   555 91017=
200602211200 AAXX 21124 67665 42680 62404 10270 20235 48511 84232
                   333 58004 84830 82360 82080=
200602210900 AAXX 21094 67665 42580 72610 10239 20239 48537 8453/
                   333 58010 84620 87360=
200602201800 AAXX 20184 67665 42780 30000 10210 20210 48496 81232
                   333 10255 20188 81850 81360 83080
                   555 91016=
200602201500 AAXX 20154 67665 42580 50804 10230 20230 48485 81902
                   333 81950 83840 83080
                   555 10255 91014=
200602201200 AAXX 20124 67665 42680 70000 10242 20242 48503 70222 85132
                   333 59008 85835 82360 87080 91016=
200602200900 AAXX 20094 67665 42580 71104 10227 20227 48526 875//
                   333 59011 87635=
200602200600 AAXX 20064 67665 12975 70000 10231 20231 48522 60434 72989 8703/
                   333 10274 20178 59005 87359=
200602191800 AAXX 19184 67665 42680 41202 10213 20213 48502 71322 81933
                   333 59020 81945 83360 83080=
200602181500 AAXX 18154 67665 42580 70811 10241 20241 48499 70255 86832
                   333 10252 20202 58005 85635 82360 83080
                   555 91016=
200602181200 AAXX 18124 67665 42580 70707 10221 20221 48519 70255 86830
                   333 58003 85625 83830 82360
                   555 91017=
200602180600 AAXX 18064 67665 12380 81106 10205 20205 48533 69984 8563/
                   333 10264 20172 58014 85708 87360=
200602180400 AAXX 18044 67665 42380 71104 10203 20203 48523 8463/
                   333 58014 83707 87360=
200602180300 AAXX 18034 67665 42380 60000 10200 20200 48516 84630
                   333 58009 84706 81950 84360=
200602161800 AAXX 16184 67665 42780 11203 10203 20203 48492 81930
                   333 58001 81956 81360=
200602161200 AAXX 16124 67665 42680 51110 10276 20231 48513 85232
                   333 58001 81935 85835 81360 81080=
200602160900 AAXX 16094 67665 42580 40811 10251 20214 48532 84132
                   333 58007 84825 83360 81080=
200602160400 AAXX 16044 67665 42380 61002 10189 20189 48503 86630
                   333 58004 86707 83360=
200602151800 AAXX 15184 67665 41680 61502 10206 20206 48297 71322 81932
                   333 58007 84360 85080 Q1016/1=
200602150900 AAXX 15094 67665 42480 61010 10231 20231 48521 85530
                   333 59001 85615 83360=
200602150400 AAXX 15044 67665 42380 51202 10201 20201 48511 70322 82532
                   333 58006 82706 83360 84080 91018=
200602150300 AAXX 15034 67665 41680 50000 10200 20200 48507 70222 81932
                   333 58005 81948 83360 84080 91017=
200602150000 AAXX 15004 67665 41680 60804 10213 20213 48515 72522 8193/
                   333 58002 81948 86360 91018=
200602142100 AAXX 14214 67665 42680 50000 10218 20218 48521 81932
                   333 58008 81948 83360 85080 91019=
200602140900 AAXX 14094 67665 41559 70805 10246 20237 48524 71522
                   333 59002 81918 86818 83030 83080=
200602140600 AAXX 14064 67665 12380 70302 10212 20212 48517 70322 85532
                   333 59012 87708 82359 85080
                   555 91018=
200602140400 AAXX 14044 67665 42254 80000 10204 20204 48505 71022 85632
                   333 59014 87703 85359 86080
                   555 91017=
200602140300 AAXX 14034 67665 42258 70000 10221 20221 48507 70322 85632
                   333 59012 85702 85359 86080
                   555 91017=
200602121200 AAXX 12124 67665 42680 63505 10269 20232 48521 71522 85203
                   333 59007 81930 85835 82080 91018=
200602120600 AAXX 12064 67665 32480 10210 21210 48538 83832
                   333 10235 20187 59010 83810 83360 83080=
200602111800 AAXX 11184 67665 41780 61301 10204 20204 48516 71322
                   333 10279 59008 81950 81360 85080=
200602111500 AAXX 11154 67665 41580 60708 10220 20220 48507 71792 83232
                   333 59002 81945 83845 81360 83080=
200602111200 AAXX 11124 67665 42680 61107 10249 20242 48527 83202
                   333 58002 83837 85080=
200602110900 AAXX 11094 67665 42580 70708 10241 20241 48553 8753/
                   333 58002 87625 86360
                   555 91022=
200602110600 AAXX 11064 67665 32380 61205 10206 48548 83632
                   333 10284 20189 59002 83707 86360 82080
                   555 00/// 91022=
200602101500 AAXX 10154 67665 41780 70704 10271 20236 48517 78022 81932
                   333 59011 81950 83850 85080=
200602101200 AAXX 10124 67665 42680 70309 10266 20234 48526 86230
                   333 58005 86842 87360=
200602100900 AAXX 10094 67665 42680 60303 10263 20233 48564 85230
                   333 58002 85830 81360=
200602100600 AAXX 10064 67665 32480 20905 10229 20229 48553 82132
                   333 10252 20183 58020 82815 81359 81080=
200602091200 AAXX 09124 67665 41575 40408 10270 20243 48517 71522 82933
                   333 59005 82928 82830 83360 81080=
200602090900 AAXX 09094 67665 42580 60506 10258 20245 48540 8623/
                   333 58007 85820 83360=
200602090600 AAXX 09064 67665 32380 70805 10214 20214 48531 84732
                   333 10251 20230 58012 84707 85360 82080=
200602081500 AAXX 08154 67665 42780 40607 10261 20226 48495 83231
                   333 59004 83850 81360 81080=
200602081200 AAXX 08124 67665 42680 50311 10267 20238 48518 84232
                   333 58001 84838 83360 82080=
200602080900 AAXX 08094 67665 42480 70507 10240 20240 48532 84530
                   333 58000 84615 86360=
200602080600 AAXX 08064 67665 32380 70000 10196 20196 48518 81732
                   333 10261 20194 59001 81708 86360 83080=
200602071200 AAXX 07124 67665 42580 62808 10211 20211 48509 85832
                   333 58007 85830 86360 82080 91017=
200602070900 AAXX 07094 67665 42480 73506 10229 20229 48530 71522 8653/
                   333 58003 86618 87360=
200602061500 AAXX 06154 67665 41580 71303 10205 20205 48490 82532
                   333 58912 82620 81930 81360 86080=
200602061200 AAXX 06124 67665 42680 70306 10251 20236 48507 86802
                   333 58012 84630 85835 82080=
200602060900 AAXX 06094 67665 42680 70101 10231 20231 48528 70322 85230
                   333 58009 85840 87360=
200602060600 AAXX 06064 67665 11380 83002 10213 20213 48526 60424 72122 8553/
                   333 10256 20193 86705 87359
                   555 91018=
200602060300 AAXX 06034 67665 42280 72706 10190 20190 48507 85532
                   333 58052 83703 86359 83080
                   555 91017=
200602051800 AAXX 05184 67665 42680 61403 10216 20216 48506 71392 81932
                   333 59001 81940 81840 84360 85080
                   555 10291=
200602051500 AAXX 05154 67665 42580 73504 10249 20243 48482 71522 81931
                   333 58004 81930 82830 84360 85080
                   555 10291 Q1014=
200602050900 AAXX 05094 67665 41460 70000 10234 20226 48520 76122 8583/
                   333 58010 82815 85615 87360=
200602041200 AAXX 04124 67665 42680 60605 10288 20247 48489 86202
                   333 59006 86835 82080 555=
200602040900 AAXX 04094 67665 42580 50605 10262 20242 48513 85200
                   333 59001 85825=
200602020600 AAXX 02064 67665 32480 71105 10203 20203 48517 83530
                   333 10292 20174 58003 83615 87360=
200602011500 AAXX 01154 67665 42780 41405 10284 20213 48492 82202
                   333 58001 82850 83080 91014=
200602011200 AAXX 01124 67665 42680 40706 10280 20224 48505 83202
                   333 58003 83840 82080=
200602010900 AAXX 01094 67665 42580 40705 10260 20232 48525 84102
                   333 58004 84825 83080=

################################################################################
#  SYNOPS from 67666, Lusaka City Airport (Zambia) | 15-25S | 028-19E | 1280 m
################################################################################
200602211200 AAXX 21124 67666 42680 62705 10255 20189 48497 85232
                   333 58008 81930 85830 81360 82080=
200602200900 AAXX 20094 67666 41380 80406 10205 20197 48513 72166 885//
                   333 59009 88608=
200602140900 AAXX 14094 67666 42580 70709 10260 20177 48511 86802
                   333 59007 83622 81925 84825 84080=
200602121200 AAXX 12124 67666 41680 73306 10255 20186 48501 75022 8683/
                   333 59013 81935 83630 86835 82360=

################################################################################
#  SYNOPS from 67673, Petauke (Zambia) | 14-15S | 031-17E | 1035 m
################################################################################
200602211200 AAXX 21124 67673 42684 63602 10258 20198 48507 82233
                   333 58007 82840 85364 81080=
200602200900 AAXX 20094 67673 42684 73405 10270 20215 48529 86230
                   333 5//// 86832 83364=
200602200600 AAXX 20064 67673 32580 73607 10226 20206 48526 8157/
                   333 10293 20205 59011 81620 87362=
200602140900 AAXX 14094 67673 41680 70604 10269 20206 48523 71522 84207
                   333 59003 81935 84835 87280=
200602090600 AAXX 09064 67673 32484 10810 10248 20200 48540 81102
                   333 10287 20186 58004 81825 81080=

################################################################################
#  SYNOPS from 67743, Livingstone (Zambia) | 17-49S | 025-49E | 985 m
################################################################################
200602270600 AAXX 27064 67743 32780 80000 10220 20204 48486 85034
                   333 10293 20195 59010 85362 84080=
200602250900 AAXX 25094 67743 41459 71204 10230 20216 48509 76122 878//
                   333 59012 84613 86820=
200602211200 AAXX 21124 67743 42970 80105 10260 20190 48495 83072
                   333 59008 83460 87080=
200602200900 AAXX 20094 67743 41575 70305 10258 20203 48503 76022 8457/
                   333 59023 84615 85360=
200602200600 AAXX 20064 67743 11360 71103 10214 20208 48503 60014 72820 8573/
                   333 10291 20195 59013 85709 84360=
200602110600 AAXX 11064 67743 12480 70805 10212 20209 48537 60024 8567/
                   333 10300 20191 58000 85710 87360=
200602100600 AAXX 10064 67743 12380 70704 10212 20209 48537 60014 70222 8567/
                   333 10280 20200 58025 85708 87460=
200602090600 AAXX 09064 67743 11470 61005 10216 20216 48506 60024 71020 84670
                   333 10246 20/// 58016 83706 81820 83360=
200602060900 AAXX 06094 67743 42480 70803 10231 20215 48504 84831
                   333 58008 83610 81815 85360 81080=
200602060600 AAXX 06064 67743 11377 82703 10206 20206 48504 60174 76166 8577/
                   333 10294 20196 58014 85708 87460=
200602020600 AAXX 02064 67743 12480 60000 10219 20206 48515 60144 8663/
                   333 10250 20190 58005 86710 81360=

################################################################################
#  SYNOPS from 67751, Magoye (Zambia) | 16-00S | 027-36E | 1018 m
################################################################################
200602211200 AAXX 21124 67751 42680 62903 10265 20183 48/// 81207
                   333 5//// 81830 86280=
200602200900 AAXX 20094 67751 42480 80304 10224 20194 48/// 8211/
                   333 5//// 82812 88460=
200602140900 AAXX 14094 67751 42580 60802 10261 20207 48/// 83208
                   333 5//// 83822 84208=

################################################################################
#  SYNOPS from 67753, Choma (Zambia) | 16-50S | 027-04E | 1213 m
################################################################################
200603021200 AAXX 02124 67753 41580 71804 10205 20194 48/// 71798 8327/
                   333 5//// 81920 83820 87459=
200602270600 AAXX 27064 67753 12980 70000 10213 20194 69964 84038
                   333 10274 20166 84360 87280=
200602211200 AAXX 21124 67753 41680 73402 10252 20189 48/// 70362 81138
                   333 5//// 81830 82360 87280=
200602200900 AAXX 20094 67753 42580 72703 10230 20186 48/// 84538
                   333 5//// 84620 84360 87280=
200602200600 AAXX 20064 67753 12380 83602 10195 20190 48/// 60034 8567/
                   333 10258 20182 5//// 85708 88460=
200602110600 AAXX 11064 67753 11980 80000 10176 20168 60064 72162 8807/
                   333 10290 20172 88460=
200602090600 AAXX 09064 67753 12980 83604 10205 20192 69904 8807/
                   333 10266 20189 88460=
200602060900 AAXX 06094 67753 41480 83602 10220 20192 72162 8457/
                   333 81832 87360=
200602060600 AAXX 06064 67753 11959 80000 10185 20183 48/// 60584 76162 8807/
                   333 10247 20180 5//// 88459=
200602020600 AAXX 02064 67753 12380 63004 10200 20185 48/// 60064 8663/
                   333 10277 20180 5//// 86708 83360=

################################################################################
#  SYNOPS from 67855, Lupaki (Zambia) | 17-03-00S | 024-46-00E | 1000 m
################################################################################
200603030000 AAXX 03004 67855 NIL=
200603021800 AAXX 02184 67855 NIL=
200603021200 AAXX 02124 67855 NIL=
200603020600 AAXX 02064 67855 12980 71401 10202 20199 3//// 48/// 60194 81032
                   333 20186 5//// 81360 87080=
200603020000 AAXX 02004 67855 NIL=
200603011800 AAXX 01184 67855 NIL=
200603011200 AAXX 01124 67855 NIL=
200603010600 AAXX 01064 67855 NIL=
200603010000 AAXX 01004 67855 NIL=
200602281800 AAXX 28184 67855 NIL=
200602281200 AAXX 28124 67855 NIL=
200602280600 AAXX 28064 67855 NIL=
200602280000 AAXX 28004 67855 NIL=
200602271800 AAXX 27184 67855 NIL=
200602271200 AAXX 27124 67855 NIL=
200602270600 AAXX 27064 67855 32580 71301 10220 20198 3//// 48/// 81272
                   333 20182 5//// 81820 85460 87080=
200602270000 AAXX 27004 67855 NIL=
200602261800 AAXX 26184 67855 NIL=
200602261200 AAXX 26124 67855 NIL=
200602260600 AAXX 26064 67855 NIL=
200602260000 AAXX 26004 67855 NIL=
200602251800 AAXX 25184 67855 NIL=
200602251200 AAXX 25124 67855 NIL=
200602250600 AAXX 25064 67855 NIL=
200602250000 AAXX 25004 67855 NIL=
200602241800 AAXX 24184 67855 NIL=
200602241200 AAXX 24124 67855 NIL=
200602240600 AAXX 24064 67855 NIL=
200602240000 AAXX 24004 67855 NIL=
200602231800 AAXX 23184 67855 NIL=
200602231200 AAXX 23124 67855 NIL=
200602230600 AAXX 23064 67855 12980 70000 10220 20197 3//// 48/// 60054 87072
                   333 20196 5//// 87459=
200602230000 AAXX 23004 67855 NIL=
200602221800 AAXX 22184 67855 NIL=
200602221200 AAXX 22124 67855 NIL=
200602220600 AAXX 22064 67855 11980 70000 10214 20202 3//// 48/// 60024 70162 87072
                   333 20203 5//// 87460=
200602220000 AAXX 22004 67855 NIL=
200602211800 AAXX 21184 67855 NIL=
200602211200 AAXX 21124 67855 NIL=
200602210600 AAXX 21064 67855 32980 70000 10223 20211 3//// 48/// 87070
                   333 20212 5//// 87460=
200602210000 AAXX 21004 67855 NIL=
200602201800 AAXX 20184 67855 NIL=
200602200600 AAXX 20064 67855 11470 70401 10213 20203 3//// 48/// 60394 70542 84532
                   333 20190 5//// 84615 87080=
200602200000 AAXX 20004 67855 NIL=
200602191800 AAXX 19184 67855 NIL=
200602191200 AAXX 19124 67855 NIL=
200602190600 AAXX 19064 67855 NIL=
200602190000 AAXX 19004 67855 NIL=
200602181800 AAXX 18184 67855 NIL=
200602181200 AAXX 18124 67855 NIL=
200602180600 AAXX 18064 67855 NIL=
200602180000 AAXX 18004 67855 NIL=
200602171800 AAXX 17184 67855 NIL=
200602171200 AAXX 17124 67855 NIL=
200602170600 AAXX 17064 67855 12980 30000 10189 20178 3//// 48/// 69904 81032
                   333 20173 5//// 81360=
200602170000 AAXX 17004 67855 NIL=
200602161800 AAXX 16184 67855 NIL=
200602161200 AAXX 16124 67855 NIL=
200602160600 AAXX 16064 67855 NIL=
200602160000 AAXX 16004 67855 NIL=
200602151800 AAXX 15184 67855 NIL=
200602151200 AAXX 15124 67855 NIL=
200602150600 AAXX 15064 67855 11970 70301 10213 20198 3//// 48/// 69904 70542 84032
                   333 20298 5//// 84360 87080=
200602150000 AAXX 15004 67855 NIL=
200602141800 AAXX 14184 67855 NIL=
200602141200 AAXX 14124 67855 NIL=
200602131800 AAXX 13184 67855 NIL=
200602131200 AAXX 13124 67855 NIL=
200602130600 AAXX 13064 67855 12380 60301 10202 20196 3//// 48/// 60104 81632
                   333 20193 5//// 81707 85360=
200602130000 AAXX 13004 67855 NIL=
200602121800 AAXX 12184 67855 NIL=
200602121200 AAXX 12124 67855 NIL=
200602120600 AAXX 12064 67855 NIL=
200602120000 AAXX 12004 67855 NIL=
200602111800 AAXX 11184 67855 NIL=
200602111200 AAXX 11124 67855 NIL=
200602110600 AAXX 11064 67855 NIL=
200602110000 AAXX 11004 67855 NIL=
200602101800 AAXX 10184 67855 NIL=
200602101200 AAXX 10124 67855 NIL=
200602100600 AAXX 10064 67855 12980 70701 10212 20197 3//// 48/// 60054 87072
                   333 20196 5//// 87460=
200602100000 AAXX 10004 67855 NIL=
200602091800 AAXX 09184 67855 NIL=
200602091200 AAXX 09124 67855 NIL=
200602090600 AAXX 09064 67855 11580 70501 10216 20206 38/// 48/// 60114 70192 81272
                   333 20204 5//// 81920 87460=
200602090000 AAXX 09004 67855 NIL=
200602081800 AAXX 08184 67855 NIL=
200602081200 AAXX 08124 67855 NIL=
200602080600 AAXX 08064 67855 11470 80000 10206 20191 3//// 48/// 69994 76062 8657/
                   333 20190 5//// 86615 88460=
200602080000 AAXX 08004 67855 NIL=
200602071800 AAXX 07184 67855 NIL=
200602071200 AAXX 07124 67855 NIL=
200602070600 AAXX 07064 67855 12580 70701 10218 20189 3//// 48/// 60024 81172
                   333 20196 5//// 81820 87460=
200602070000 AAXX 07004 67855 NIL=
200602061800 AAXX 06184 67855 NIL=
200602061200 AAXX 06124 67855 NIL=
200602060600 AAXX 06064 67855 11380 80000 10204 20198 3//// 48/// 60024 72162 8177/
                   333 20200 5//// 81706 88460=
200602060000 AAXX 06004 67855 NIL=
200602051800 AAXX 05184 67855 NIL=
200602051200 AAXX 05124 67855 NIL=
200602050600 AAXX 05064 67855 NIL=
200602050000 AAXX 05004 67855 NIL=
200602041800 AAXX 04184 67855 NIL=
200602041200 AAXX 04124 67855 NIL=
200602040600 AAXX 04064 67855 NIL=
200602040000 AAXX 04004 67855 NIL=
200602031800 AAXX 03184 67855 NIL=
200602031200 AAXX 03124 67855 NIL=
200602030600 AAXX 03064 67855 32380 20000 10200 20174 3//// 48/// 81631
                   333 20156 5//// 81707=
200602030000 AAXX 03004 67855 NIL=
200602021800 AAXX 02184 67855 NIL=
200602021200 AAXX 02124 67855 NIL=
200602020600 AAXX 02064 67855 12580 70601 10214 20174 3//// 48/// 69904 87530
                   333 20192 5//// 87620=
200602020000 AAXX 02004 67855 NIL=
200602011800 AAXX 01184 67855 NIL=
200602011200 AAXX 01124 67855 NIL=
200602010600 AAXX 01064 67855 12580 63601 10228 20196 3//// 48/// 69974 82232
                   333 20202 5//// 82820 83360=
