################################################################################
# Query made at 04/06/2022 02:45:40 UTC
# Country like Zamb*
# Time interval: from 02/01/2021 01:30  to 03/03/2021 02:30  UTC
################################################################################

################################################################################
#  SYNOPS from 67403, Kawambwa (Zambia) | 09-48S | 029-05E | 1323 m
################################################################################
202103020600 AAXX 02064 67403 31975 41601 10201 20179 48500 70500 84031
                   333 10305 20183 59007 84360 81080=
202103011200 AAXX 01124 67403 NIL=
202102190600 AAXX 19064 67403 31475 73203 10209 20189 48519 82537
                   333 10292 20193 58014 82610 84360 87282=
202102171200 AAXX 17124 67403 41775 62703 10295 20202 48470 70522 83268
                   333 83850 81360 85282=
202102161200 AAXX 16124 67403 41775 42701 10296 20204 48464 70522 83201
                   333 59003 83850 84080=
202102130600 AAXX 13064 67403 11975 63001 10181 20177 48502 60264 70522 86031
                   333 10281 20172 58004 86360 84080=
202102120900 AAXX 12094 67403 41575 72701 10224 20195 48503 75062 82231
                   333 59007 82828 85360 84080=
202102120600 AAXX 12064 67403 11975 80000 10187 20184 48508 60074 76066 8807/
                   333 10284 20178 59008 88462=
202102110600 AAXX 11064 67403 11960 83001 10182 20179 48506 60074 76166 8807/
                   333 10265 20178 59001 88460=
202102090900 AAXX 09094 67403 NIL=
202102090600 AAXX 09064 67403 11975 72701 10196 20188 48505 69984 87031
                   333 10252 20184 58006 87362=
202102080600 AAXX 08064 67403 12980 70901 10194 20167 48499 60194 87031
                   333 10218 20184 5//// 87360 82080=
202102050600 AAXX 05064 67403 12980 73001 10193 20176 48524 60074 87030
                   333 10304 20176 59009 87360=
202102040600 AAXX 04064 67403 11980 71403 10197 20171 48530 60024 8703/
                   333 10290 20176 58008 87360=
202102020600 AAXX 02064 67403 12980 70903 10182 20174 48513 60334 8703/
                   333 10264 20174 59004 87360=

################################################################################
#  SYNOPS from 67413, Mbala (Zambia) | 08-51S | 031-20E | 1673 m
################################################################################
202103020600 AAXX 02064 67413 12780 30902 10172 20156 48521 60134 84070
                   333 10260 20195 59010 83356 91021=
202103011200 AAXX 01124 67413 NIL=
202102160600 AAXX 16064 67413 32980 70000 10191 20170 48516 8703/
                   333 10281 20162 59006 87359
                   555 00244=
202102090900 AAXX 09094 67413 NIL=

################################################################################
#  SYNOPS from 67441, Mwinilunga (Zambia) | 11-45S | 024-26E | 1361 m
################################################################################
202103020600 AAXX 02064 67441 32380 81303 10185 20168 48534 887//
                   333 10280 2//// 58003 88709=
202103011200 AAXX 01124 67441 NIL=
202102190600 AAXX 19064 67441 11580 82903 10195 20186 48545 69904 72162 8657/
                   333 10262 20//0 58015 85615 87460=
202102090900 AAXX 09094 67441 NIL=
202102050600 AAXX 05064 67441 32980 70000 10185 20168 48554 8703/
                   333 10300 20//0 59002 87360=

################################################################################
#  SYNOPS from 67461, Mansa (Zambia) | 11-06S | 028-51E | 1382 m
################################################################################
202103020600 AAXX 02064 67461 32980 11216 10219 20195 48498 81030
                   333 10306 20167 59011 81360 91016=
202103011200 AAXX 01124 67461 NIL=
202102121200 AAXX 12124 67461 41980 73311 10203 20195 48460 72162 8707/
                   333 59012 87460 91012=
202102120900 AAXX 12094 67461 42580 72910 10240 20196 48482 82530
                   333 59019 82620 87360 91014=
202102120600 AAXX 12064 67461 12980 72702 10204 20186 48491 60254 8707/
                   333 10284 20168 59017 87360 91015=
202102090900 AAXX 09094 67461 NIL=

################################################################################
#  SYNOPS from 67469, Samfya (Zambia) | 11-22S | 029-54E | 1171 m
################################################################################
202103011200 AAXX 01124 67469 42580 41006 10260 20210 48/// 84230
                   333 5//// 84824 82360=
202102170900 AAXX 17094 67469 42780 52707 10284 20190 48/// 83238
                   333 5//// 83850 81361 85280=
202102090900 AAXX 09094 67469 NIL=
202102051200 AAXX 05124 67469 42580 41106 10277 20220 48/// 81900
                   333 5//// 81825 84825=
202102050900 AAXX 05094 67469 42580 41006 10267 20200 48/// 84230
                   333 5//// 84823 81360=
202102050600 AAXX 05064 67469 32980 21208 10246 20200 48/// 82030
                   333 10272 20203 5//// 82360=
202102040600 AAXX 04064 67469 12980 50904 10210 20190 48/// 60054 85032
                   333 10280 20186 5//// 85360 83280=
202102030900 AAXX 03094 67469 42480 71006 10267 20210 48/// 81932
                   333 5//// 84818 83360 83280=
202102010600 AAXX 01064 67469 12980 60000 10//0 20200 48/// 60044 84035
                   333 10250 20190 5//// 84360 86280=

################################################################################
#  SYNOPS from 67475, Kasama (Zambia) | 10-13S | 031-08E | 1382 m
################################################################################
202103020600 AAXX 02064 67475 32360 71708 10199 20181 48516 70322 82638
                   333 1//// 20154 59001 82707 84360 87280 91019=
202103011200 AAXX 01124 67475 42660 71807 10258 20184 48492 70322 84238
                   333 58017 81935 84835 84360 87280 91016=
202102190600 AAXX 19064 67475 12980 83107 10205 20196 48528 60054 85078
                   333 10/// 20166 58011 85460 88280 91021=
202102171200 AAXX 17124 67475 42660 83006 10277 20183 48477 84207
                   333 58003 81940 84840 88280=
202102170900 AAXX 17094 67475 42560 82809 10253 20187 48500 82137
                   333 58003 82825 88280=
202102161200 AAXX 16124 67475 41680 82703 10278 20187 48474 85231
                   333 58002 85835 82360 84080=
202102160900 AAXX 16094 67475 42680 83005 10264 20185 48497 83271
                   333 59002 83830 84459 83080=
202102160600 AAXX 16064 67475 32980 83605 10205 20176 48496 87071
                   333 10//0 20169 59007 87459 82080 91017=
202102150900 AAXX 15094 67475 42680 63605 10267 20192 48499 86201
                   333 59013 83630 85080=
202102130600 AAXX 13064 67475 12960 83105 10181 20173 48519 69974 82078
                   333 10//0 20161 58006 82460 88280 91019=
202102121200 AAXX 12124 67475 42660 73007 10265 20170 48476 8527/
                   333 59009 81935 85835 86360 91016=
202102120900 AAXX 12094 67475 42560 83104 10220 20182 48504 83571
                   333 59005 83620 87460=
202102120600 AAXX 12064 67475 12380 83309 10192 20175 48503 60054 8277/
                   333 10//0 20175 59008 82708 88460 91018=
202102111200 AAXX 11124 67475 41660 83107 10229 20194 48584 8567/
                   333 59006 85632 87460=
202102110600 AAXX 11064 67475 12460 83205 10192 20183 48512 60064 8257/
                   333 10//0 20178 59008 84612 87460=
202102100600 AAXX 10064 67475 11340 82007 10176 20176 48519 60284 76366 8477/
                   333 10//0 20169 58003 84708 88460=
202102090900 AAXX 09094 67475 42560 81604 10231 20191 48513 862//
                   333 58006 81920 86820 91019=
202102090600 AAXX 09064 67475 11360 80000 10191 20188 48516 60054 75022 8377/
                   333 10//0 20163 58005 83707 88460=
202102081200 AAXX 08124 67475 42680 72802 10271 20188 48472 86208
                   333 58005 81930 85830 82080=
202102080600 AAXX 08064 67475 11680 82002 10190 20187 48511 60064 70244 8523/
                   333 10//0 20169 58003 85830 84360 91019=
202102050900 AAXX 05094 67475 42660 60907 10264 20189 48530
                   333 59006 84830 84460 84280 91021=
202102050600 AAXX 05064 67475 12560 61606 10214 20191 48534 60024 83578
                   333 10//0 20156 59011 84620 84460 85280 91021=
202102040600 AAXX 04064 67475 12560 51805 10202 20167 48545 60104 81231
                   333 10//0 20149 58004 81820 83360=
202102030900 AAXX 03094 67475 42660 51205 10264 20183 48534 84201
                   333 59008 84830 82080 91021=
202102020600 AAXX 02064 67475 12980 80102 10183 20178 48539 60434 70152 8607/
                   333 10//0 20162 58015 86460=
202102011200 AAXX 01124 67475 41660 80304 10253 20190 48491 70522 84207
                   333 58013 81935 84835 88280 91016=
202102010600 AAXX 01064 67475 12460 82004 10202 20186 48525 60594 83577
                   333 10//0 20169 58018 83612 85360 88280 91020=

################################################################################
#  SYNOPS from 67476, Misamfu (Zambia) | 10-06S | 031-15E | 1536 m
################################################################################
202103020900 AAXX 02094 67476 42680 41203 10278 20167 48/// 83230
                   333 58001 83830 84360=
202103020600 AAXX 02064 67476 32580 30903 10185 20177 48/// 81130
                   333 10292 20105 58002 81826 83360=
202103011200 AAXX 01124 67476 NIL=
202102160600 AAXX 16064 67476 12980 83301 10202 20177 48/// 60064 85077
                   333 10284 20120 5//// 85360 88280=
202102120900 AAXX 12094 67476 41578 82904 10232 20174 48/// 75082 8227/
                   333 59006 82828 88460=
202102120600 AAXX 12064 67476 12480 82703 10190 20176 48/// 60024 8117/
                   333 10266 20123 59012 81818 88360=
202102110900 AAXX 11094 67476 41580 72803 10215 20186 48/// 72165 8423/
                   333 59010 84828 87360=
202102090900 AAXX 09094 67476 NIL=
202102090600 AAXX 09064 67476 11480 72301 10195 20185 48/// 60084 75022 816//
                   333 10265 20124 58008 81710 87620=
202102080600 AAXX 08064 67476 11475 70000 10199 20188 48/// 60014 71522 81578
                   333 10282 20122 58006 81618 82835 85460 86280=
202102060600 AAXX 06064 67476 12480 30601 10219 20194 48/// 60124 81130
                   333 10271 20111 59012 81817 83360=
202102050600 AAXX 05064 67476 12580 61202 10225 20194 48/// 60034 83230
                   333 10294 20102 59011 83820 84360=
202102040600 AAXX 04064 67476 12680 50000 10190 20173 48/// 60254 81272
                   333 10290 20102 5//// 81848 84460 82080=

################################################################################
#  SYNOPS from 67477, Mpika (Zambia) | 11-54S | 031-26E | 1400 m
################################################################################
202103020600 AAXX 02064 67477 11480 82201 10167 20160 48521 60034 72162 8457/
                   333 10269 20157 59001 84612 88459=
202103011200 AAXX 01124 67477 42680 52001 10242 20160 48503 84231
                   333 5//// 84830 82364 82080=
202102190600 AAXX 19064 67477 12980 60000 10202 20187 48/// 60044 86030
                   333 10305 20175 5//// 86360=
202102170900 AAXX 17094 67477 42580 73304 10252 20178 48/// 85507
                   333 5//// 85628 86280=
202102150900 AAXX 15094 67477 42680 33307 10261 20171 48/// 83201
                   333 5//// 83834 81080=
202102130600 AAXX 13064 67477 11480 83002 10184 20180 48/// 60084 72162 8457/
                   333 10255 20173 5//// 84612 88459=
202102120600 AAXX 12064 67477 11478 83001 10181 20180 48/// 60194 76062 8457/
                   333 10250 20179 5//// 84512 88459=
202102111200 AAXX 11124 67477 42680 72201 10231 20171 48/// 85131
                   333 5//// 85830 82364 82080=
202102110600 AAXX 11064 67477 11480 80000 10184 20180 48/// 60324 72162 8457/
                   333 10241 20173 5//// 84613 88460=
202102090900 AAXX 09094 67477 41580 71502 10212 20170 48/// 72162 86531
                   333 5//// 86612 83360=
202102090600 AAXX 09064 67477 11480 81201 10191 20180 48/// 60014 72162 8457/
                   333 10272 20176 5//// 84612 88459=
202102081200 AAXX 08124 67477 41680 71802 10221 20180 48/// 71799 85231
                   333 5//// 81931 85836 83362 83080=
202102080600 AAXX 08064 67477 12980 20000 10213 20170 48/// 69904 82031
                   333 10288 20173 5//// 82359 81080=
202102060600 AAXX 06064 67477 32480 61202 10203 20170 48/// 86501
                   333 10274 20165 5//// 86612 82080=
202102050600 AAXX 05064 67477 12480 41202 10213 20180 48/// 69904 84501
                   333 10273 20157 5//// 84612 82080=
202102040600 AAXX 04064 67477 12480 32201 10201 20170 48/// 60074 81131
                   333 10276 20151 5//// 81813 82359 83080=
202102030900 AAXX 03094 67477 42580 41204 10256 20170 48/// 84101
                   333 5//// 84825 82080=
202102020600 AAXX 02064 67477 11380 82201 10183 20170 48/// 60024 72162 8457/
                   333 10278 20168 5//// 84612 88459=
202102011200 AAXX 01124 67477 41680 73001 10198 20180 48/// 71799 85231
                   333 5//// 81940 85840 83364 82080=
202102010600 AAXX 01064 67477 12980 50000 10201 20170 48/// 60054 83031
                   333 10263 20173 5//// 83359 84080=

################################################################################
#  SYNOPS from 67481, Isoka (Zambia) | 10-07S | 032-38E | 1360 m
################################################################################
202103020600 AAXX 02064 67481 31479 72402 10196 20188 48/// 72842 875//
                   333 10304 20174 5//// 87610=
202103011200 AAXX 01124 67481 NIL=
202102190600 AAXX 19064 67481 32480 63002 10238 20196 48/// 82102
                   333 10292 20184 5//// 82810 86080=
202102120600 AAXX 12064 67481 11480 80000 10188 20178 48/// 60264 72166 8157/
                   333 10230 20178 5//// 81610 88460=
202102100600 AAXX 10064 67481 11370 80301 10182 20180 48/// 60074 76166 887//
                   333 10262 20162 5//// 88707=
202102090900 AAXX 09094 67481 NIL=
202102090600 AAXX 09064 67481 11477 80000 10192 20186 48/// 60194 76022 885//
                   333 10266 29162 5//// 88610=
202102080600 AAXX 08064 67481 12480 53602 10197 20181 48/// 60234 82131
                   333 10294 20162 5//// 82810 83360 85080=
202102050600 AAXX 05064 67481 32480 53302 10224 20190 48/// 82130
                   333 10284 20166 5//// 82810 85360=
202102040600 AAXX 04064 67481 32980 53002 10212 20186 48/// 85030
                   333 10306 20168 5//// 85360=

################################################################################
#  SYNOPS from 67531, Zambezi (Zambia) | 13-32S | 023-07E | 1077 m
################################################################################
202103021200 AAXX 02124 67531 42680 52704 10266 20177 48/// 85200
                   333 58005 85840=
202103020600 AAXX 02064 67531 32380 71803 10186 20171 48/// 8567/
                   333 10283 20168 58009 85707 87460=
202103011200 AAXX 01124 67531 NIL=
202102190600 AAXX 19064 67531 11380 70000 10204 20198 48/// 60124 72166 8167/
                   333 10304 20191 58005 81707 87460=
202102171200 AAXX 17124 67531 42680 72702 10255 20179 48/// 8523/
                   333 58011 85840 86362=
202102161200 AAXX 16124 67531 42780 43004 10316 20183 48/// 84202
                   333 59003 84856 83081=
202102160900 AAXX 16094 67531 42680 33305 10284 20196 48/// 83101
                   333 58002 83850 81081=
202102150900 AAXX 15094 67531 42980 33005 10295 20204 48/// 80001
                   333 59006 83081=
202102120900 AAXX 12094 67531 42580 73604 10261 20211 48/// 81138
                   333 59005 81822 82361 87081=
202102120600 AAXX 12064 67531 12980 70000 10201 20182 48/// 69904 83038
                   333 10287 20176 59007 83361 87281=
202102110900 AAXX 11094 67531 42680 70000 10280 20213 48/// 84108
                   333 59019 84831 85281=
202102100600 AAXX 10064 67531 11375 72005 10193 20186 48/// 60144 75052 8477/
                   333 10287 20181 58013 84708 87361=
202102090900 AAXX 09094 67531 NIL=
202102090600 AAXX 09064 67531 11460 73607 10191 20184 48/// 60314 79596 8557/
                   333 10285 20180 58009 81910 85610 87460=
202102081200 AAXX 08124 67531 41680 63603 10236 20215 48/// 72598 8523/
                   333 59001 81933 85830 85362=
202102080600 AAXX 08064 67531 12980 73503 10219 20197 48/// 60064 8708/
                   333 10276 20195 59008 87362=
202102060600 AAXX 06064 67531 12980 23602 10216 20199 48/// 60014 82032
                   333 10321 20188 59010 82361 81081=
202102051200 AAXX 05124 67531 41680 50000 10311 20197 48/// 71799 85202
                   333 59007 81947 85847 81080=
202102050900 AAXX 05094 67531 42580 73603 10275 20206 48/// 8113/
                   333 59004 81827 87361=
202102050600 AAXX 05064 67531 32980 70602 10224 20204 48/// 8703/
                   333 10306 20200 59007 87361=
202102040600 AAXX 04064 67531 12980 70302 10260 20190 48/// 60154 8707/
                   333 10259 20190 59005 87362=
202102030900 AAXX 03094 67531 42480 73504 10227 20194 48/// 8587/
                   333 58012 82615 83815 87392=

################################################################################
#  SYNOPS from 67541, Kasempa (Zambia) | 13-32S | 025-51E | 1234 m
################################################################################
202103020600 AAXX 02064 67541 32380 80000 10190 20183 48/// 70222 8353/
                   333 10290 20158 5//// 83606 87360=
202103011200 AAXX 01124 67541 NIL=
202102190600 AAXX 19064 67541 12980 70000 10185 20185 48/// 60584 8703/
                   333 10286 20160 5//// 87360=
202102171200 AAXX 17124 67541 42680 70000 10270 20188 48/// 85202
                   333 5//// 85832 82080=
202102170900 AAXX 17094 67541 42980 70000 10257 20187 48/// 80007
                   333 5//// 87080=
202102161200 AAXX 16124 67541 42680 60000 10300 20190 48/// 86200
                   333 5//// 86840=
202102160900 AAXX 16094 67541 42980 70000 10270 20196 48/// 82035
                   333 5//// 82360 85080=
202102160600 AAXX 16064 67541 32980 70000 10205 20187 10320 20134 48/// 5//// 8703/ 87360=
202102150900 AAXX 15094 67541 42980 20000 10300 20190 48/// 80002
                   333 5//// 82080=
202102130600 AAXX 13064 67541 32980 70000 10200 20193 48/// 8703/
                   333 10304 20150 5//// 87360=
202102110600 AAXX 11064 67541 12980 70000 10195 20195 48/// 60014 8703/
                   333 10284 20162 5//// 87360=
202102090900 AAXX 09094 67541 42980 70000 10250 20206 48/// 87030
                   333 5//// 87360=
202102090600 AAXX 09064 67541 12980 70000 10205 20198 48/// 60254 87030
                   333 10270 20150 5//// 87360=
202102080600 AAXX 08064 67541 12980 70000 10190 20190 48/// 60694 8703/
                   333 10296 20162 5//// 87360=
202102060600 AAXX 06064 67541 12980 70000 10185 20185 48/// 60624 8703/
                   333 10310 20154 5//// 87360=
202102051200 AAXX 05124 67541 42680 50000 10300 20215 48/// 85200
                   333 5//// 85838=
202102050900 AAXX 05094 67541 42680 60504 10280 20200 48/// 82234
                   333 5//// 82835 81360 84080=
202102050600 AAXX 05064 67541 32980 60000 10200 20193 48/// 86030
                   333 10292 20160 5//// 86360=
202102040600 AAXX 04064 67541 12980 70000 10195 20187 48/// 60134 8703/
                   333 10270 20160 5//// 87360=
202102020600 AAXX 02064 67541 12980 70000 10180 20180 48/// 60014 8703/
                   333 10276 20156 5//// 87360=
202102010600 AAXX 01064 67541 12980 70000 10195 20192 48/// 60014 8783/
                   333 10288 20162 5//// 87360=

################################################################################
#  SYNOPS from 67543, Kabompo (Zambia) | 13-36S | 024-12E | 1075 m
################################################################################
202103020600 AAXX 02064 67543 32378 80000 10190 20177 48/// 886//
                   333 10270 20168 5//// 88706=
202103011200 AAXX 01124 67543 42680 70000 10264 20178 48/// 84207
                   333 5//// 84830 86280=
202102190600 AAXX 19064 67543 12380 70000 10204 20193 48/// 60074 84630
                   333 10308 20194 5//// 84707 85360=
202102170900 AAXX 17094 67543 42480 70000 10226 20164 48/// 82107
                   333 5//// 82818 87360=
202102161200 AAXX 16124 67543 42682 73308 10264 20157 48/// 83207
                   333 5//// 83835 87280=
202102160900 AAXX 16094 67543 42580 70000 10276 20191 48/// 82207
                   333 5//// 82825 87285=
202102160600 AAXX 16064 67543 12980 70000 10204 20183 48/// 60054 83047
                   333 10336 20174 5//// 83360 86280=
202102150900 AAXX 15094 67543 42980 43302 10290 20180 48/// 80005
                   333 5//// 84285=
202102130600 AAXX 13064 67543 32980 60000 10210 20184 48/// 83035
                   333 10312 20184 5//// 83360 85280=
202102120900 AAXX 12094 67543 42980 70000 10260 20185 48/// 83037
                   333 5//// 83361 86280=
202102120600 AAXX 12064 67543 12380 70000 10188 20179 48/// 60134 84635
                   333 10286 20170 5//// 84707 83360 85280=
202102111200 AAXX 11124 67543 41566 83304 10210 20189 48/// 79592 8532/
                   333 5//// 81920 85820 88462=
202102110900 AAXX 11094 67543 42580 70000 10278 20201 48/// 85231
                   333 5//// 85825 82361 81080=
202102090900 AAXX 09094 67543 41450 80000 10210 20200 48/// 76322 8552/
                   333 5//// 85615 87460=
202102090600 AAXX 09064 67543 11375 70000 10198 20191 48/// 60154 75022 8377/
                   333 10234 20184 5//// 83707 87360=
202102081200 AAXX 08124 67543 41675 80000 10210 20204 48/// 79599 8432/
                   333 5//// 81930 84830 87461=
202102080600 AAXX 08064 67543 12480 70000 10214 20201 48/// 69904 8457/
                   333 10320 20190 5//// 84612 87360=
202102050900 AAXX 05094 67543 42580 70000 10280 20203 48/// 82230
                   333 5//// 82825 86361=
202102050600 AAXX 05064 67543 32980 70000 10210 20195 48/// 8705/
                   333 10310 20192 5//// 87360=
202102040600 AAXX 04064 67543 12980 70000 10210 20192 48/// 69964 8705/
                   333 10282 20182 5//// 87360=
202102030900 AAXX 03094 67543 42480 70000 10240 20180 48/// 875//
                   333 5//// 87620=
202102011200 AAXX 01124 67543 42680 70000 10280 20186 48/// 84235
                   333 5//// 84830 83362 82285=

################################################################################
#  SYNOPS from 67551, Solwezi (Zambia) | 12-11S | 026-23E | 1386 m
################################################################################
202103020600 AAXX 02064 67551 31378 81505 10181 20177 48507 75355 8377/
                   333 10271 20159 58004 83706 88362 91017=
202103011200 AAXX 01124 67551 NIL=
202102190600 AAXX 19064 67551 12370 73005 10196 20185 48513 60024 82530
                   333 10258 20186 58017 82610 86362 91019=
202102161200 AAXX 16124 67551 42680 72705 10281 20173 48475 85230
                   333 58001 85830 85362 91013=
202102160900 AAXX 16094 67551 42480 73506 10254 20176 48495 81130
                   333 58001 81815 86362 91016=
202102150900 AAXX 15094 67551 42580 42708 10284 20157 48807 81130
                   333 59010 81820 82362=
202102130600 AAXX 13064 67551 12980 71503 10189 20169 48500 60084 83031
                   333 10284 20174 59008 83362 83080 91017=
202102121200 AAXX 12124 67551 42680 42706 10277 20176 48478 84230
                   333 59007 84830 84362 91013=
202102120600 AAXX 12064 67551 11356 82705 10180 20180 48507 60154 76166 8677/
                   333 10256 20190 58000 86704 88362 91018=
202102110900 AAXX 11094 67551 41580 72706 10244 20192 48507 71792 81930
                   333 59006 81920 85825 86362=
202102090900 AAXX 09094 67551 NIL=
202102090600 AAXX 09064 67551 12980 73403 10191 20181 48506 60134 8797/
                   333 10252 20184 58006 87360 83080=
202102080600 AAXX 08064 67551 12980 70000 10194 20191 48491 60014 8707/
                   333 10251 20186 59007 87262 91017=
202102060600 AAXX 06064 67551 12380 63405 10186 20175 48521 60014 83680
                   333 10278 20186 59011 83706 85362 91019=
202102051200 AAXX 05124 67551 41660 63005 10251 20187 48502 71796 81900
                   333 59008 81930 86830 91017=
202102040600 AAXX 04064 67551 12980 70803 10190 20184 48538 60014 8707/
                   333 10259 20180 59001 87362=
202102020600 AAXX 02064 67551 11360 80000 10174 20172 48531 60384 79596 8372/
                   333 10256 20173 58013 83707 81930 88462=
202102011200 AAXX 01124 67551 42680 72005 10247 20190 48501 86230
                   333 59013 86838 86360 91017=

################################################################################
#  SYNOPS from 67561, Ndola (Zambia) | 13-00S | 028-39E | 1269 m
################################################################################
202103021200 AAXX 02124 67561 41670 60000 10233 20178 48480 79592 8526/
                   333 58002 81930 85835 82360 91015=
202103020600 AAXX 02064 67561 11360 61004 10190 20174 48507 60134 70522 866//
                   333 10275 20163 59002 86707 91018=
202103011200 AAXX 01124 67561 41560 70305 10270 20188 48482 70522 85230
                   333 58007 81925 85830 86360 91014=
202102161200 AAXX 16124 67561 42580 73209 10287 20185 48466 85208
                   333 58000 81935 85840 87280 91012=
202102160900 AAXX 16094 67561 41575 73308 10267 20186 48488 70522 81138
                   333 59005 81825 81360 87280 91015=
202102130600 AAXX 13064 67561 11359 80208 10190 20181 48499 60134 70422 886//
                   333 10295 20180 58012 88606 91017=
202102120900 AAXX 12094 67561 41359 73204 10221 20191 48496 70422 8163/
                   333 59007 81708 87360 91016=
202102120600 AAXX 12064 67561 11260 70104 10189 20183 48485 60194 70596 8267/
                   333 10282 20178 59021 82703 87459 91015=
202102111200 AAXX 11124 67561 41660 79903 10265 20202 48476 72162 8427/
                   333 59020 81930 84835 87459=
202102100600 AAXX 10064 67561 11360 70000 10199 20169 48509 60034 70562 81638
                   333 10285 20148 58000 81709 86360 87280=
202102090900 AAXX 09094 67561 NIL=
202102090600 AAXX 09064 67561 11356 70303 10190 20181 48508 60034 82638
                   333 10259 20180 58005 82707 86359 87280=
202102081200 AAXX 08124 67561 41250 72811 10192 20186 48488 79522 8577/
                   333 58018 85705 81830 87459=
202102080600 AAXX 08064 67561 11260 70403 10207 20196 48504 60014 70522 8563/
                   333 10254 20190 59001 85705 87360 91017=
202102060600 AAXX 06064 67561 11960 60000 10200 20194 48521 60034 76162 86070
                   333 10296 20185 59011 86458 91019=
202102050600 AAXX 05064 67561 11960 40908 10234 20198 48533 60094 70511 83032
                   333 10287 20170 59016 83360 84080 91019=
202102040600 AAXX 04064 67561 11257 80000 10193 20188 48546 60014 8577/
                   333 10272 20188 58002 85704 88459=
202102030900 AAXX 03094 67561 42480 70404 10247 20186 48536 82230
                   333 59009 819// 82818 87360 91021=
202102011200 AAXX 01124 67561 41570 52707 10248 20184 48502 70562 83238
                   333 58028 83820 83360 85280 91017=

################################################################################
#  SYNOPS from 67563, Kafironda (Zambia) | 12-36S | 028-07E | 1243 m
################################################################################
202103011200 AAXX 01124 67563 NIL=
202102090900 AAXX 09094 67563 NIL=

################################################################################
#  SYNOPS from 67571, Serenje (Zambia) | 13-14S | 030-13E | 1384 m
################################################################################
202103021200 AAXX 02124 67571 42682 31208 10234 20177 48442 83500
                   333 59001 83630=
202103020600 AAXX 02064 67571 11380 80903 10178 20169 48471 60444 72162 887//
                   333 10258 20155 59001 88708=
202103011200 AAXX 01124 67571 NIL=
202102171200 AAXX 17124 67571 42582 73308 10250 20177 48422 81238
                   333 58009 82827 81360 87280=
202102161200 AAXX 16124 67571 42682 73308 10264 20157 48412 82308
                   333 58003 81930 82830 87280=
202102121200 AAXX 12124 67571 42582 73002 10223 20181 48412 8237/
                   333 59016 81927 82827 87360=
202102120900 AAXX 12094 67571 42582 73302 10212 20183 48442 8137/
                   333 59013 81921 81621 87360=
202102120600 AAXX 12064 67571 12382 70000 10187 20173 48441 60054 8167/
                   333 10258 20167 59019 81708 87360=
202102111200 AAXX 11124 67571 41360 83305 10194 20182 48431 79596 8422/
                   333 59004 81708 81928 84828 88459=
202102110900 AAXX 11094 67571 41582 73603 10220 20184 48452 72162 8137/
                   333 59011 81920 81820 87360=
202102100600 AAXX 10064 67571 11380 83002 10182 20174 48461 69954 76166 887//
                   333 10257 20170 58002 88706=
202102090900 AAXX 09094 67571 42482 81205 10214 20191 48472 885//
                   333 58018 88618 8/9//=
202102090600 AAXX 09064 67571 12378 81205 10198 20183 48462 60424 8467/
                   333 10264 20173 58015 84708 88460=
202102081200 AAXX 08124 67571 41540 83003 10186 20184 48421 79796 8527/
                   333 58002 81921 85821 88460=
202102051200 AAXX 05124 67571 41670 73606 10217 20169 48452 79596
                   333 59013 81942 87842=
202102050900 AAXX 05094 67571 42682 71502 10251 20178 48483 872//
                   333 59006 81935 87835=
202102050600 AAXX 05064 67571 12482 21203 10218 20184 48492 60034 82530
                   333 10266 20175 59009 82615 81360=
202102040600 AAXX 04064 67571 12982 71803 10182 20169 48501 60134 82038
                   333 10278 20160 58006 82360 87280=
202102030900 AAXX 03094 67571 41582 70602 10258 20181 48484 71799 86231
                   333 59010 81923 86823 81360 83080=
202102020600 AAXX 02064 67571 11277 83603 10182 20172 48491 69904 71555 887//
                   333 10256 20177 58024 88705=

################################################################################
#  SYNOPS from 67575, Mkushi (Zambia) | 13-38-00S | 029-26-00E | 1237 m
################################################################################
202103020600 AAXX 02064 67575 12380 70902 10200 20178 48473 60454 83670
                   333 10277 20170 58003 83609 85360=
202103011200 AAXX 01124 67575 42680 73403 10266 20189 48448 82473
                   333 5//// 81938 84838 83362 81080=
202102190600 AAXX 19064 67575 12180 80000 10194 20191 48478 60044 8167/
                   333 10285 20182 58018 81702 88360
                   555 00185=
202102171200 AAXX 17124 67575 41660 71802 10234 20191 48/// 71798 85273
                   333 5//// 81938 85838 82360 81080=
202102170900 AAXX 17094 67575 42680 72701 10250 20205 48/// 82208
                   333 5//// 82830 86280=
202102160900 AAXX 16094 67575 42680 82903 10268 20181 48443 82209
                   333 59005 82830 87280=
202102160600 AAXX 16064 67575 32480 83503 10209 20201 48438 81109
                   333 10317 20174 59013 81815 88270
                   555 00161=
202102150900 AAXX 15094 67575 42660 12102 10277 20190 48448 81101
                   333 5//// 81830 81080=
202102130600 AAXX 13064 67575 11380 73201 10198 20187 48452 60014 72162 82670
                   333 10300 20176 58008 82708 87360
                   555 00177=
202102121200 AAXX 12124 67575 42660 62603 10279 20185 48423 82238
                   333 59019 82837 82363 83280=
202102120900 AAXX 12094 67575 42580 82701 10234 20191 48450 81170
                   333 59008 81825 88362=
202102120600 AAXX 12064 67575 12360 80301 10185 20182 48443 69954 8367/
                   333 10268 20175 59020 83708 86360
                   555 00172=
202102111200 AAXX 11124 67575 41670 70901 10220 20198 48437 71692 83273
                   333 5//// 81935 83835 85360 81080=
202102090900 AAXX 09094 67575 NIL=

################################################################################
#  SYNOPS from 67580, Msekera (Zambia) | 13-39S | 032-34E | 1025 m
################################################################################
202103020600 AAXX 02064 67580 12480 71502 10207 20186 48/// 60024 8657/
                   333 10274 20179 58000 86622 85360=
202103011200 AAXX 01124 67580 NIL=
202102190600 AAXX 19064 67580 12480 70000 10237 20212 48/// 60054 81238
                   333 10280 20203 58017 81818 83360 87280=
202102171200 AAXX 17124 67580 42680 83302 10276 20208 48/// 81108
                   333 58014 81840 88280=
202102170900 AAXX 17094 67580 42680 73003 10260 20195 48/// 82108
                   333 58014 82834 87280=
202102161200 AAXX 16124 67580 42680 72904 10284 20206 48/// 82108
                   333 59002 82842 87360=
202102160900 AAXX 16094 67580 42680 73204 10264 20210 48/// 82108
                   333 59010 82834 87280=
202102160600 AAXX 16064 67580 12980 73304 10230 20194 48/// 69904 80008
                   333 10330 20204 59019 87280=
202102150900 AAXX 15094 67580 42580 73606 10270 20197 48/// 81138
                   333 59012 81825 81362 87280=
202102120900 AAXX 12094 67580 42680 73304 10240 20108 48/// 87831
                   333 59018 86830 81632 82360 84080=
202102120600 AAXX 12064 67580 12380 83002 10215 20206 48/// 60054 8657/
                   333 10269 20199 59016 86609 88460=
202102111200 AAXX 11124 67580 42680 70302 10238 20204 48/// 87238
                   333 59001 87830 83360=
202102100600 AAXX 10064 67580 11480 80000 10205 20202 48/// 60314 70362 8157/
                   333 10279 20194 59007 81610 87460=
202102090900 AAXX 09094 67580 NIL=
202102090600 AAXX 09064 67580 11975 80000 10210 20194 48/// 60154 71562 8807/
                   333 10306 20192 58023 88460=
202102080600 AAXX 08064 67580 12980 70000 10228 20194 48/// 60334 81038
                   333 10282 20189 59011 81360 87280=
202102051200 AAXX 05124 67580 41670 80612 10218 20205 48/// 79598 872//
                   333 59001 81930 86835=
202102050900 AAXX 05094 67580 42680 72003 10280 20212 48/// 86232
                   333 59004 86845 82360 81080=
202102050600 AAXX 05064 67580 12980 70000 10226 20207 48/// 60064 8707/
                   333 10316 20190 59008 87460=
202102040600 AAXX 04064 67580 12480 70000 10223 20201 48/// 60034 81138
                   333 10326 20187 58004 81818 81360 87280=
202102030900 AAXX 03094 67580 42680 70000 10278 20206 48/// 86201
                   333 59005 86838 82080=
202102020600 AAXX 02064 67580 12380 80000 10208 20196 48/// 60084 72122 8257/
                   333 10302 20197 58025 82609 88459=
202102011200 AAXX 01124 67580 41680 73305 10244 20189 48/// 71722 81938
                   333 58008 81940 87840 82360 85280=

################################################################################
#  SYNOPS from 67581, Chipata (Zambia) | 13-33S | 032-35E | 1028 m
################################################################################
202103020600 AAXX 02064 67581 11370 80000 10192 20187 48532 60134 76166 8457/
                   333 1//// 20181 5//// 84605 88459 91019=
202103011200 AAXX 01124 67581 NIL=
202102190600 AAXX 19064 67581 12980 70605 10245 20203 48535 60174 8707/
                   333 10//0 20200 58018 87460 91018=
202102130600 AAXX 13064 67581 11280 83604 10205 20194 48501 60164 70166 8357/
                   333 10//0 20193 58007 83604 87459=
202102120600 AAXX 12064 67581 11370 80000 10211 20204 48496 60054 8477/
                   333 10//0 20200 59016 84706 88460 91015=
202102100600 AAXX 10064 67581 12380 80000 10206 20199 48515 60254 8357/
                   333 10//0 20198 59009 84606 88459=
202102090900 AAXX 09094 67581 NIL=
202102090600 AAXX 09064 67581 12380 82906 10210 20195 48526 60364 8257/
                   333 10//0 20192 58025 84606 87459=
202102080600 AAXX 08064 67581 12980 70000 10221 20185 48503 60014 8703/
                   333 10//0 20194 59012 87460 91015=
202102060600 AAXX 06064 67581 12980 51405 10245 20180 48536 60024 84032
                   333 10/// 20181 59014 84360 82080 91018=
202102050600 AAXX 05064 67581 12980 70505 10222 20198 48545 60044 8703/
                   333 10//0 20183 59004 87360 91020=
202102040600 AAXX 04064 67581 12980 50000 10225 20198 48552 60024 82032
                   333 10//0 20182 58004 82360 84080=
202102010600 AAXX 01064 67581 12380 80604 10215 20202 48531 60274 82532
                   333 10//0 20179 58016 82606 82360 83080 91018=

################################################################################
#  SYNOPS from 67583, Lundazi (Zambia) | 12-17S | 033-12E | 1143 m
################################################################################
202103020600 AAXX 02064 67583 32470 82001 10204 20190 48/// 8557/
                   333 10268 2//// 5//// 85610 87458=
202103011200 AAXX 01124 67583 NIL=
202102190600 AAXX 19064 67583 32980 70000 10220 20206 48/// 84038
                   333 10304 20//0 5//// 84359 87280=
202102150900 AAXX 15094 67583 42980 70000 10260 20186 48/// 85032
                   333 5//// 85360 82080=
202102090900 AAXX 09094 67583 NIL=

################################################################################
#  SYNOPS from 67599, Mfuwe (Zambia) | 13-16S | 031-56E | 568 m
################################################################################
202103011200 AAXX 01124 67599 NIL=
202102090900 AAXX 09094 67599 NIL=
202102050600 AAXX 05064 67599 12980 40902 10253 20209 48542 60034 84030
                   333 10350 20198 59004 84359 91018=

################################################################################
#  SYNOPS from 67625, Kalabo (Zambia) | 14-51S | 022-42E | 1033 m
################################################################################
202103020600 AAXX 02064 67625 32482 71409 10185 20177 48/// 86603
                   333 10254 20165 58003 86710 87075=
202103011200 AAXX 01124 67625 NIL=
202102190600 AAXX 19064 67625 11482 70000 10215 20208 48/// 60154 72052 83683
                   333 10288 20193 5//// 83710 85360 87075=
202102161200 AAXX 16124 67625 42782 71511 10310 20176 48/// 84103
                   333 5//// 84850 87075=
202102160900 AAXX 16094 67625 42982 71814 10275 20168 48/// 87033
                   333 5//// 87360 87075=
202102150900 AAXX 15094 67625 42980 32212 10295 20165 48/// 80003
                   333 83075=
202102130600 AAXX 13064 67625 32982 33016 10230 20208 48/// 81033
                   333 10300 20216 59016 81360 83080=
202102121200 AAXX 12124 67625 42582 73310 10275 20211 48/// 81133
                   333 59006 81826 83361 87075=
202102120900 AAXX 12094 67625 42482 83316 10240 20200 48/// 81133
                   333 59005 81816 81360 88075=
202102120600 AAXX 12064 67625 12982 80210 10210 20195 48/// 69914 83033
                   333 10291 20204 59007 83360 88075=
202102111200 AAXX 11124 67625 42582 60106 10272 20202 48/// 82203
                   333 5//// 82828 86075=
202102110900 AAXX 11094 67625 42982 70815 10245 20201 48/// 83033
                   333 59011 83360 87075=
202102100600 AAXX 10064 67625 11981 72908 10195 20179 48/// 60154 76166 8702/
                   333 10280 20185 87460=
202102090900 AAXX 09094 67625 NIL=
202102081200 AAXX 08124 67625 42582 70303 10250 20198 48/// 81133
                   333 5//// 81822 83369 87080=
202102080600 AAXX 08064 67625 11482 72011 10200 20200 48/// 60094 72065 8162/
                   333 10310 20195 5//// 81710 87460=
202102060600 AAXX 06064 67625 12482 70207 10225 20208 48/// 60114 81633
                   333 10290 20215 59009 81710 82360 87075=
202102051200 AAXX 05124 67625 41582 43508 10240 20219 48/// 72986 82333
                   333 59005 82920 82820 83360 84075=
202102050600 AAXX 05064 67625 12980 70610 10245 20209 48/// 69904 8707/
                   333 10298 20225 5//// 87460=
202102040600 AAXX 04064 67625 12982 70314 10220 20205 48/// 60014 8707/
                   333 10270 20205 5//// 87360=
202102030900 AAXX 03094 67625 42482 73321 10220 20198 48/// 8412/
                   333 58003 84815 87460=
202102011200 AAXX 01124 67625 42682 83214 10280 20200 48/// 82333
                   333 5//// 82931 82833 83361 88075=

################################################################################
#  SYNOPS from 67633, Mongu (Zambia) | 15-15S | 023-09E | 1052 m
################################################################################
202103020900 AAXX 02094 67633 41680 71003 10235 20186 48507 75052 875//
                   333 59013 87660 91016=
202103020600 AAXX 02064 67633 32980 81801 10195 20180 48513 70222 8707/
                   333 10255 20174 59019 87460
                   555 00176 91019=
202103011200 AAXX 01124 67633 NIL=
202102190600 AAXX 19064 67633 32980 70901 10224 20207 48504 87030
                   333 10284 20206 58009 87360
                   555 00210 91016=
202102171200 AAXX 17124 67633 41580 71801 10215 20192 48481 76066 81130
                   333 58014 81825 87360=
202102170900 AAXX 17094 67633 42580 73301 10247 20162 48498 81130
                   333 58004 81820 87360=
202102161200 AAXX 16124 67633 42680 62706 10290 20171 48482 81131
                   333 58001 81850 81360 83080 91012=
202102160900 AAXX 16094 67633 42980 62306 10273 20185 48498 87030
                   333 58005 87360 91014=
202102160600 AAXX 16064 67633 32980 70000 10235 20192 48490 87030
                   333 10333 20225 58007 87360
                   555 00210 91014=
202102150900 AAXX 15094 67633 42980 23001 10286 20184 48497 80001
                   333 59005 83080 91014=
202102130600 AAXX 13064 67633 32980 70304 10226 20194 48483 8703/
                   333 10300 20202 58001 87360
                   555 00200 91014=
202102121200 AAXX 12124 67633 42680 63303 10276 20198 48478 81138
                   333 59012 81830 82360 86280 91012=
202102120900 AAXX 12094 67633 42980 73608 10254 20197 48494 82032
                   333 5//// 82361 87080 91014=
202102120600 AAXX 12064 67633 12980 63604 10215 20189 48481 60024 83032
                   333 10290 20190 59028 83360 86080 91013=
202102111200 AAXX 11124 67633 42680 63402 10270 20193 48490 85232
                   333 59010 85830 82360 83080=
202102100600 AAXX 10064 67633 12980 83403 10210 20184 48500 69954 87032
                   333 10289 20187 58013 87360 82080=
202102090900 AAXX 09094 67633 NIL=
202102090600 AAXX 09064 67633 12480 60406 10217 20200 48488 60054 8663/
                   333 10277 20205 59005 86706 86360=
202102080600 AAXX 08064 67633 11380 81804 10200 20198 48491 60594 79599 8277/
                   333 10305 20189 58001 82706 81925 88460
                   555 00199 91015=
202102060600 AAXX 06064 67633 12980 60406 10220 20201 48508 60144 81038
                   333 10310 20193 59011 81360 86280
                   555 00204 91016=
202102050900 AAXX 05094 67633 42580 50906 10289 20202 48/// 83232
                   333 5//// 83830 83360 81080 91018=
202102050600 AAXX 05064 67633 12980 70605 10239 20208 48522 69944 86080
                   333 10270 20160 59006 86362 91020=
202102040600 AAXX 04064 67633 12980 70803 10213 20196 48521 60114 87030
                   333 10277 20188 58001 87360=
202102020600 AAXX 02064 67633 12980 70105 10217 20192 48512 69904 84038
                   333 10298 20194 58007 84360 86280=
202102011200 AAXX 01124 67633 42680 63203 10286 20209 48492 85208
                   333 58006 81940 84840 86280 91017=

################################################################################
#  SYNOPS from 67641, Kaoma (Zambia) | 14-48S | 024-48E | 1213 m
################################################################################
202103020600 AAXX 02064 67641 12580 71403 10200 20184 48497 69904 875//
                   333 10257 20181 58007 87628 91015=
202103011200 AAXX 01124 67641 NIL=
202102190600 AAXX 19064 67641 32980 73302 10207 20191 48499 86031
                   333 10295 20191 58011 86361 81080 91015=
202102160600 AAXX 16064 67641 12980 40000 10220 20191 48469 60054 83031
                   333 10345 20180 59003 83360 81080 91012=
202102130600 AAXX 13064 67641 32980 60000 10235 20207 48480 83031
                   333 10330 20192 59005 83360 83080 91013=
202102120900 AAXX 12094 67641 42980 72403 10276 20189 48485 82031
                   333 59010 82362 86080 91013=
202102120600 AAXX 12064 67641 12980 70000 10196 20180 48480 60014 8707/
                   333 10301 20188 59006 87361 91014=
202102090900 AAXX 09094 67641 NIL=
202102081200 AAXX 08124 67641 41660 72003 10251 20207 48477 78086 878//
                   333 58015 86836 82637=
202102050600 AAXX 05064 67641 12980 70000 10229 20209 48507 60064 87030
                   333 10305 20198 59011 87360 91016=
202102040600 AAXX 04064 67641 11680 72802 10205 20190 48515 69954 72052 83530
                   333 10286 20193 58007 83630 87360=
202102020600 AAXX 02064 67641 32980 70803 10206 20185 48509 8707/
                   333 10300 20194 58009 87360=
202102011200 AAXX 01124 67641 42680 73504 10287 20192 48495 82202
                   333 58009 82832 86080 91014=

################################################################################
#  SYNOPS from 67655, Mumbwa (Zambia) | 15-04S | 027-11E | 1216 m
################################################################################
202103020600 AAXX 02064 67655 11375 83008 10184 20179 48516 60164 75062 887//
                   333 10209 20172 58016 88608 91019=
202103011200 AAXX 01124 67655 NIL=
202102190600 AAXX 19064 67655 12980 72708 10211 20195 48518 60244 8607/
                   333 10217 20183 58015 86460 91019=
202102160900 AAXX 16094 67655 42580 63210 10275 20194 48483 85208
                   333 59005 85830 86080 91014=
202102160600 AAXX 16064 67655 32580 63609 10229 20188 48474 82138
                   333 10299 20184 59009 82825 83360 85280 91014=
202102110900 AAXX 11094 67655 42580 70604 10266 20194 48501 8627/
                   333 59015 86820 84460=
202102100600 AAXX 10064 67655 11858 81205 10189 20189 48513 60284 70222 8707/
                   333 10220 20174 58014 87458=
202102090900 AAXX 09094 67655 NIL=
202102090600 AAXX 09064 67655 12480 10000 10210 20203 48513 60144 8257/
                   333 10//0 20157 59001 82615 87460=
202102080600 AAXX 08064 67655 12480 80000 10190 20175 48512 60594 70252 8427/
                   333 10269 20162 58005 84820 88459 91016=
202102060600 AAXX 06064 67655 32480 73510 10211 20184 48539 83138
                   333 10280 20185 59007 83820 83360 87280 91019=
202102040600 AAXX 04064 67655 12980 60206 10213 20184 48550 60054 8607/
                   333 10261 20166 58004 86460=

################################################################################
#  SYNOPS from 67659, Kafue Polder (Zambia) | 15-46S | 027-55E | 978 m
################################################################################
202103020600 AAXX 02064 67659 12380 8//// 10210 20187 48/// 69974 8467/
                   333 10270 20172 58002 84613 88459=
202103011200 AAXX 01124 67659 NIL=
202102090900 AAXX 09094 67659 NIL=
202102040600 AAXX 04064 67659 12980 41005 10240 20210 48/// 84030
                   333 10270 20170 58007 84360=

################################################################################
#  SYNOPS from 67662, Kabwe Agric (Zambia) | 14-24S | 028-30E | 1165 m
################################################################################
202103011200 AAXX 01124 67662 NIL=
202102171200 AAXX 17124 67662 41680 63004 10289 20179 48/// 84202
                   333 5//// 84830 82080=
202102170900 AAXX 17094 67662 41680 63004 10265 20191 48/// 84830=
202102161200 AAXX 16124 67662 41680 73004 10290 20164 48/// 84202
                   333 5//// 84840 83080=
202102150900 AAXX 15094 67662 41980 23002 10290 20162 48/// 81072
                   333 5//// 81360 81080=
202102120900 AAXX 12094 67662 41980 63601 10252 20191 48/// 82270
                   333 5//// 82823 84360=
202102120600 AAXX 12064 67662 31980 70000 10200 20185 48/// 87070
                   333 10287 20140 5//// 87360=
202102111200 AAXX 11124 67662 41680 70000 10280 20206 48/// 85270
                   333 5//// 85830 82360=
202102090900 AAXX 09094 67662 NIL=
202102090600 AAXX 09064 67662 11480 80000 10204 20198 48/// 60594 8157/
                   333 10250 20150 5//// 81610 87360=
202102081200 AAXX 08124 67662 41180 80000 10225 20203 48/// 76166 887//
                   333 5//// 88708=
202102080600 AAXX 08064 67662 11380 80000 10204 20195 48/// 60064 76122 8577/
                   333 10287 20140 5//// 87506 83360=
202102050900 AAXX 05094 67662 41680 40903 10230 20176 48/// 84200
                   333 5//// 84835=
202102050600 AAXX 05064 67662 31980 20902 10234 20198 48/// 81570
                   333 10292 20136 5//// 81613 81360=

################################################################################
#  SYNOPS from 67663, Kabwe (Zambia) | 14-27S | 028-28E | 1206 m
################################################################################
202103020600 AAXX 02064 67663 12480 80908 10183 20172 48507 60154 885//
                   333 10250 20156 58010 88616
                   555 00198=
202103011200 AAXX 01124 67663 42580 70704 10237 20199 48496 85230
                   333 58015 85822 87360=
202102190600 AAXX 19064 67663 12980 83502 10195 20180 48504 60064 8807/
                   333 10299 20163 58016 88360
                   555 00208=
202102170900 AAXX 17094 67663 42580 73313 10259 20193 48477 84238
                   333 59006 84825 82360 86280=
202102161200 AAXX 16124 67663 42680 72712 10282 20176 48459 84207
                   333 59010 84832 87280=
202102160600 AAXX 16064 67663 32980 73603 10202 20163 48465 81038
                   333 10305 20165 59010 81360 88280
                   555 00222=
202102150900 AAXX 15094 67663 42980 22814 10288 20175 48483 81032
                   333 59012 81360 82080=
202102121200 AAXX 12124 67663 42680 72711 10274 20176 48474 84232
                   333 59011 84832 82360 81080=
202102120900 AAXX 12094 67663 42580 73305 10250 20191 48498 83230
                   333 59010 83825 87360=
202102120600 AAXX 12064 67663 32980 72704 10196 20177 48481 87030
                   333 10260 20162 59014 87360
                   555 00222=
202102111200 AAXX 11124 67663 42580 71802 10265 20199 48485 85230
                   333 59014 81928 84828 87360=
202102090900 AAXX 09094 67663 42580 73605 10241 20195 48506 84570
                   333 58011 84620 87360=
202102090600 AAXX 09064 67663 12480 60406 10217 20200 48488 60054 8663/
                   333 10277 20205 59005 86706 86360=
202102080600 AAXX 08064 67663 11960 83603 10206 20191 48490 60234 76362 8807/
                   333 10250 20166 59029 88460
                   555 00224=
202102051200 AAXX 05124 67663 42680 53602 10283 20189 48508 85201
                   333 59012 85836 81080=
202102050900 AAXX 05094 67663 42680 40806 10270 20197 48537 84201
                   333 59002 84830 81080=
202102050600 AAXX 05064 67663 32980 31207 10224 20194 48525 82031
                   333 10296 20164 58003 82360 81080
                   555 00236=
202102040600 AAXX 04064 67663 32980 70903 10217 20185 48522 87030
                   333 10279 20160 58006 87360=
202102020600 AAXX 02064 67663 11378 83605 10201 20191 48510 69904 76062 8477/
                   333 10274 20172 59001 84708 88360=
202102011200 AAXX 01124 67663 42560 72604 10258 20194 48507 83270
                   333 58031 83827 87360=
202102010600 AAXX 01064 67663 12580 82709 10196 20179 48511 60254 8197/
                   333 10291 20//0 59001 81827 88360
                   555 00222=

################################################################################
#  SYNOPS from 67665, Lusaka Internationalairport (Zambia) | 15-19S | 028-27E | 1152 m
################################################################################
202103030000 AAXX 03004 67665 42980 11303 10174 20166 48512 70200 80001
                   333 59002 81080 91018=
202103022100 AAXX 02214 67665 42980 29903 10178 20170 48519 70200 81031
                   333 59001 81360 82080 91019=
202103021800 AAXX 02184 67665 42680 20905 10198 20182 48524 70120 81331
                   333 58003 81950 82360 82080 91018=
202103021500 AAXX 02154 67665 42680 40705 10252 20170 48503 70122 83231
                   333 58000 83845 83360 81080 91016=
202103021200 AAXX 02124 67665 42680 50809 10238 20181 48512 70122 85230
                   333 58003 85830 84360 91017=
202103020900 AAXX 02094 67665 42480 70914 10216 20169 48527 875//
                   333 58002 87615=
202103020600 AAXX 02064 67665 31380 80909 10191 20184 48526 60594 70200 8477/
                   333 10230 20/// 58011 84707 88454 91019=
202103011200 AAXX 01124 67665 42480 80809 10210 20179 48507 70362 884//
                   333 58016 88618 91017=
202103010900 AAXX 01094 67665 42460 71013 10203 20187 48523 70266 874//
                   333 58020 87610 91019=
202103010600 AAXX 01064 67665 11358 80904 10172 20172 48514 60094 76162 8677/
                   333 10250 20//0 58017 86708 88458=
202103010000 AAXX 01004 67665 42360 80907 10191 20184 48504 70222 886//
                   333 58012 88704=
202102282100 AAXX 28214 67665 42360 70905 10189 20182 48514 70222 876//
                   333 58007 87703=
202102280600 AAXX 28064 67665 12360 80204 10201 20201 48500 60034 8667/
                   333 10257 20/// 59008 96708 87459=
202102280300 AAXX 28034 67665 41959 89902 10197 20192 48488 72055 8807/
                   333 59002 88459=
202102271800 AAXX 27184 67665 41760 60703 10215 20200 48490 70192 81932
                   333 10257 81950 85360 82080=
202102271500 AAXX 27154 67665 41660 73204 10227 20198 48475 71722 8197/
                   333 59008 81935 87459
                   555 10257=
202102271200 AAXX 27124 67665 41560 73410 10227 20187 48500 72162 84532
                   333 59007 84620 86459 81080=
202102270600 AAXX 27064 67665 11380 83305 10187 20178 48508 60244 72166 8677/
                   333 10247 20//0 59008 86707 88459=
202102270300 AAXX 27034 67665 42980 73305 19185 20175 48488 8703/
                   333 59016 87360=
202102270000 AAXX 27004 67665 41980 82403 10186 20180 48492 72166 8807/
                   333 59016 88460=
202102262100 AAXX 26214 67665 41960 82804 10188 20188 48511 76166 8802/
                   333 59005 88459=
202102261500 AAXX 26154 67665 41658 81103 10195 20193 48490 79599 8197/
                   333 59001 81935 85838 87459
                   555 91014=
202102260900 AAXX 26094 67665 41558 73306 10237 20200 48522 78082 8657/
                   333 5//// 86610 87459=
202102260600 AAXX 26064 67665 12460 61302 10214 20202 48517 60014 70322 8267/
                   333 10277 20//0 59007 82710 86359 91018=
202102251800 AAXX 25184 67665 41/59 73005 10194 20179 48498 79599 8196/
                   333 10277 20//0 59007 819// 86359=
202102251500 AAXX 25154 67665 42680 53304 10256 20172 48488 81902
                   333 59009 81940 82840 85080=
202102251200 AAXX 25124 67665 42680 63208 10266 20183 48501 81330
                   333 59012 81932 85832 82360=
202102250600 AAXX 25064 67665 32380 70105 10202 20180 48523 85632
                   333 10275 20/// 58006 85708 83360 82080
                   555 00/// 20004 91019=
202102250000 AAXX 25004 67665 42980 33002 10186 20177 48512 70121 82032
                   333 58000 82360 83080 91018=
202102242100 AAXX 24214 67665 41/80 60603 10200 21018 48526 71221 81938
                   333 59006 819// 85360 86280 91019=
202102241800 AAXX 24184 67665 42680 20503 10225 20188 48510 70200 81902
                   333 59014 81950 82080 91017=
202102240900 AAXX 24094 67665 42580 60809 10242 20182 48531 86230
                   333 59019 86820 84360=
202102240600 AAXX 24064 67665 12380 70805 10198 20195 48524 60044 876//
                   333 10253 20//0 59019 87707=
202102240300 AAXX 24034 67665 42380 31004 10179 20170 48512 81630
                   333 59016 81706 83360=
202102240000 AAXX 24004 67665 42/80 51503 10180 20174 48511 85030
                   333 59024 819// 85360=
202102232100 AAXX 23214 67665 42/80 41703 10185 20178 48529 84030
                   333 59006 819// 84360=
202102230600 AAXX 23064 67665 12360 71105 10192 20186 48541 60034 85670
                   333 10291 20//0 59002 85709 86459
                   555 00/// 91021=
202102230300 AAXX 23034 67665 42360 51106 10183 20178 48527 72999 83630
                   333 59004 83707 84359
                   555 91020=
202102230000 AAXX 23004 67665 41/80 61112 10196 20187 48536 71700 81932
                   333 58005 819// 85360 82080
                   555 91020=
202102222100 AAXX 22214 67665 42980 21702 10197 20181 48536 80002
                   333 59001 82080 555 91020=
202102221800 AAXX 22184 67665 42980 31205 10222 20184 48518 81032
                   333 10291 58003 81360 83080=
202102221500 AAXX 22154 67665 42680 40303 10283 20148 48504 82032
                   333 59020 81945 82360 83080
                   555 10291=
202102221200 AAXX 22124 67665 42680 40205 10285 20154 48536 83231
                   333 58000 83835 82360 81080=
202102220900 AAXX 22094 67665 42680 40610 10256 20158 48556 70222 84030
                   333 58006 84360 91022=
202102220600 AAXX 22064 67665 12980 69902 10200 20193 48544 69904 86030
                   333 10241 20//0 59005 86360
                   555 00///=
202102220300 AAXX 22034 67665 42380 71002 10184 20179 48531 8263/
                   333 58006 82707 87360=
202102220000 AAXX 22004 67665 42980 79902 10186 20180 48530 8707/
                   333 58006 87360=
202102212100 AAXX 21214 67665 42980 72303 10185 20177 48536 8703/
                   333 58002 87360=
202102211800 AAXX 21184 67665 42660 70603 10195 20176 48513 81938
                   333 59003 81950 83360 85280
                   555 91018=
202102211500 AAXX 21154 67665 42659 70506 10222 20191 48516 72055 8327/
                   333 58017 83835 87459
                   555 91018=
202102211200 AAXX 21124 67665 42560 70902 10240 20171 48531 8457/
                   333 58015 84625 87459
                   555 91019=
202102210900 AAXX 21094 67665 42460 72608 10227 20176 48546 8357/
                   333 58015 83615 87459=
202102210600 AAXX 21064 67665 11359 82709 10183 20175 48548 60014 76022
                   333 10289 20//0 58023 85707 87459=
202102210000 AAXX 21004 67665 42980 30805 10200 20188 48526 70200 83030
                   333 59004 83360 91019=
202102201800 AAXX 20184 67665 42/80 52904 10216 20187 48518 81330
                   333 10289 20//0 58002 819// 85360=
202102201500 AAXX 20154 67665 42680 43506 10262 20170 48504 70182 81932
                   333 58006 81945 82360 84080=
202102201200 AAXX 20124 67665 42680 73207 10279 20182 48524 8193/
                   333 59003 81935 83835 86360=
202102192100 AAXX 19214 67665 41759 72808 10194 20186 48532 76196 8197/
                   333 58016 81950 87459 91020=
202102191800 AAXX 19184 67665 41610 42905 10191 20188 48532 79592 81932
                   333 58036 81950 82850 83360 84080 91020=
202102190900 AAXX 19094 67665 42480 73408 10245 20186 48532 8313/
                   333 58016 83815 87360=
202102190600 AAXX 19064 67665 12980 79902 10203 20172 48524 60204 85072
                   333 10284 20//0 58018 85360 87080 91019=
202102190300 AAXX 19034 67665 42360 72902 10193 20176 48509 8477/
                   333 58017 84705 87459=
202102190000 AAXX 19004 67665 42360 73504 10205 20197 48512 8367/
                   333 58020 83705 87459=
202102182100 AAXX 18214 67665 41760 70503 10206 20198 48518 72996 8193/
                   333 58012 81950 87459=
202102180600 AAXX 18064 67665 31360 71702 10200 20194 48506 72842 8563/
                   333 10289 20//0 58021 85708 87360
                   555 00///=
202102180300 AAXX 18034 67665 42360 70000 10188 20180 48492 8463/
                   333 58020 84707 87360=
202102180000 AAXX 18004 67665 42360 81503 10198 20183 48492 8563/
                   333 58021 85705 87360=
202102172100 AAXX 17214 67665 41780 71204 10204 20188 48505 71399 8193/
                   333 58023 81950 87360=
202102171200 AAXX 17124 67665 42680 62810 10282 20186 48481 70222 85230
                   333 58017 85845 82360 91013=
202102170900 AAXX 17094 67665 42680 63206 10252 20175 48495 85230
                   333 58013 85830 83360=
202102170600 AAXX 17064 67665 11220 73002 10213 20208 48487 60084 71022 816//
                   333 10301 20//0 58010 87605=
202102170300 AAXX 17034 67665 42380 82903 10199 20197 48474 70262 8277/
                   333 58007 82706 88360=
202102170000 AAXX 17004 67665 41959 82502 10203 20199 48471 76166 8802/
                   333 58003 88460=
202102162100 AAXX 16214 67665 41/80 72003 10206 20192 48484 72190 8137/
                   333 58003 819// 87360=
202102161800 AAXX 16184 67665 42780 73005 10226 20196 48465 70122 81938
                   333 10300 58005 81950 85360 87280 91012=
202102161500 AAXX 16154 67665 41680 72507 10248 20173 48453 72992 85508
                   333 58003 81940 85645 87280
                   555 10301 91010=
202102161200 AAXX 16124 67665 42680 72713 10282 20193 48464 70322 85508
                   333 59008 85635 87280 9101=
202102160600 AAXX 16064 67665 32980 52706 10227 20192 48479 70300 80002
                   333 10309 20//0 59008 85280 91013=
202102151800 AAXX 15184 67665 42/80 13005 10243 30166 48461 81300
                   333 10309 20//0 59019 819//=
202102151200 AAXX 15124 67665 42680 32617 10306 20131 48473 83201
                   333 59020 83845 82080=
202102150900 AAXX 15094 67665 42980 11906 10279 20145 48491 81132
                   333 59017 81838 81360 82080=
202102141800 AAXX 14184 67665 42680 22203 10236 20183 48480 70200 81331
                   333 59003 81950 81360 82080 91013=
202102141500 AAXX 14154 67665 42680 32810 10292 20181 48471 70200 83231
                   333 10294 20190 58007 83845 81360 82080 91012=
202102140600 AAXX 14064 67665 12380 63304 10202 20198 48497 60224 83630
                   333 10300 20//0 58001 83706 86360=
202102140300 AAXX 14034 67665 41360 83204 10193 20185 48489 72162 8677/
                   333 58009 86704 88459=
202102140000 AAXX 14004 67665 41359 81402 10192 20185 48487 76162 8477/
                   333 58005 84705 88458=
202102132100 AAXX 13214 67665 41756 82709 10194 20187 48502 79596 8197/
                   333 58014 81950 88458=
202102130600 AAXX 13064 67665 12380 82706 10206 20191 48497 60024 8563/
                   333 10269 20/// 58000 85708 88459
                   555 00///=
202102130300 AAXX 13034 67665 42380 72705 10202 20194 48483 8163/
                   333 58003 81705 87360=
202102130000 AAXX 13004 67665 42760 72803 10205 20183 48484 8193/
                   333 59011 81957 87360=
202102122100 AAXX 12214 67665 41760 62802 10204 20194 48490 71399 81932
                   333 59014 81956 85360 81080=
202102121800 AAXX 12184 67665 41760 60000 10210 20186 48473 71322 81932
                   333 10269 59019 81950 85360 81080=
202102121500 AAXX 12154 67665 42660 70804 10246 20199 48470 70292 8193/
                   333 59009 81938 84640 87459
                   555 10269=
202102121200 AAXX 12124 67665 41660 72710 10266 20204 48477 71792 8197/
                   333 59018 81930 85835 87459=
202102120900 AAXX 12094 67665 42580 72505 10252 20176 48501 85238
                   333 59015 85825 86360 87280 91016=
202102120600 AAXX 12064 67665 11480 72708 10210 20187 48498 60074 8353/
                   333 10253 20/// 59017 83610 87360 91016=
202102120300 AAXX 12034 67665 42380 72903 10197 20194 48480 8567/
                   333 59014 85706 87360=
202102120000 AAXX 12004 67665 42380 73005 10203 20200 48494 8567/
                   333 58000 85706 87360=
202102112100 AAXX 11214 67665 42/80 79901 10202 20199 48503 8197/
                   333 59007 819// 86360=
202102111800 AAXX 11184 67665 41760 71303 10205 20198 48492 71322 81930
                   333 59010 81950 87359
                   555 91015.7=
202102111500 AAXX 11154 67665 41659 71104 10209 20194 48474 71799 8197/
                   333 59008 81945 83845 87459
                   555 91013=
202102111200 AAXX 11124 67665 41660 70804 10223 20193 48490 71792 8197/
                   333 59008 81932 85835 87459=
202102110900 AAXX 11094 67665 41560 73204 10232 20194 48513 72582 8197/
                   333 59009 81920 85825 87459=
202102101800 AAXX 10184 67665 42/80 62304 10216 20202 48503 81332
                   333 10263 20//0 59007 819// 85360 84080=
202102101500 AAXX 10154 67665 42680 61206 10241 20188 48485 81902
                   333 59005 81940 82840 85080=
202102101200 AAXX 10124 67665 42680 60406 10259 20177 48502 81932
                   333 58002 81930 84830 83360 85080=
202102100600 AAXX 10064 67665 1359 80206 10198 20193 48522 60204 71022 8567/
                   333 10252 20/// 58006 85708 88459
                   555 00/// 20011 BB/// CC/// DD/// Q1019.2=
202102100000 AAXX 10004 67665 41780 51204 10204 20204 48502 71322 81938
                   333 58002 81956 83360 85280 91016=
202102091800 AAXX 09184 67665 42680 61902 10206 20187 48508 70222 81338
                   333 58007 81950 82360 86280 91017=
202102091200 AAXX 09124 67665 41658 60705 10229 20200 48498 76166 81332
                   333 58013 81930 84830 83359 84080 91016=
202102090900 AAXX 09094 67665 NIL=
202102090600 AAXX 09064 67665 11256 71006 10208 20206 48517 60114 71042 8363/
                   333 10280 20/// 58010 83705 87360=
202102090300 AAXX 09034 67665 42360 70000 10202 20186 48484 8377/
                   333 58000 83705 87459=
202102082100 AAXX 08214 67665 41760 80000 10204 20196 48510 71796 8197/
                   333 58010 81950 88459=
202102081800 AAXX 08184 67665 41780 72604 10216 20208 48503 71792 84438
                   333 10280 58012 81956 84656 85360 87280 91016=
202102081500 AAXX 08154 67665 42780 73305 10257 20184 48483 70322 85268
                   333 58002 81950 85850 81360 87280
                   555 10280 91013=
202102081200 AAXX 08124 67665 42680 79902 10255 20180 48489 85238
                   333 59004 81935 85840 83360 87280=
202102080600 AAXX 08064 67665 12480 62603 10213 20198 48507 60354 83232
                   333 10248 20/// 59005 83815 85360 83080
                   555 00/// 91017=
202102080300 AAXX 08034 67665 42980 72302 10195 20191 48494 83032
                   333 59003 83360 86080
                   555 91016=
202102080000 AAXX 08004 67665 42980 61902 10194 20189 48490 83032
                   333 59017 83360 85280
                   555 91015=
202102072100 AAXX 07214 67665 42980 60000 10199 20192 48500 83032
                   333 59012 83360 87280
                   555 91016=
202102071800 AAXX 07184 67665 42760 71403 10206 20191 48490 81938
                   333 10248 59018 81950 84360 87280=
202102071500 AAXX 07154 67665 42660 61503 10239 20186 48478 81938
                   333 59013 81935 84360 86280=
202102071200 AAXX 07124 67665 42560 62803 10190 20183 48486 70196 84232
                   333 59020 81920 84825 85360 81080=
202102070900 AAXX 07094 67665 41459 81107 10199 20187 48506 79592 85238
                   333 59026 81915 85822 86359 86280 91017=
202102070600 AAXX 07064 67665 32380 50803 10215 20194 48513 70200 81230
                   333 10271 20//0 59023 81812 84360 91018=
202102062100 AAXX 06214 67665 41780 51402 10202 20195 48518 71322 81938
                   333 59013 81956 83360 85280 Q1018.7=
202102061800 AAXX 06184 67665 42680 40402 10204 20195 48506 70222 81331
                   333 59010 81950 82360 84080 91017=
202102061500 AAXX 06154 67665 41650 61405 10211 20187 48497 79599 8137/
                   333 59008 81940 84840 86360 91016=
202102060900 AAXX 06094 67665 42580 60710 10259 20180 48539 70322 85532
                   333 59007 85620 82360 81080=
202102060600 AAXX 06064 67665 12980 41006 10216 20177 48536 69904 82032
                   333 10290 20/// 59013 82360 84080=
202102060000 AAXX 06004 67665 42980 61702 10186 20173 48518 86030
                   333 59008 86360=
202102052100 AAXX 05214 67665 42980 09902 10191 20179 49532
                   333 59005=
202102051800 AAXX 05184 67665 41/80 51303 10203 20184 48516 71322 81902
                   333 10290 20//0 59005 819// 85080=
202102050900 AAXX 05094 67665 42680 60711 10273 20183 48547 86200
                   333 59016 86838=
202102050600 AAXX 05064 67665 32980 21304 10207 20205 48547 70144 80001
                   333 10275 20//0 59005 82080 91022=
202102041800 AAXX 04184 67665 41680 41103 10220 20198 48532 71322 81932
                   333 10270 20//0 59013 81940 82360 84080 91019=
202102041500 AAXX 04154 67665 42580 51005 10259 20185 48513 82232
                   333 59028 82832 81360 85080 91017=
202102041200 AAXX 04124 67665 42580 63203 10271 20181 48532 70200 83232
                   333 58003 83825 82360 84080 91019=
202102040900 AAXX 04094 67665 42480 60308 10247 20178 48550 85230
                   333 59002 85818 82360=
202102040600 AAXX 04064 67665 11359 69901 10196 20196 48551 60014 74044 83630
                   333 10282 20//0 58006 83705 85360=
202102031200 AAXX 03124 67665 42580 53406 10270 20162 48529 83202
                   333 58008 83830 84080
                   555 91019=
202102030900 AAXX 03094 67665 42480 73405 10234 20189 48549 8137/
                   333 58001 81915 82815 87360=
202102030600 AAXX 03064 67665 12380 60704 10209 20191 48546 60024 82630
                   333 10260 20//0 58007 82707 86360=
202102030300 AAXX 03034 67665 42980 50000 10188 20179 48525 83032
                   333 58007 83360 82080=
202102030000 AAXX 03004 67665 42780 70403 10199 20190 48531 8193/
                   333 58014 81956 87360=
202102022100 AAXX 02214 67665 41780 60305 10208 20200 48542 71392 8193/
                   333 58014 81950 86360=
202102021800 AAXX 02184 67665 42780 60606 10220 20198 48521 70122 81938
                   333 58006 81950 83360 86280 91018=
202102021200 AAXX 02124 67665 42680 73305 10258 20192 48520 70362 84238
                   333 58013 84830 84360 87280 91018=
202102020600 AAXX 02064 67665 32480 70302 10206 20191 48539 83532
                   333 10284 20//0 58009 83610 84360 85080
                   555 00/// 91021=
202102020300 AAXX 02034 67665 42980 53602 10200 20191 48520 83032
                   333 58017 83360 85080
                   555 91019=
202102011800 AAXX 01184 67665 42660 72903 10225 20188 48513 81938
                   333 10284 58021 81950 83360 86280=
202102011500 AAXX 01154 67665 42660 72202 10241 20188 48494 81938
                   333 58010 81940 83360 86280
                   555 10284=
202102011200 AAXX 01124 67665 42660 72905 10281 20184 48510 85208
                   333 58018 85830 86280=
202102010900 AAXX 01094 67665 42580 73306 10233 20187 48533 70322 8553/
                   333 58016 85620 87360 91020=
202102010600 AAXX 01064 67665 31380 83405 10203 20188 48529 70322 8567/
                   333 10250 20//0 58027 85709 88459=

################################################################################
#  SYNOPS from 67666, Lusaka City Airport (Zambia) | 15-25-00S | 028-28-00E | 1280 m
################################################################################
202103020600 AAXX 02064 67666 12380 82911 10180 20163 48517 60054 70300 886//
                   333 10218 2//// 58011 88705 91018=
202103011200 AAXX 01124 67666 NIL=
202102190600 AAXX 19064 67666 32980 71007 10200 20169 48510 85072
                   333 10271 20180 58015 86360 87080 91018=
202102171200 AAXX 17124 67666 42680 72912 10269 20177 48473 81930
                   333 58022 81912 85830 81360=
202102170900 AAXX 17094 67666 42580 51410 10251 20179 48481 85825=
202102161200 AAXX 16124 67666 42680 52810 10272 20177 48456 85200
                   333 58000 85832 91010=
202102160900 AAXX 16094 67666 42580 72010 10260 20185 48475 83800
                   333 59004 83820 84625 91013=
202102160600 AAXX 16064 67666 32980 52712 10228 20190 48470 80002
                   333 10290 20201 59011 85080 91013=
202102150900 AAXX 15094 67666 42480 32710 10278 20158 48498 81132
                   333 59017 81812 81360 81080 91013=
202102130600 AAXX 13064 67666 11380 72706 10198 20168 48488 60024 75021 8167/
                   333 10272 20198 58001 81707 86458 91015=
202102121200 AAXX 12124 67666 42580 62712 10250 20190 48467 81900
                   333 59017 81912 86825 91012=
202102120900 AAXX 12094 67666 42480 72710 10240 20178 48494 83800
                   333 59010 83815 84518 91015=
202102120600 AAXX 12064 67666 12980 52908 10206 20191 48502 60184 85070
                   333 10265 20159 85460 91015=
202102111200 AAXX 11124 67666 41480 71806 10212 20196 48491 72922 8619/
                   333 59010 81910 85618 81820 81460=
202102110900 AAXX 11094 67666 42480 72705 10240 20182 48503 87500
                   333 59012 87615=
202102090900 AAXX 09094 67666 NIL=
202102090600 AAXX 09064 67666 12380 71006 10200 20197 48500 60104 876//
                   333 10262 20183 58007 87706=
202102080600 AAXX 08064 67666 12480 70000 10220 20190 48502 60134 83232
                   333 10252 20170 59003 83819 84360 83080 91016=
202102050600 AAXX 05064 67666 32980 20908 10228 20186 48/// 80002
                   333 10250 20170 58003 82080 91021=

################################################################################
#  SYNOPS from 67667, Mount Makulu (Zambia) | 15-33S | 028-15E | 1213 m
################################################################################
202103020600 AAXX 02064 67667 12580 70901 10185 20180 48575 60034 87500
                   333 10255 20166 58012 87625=
202103011200 AAXX 01124 67667 NIL=
202102191500 AAXX 19154 67667 42680 40402 10273 20192 48500 70222 81931
                   333 10292 20185 58009 81940 83840 82360 82080
                   91015=
202102190600 AAXX 19064 67667 12580 70901 10216 20192 48573 60054 87500
                   333 10290 20178 85520=
202102160900 AAXX 16094 67667 42780 41802 10254 20206 48532 86101
                   333 58006 86830 81080=
202102150900 AAXX 15094 67667 42980 11906 10278 20182 48538 80001
                   333 5//// 81080=
202102120900 AAXX 12094 67667 42680 71905 10238 20205 48548 86208
                   333 59014 86830 87280=
202102120600 AAXX 12064 67667 12980 72702 10198 20188 48546 60054 80008
                   333 10277 20178 59016 87280=
202102090900 AAXX 09094 67667 NIL=
202102050600 AAXX 05064 67667 32980 10901 10258 20190 48594 80001
                   333 10302 20172 58005 81080=
202102040600 AAXX 04064 67667 12980 40901 10230 20190 48599 60034 80001
                   333 10300 20164 58004 84080=
202102020600 AAXX 02064 67667 32980 60901 10226 20202 48587 80001
                   333 10294 20192 59021 86080=
202102010600 AAXX 01064 67667 32580 70901 10208 20199 48569 87500
                   333 10304 20176 58017 87625=

################################################################################
#  SYNOPS from 67673, Petauke (Zambia) | 14-15S | 031-17E | 1035 m
################################################################################
202103020600 AAXX 02064 67673 12680 73601 10196 20193 48/// 60034 875//
                   333 10260 2//// 5//// 82822 85623=
202103011200 AAXX 01124 67673 41580 70000 10224 20190 48/// 76022 875//
                   333 5//// 87630=
202102190600 AAXX 19064 67673 32580 70901 10218 20208 48/// 8227/
                   333 10306 20//0 5//// 82825 87360=
202102160900 AAXX 16094 67673 42684 62702 10286 20210 48/// 83108
                   333 5//// 83832 86280=
202102150900 AAXX 15094 67673 42980 61801 10272 20206 48/// 82136
                   333 82834 81360 85280=
202102120600 AAXX 12064 67673 12580 70000 10212 20208 48/// 60064 8553/
                   333 10282 20//0 5//// 85625 87360=
202102110900 AAXX 11094 67673 42680 71801 10264 20217 48/// 84231
                   333 5//// 84832 83360 82080=
202102100600 AAXX 10064 67673 11570 80000 10200 20200 48/// 60804 76066 8347/
                   333 10290 20/// 5//// 82623 81825 87459=
202102090900 AAXX 09094 67673 NIL=
202102060600 AAXX 06064 67673 12575 70000 10210 20205 48/// 60064 8217/
                   333 10300 20/// 5//// 82825 87460=

################################################################################
#  SYNOPS from 67731, Senanga (Zambia) | 16-06S | 023-16E | 1027 m
################################################################################
202103020900 AAXX 02094 67731 41478 824// 10241 20209 48/// 75550 83178
                   333 58016 83820 85761 86280=
202103020600 AAXX 02064 67731 12480 809// 10206 20164 48/// 60014 70222 83578
                   333 10237 20161 58001 83611 85460 88280=
202103011200 AAXX 01124 67731 NIL=
202102190600 AAXX 19064 67731 12480 809// 10223 20200 48/// 60034 83529
                   333 10280 20174 58005 83613 85460 88280=
202102171200 AAXX 17124 67731 41478 805// 10224 20200 48/// 75122 85479
                   333 58012 84615 87365 88180=
202102161200 AAXX 16124 67731 42680 332// 10300 20159 48/// 81170
                   333 58008 81830 82365=
202102160900 AAXX 16094 67731 42980 234// 10278 20182 48532 81508
                   333 59006 81620 87280=
202102160600 AAXX 16064 67731 32680 701// 10248 20173 48/// 83271
                   333 10336 20217 58005 83832 84360 83080
                   555 00076=
202102150900 AAXX 15094 67731 42980 206// 10284 20195 48/// 81071
                   333 59018 81362 81080=
202102120900 AAXX 12094 67731 42480 618// 10261 20192 48/// 83132
                   333 59019 83820 84361 85080=
202102120600 AAXX 12064 67731 12980 713// 10229 20191 48/// 60024 84077
                   333 10300 20194 59033 84360 87280
                   555 00071=
202102111200 AAXX 11124 67731 42580 527// 10268 20188 48/// 81271
                   333 59001 81825 84365 82080=
202102110900 AAXX 11094 67731 42980 704// 10232 20179 48/// 87078
                   333 59009 87362 86280=
202102100600 AAXX 10064 67731 12480 810// 10196 20189 48/// 60104 83439
                   333 10300 20185 58001 83615 87360 88180=
202102090900 AAXX 09094 67731 NIL=
202102090600 AAXX 09064 67731 12480 830// 10229 20188 48/// 60014 84527
                   333 10283 20199 58005 84615 85460 88280=
202102081200 AAXX 08124 67731 42480 716// 10259 20217 48/// 84232
                   333 59003 84828 84361 86080=
202102080600 AAXX 08064 67731 12380 801// 10216 20197 48/// 60014 70266 83517
                   333 10302 20201 59012 83709 85460 88280
                   555 00067=
202102050900 AAXX 05094 67731 42980 426// 10297 20203 48/// 83071
                   333 58004 83365 81080=
202102050600 AAXX 05064 67731 32980 732// 10247 20197 48/// 87030
                   333 10322 20218 59003 87360
                   555 00085=
202102040600 AAXX 04064 67731 12980 416// 10222 20194 48/// 60014 83071
                   333 10297 20195 58008 83362 81080=
202102030900 AAXX 03094 67731 42580 820// 10229 20191 48/// 86539
                   333 58008 86623 86362 88180=
202102011200 AAXX 01124 67731 42680 511// 10277 48/// 84102
                   333 58005 84835 84080=

################################################################################
#  SYNOPS from 67741, Sesheke (Zambia) | 17-28S | 024-18E | 949 m
################################################################################
202103011200 AAXX 01124 67741 NIL=
202102190600 AAXX 19064 67741 12980 70000 10228 20222 48512 60014 8707/
                   333 10299 20209 58004 87362=
202102171200 AAXX 17124 67741 41670 71201 10199 20195 48487 76262 875//
                   333 58017 85845 82360=
202102120900 AAXX 12094 67741 42680 50000 10290 20200 48494 85100
                   333 5//// 85850=
202102120600 AAXX 12064 67741 32980 10000 10241 20210 48485 81030
                   333 10303 20186 59023 81362=
202102100600 AAXX 10064 67741 12680 70000 10220 20211 48500 60014 875//
                   333 10296 20199 58000 87640=
202102090900 AAXX 09094 67741 NIL=
202102090600 AAXX 09064 67741 12680 70303 10225 20212 48500 60014 86530
                   333 10298 20204 58009 86645 81362=
202102081200 AAXX 08124 67741 42680 60203 10268 20206 48481 82530
                   333 5//// 82645 85362=
202102080600 AAXX 08064 67741 12680 61201 10221 20202 48491 60084 85530
                   333 10299 20193 59001 85645 82362=
202102060600 AAXX 06064 67741 32980 60000 10224 20191 48510 86030
                   333 10314 20193 59006 86362=
202102050600 AAXX 05064 67741 12980 60201 10234 20198 48521 60034 86070
                   333 10306 20192 59004 86362=
202102040600 AAXX 04064 67741 12980 50000 10224 20192 48519 60054 85030
                   333 10293 20194 58003 85362=
202102030900 AAXX 03094 67741 42680 60202 10256 20213 48527 85570
                   333 5//// 86640 81362=

################################################################################
#  SYNOPS from 67743, Livingstone (Zambia) | 17-49S | 025-49E | 985 m
################################################################################
202103020900 AAXX 02094 67743 42580 71210 10210 20167 48526 8457/
                   333 58002 84620 87359 91019=
202103011200 AAXX 01124 67743 NIL=
202102090900 AAXX 09094 67743 NIL=

################################################################################
#  SYNOPS from 67751, Magoye (Zambia) | 16-00S | 027-36E | 1018 m
################################################################################
202103011200 AAXX 01124 67751 NIL=
202102120900 AAXX 12094 67751 42480 72905 10255 20206 48/// 84206
                   333 58004 84818 85280=
202102120600 AAXX 12064 67751 12980 70000 10221 20205 69954 82086
                   333 10//0 20192 48/// 58017 82362 87280=
202102090900 AAXX 09094 67751 41480 81803 10250 20213 48/// 76366 8807/
                   333 5//// 88360=
202102090600 AAXX 09064 67751 12980 80000 10219 20205 48/// 60014 8807/
                   333 10//0 20201 5//// 88360=
202102081200 AAXX 08124 67751 42580 43503 10283 20190 48/// 82202
                   333 5//// 82835 83080=
202102080600 AAXX 08064 67751 12980 70000 10224 20182 48/// 69904 87070
                   333 10//0 20199 5//// 87360=
202102020600 AAXX 02064 67751 32980 718// 10231 20198 48/// 81532
                   333 10311 20205 58011 81615 86362 85050=

################################################################################
#  SYNOPS from 67753, Choma (Zambia) | 16-50S | 027-04E | 1213 m
################################################################################
202103020600 AAXX 02064 67753 11580 80000 10172 20170 48517 60114 76065 885//
                   333 10195 20166 58012 88620=
202103011200 AAXX 01124 67753 NIL=
202102190600 AAXX 19064 67753 12380 61805 10206 20197 48511 60084 84630
                   333 10266 20184 58014 84708 82360=
202102171200 AAXX 17124 67753 41375 80000 10205 20184 48472 75655 886//
                   333 58034 88708=
202102170900 AAXX 17094 67753 41375 80000 10190 20176 48489 886//
                   333 58024 88706=
202102160600 AAXX 16064 67753 32980 40000 10220 20192 48463 84500
                   333 10300 20192 59009 84610=
202102130600 AAXX 13064 67753 11980 72005 10200 20180 48481 60154 8705/
                   333 10266 20186 59005 87360=
202102120600 AAXX 12064 67753 11580 70000 10203 20196 48490 60224 72052 8155/
                   333 10281 20186 59014 81620 87360=
202102100600 AAXX 10064 67753 12380 82703 10201 20194 48510 60494 886//
                   333 10286 40186 58000 88707=
202102090900 AAXX 09094 67753 NIL=
202102090600 AAXX 09064 67753 12380 80000 10196 20192 48510 60064 886//
                   333 10286 20190 58013 88707=
202102080600 AAXX 08064 67753 12380 70000 10200 20185 48490 69904 72822 82602
                   333 10266 20180 59008 82708 85080=
202102060600 AAXX 06064 67753 12580 50708 10222 20184 48522 69904 81201
                   333 10295 20174 59009 81820 84080=
202102050600 AAXX 05064 67753 31980 10000 10221 20193 48531 80001
                   333 10281 20170 58000 81080=
202102040600 AAXX 04064 67753 11580 20000 10208 20184 48530 60034 81130
                   333 10261 20176 58003 81820 82360=
202102020600 AAXX 02064 67753 32480 41806 10220 20207 48522 84500
                   333 10271 20190 58015 84610=

################################################################################
#  SYNOPS from 67855, Lupaki (Zambia) | 17-03-00S | 024-46-00E | 1000 m
################################################################################
202103020900 AAXX 02094 67855 41470 81702 10220 20167 3//// 48/// 70252 8217/
                   333 5//// 82810 87458=
202103011500 AAXX 01154 67855 41525 80702 10198 20173 3//// 48/// 75052 885//
                   333 5//// 88625=
202103010900 AAXX 01094 67855 41580 81302 10190 20156 3//// 48/// 70252 8777/
                   333 5//// 87720=
202102270900 AAXX 27094 67855 41575 81703 10239 20181 3//// 48/// 70262 8757/
                   333 5//// 87620=
202102261500 AAXX 26154 67855 42680 72601 10240 20164 3//// 48/// 83402
                   333 5//// 83630 85080=
202102260900 AAXX 26094 67855 42680 60802 10259 20202 3//// 48/// 82232
                   333 5//// 82830 85080=
202102251500 AAXX 25154 67855 41780 60701 10291 20191 3//// 48/// 71798 82203
                   333 5//// 81940 85080=
202102250900 AAXX 25094 67855 42680 43502 10271 20189 3//// 48/// 84230
                   333 5//// 84830=
202102241500 AAXX 24154 67855 41780 51302 10270 20195 3//// 48/// 71792 82203
                   333 5//// 85080=
202102240900 AAXX 24094 67855 42680 61304 10268 20198 3//// 48/// 86200
                   333 5//// 86830=
202102200900 AAXX 20094 67855 42680 73407 10261 20187 3//// 48/// 87500
                   333 5//// 87630=
202102190900 AAXX 19094 67855 42680 70301 10289 20189 3//// 48/// 82102
                   333 5//// 82830 86080=
202102160900 AAXX 16094 67855 41575 71902 10229 20201 3//// 48/// 75052 875//
                   333 5//// 87625=
202102150900 AAXX 15094 67855 41575 72902 10251 20214 3//// 48/// 875//
                   333 5//// 87625=
202102131500 AAXX 13154 67855 41675 62301 10248 20201 3//// 48/// 70292 83202
                   333 5//// 81930 85080=
202102130900 AAXX 13094 67855 41575 62701 10268 20202 3//// 48/// 78082 85230
                   333 5//// 85825=
202102121500 AAXX 12154 67855 42780 31901 10282 20179 3//// 48/// 82130
                   333 5//// 82835=
202102120900 AAXX 12094 67855 42680 61302 10238 20198 3//// 48/// 86500
                   333 5//// 86630=
202102110900 AAXX 11094 67855 42680 71002 10273 20193 3//// 48/// 83530
                   333 5//// 83630 85360=
202102100900 AAXX 10094 67855 42680 50604 10279 20182 3//// 48/// 81130
                   333 5//// 81830 85360=
202102080900 AAXX 08094 67855 42680 43403 10275 20192 3//// 48/// 84130
                   333 5//// 84830=
202102051500 AAXX 05154 67855 42780 70302 10311 20187 3//// 48/// 81102
                   333 5//// 81840 87080=
202102040900 AAXX 04094 67855 42580 30706 10281 20199 3//// 48/// 83232
                   333 5//// 83820=
202102030900 AAXX 03094 67855 42580 50805 10271 20191 3//// 48/// 85200
                   333 5//// 85825=
202102011500 AAXX 01154 67855 42780 72905 10282 20207 3//// 48/// 83202
                   333 5//// 83845 85080=
202102010900 AAXX 01094 67855 42680 71305 10281 20205 3//// 48/// 83202
                   333 5//// 83830 85080=
