################################################################################
# Query made at 04/14/2022 06:36:58 UTC
# Country like Zamb*
# Time interval: from 11/01/2014 05:30  to 12/01/2014 06:30  UTC
################################################################################

################################################################################
#  SYNOPS from 67403, Kawambwa (Zambia) | 09-48S | 029-05E | 1323 m
################################################################################
201411280600 AAXX 28064 67403 12480 43003 10218 20191 48522 60054 70326 83232
                   333 10/// 20194 58020 83815 83360 81080=
201411271500 AAXX 27154 67403 NIL=
201411270600 AAXX 27064 67403 32480 41802 10215 20181 48502 70300 82232
                   333 10/// 20186 59001 82816 81360 83080=
201411260600 AAXX 26064 67403 NIL=
201411241200 AAXX 24124 67403 NIL=
201411240900 AAXX 24094 67403 NIL=
201411240600 AAXX 24064 67403 12980 61202 10229 20193 48518 69924 70222 86031
                   333 10/// 20183 59015 86359 83080=
201411200600 AAXX 20064 67403 11480 83001 10182 20174 48500 60414 76166 84537
                   333 10/// 20167 59006 84615 85359 88278=
201411191200 AAXX 19124 67403 NIL=
201411190600 AAXX 19064 67403 11370 71203 10199 20180 48507 60204 71666 8373/
                   333 10/// 20177 58000 83706 87359=
201411181500 AAXX 18154 67403 NIL=
201411180600 AAXX 18064 67403 11980 61802 10224 20162 48509 69964 70522 86031
                   333 10/// 20176 58006 86360 84080=
201411170900 AAXX 17094 67403 NIL=
201411141200 AAXX 14124 67403 NIL=
201411140600 AAXX 14064 67403 12980 30000 10227 20182 48512 60314 83081
                   333 10/// 20172 58005 83360 82080
                   555 00///=
201411130600 AAXX 13064 67403 32580 62704 10235 20189 48507 70322 86301
                   333 10/// 20184 58020 81925 82825 85625 83080
                   555 00///=
201411120900 AAXX 12094 67403 NIL=
201411120600 AAXX 12064 67403 12980 33402 10229 20177 48498 60024 70120 83031
                   333 10248 20170 59007 83360 82080=
201411070900 AAXX 07094 67403 NIL=
201411060900 AAXX 06094 67403 NIL=
201411030900 AAXX 03094 67403 NIL=

################################################################################
#  SYNOPS from 67413, Mbala (Zambia) | 08-51S | 031-20E | 1673 m
################################################################################
201411282100 AAXX 28214 67413 42575 31813 10236 20173 40161 50014 83500=
201411271500 AAXX 27154 67413 NIL=
201411260600 AAXX 26064 67413 NIL=
201411241200 AAXX 24124 67413 NIL=
201411240900 AAXX 24094 67413 NIL=
201411200600 AAXX 20064 67413 NIL=
201411191200 AAXX 19124 67413 NIL=
201411181500 AAXX 18154 67413 NIL=
201411170900 AAXX 17094 67413 NIL=
201411141200 AAXX 14124 67413 NIL=
201411120900 AAXX 12094 67413 NIL=
201411120600 AAXX 12064 67413 NIL=
201411100600 AAXX 10064 67413 32980 30911 10230 20123 48532 80005
                   333 10290 20/// 59008 83080 91023=
201411070900 AAXX 07094 67413 NIL=
201411060900 AAXX 06094 67413 NIL=
201411030900 AAXX 03094 67413 NIL=

################################################################################
#  SYNOPS from 67441, Mwinilunga (Zambia) | 11-45S | 024-26E | 1361 m
################################################################################
201411271500 AAXX 27154 67441 NIL=
201411270600 AAXX 27064 67441 11965 63501 10189 20166 48529 69904 70522 80005
                   333 10320 20/// 59005 86280=
201411260600 AAXX 26064 67441 NIL=
201411241200 AAXX 24124 67441 NIL=
201411240900 AAXX 24094 67441 NIL=
201411200600 AAXX 20064 67441 12480 80600 10185 20170 48567 60014 885//
                   333 10260 20/// 58020 88618=
201411191200 AAXX 19124 67441 NIL=
201411181500 AAXX 18154 67441 NIL=
201411180600 AAXX 18064 67441 11980 81805 10180 20165 48545 60084 72166 8807/
                   333 10275 20/// 58007 88360=
201411170900 AAXX 17094 67441 NIL=
201411170600 AAXX 17064 67441 12480 73403 10190 20159 48538 60024 8117/
                   333 10280 20/// 58008 81818 87360=
201411141200 AAXX 14124 67441 NIL=
201411130600 AAXX 13064 67441 11870 71200 10180 20172 48543 60054 70522 8707/
                   333 10275 20/// 58000 87360=
201411120900 AAXX 12094 67441 NIL=
201411120600 AAXX 12064 67441 11960 60000 10170 20146 48543 60064 76166 8802/
                   333 10290 20/// 5//// 88460=
201411070900 AAXX 07094 67441 NIL=
201411060900 AAXX 06094 67441 NIL=
201411040600 AAXX 04064 67441 11975 70000 10215 20186 48563 60114 70522 8703/
                   333 10285 20/// 5//// 87360=
201411030900 AAXX 03094 67441 41675 735// 10260 20180 48566 70522 8113/
                   333 5//// 81835 87360=

################################################################################
#  SYNOPS from 67461, Mansa (Zambia) | 11-06S | 028-51E | 1382 m
################################################################################
201411280600 AAXX 28064 67461 12480 70000 10200 20190 48522 60064 70222 8457/
                   333 10325 20186 58019 84612 86461 91019=
201411271500 AAXX 27154 67461 NIL=
201411270600 AAXX 27064 67461 32980 00000 10242 20195 48506
                   333 10338 20195 59010 91017=
201411260600 AAXX 26064 67461 31970 01202 10245 20150 48513 70500
                   333 10350 20174 59001 91017=
201411250600 AAXX 25064 67461 32980 00000 10240 20195 48514
                   333 10340 20160 59004 91017=
201411241200 AAXX 24124 67461 NIL=
201411240900 AAXX 24094 67461 NIL=
201411240600 AAXX 24064 67461 32980 20000 10230 20189 48518 80001
                   333 10316 20170 5//// 82080 91018=
201411200600 AAXX 20064 67461 11575 80000 10186 20176 48532 60174 76162 8557/
                   333 10289 20172 58022 85621 87462 91020=
201411191200 AAXX 19124 67461 NIL=
201411190600 AAXX 19064 67461 31570 70906 10220 20169 48514 70522 8557/
                   333 10315 20186 58003 85637 87463 91017=
201411181500 AAXX 18154 67461 NIL=
201411180600 AAXX 18064 67461 31975 70806 10235 20165 48512 70522 8707/
                   333 10346 20190 58003 87463 91017=
201411170900 AAXX 17094 67461 NIL=
201411141200 AAXX 14124 67461 NIL=
201411140600 AAXX 14064 67461 11975 30000 10225 20181 48519 60044 70500 80001
                   333 10348 20185 58012 83080 91018=
201411120900 AAXX 12094 67461 NIL=
201411120600 AAXX 12064 67461 NIL=
201411070900 AAXX 07094 67461 NIL=
201411060900 AAXX 06094 67461 NIL=
201411050600 AAXX 05064 67461 31975 20802 10245 20150 48532 70500 80001
                   333 10340 20175 59007 91020=
201411040600 AAXX 04064 67461 31975 70000 10224 20188 48537 70522 8707/
                   333 10325 20195 59006 87463 91020=
201411030900 AAXX 03094 67461 NIL=
201411030600 AAXX 03064 67461 12680 40602 10225 20177 48543 60024 70200
                   333 10/// 20/// 5//// 81848 83363 91021=

################################################################################
#  SYNOPS from 67475, Kasama (Zambia) | 10-13S | 031-08E | 1382 m
################################################################################
201411280600 AAXX 28064 67475 11980 83101 10196 20172 48532 60084 75002 8807/
                   333 10319 20170 58022 88459
                   555 00/// 91021=
201411271500 AAXX 27154 67475 NIL=
201411270600 AAXX 27064 67475 32980 10809 10243 20166 48513 70200 80001
                   333 10324 20171 59009 81080
                   555 91019=
201411260600 AAXX 26064 67475 32980 00910 10242 20136 48520 70200
                   333 10327 20163 59003 91020=
201411241200 AAXX 24124 67475 42780 21209 10309 20090 48496 82203
                   333 59016 81956 81856 81080 91017=
201411240900 AAXX 24094 67475 42680 11312 10290 20129 48521 81232
                   333 59015 81845 81360 81080 91019=
201411240600 AAXX 24064 67475 32980 10705 10240 20179 48529 81030
                   333 10300 20165 59017 81359 91021=
201411200600 AAXX 20064 67475 11380 80903 10170 20164 48546 60064 76006 8476/
                   333 10262 20166 58030 84709 88459=
201411191200 AAXX 19124 67475 42680 71004 10257 20163 48492 8427/
                   333 58017 84845 86362 91016=
201411190600 AAXX 19064 67475 12580 71311 10197 20177 48518 60144 875//
                   333 10315 20178 59000 87620 91020=
201411181500 AAXX 18154 67475 NIL=
201411181200 AAXX 18124 67475 42780 61415 10306 20122 48476 83272
                   333 58003 81956 82856 83362 81080 91014=
201411180600 AAXX 18064 67475 32580 20912 10250 20147 48520 81531
                   333 10336 20172 58009 81625 81359 81080
                   555 00/// 91020=
201411141200 AAXX 14124 67475 41775 40304 10313 20095 48492 70521 84201
                   333 58015 84850 81080 91016=
201411140600 AAXX 14064 67475 11975 30113 10236 20137 48528 69904 70521 80004
                   333 10333 20184 58016 83080 91020=
201411120900 AAXX 12094 67475 NIL=
201411120600 AAXX 12064 67475 31975 10904 10250 20127 48510 70502 81070
                   333 10334 20179 59009 81060 91018=
201411100900 AAXX 10094 67475 41675 20506 10305 20127 48508 70500 82201
                   333 59016 82845 81080 91018=
201411070900 AAXX 07094 67475 42780 20913 10298 20121 48531 70200 82200
                   333 59002 82850 91021=
201411070600 AAXX 07064 67475 32980 21012 10243 20129 48494 70221 82030
                   333 10330 20182 58004 82360 91022=
201411060900 AAXX 06094 67475 42780 40808 10287 20105 48533 84200
                   333 58002 84850 91021=
201411050600 AAXX 05064 67475 32980 00512 10245 20135 48540
                   333 10325 20165 59004 91022=
201411040600 AAXX 04064 67475 12980 00812 10234 20132 48483 69914
                   333 10320 20170 59007
                   555 00/// 91022=
201411030900 AAXX 03094 67475 NIL=
201411030600 AAXX 03064 67475 11575 10802 10236 20165 48551 69904 70500 81200
                   333 10325 20165 58035 81830 91023=

################################################################################
#  SYNOPS from 67476, Misamfu (Zambia) | 10-06S | 031-15E | 1536 m
################################################################################
201411271500 AAXX 27154 67476 NIL=
201411260600 AAXX 26064 67476 NIL=
201411241200 AAXX 24124 67476 NIL=
201411240900 AAXX 24094 67476 NIL=
201411240600 AAXX 24064 67476 32980 30901 10220 20179 48/// 83030
                   333 10302 20171 59015 83360
                   555 00/// 20013=
201411200600 AAXX 20064 67476 NIL=
201411191200 AAXX 19124 67476 NIL=
201411181500 AAXX 18154 67476 NIL=
201411170900 AAXX 17094 67476 NIL=
201411141200 AAXX 14124 67476 NIL=
201411120900 AAXX 12094 67476 NIL=
201411120600 AAXX 12064 67476 NIL=
201411100600 AAXX 10064 67476 12980 00703 10236 20154 48/// 60014
                   333 10316 20156 5////
                   555 00/// 20990=
201411070900 AAXX 07094 67476 NIL=
201411060900 AAXX 06094 67476 NIL=
201411040600 AAXX 04064 67476 12980 00601 10233 20133 48/// 60014
                   333 10317 20170 59005=
201411030900 AAXX 03094 67476 NIL=
201411030600 AAXX 03064 67476 12980 10000 10217 20178 48/// 60044 81030
                   333 10318 20174 5//// 81359=

################################################################################
#  SYNOPS from 67477, Mpika (Zambia) | 11-54S | 031-26E | 1400 m
################################################################################
201411280600 AAXX 28064 67477 12980 60000 10219 20183 48553 60074 86300
                   333 10320 20184 58020 86359=
201411271500 AAXX 27154 67477 NIL=
201411270600 AAXX 27064 67477 32980 00000 10250 20145 48514
                   333 10320 20179 59004=
201411260600 AAXX 26064 67477 32980 00000 10240 20123 48530
                   333 10324 20160 58001=
201411241200 AAXX 24124 67477 NIL=
201411240900 AAXX 24094 67477 NIL=
201411240600 AAXX 24064 67477 32480 10000 10236 20159 48536 81100
                   333 10330 20147 59013 81818=
201411200600 AAXX 20064 67477 11378 80000 10176 20165 60044 72162 8157/
                   333 10215 20170 5//// 81607 88459=
201411191200 AAXX 19124 67477 NIL=
201411190600 AAXX 19064 67477 32980 81204 10175 20166 48527 887//
                   333 10305 20160 58004 88459=
201411181500 AAXX 18154 67477 NIL=
201411170900 AAXX 17094 67477 NIL=
201411141200 AAXX 14124 67477 NIL=
201411140600 AAXX 14064 67477 32980 10903 10248 20121 48528 80001
                   333 10330 20179 58013 81080
                   555 00/// 20990=
201411130600 AAXX 13064 67477 12980 10000 10246 20137 48533 69904 80001
                   333 10322 20195 58001 81080
                   555 00/// 20000=
201411120900 AAXX 12094 67477 NIL=
201411120600 AAXX 12064 67477 32980 00902 10251 20124 48528
                   333 10328 20183 59011=
201411100600 AAXX 10064 67477 12980 00000 10239 20165 48520 60094
                   333 10321 20172 59011=
201411070900 AAXX 07094 67477 NIL=
201411060900 AAXX 06094 67477 NIL=
201411040600 AAXX 04064 67477 32980 00000 10260 20119 48546
                   333 10336 20145 59004=
201411030900 AAXX 03094 67477 NIL=
201411030600 AAXX 03064 67477 32980 00000 10242 20154 48549
                   333 10351 20176 58016=

################################################################################
#  SYNOPS from 67481, Isoka (Zambia) | 10-07S | 032-38E | 1360 m
################################################################################
201411280600 AAXX 28064 67481 32580 50202 10223 20171 82532
                   333 10330 20199 58020 82620 83360 83080
                   555 00/// 20000=
201411271500 AAXX 27154 67481 NIL=
201411270900 AAXX 27094 67481 42780 30701 10289 20141 83500
                   333 59006 83656=
201411270600 AAXX 27064 67481 32980 03301 10229 20175
                   333 10328 20178 59009=
201411241200 AAXX 24124 67481 NIL=
201411240900 AAXX 24094 67481 NIL=
201411240600 AAXX 24064 67481 32980 10000 10233 20176 81030
                   333 10308 20179 59014 81361
                   555 00/// 20006=
201411211200 AAXX 21124 67481 42680 72401 10255 20168 87920
                   333 59018 81935 87637 81361=
201411210900 AAXX 21094 67481 42680 42101 10253 20145 84920
                   333 58001 81942 84642 81361=
201411200600 AAXX 20064 67481 11375 82101 10185 20174 48/// 60354 76166 887//
                   333 10266 20177 58023 88709=
201411191200 AAXX 19124 67481 NIL=
201411190600 AAXX 19064 67481 32480 81002 10194 20168 48/// 886//
                   333 10309 20190 5//// 88710=
201411181500 AAXX 18154 67481 NIL=
201411180600 AAXX 18064 67481 31975 40902 10243 20131 48/// 70422 84031
                   333 10341 20185 58005 83361 82080
                   555 00/// 20000=
201411170900 AAXX 17094 67481 42680 21301 10300 20129 58001 82848=
201411141200 AAXX 14124 67481 NIL=
201411140600 AAXX 14064 67481 12980 00201 10224 20136 60064
                   333 10328 20163 58013
                   555 00/// 20000=
201411120900 AAXX 12094 67481 42680 30306 10310 20119 82201
                   333 5//// 82847 82080=
201411120600 AAXX 12064 67481 32980 10702 10254 20135 80001
                   333 10338 20176 59010 81080
                   555 00/// 20000=
201411101200 AAXX 10124 67481 41775 50901 10320 20124 70522 85800
                   333 59009 84857 83658=
201411070900 AAXX 07094 67481 42780 21501 10310 20121 48/// 82500
                   333 58000 82657=
201411060900 AAXX 06094 67481 41675 50802 10293 20136 70522 85800
                   333 58004 84849 82350=
201411060600 AAXX 06064 67481 31975 00301 10253 20139 70500
                   333 10352 20188 58000
                   555 00/// 20000=
201411050600 AAXX 05064 67481 31975 02401 10252 20140 70500
                   333 10341 20189 59006=
201411040600 AAXX 04064 67481 11975 00301 10234 20140 60014 70500
                   333 10335 20177 59002
                   555 00/// 20000=
201411030900 AAXX 03094 67481 42780 30303 10301 20124 48/// 83100
                   333 58027 83856=
201411030600 AAXX 03064 67481 32980 23403 10245 20141 80001
                   333 10325 20193 58018 82080
                   555 00/// 20000=

################################################################################
#  SYNOPS from 67531, Zambezi (Zambia) | 13-32S | 023-07E | 1077 m
################################################################################
201411280600 AAXX 28064 67531 32980 42401 10217 20183 48/// 70222 84031
                   333 10336 20/// 58016 84361 81082=
201411271500 AAXX 27154 67531 NIL=
201411270600 AAXX 27064 67531 32980 43301 10218 20183 48/// 70211 81032
                   333 10348 20/// 59001 81362 83081=
201411260600 AAXX 26064 67531 12980 43002 10227 20195 48/// 60014 70200 82031
                   333 10345 20/// 59005 82361 82081=
201411241200 AAXX 24124 67531 42680 43201 10308 20184 48/// 70222 84200
                   333 5//// 84846=
201411240900 AAXX 24094 67531 42780 32402 10277 20213 48/// 70200 83101
                   333 5//// 83840 81082=
201411240600 AAXX 24064 67531 12980 20202 10210 20197 48/// 60144 70200 80001
                   333 10/// 20/// 5//// 82080=
201411200600 AAXX 20064 67531 NIL=
201411191200 AAXX 19124 67531 NIL=
201411181500 AAXX 18154 67531 NIL=
201411181200 AAXX 18124 67531 41680 71504 10266 20185 48/// 70262 8117/
                   333 58017 81835 87360=
201411180600 AAXX 18064 67531 11378 81206 10181 20173 49/// 60144 76062 8157/
                   333 10307 20180 58013 81609 88459=
201411170900 AAXX 17094 67531 NIL=
201411170600 AAXX 17064 67531 12980 50000 10214 20171 48/// 69904 85032
                   333 10312 20182 58018 85360 81080=
201411141200 AAXX 14124 67531 42780 60604 10299 20162 48/// 82132
                   333 5//// 82850 84361 83081=
201411140900 AAXX 14094 67531 42680 70906 10277 20172 48/// 83132
                   333 5//// 83840 81361 83081=
201411140600 AAXX 14064 67531 32980 60000 10224 20189 48/// 85031
                   333 10323 20169 58003 85360 82080=
201411131200 AAXX 13124 67531 42680 71404 10296 20176 48/// 82178
                   333 5//// 82847 81360 87280=
201411130900 AAXX 13094 67531 42680 70607 10271 20173 48/// 81188
                   333 5//// 81840 87360 87280=
201411120900 AAXX 12094 67531 NIL=
201411120600 AAXX 12064 67531 32980 61804 10240 20190 48/// 84038
                   333 10291 20203 5//// 84361 85280=
201411100600 AAXX 10064 67531 12980 70901 10217 20195 48/// 60114 85032
                   333 10336 20186 5//// 85360 83080=
201411070900 AAXX 07094 67531 NIL=
201411060900 AAXX 06094 67531 NIL=
201411041200 AAXX 04124 67531 42780 72506 10316 20188 48/// 84202
                   333 59008 84850 83080=
201411040600 AAXX 04064 67531 12978 70000 10214 20195 48/// 60014 70522 8707/
                   333 10315 20190 58003 87360
                   555 00185=
201411030900 AAXX 03094 67531 42680 70602 10290 20179 48/// 82108
                   333 58010 82845 87280=
201411030600 AAXX 03064 67531 31978 63302 10231 20173 48/// 70522 81038
                   333 10329 20203 58010 81360 86280=

################################################################################
#  SYNOPS from 67541, Kasempa (Zambia) | 13-32S | 025-51E | 1234 m
################################################################################
201411280600 AAXX 28064 67541 12980 60000 10215 20185 48513 60014 70222 86030
                   333 10/// 20/// 58012 86360=
201411271500 AAXX 27154 67541 NIL=
201411270600 AAXX 27064 67541 32980 30000 10214 20173 48501 70222 80003
                   333 10/// 20/// 59007 83082=
201411260600 AAXX 26064 67541 32980 30000 10235 20164 48508 70222 80003
                   333 10/// 20/// 59008 83082=
201411241200 AAXX 24124 67541 NIL=
201411240900 AAXX 24094 67541 NIL=
201411240600 AAXX 24064 67541 12980 30000 10201 20195 48518 60064 70222 80003
                   333 10/// 20/// 59006 83080=
201411200600 AAXX 20064 67541 32380 70000 10205 20183 48533 70222 84530
                   333 10/// 20/// 58013 84607 83360=
201411191200 AAXX 19124 67541 NIL=
201411190600 AAXX 19064 67541 12380 61003 10209 20198 48520 69904 70222 82530
                   333 10/// 20/// 59006 82607 84360=
201411181500 AAXX 18154 67541 NIL=
201411180600 AAXX 18064 67541 32980 30000 10206 20183 48526 70222 83030
                   333 10/// 20/// 58011 83360
                   555 00/// 20001=
201411170900 AAXX 17094 67541 NIL=
201411170600 AAXX 17064 67541 12380 70000 10201 20201 48515 60014 70222 83530
                   333 10/// 20/// 59013 83607 84360=
201411141200 AAXX 14124 67541 NIL=
201411140600 AAXX 14064 67541 11370 70000 10188 20183 48527 60024 76062 8263/
                   333 10/// 20/// 58003 81706 87360=
201411130600 AAXX 13064 67541 11365 70000 10183 20183 48517 60154 76062 8363/
                   333 10/// 20/// 58025 83706 87360=
201411120900 AAXX 12094 67541 NIL=
201411120600 AAXX 12064 67541 32980 50000 10224 20185 48492 85030
                   333 10/// 20/// 59019 85360=
201411100600 AAXX 10064 67541 12980 30000 10226 20191 48508 60014 70222 83030
                   333 10/// 20/// 59027 83360=
201411070900 AAXX 07094 67541 NIL=
201411070600 AAXX 07064 67541 31970 70000 10224 20154 48544 70522 87030
                   333 10/// 20/// 58023 87360=
201411060900 AAXX 06094 67541 NIL=
201411060600 AAXX 06064 67541 31978 10607 10264 20/// 48521 70522 81030
                   333 10/// 20/// 59008 81360=
201411050600 AAXX 05064 67541 12980 10000 10217 20193 48529 60034 70222 80001
                   333 10/// 20/// 59002 81080=
201411040600 AAXX 04064 67541 12980 30000 10220 20190 48531 60044 80003
                   333 10/// 20/// 58002 83080=
201411030900 AAXX 03094 67541 NIL=
201411030600 AAXX 03064 67541 12980 50000 10233 20183 48525 69904 70222 85030
                   333 10/// 20/// 58015 85360=

################################################################################
#  SYNOPS from 67543, Kabompo (Zambia) | 13-36S | 024-12E | 1075 m
################################################################################
201411271500 AAXX 27154 67543 NIL=
201411260600 AAXX 26064 67543 NIL=
201411241200 AAXX 24124 67543 NIL=
201411240900 AAXX 24094 67543 NIL=
201411200600 AAXX 20064 67543 NIL=
201411191200 AAXX 19124 67543 NIL=
201411181500 AAXX 18154 67543 NIL=
201411170900 AAXX 17094 67543 NIL=
201411141200 AAXX 14124 67543 NIL=
201411120900 AAXX 12094 67543 NIL=
201411120600 AAXX 12064 67543 NIL=
201411070900 AAXX 07094 67543 NIL=
201411060900 AAXX 06094 67543 42965 1//02 10335 20155 48/// 80001
                   333 5//// 81080=
201411030900 AAXX 03094 67543 NIL=

################################################################################
#  SYNOPS from 67551, Solwezi (Zambia) | 12-11S | 026-23E | 1386 m
################################################################################
201411290600 AAXX 29064 67551 32980 63303 10201 20174 48524 80630
                   333 10286 20159 86362
                   555 00/// 20003 91020=
201411271500 AAXX 27154 67551 NIL=
201411260600 AAXX 26064 67551 32980 20905 10245 20134 48517 80001
                   333 10321 20164 59006 82080 91018=
201411241200 AAXX 24124 67551 NIL=
201411240900 AAXX 24094 67551 NIL=
201411200600 AAXX 20064 67551 NIL=
201411191200 AAXX 19124 67551 NIL=
201411190600 AAXX 19064 67551 32975 81004 10190 20159 48525 8807/
                   333 10284 20180 59001 88362
                   555 20000 91020=
201411181500 AAXX 18154 67551 NIL=
201411170900 AAXX 17094 67551 NIL=
201411141200 AAXX 14124 67551 NIL=
201411120900 AAXX 12094 67551 NIL=
201411120600 AAXX 12064 67551 NIL=
201411070900 AAXX 07094 67551 NIL=
201411060900 AAXX 06094 67551 NIL=
201411030900 AAXX 03094 67551 NIL=

################################################################################
#  SYNOPS from 67561, Ndola (Zambia) | 13-00S | 028-39E | 1269 m
################################################################################
201411281200 AAXX 28124 67561 41859 73407 10307 20168 48504 70422 85208
                   333 58018 81957 85857 85280 98021=
201411271500 AAXX 27154 67561 41860 00000 10318 20144 48467 70500 83200
                   333 59007 83858=
201411270600 AAXX 27064 67561 31958 30505 10243 20162 48511 70400 83030
                   333 10347 20181 59009 83360
                   555 00/// 91018=
201411260600 AAXX 26064 67561 31965 11006 10277 20118 48524 70500 80001
                   333 10354 20177 59002 81080
                   555 00/// 91019=
201411250600 AAXX 25064 67561 31960 00503 10226 20112 48521 70500
                   333 10342 20146 59008
                   555 91019=
201411241200 AAXX 24124 67561 42780 30605 10332 20094 48500 82101
                   333 59015 82856 81080
                   555 66/// 77104 8860/ 98079=
201411240900 AAXX 24094 67561 NIL=
201411240600 AAXX 24064 67561 31970 10807 10244 20095 48531 70500 81031
                   333 10313 20156 59013 81360 81080
                   555 00/// 91020=
201411230600 AAXX 23064 67561 11960 50000 10221 20183 48541 69904 70522 82038
                   333 10295 20180 59001 82360 85280
                   555 91022=
201411220600 AAXX 22064 67561 11465 80000 10190 20183 48539 60104 70522 8467/
                   333 10302 20190 58002 84706 88459
                   555 00/// 20010 91022=
201411201200 AAXX 20124 67561 41558 80000 10224 20178 48519 70511 85571
                   333 58008 85625 88459 91019=
201411200600 AAXX 20064 67561 NIL=
201411191200 AAXX 19124 67561 NIL=
201411181500 AAXX 18154 67561 41665 51505 10236 20162 48496 70522 81232
                   333 58033 81845 84360 81080=
201411170900 AAXX 17094 67561 NIL=
201411141200 AAXX 14124 67561 41770 60803 10313 20138 48497 70522 86202
                   333 58008 86855 81080
                   555 66/// 77062 8870/ 98016 91015=
201411131200 AAXX 13124 67561 41765 60304 10322 20154 48488 70522 85262
                   333 58003 81956 85856 81360 81080 91015=
201411130600 AAXX 13064 67561 31958 70705 10242 48515 70422 83232
                   333 10342 20195 58010 83830 84360 84080
                   555 00/// 91018=
201411121200 AAXX 12124 67561 41860 60306 10321 20137 48485 70522 86200
                   333 58000 86857 555 91014=
201411120900 AAXX 12094 67561 41760 40709 10306 20131 48504 70500 84201
                   333 59010 84850 81080 91016=
201411120600 AAXX 12064 67561 11960 20806 10261 20142 48507 69904 70511 82030
                   333 10340 20194 59010 82360
                   555 00/// 91017=
201411111200 AAXX 11124 67561 41770 60000 10320 20139 48485 70522 86200
                   333 59003 86850 555 66/// 77113 8859/ 98015
                   91014=
201411070900 AAXX 07094 67561 41659 31005 10304 20150 48540 70500 82131
                   333 58007 82845 81361 81080 91021=
201411060900 AAXX 06094 67561 41959 20814 10316 20111 48535 70500 82030
                   333 59004 82360 91020=
201411051200 AAXX 05124 67561 41860 40805 10344 20108 48506 70511 84200
                   333 59007 84858 91016=
201411040600 AAXX 04064 67561 11975 00000 10240 20189 48538 60094 70400
                   333 10310 20172 59003 91021=
201411030900 AAXX 03094 67561 41660 40104 10291 20162 48537 70411 84100
                   333 58010 84845 91020=

################################################################################
#  SYNOPS from 67563, Kafironda (Zambia) | 12-36S | 028-07E | 1243 m
################################################################################
201411271500 AAXX 27154 67563 NIL=
201411260600 AAXX 26064 67563 NIL=
201411241200 AAXX 24124 67563 NIL=
201411240900 AAXX 24094 67563 NIL=
201411200600 AAXX 20064 67563 NIL=
201411191200 AAXX 19124 67563 NIL=
201411181500 AAXX 18154 67563 NIL=
201411170900 AAXX 17094 67563 NIL=
201411141200 AAXX 14124 67563 NIL=
201411120900 AAXX 12094 67563 NIL=
201411120600 AAXX 12064 67563 NIL=
201411070900 AAXX 07094 67563 NIL=
201411060900 AAXX 06094 67563 NIL=
201411030900 AAXX 03094 67563 NIL=

################################################################################
#  SYNOPS from 67571, Serenje (Zambia) | 13-14S | 030-13E | 1384 m
################################################################################
201411280600 AAXX 28064 67571 32980 73004 10228 20163 48523 70522 81038
                   333 10336 20176 58018 81360 87280
                   555 00/// 20000=
201411271500 AAXX 27154 67571 NIL=
201411270600 AAXX 27064 67571 32980 00605 10250 20154 48504 70500
                   333 10322 20178 59017
                   555 00/// 20000=
201411260600 AAXX 26064 67571 32980 11208 10250 20111 48524 70500 80001
                   333 10334 20205 58001 81080
                   555 00/// 20000=
201411241200 AAXX 24124 67571 NIL=
201411240900 AAXX 24094 67571 42981 01203 10313 20066 48517 70100
                   333 59009=
201411240600 AAXX 24064 67571 32981 30902 10256 20086 48525 70200 80001
                   333 10323 20172 59017 83080
                   555 00/// 20000=
201411200600 AAXX 20064 67571 12980 70000 10177 20151 48541 69934 70222 8707/
                   333 10215 20154 58009 87460
                   555 00/// 20990=
201411191200 AAXX 19124 67571 41482 71806 10192 20139 48501 70222 875//
                   333 58006 87615=
201411181500 AAXX 18154 67571 NIL=
201411181200 AAXX 18124 67571 42580 70908 10223 20155 48503 70222 8453/
                   333 58027 84620 87360=
201411180600 AAXX 18064 67571 11480 71206 10198 20158 48532 69904 72052 8653/
                   333 10326 20190 58024 86616 87360
                   555 00/// 20000=
201411170900 AAXX 17094 67571 42680 20605 10296 20102 48506 70500 82100
                   333 58001 81840=
201411141200 AAXX 14124 67571 NIL=
201411140600 AAXX 14064 67571 12981 73604 10257 20116 48525 69904 70222 80008
                   333 10311 20184 58008 87280
                   555 00/// 20000=
201411120900 AAXX 12094 67571 42680 20906 10290 20119 48495 70500 82500
                   333 59003 82640=
201411120600 AAXX 12064 67571 32980 40908 10242 20148 48524 70500 84030
                   333 10331 20192 58013 84360
                   555 00/// 20000=
201411070900 AAXX 07094 67571 42678 30908 10264 20151 48535 70500 83500
                   333 58009 83635=
201411060900 AAXX 06094 67571 42678 10908 10300 20086 48526 70500 81100
                   333 59003 81840=
201411050600 AAXX 05064 67571 32980 00604 10257 20110 48534 70500
                   333 10344 20194 59002=
201411040600 AAXX 04064 67571 12980 70603 10263 20126 48545 69904 70522 80008
                   333 10324 20201 59002 87280
                   555 00/// 20001=
201411030900 AAXX 03094 67571 42680 73602 10293 20144 48536 70522 83208
                   333 58020 81932 83832 87280=
201411030600 AAXX 03064 67571 12979 72702 10229 20157 48543 60014 70522 81038
                   333 10328 20176 58016 81360 87280
                   555 00/// 20000=

################################################################################
#  SYNOPS from 67575, Mkushi (Zambia) | 13-38-00S | 029-26-00E | 1237 m
################################################################################
201411280600 AAXX 28064 67575 32980 23603 10235 20172 48/// 80001
                   333 10354 20187 5//// 82080
                   555 00/// 20000=
201411271500 AAXX 27154 67575 NIL=
201411270600 AAXX 27064 67575 32980 00903 10263 20152 48///
                   333 10340 20200 5////
                   555 00/// 20000=
201411260600 AAXX 26064 67575 32980 11206 10260 20098 48/// 80001
                   333 10350 20195 5//// 81080
                   555 00/// 20000=
201411241200 AAXX 24124 67575 NIL=
201411240900 AAXX 24094 67575 NIL=
201411240600 AAXX 24064 67575 31980 10000 10244 20088 48/// 70200 80001
                   333 10330 20165 5//// 81080
                   555 00/// 20000=
201411200600 AAXX 20064 67575 11360 80000 10167 20161 48/// 60084 76162 8277/
                   333 10217 20157 5//// 82708 87360
                   555 00/// 20000=
201411191200 AAXX 19124 67575 NIL=
201411190600 AAXX 19064 67575 32480 71203 10180 20159 48/// 87500
                   333 10236 20170 5//// 87615
                   555 00/// 20026=
201411181500 AAXX 18154 67575 NIL=
201411180600 AAXX 18064 67575 12480 71403 10193 20168 48/// 60264 82572
                   333 10337 20172 5//// 82612 85360 81080
                   555 00/// 20000=
201411170900 AAXX 17094 67575 NIL=
201411141200 AAXX 14124 67575 NIL=
201411140600 AAXX 14064 67575 11980 50000 10225 20172 48/// 60064 70162 85070
                   333 10305 20195 5//// 85360 81080
                   555 00/// 20000=
201411120900 AAXX 12094 67575 NIL=
201411120600 AAXX 12064 67575 31475 10908 10259 20153 48/// 70510 81530
                   333 10350 20210 5//// 81615 81360
                   555 00/// 20000=
201411070900 AAXX 07094 67575 NIL=
201411060900 AAXX 06094 67575 NIL=
201411050600 AAXX 05064 67575 31970 03603 10271 20107 48/// 70500
                   333 10351 20182 5////
                   555 00/// 20000=
201411040600 AAXX 04064 67575 31970 10000 10270 20124 48/// 70501 81030
                   333 10318 20187 5//// 81360
                   555 00/// 20000=
201411030900 AAXX 03094 67575 NIL=
201411030600 AAXX 03064 67575 31970 00000 10245 20151 48/// 70500
                   333 10335 20196 5////
                   555 00/// 20000=

################################################################################
#  SYNOPS from 67580, Msekera (Zambia) | 13-39S | 032-34E | 1025 m
################################################################################
201411271500 AAXX 27154 67580 NIL=
201411270600 AAXX 27064 67580 12980 01203 10270 20178 48/// 60034
                   333 10359 20/// 59014
                   555 00/// 20000=
201411260600 AAXX 26064 67580 31575 10904 10278 20173 48/// 70500 81100
                   333 10370 20/// 58004 81825
                   555 00/// 20000=
201411250600 AAXX 25064 67580 31980 00000 10303 20156 48/// 70500
                   333 10369 20/// 59006
                   555 00/// 20000=
201411241200 AAXX 24124 67580 NIL=
201411240900 AAXX 24094 67580 42980 01103 10345 20070 48///
                   333 59021=
201411240600 AAXX 24064 67580 32980 03602 10284 20089 48///
                   333 10350 20/// 59020
                   555 00/// 20000=
201411210900 AAXX 21094 67580 42680 70000 10294 20171 48/// 86232
                   333 58000 86845 81360 82080=
201411200600 AAXX 20064 67580 32480 73603 10224 20162 48/// 8117/
                   333 10240 20/// 58004 81818 87460
                   555 00/// 20007=
201411191200 AAXX 19124 67580 NIL=
201411190600 AAXX 19064 67580 12480 71203 10186 20154 48/// 60074 875//
                   333 10290 20/// 58007 87614
                   555 00/// 20000=
201411181500 AAXX 18154 67580 NIL=
201411180600 AAXX 18064 67580 31575 71206 10249 20173 48/// 70522 85801
                   333 10367 20/// 58019 82820 83624 82080
                   555 00/// 20000=
201411170900 AAXX 17094 67580 NIL=
201411141200 AAXX 14124 67580 NIL=
201411140600 AAXX 14064 67580 31975 01004 10295 20156 48/// 70500
                   333 10360 20/// 58014
                   555 00/// 20000=
201411120900 AAXX 12094 67580 41775 60906 10327 20155 48/// 70521 86230
                   333 59001 86856 81360=
201411120600 AAXX 12064 67580 31575 41504 10268 20163 48/// 70500 81130
                   333 10369 20/// 59001 81825 83360
                   555 00/// 20000=
201411070900 AAXX 07094 67580 41775 71205 10298 20170 48/// 70521 872//
                   333 58006 87856=
201411070600 AAXX 07064 67580 31575 31804 10264 20173 48/// 70500 83130
                   333 10364 20/// 58011 83825 81362=
201411061200 AAXX 06124 67580 41875 51504 10344 20116 48/// 70511 85200
                   333 58011 85857=
201411060900 AAXX 06094 67580 41775 51207 10332 20132 48/// 70510 85200
                   333 58012 85856=
201411050600 AAXX 05064 67580 31980 10805 10305 20129 48/// 70500 80001
                   333 10369 20/// 59010 81080=
201411040600 AAXX 04064 67580 31975 00905 10295 20124 48/// 70500
                   333 10377 20/// 59002
                   555 00/// 20000=
201411030900 AAXX 03094 67580 41775 43603 10344 20144 48/// 70521 81131
                   333 58013 81856 82361 82080=
201411030600 AAXX 03064 67580 31575 50307 10282 20146 48/// 70521 81132
                   333 10366 20/// 58014 81820 84360 81080
                   555 00/// 20000=

################################################################################
#  SYNOPS from 67581, Chipata (Zambia) | 13-33S | 032-35E | 1028 m
################################################################################
201411280600 AAXX 28064 67581 31660 30503 10283 48552 70500 82102
                   333 10350 20185 58014 82835 81080
                   555 00180 91018=
201411271500 AAXX 27154 67581 NIL=
201411270600 AAXX 27064 67581 12980 00000 10273 20169 48527 69904
                   333 10340 20174 59015
                   555 00174 20000 91017=
201411260600 AAXX 26064 67581 32675 11504 10275 20165 48542 81100
                   333 10362 20215 58004 81830
                   555 00215 20000 91018=
201411241200 AAXX 24124 67581 42580 11002 10348 20083 48526 81100
                   333 59021 81838 91015=
201411240900 AAXX 24094 67581 42980 03501 10321 20097 48539
                   333 59021 91017=
201411240600 AAXX 24064 67581 32980 00602 10286 20049 48557
                   333 10350 20150 59019
                   555 00145 91019=
201411200600 AAXX 20064 67581 32580 80000 10214 20161 48550 8213/
                   333 10239 20151 58003 82830 88360
                   555 00155 91021=
201411191200 AAXX 19124 67581 NIL=
201411190600 AAXX 19064 67581 12680 71202 10192 20155 48543 60184 81170
                   333 10296 20151 58009 81830 87459
                   555 00154 91021=
201411181500 AAXX 18154 67581 NIL=
201411180600 AAXX 18064 67581 31670 30910 10240 20164 48543 70500 81102
                   333 10355 20194 58017 81835 82080
                   555 00196 20000 91019=
201411170900 AAXX 17094 67581 NIL=
201411141200 AAXX 14124 67581 NIL=
201411140600 AAXX 14064 67581 32980 00910 10280 20152 48553 70200
                   333 10351 20221 58018
                   555 00216 20000 91088=
201411120900 AAXX 12094 67581 41570 50805 10295 20136 48529 70522 85230
                   333 59002 85835 82360 91017=
201411120600 AAXX 12064 67581 31570 40505 10275 20157 48537 70522 81130
                   333 10358 20220 59001 83830 83360
                   555 00225 91018=
201411070900 AAXX 07094 67581 NIL=
201411060900 AAXX 06094 67581 NIL=
201411040600 AAXX 04064 67581 31970 00408 10289 20106 48570 70500
                   333 10357 20207 59002
                   555 00191 91021=
201411030900 AAXX 03094 67581 NIL=
201411030600 AAXX 03064 67581 32660 30506 10280 20153 48560 81130
                   333 10352 20222 58014 81835 82360
                   555 00218 91021=

################################################################################
#  SYNOPS from 67583, Lundazi (Zambia) | 12-17S | 033-12E | 1143 m
################################################################################
201411280600 AAXX 28064 67583 31978 01204 10280 20184 70500
                   333 10335 20/// 59087=
201411271500 AAXX 27154 67583 NIL=
201411270600 AAXX 27064 67583 31678 20901 10275 20159 70500 81130
                   333 10335 20/// 59002 81829 81360
                   555 00/// /2000=
201411260600 AAXX 26064 67583 31978 11504 10270 20175 48/// 70500 81500
                   333 10355 20/// 59002 81625=
201411241200 AAXX 24124 67583 NIL=
201411240900 AAXX 24094 67583 NIL=
201411240600 AAXX 24064 67583 32980 01201 10225 20163 48///
                   333 10335 20/// 58010=
201411210600 AAXX 21064 67583 32980 73601 10230 20169 48/// 87030
                   333 10280 20//0 59021 87360=
201411201200 AAXX 20124 67583 42680 72703 10275 20177 48/// 85238
                   333 5//// 85838 82360 85280=
201411200600 AAXX 20064 67583 32980 80000 10207 20174 48/// 86037
                   333 10250 20/// 59012 86360 88280=
201411191200 AAXX 19124 67583 NIL=
201411181500 AAXX 18154 67583 NIL=
201411180600 AAXX 18064 67583 31578 71503 10247 20192 48/// 70521 87500
                   333 10345 20/// 59016 87625=
201411170900 AAXX 17094 67583 NIL=
201411141200 AAXX 14124 67583 NIL=
201411120900 AAXX 12094 67583 NIL=
201411120600 AAXX 12064 67583 NIL=
201411070900 AAXX 07094 67583 NIL=
201411060900 AAXX 06094 67583 NIL=
201411030900 AAXX 03094 67583 NIL=
201411030600 AAXX 03064 67583 32980 40000 10267 20164 60854 70300 82031
                   333 10335 20/// 5//// 82360 82080
                   555 00/// 20000=

################################################################################
#  SYNOPS from 67599, Mfuwe (Zambia) | 13-16S | 031-56E | 568 m
################################################################################
201411280600 AAXX 28064 67599 32980 10000 10313 20178 48540 81030
                   333 10409 20224 58009 81360
                   555 00228 91015=
201411271500 AAXX 27154 67599 NIL=
201411260600 AAXX 26064 67599 32980 01708 10316 20182 48541
                   333 10419 20245 59001
                   555 00240 91015=
201411241200 AAXX 24124 67599 NIL=
201411240900 AAXX 24094 67599 NIL=
201411240600 AAXX 24064 67599 32980 00000 10305 20123 48552 70200
                   333 10390 20190 59017
                   555 00172 91016=
201411200600 AAXX 20064 67599 32980 71902 10238 20166 48552 70222 8707/
                   333 10282 20202 58005 87360
                   555 00200 91019=
201411191200 AAXX 19124 67599 NIL=
201411190600 AAXX 19064 67599 12480 71807 10217 20173 48540 60074 81130
                   333 10346 20203 58014 81818 86359
                   555 00200 91019=
201411181500 AAXX 18154 67599 NIL=
201411180600 AAXX 18064 67599 32680 41810 10285 20185 48548 83130
                   333 10400 20253 58028 83835 82360
                   555 00250 91017=
201411170900 AAXX 17094 67599 NIL=
201411141200 AAXX 14124 67599 NIL=
201411140600 AAXX 14064 67599 32980 00000 10315 20173 48544
                   333 10408 20205 58009
                   555 00190 91015=
201411120900 AAXX 12094 67599 NIL=
201411120600 AAXX 12064 67599 32980 41607 10310 20190 48540
                   333 10410 20250 59003
                   555 00245 91015=
201411070900 AAXX 07094 67599 NIL=
201411060900 AAXX 06094 67599 NIL=
201411050600 AAXX 05064 67599 32980 00905 10316 20141 48556
                   333 10412 20204 59005
                   555 00200 91017=
201411040600 AAXX 04064 67599 32980 00906 10310 20129 48559 70200
                   333 10412 20210 59001
                   555 00206 91017=
201411030900 AAXX 03094 67599 NIL=
201411030600 AAXX 03064 67599 32980 10904 10314 20180 48564 70100 81030
                   333 10400 20250 58007 81362
                   555 00225 91017=

################################################################################
#  SYNOPS from 67625, Kalabo (Zambia) | 14-51S | 022-42E | 1033 m
################################################################################
201411280600 AAXX 28064 67625 32982 60603 10236 20166 48/// 8603/
                   333 10369 20184 58008 86360=
201411271500 AAXX 27154 67625 NIL=
201411270600 AAXX 27064 67625 32982 31204 10247 20191 48/// 80003
                   333 10385 20189 58004 83075=
201411260600 AAXX 26064 67625 NIL=
201411241200 AAXX 24124 67625 NIL=
201411240900 AAXX 24094 67625 NIL=
201411200600 AAXX 20064 67625 32682 63608 10230 20184 48/// 70300 86501
                   333 10285 20170 59006 84630 82075=
201411191200 AAXX 19124 67625 NIL=
201411181500 AAXX 18154 67625 NIL=
201411170900 AAXX 17094 67625 NIL=
201411141200 AAXX 14124 67625 NIL=
201411120900 AAXX 12094 67625 NIL=
201411120600 AAXX 12064 67625 NIL=
201411070900 AAXX 07094 67625 NIL=
201411060900 AAXX 06094 67625 NIL=
201411030900 AAXX 03094 67625 NIL=

################################################################################
#  SYNOPS from 67633, Mongu (Zambia) | 15-15S | 023-09E | 1052 m
################################################################################
201411280600 AAXX 28064 67633 12980 70202 10226 20199 48527 60034 70222 8707/
                   333 10363 20197 58035 87460 91019=
201411271500 AAXX 27154 67633 NIL=
201411270600 AAXX 27064 67633 32980 53605 10252 20185 48498 80008
                   333 10385 20204 59026 85280 91015=
201411260600 AAXX 26064 67633 32980 32703 10246 20171 48521 70100 83032
                   333 10370 20208 58009 83361 83080 91018=
201411250600 AAXX 25064 67633 32980 50903 10275 20199 48517 85030
                   333 10355 20216 59011 85360 91017=
201411241200 AAXX 24124 67633 NIL=
201411240900 AAXX 24094 67633 NIL=
201411240600 AAXX 24064 67633 32980 40903 10255 20200 48530 70122 81032
                   333 10282 20186 59028 81361 83080 91018=
201411210600 AAXX 21064 67633 32980 33308 10238 20179 48529 70200 81032
                   333 10340 20195 59002 81360 82080 91019=
201411200600 AAXX 20064 67633 NIL=
201411191200 AAXX 19124 67633 NIL=
201411181500 AAXX 18154 67633 NIL=
201411180600 AAXX 18064 67633 12980 71205 10226 20169 48518 69904 70222 87070
                   333 10310 20200 58017 87460
                   555 00/// 20000 91018=
201411170900 AAXX 17094 67633 NIL=
201411170600 AAXX 17064 67633 32980 71503 10224 20180 48512 8707/
                   333 10355 20196 59005 87460 91016=
201411141200 AAXX 14124 67633 NIL=
201411140600 AAXX 14064 67633 32980 60000 10238 20193 48521 86030
                   333 10321 20208 58004 86360 91018=
201411120900 AAXX 12094 67633 NIL=
201411120600 AAXX 12064 67633 12980 52003 10241 20192 48500 69904 85030
                   333 10325 20204 59011 85360 91016=
201411100600 AAXX 10064 67633 12980 50904 10245 20186 48509 60264 85030
                   333 10356 20185 59031 85361 91016=
201411070900 AAXX 07094 67633 NIL=
201411070600 AAXX 07064 67633 11980 70902 10215 20187 48544 60014 76066 81938
                   333 10385 20204 58021 81959 84460 87280 91021=
201411060900 AAXX 06094 67633 NIL=
201411050600 AAXX 05064 67633 11980 70000 10218 20195 48540 60044 70262 8707/
                   333 10345 20205 59002 87460 91020=
201411030900 AAXX 03094 67633 NIL=
201411030600 AAXX 03064 67633 32980 5//// 10227 20183 48537 70280 87030
                   333 10327 20204 58024 87360 91020=

################################################################################
#  SYNOPS from 67641, Kaoma (Zambia) | 14-48S | 024-48E | 1213 m
################################################################################
201411280600 AAXX 28064 67641 12980 72604 10199 20176 48502 60064 8703/
                   333 10360 20181 58015 87360 91016=
201411271500 AAXX 27154 67641 NIL=
201411270600 AAXX 27064 67641 32980 43604 10241 20182 48483 80001
                   333 10357 20182 59027 84080 91014=
201411260600 AAXX 26064 67641 32980 50000 10232 20187 48512 85070
                   333 10366 20204 58010 85360
                   555 00/// 91017=
201411250600 AAXX 25064 67641 32980 10000 10240 20182 48504 81060
                   333 10350 20176 59021 81360 91016=
201411241200 AAXX 24124 67641 NIL=
201411240900 AAXX 24094 67641 NIL=
201411210600 AAXX 21064 67641 32980 10000 10212 20182 48513 81030
                   333 10304 20165 59012 81360 91017=
201411200600 AAXX 20064 67641 NIL=
201411191200 AAXX 19124 67641 NIL=
201411190600 AAXX 19064 67641 32680 51002 10206 20168 48517 84130
                   333 10295 20177 58000 84840 81360 91017=
201411181500 AAXX 18154 67641 NIL=
201411170900 AAXX 17094 67641 NIL=
201411141200 AAXX 14124 67641 NIL=
201411140600 AAXX 14064 67641 31775 60000 10210 20173 48509 84470
                   333 10311 20175 58001 84656 82360 91017=
201411130600 AAXX 13064 67641 11775 80901 10189 20177 48505 60554 8747/
                   333 10345 20185 58030 87656 82360 91017=
201411120900 AAXX 12094 67641 NIL=
201411120600 AAXX 12064 67641 32980 20802 10232 20178 48485 82030
                   333 10334 20195 59021 82360 91014=
201411100600 AAXX 10064 67641 12980 70000 10212 20189 48502 60074 87030
                   333 10335 20189 59014 59014 87360
                   555 00/// 20000 91016=
201411070900 AAXX 07094 67641 NIL=
201411060900 AAXX 06094 67641 NIL=
201411050600 AAXX 05064 67641 12980 50801 10220 20190 48523 60094 83032
                   333 10345 20192 59001 83360 82080 91018=
201411040600 AAXX 04064 67641 12980 31802 10248 20184 48528 69934 81032
                   333 10315 20200 59003 81360 82080
                   555 00/// 20008 91018=
201411030900 AAXX 03094 67641 NIL=
201411030600 AAXX 03064 67641 31980 80602 10226 20183 48520 86560
                   333 10312 20210 59001 86657 82360 91018=

################################################################################
#  SYNOPS from 67655, Mumbwa (Zambia) | 15-04S | 027-11E | 1216 m
################################################################################
201411271500 AAXX 27154 67655 NIL=
201411260600 AAXX 26064 67655 NIL=
201411241200 AAXX 24124 67655 NIL=
201411240900 AAXX 24094 67655 NIL=
201411240600 AAXX 24064 67655 32980 20000 10255 20102 48545 81031
                   333 10342 20/// 59009 81360 81080 91020=
201411200600 AAXX 20064 67655 NIL=
201411191200 AAXX 19124 67655 NIL=
201411181500 AAXX 18154 67655 NIL=
201411180600 AAXX 18064 67655 32480 51010 10212 20176 48550 83630
                   333 10300 20/// 58012 83615 83360
                   555 00/// 910217=
201411170900 AAXX 17094 67655 NIL=
201411141200 AAXX 14124 67655 NIL=
201411140600 AAXX 14064 67655 32580 30404 10252 20182 48539 83080
                   333 10305 20/// 59002 83359 91020=
201411120900 AAXX 12094 67655 NIL=
201411120600 AAXX 12064 67655 NIL=
201411100600 AAXX 10064 67655 32980 10905 10279 20135 48536 81030
                   333 10350 20/// 59007 81360=
201411070900 AAXX 07094 67655 NIL=
201411060900 AAXX 06094 67655 NIL=
201411030900 AAXX 03094 67655 NIL=

################################################################################
#  SYNOPS from 67659, Kafue Polder (Zambia) | 15-46S | 027-55E | 978 m
################################################################################
201411271500 AAXX 27154 67659 NIL=
201411260600 AAXX 26064 67659 NIL=
201411241200 AAXX 24124 67659 NIL=
201411240900 AAXX 24094 67659 NIL=
201411200600 AAXX 20064 67659 NIL=
201411191200 AAXX 19124 67659 NIL=
201411181500 AAXX 18154 67659 NIL=
201411170900 AAXX 17094 67659 NIL=
201411141200 AAXX 14124 67659 NIL=
201411120900 AAXX 12094 67659 NIL=
201411120600 AAXX 12064 67659 NIL=
201411070900 AAXX 07094 67659 NIL=
201411060900 AAXX 06094 67659 NIL=
201411030900 AAXX 03094 67659 NIL=

################################################################################
#  SYNOPS from 67662, Kabwe Agric (Zambia) | 14-24S | 028-30E | 1165 m
################################################################################
201411280600 AAXX 28064 67662 32980 11608 10264 20148 80001
                   333 10357 20//0 81080
                   555 00/// 20000=
201411271500 AAXX 27154 67662 NIL=
201411260600 AAXX 26064 67662 32980 11509 10289 20079 80001
                   333 10357 20/// 81080
                   555 00/// 20000=
201411241200 AAXX 24124 67662 NIL=
201411240900 AAXX 24094 67662 42980 10906 10330 20073 48/// 80001
                   333 81080=
201411240600 AAXX 24064 67662 32980 10808 10271 20083 80001
                   333 10343 20/// 81080
                   555 00/// 20000=
201411200600 AAXX 20064 67662 32980 70406 10190 20146 8707/
                   333 10205 20/// 87360
                   555 00/// 20000=
201411191200 AAXX 19124 67662 NIL=
201411181500 AAXX 18154 67662 NIL=
201411180600 AAXX 18064 67662 11470 71806 10190 20176 60014 72162 876//
                   333 10335 20/// 87710
                   555 00/// 20000=
201411170900 AAXX 17094 67662 NIL=
201411141200 AAXX 14124 67662 NIL=
201411140600 AAXX 14064 67662 31975 42605 10256 20165 70500 83032
                   333 10332 20/// 83360 81080
                   555 00/// 20000=
201411120900 AAXX 12094 67662 41675 70816 10309 20163 70522 86230
                   333 86849 85360=
201411120600 AAXX 12064 67662 31975 70814 10260 20161 48/// 70522 87030
                   333 10359 20/// 87360
                   555 00/// 20000=
201411100600 AAXX 10064 67662 31975 00704 10277 20156 70500
                   333 10365 20/// 555 00/// 20000=
201411070900 AAXX 07094 67662 NIL=
201411060900 AAXX 06094 67662 NIL=
201411030900 AAXX 03094 67662 NIL=

################################################################################
#  SYNOPS from 67663, Kabwe (Zambia) | 14-27S | 028-28E | 1206 m
################################################################################
201411280600 AAXX 28064 67663 31970 33004 10254 20148 48517 70500 80002
                   333 10373 20209 58011 83080=
201411271500 AAXX 27154 67663 NIL=
201411270600 AAXX 27064 67663 31970 00904 10259 20151 48506 70500
                   333 10356 20203 59034
                   555 00///=
201411260600 AAXX 26064 67663 31970 20707 10265 20101 48540 70500 80002
                   333 10356 20210 58023 82080
                   555 00///=
201411241200 AAXX 24124 67663 NIL=
201411240900 AAXX 24094 67663 NIL=
201411200600 AAXX 20064 67663 31570 60303 10187 20146 48538 70522 86500
                   333 10203 20151 59006 86622 555=
201411191200 AAXX 19124 67663 NIL=
201411190600 AAXX 19064 67663 11570 80706 10180 20151 48542 69904 75055 885//
                   333 10240 20173 58006 88620
                   555 00///=
201411181500 AAXX 18154 67663 NIL=
201411180600 AAXX 18064 67663 11570 81008 10190 20174 48538 69904 75052 8557/
                   333 10333 20178 58019 85625 88460
                   555 00///=
201411170900 AAXX 17094 67663 NIL=
201411141200 AAXX 14124 67663 NIL=
201411140600 AAXX 14064 67663 11970 33504 10253 20161 48551 69904 70500 82032
                   333 10326 20209 58035 82360 82080=
201411120900 AAXX 12094 67663 NIL=
201411120600 AAXX 12064 67663 NIL=
201411070900 AAXX 07094 67663 NIL=
201411070600 AAXX 07064 67663 31970 50806 10229 20167 48547 70522 85030
                   333 10356 20208 58019 85360=
201411060900 AAXX 06094 67663 NIL=
201411060600 AAXX 06064 67663 31970 01610 10283 20108 48535 70500
                   333 10367 20228 58003
                   555 00///=
201411050600 AAXX 05064 67663 31975 01605 10275 20119 48531 70500
                   333 10350 20220 59004
                   555 00///=
201411030900 AAXX 03094 67663 NIL=

################################################################################
#  SYNOPS from 67665, Lusaka Internationalairport (Zambia) | 15-19S | 028-27E | 1152 m
################################################################################
201412010300 AAXX 01034 67665 42980 51205 10200 20125 48526 70222 85030
                   333 58005 85360=
201411302100 AAXX 30214 67665 42980 41205 10234 20128 48526 70222 84030
                   333 58008 84360=
201411301800 AAXX 30184 67665 42980 10907 10263 20124 48516 70200 81030
                   333 58002 81360=
201411301500 AAXX 30154 67665 42960 30709 10315 20144 48498 70100 83101
                   333 58003 83848 81080=
201411300900 AAXX 30094 67665 42660 20510 10292 20157 48543 70100 82101
                   333 58016 82835 81080 91020=
201411300300 AAXX 30034 67665 42980 51402 10196 20190 48521 82032
                   333 58012 82360 83080=
201411292100 AAXX 29214 67665 41960 72306 10216 20151 48517 71796 8193/
                   333 58011 81950 87359=
201411291800 AAXX 29184 67665 42780 52005 10261 20140 48513 71322 81902
                   333 58016 81956 84080=
201411291500 AAXX 29154 67665 42780 51003 10335 20186 48512 70222 82202
                   333 58008 82856 85080=
201411291200 AAXX 29124 67665 42680 63403 10328 20198 48513 70222 84202
                   333 58003 84850 85080=
201411290900 AAXX 29094 67665 42680 32702 10316 20192 48531 70300 82102
                   333 58002 82835 83080 91018=
201411290600 AAXX 29064 67665 32980 30000 10254 20174 48532 70200 80001
                   333 10355 20//0 58001=
201411290000 AAXX 29004 67665 42980 12894 10231 20100 48502 70200 81030
                   333 58019 81360=
201411282100 AAXX 28214 67665 42980 01503 10231 20100 48502 70200
                   333 58007=
201411281800 AAXX 28184 67665 42980 20903 10274 20124 48500 80002
                   333 58006 82080=
201411281500 AAXX 28154 67665 42980 30603 10338 20134 48488 81032
                   333 58005 81360 82080=
201411281200 AAXX 28124 67665 41670 30604 10334 20151 48510 70500 83200
                   333 58016 83845=
201411280900 AAXX 28094 67665 41670 20803 10302 20149 48526 70500 81202
                   333 58010 81835 82080=
201411280600 AAXX 28064 67665 31970 20306 10273 20140 48533 70500 80002
                   333 10358 20//0 58012 81080=
201411271800 AAXX 27184 67665 42980 01205 10287 20095 48489 70100
                   333 59008=
201411271500 AAXX 27154 67665 42680 20304 10337 20134 48474 70200 82100
                   333 59012 82838=
201411271200 AAXX 27124 67665 42680 20405 10334 20128 48498 70300 81101=
201411270600 AAXX 27064 67665 32980 00908 10250 20056 48514 70200 81030
                   333 10352 20//0 59021 81360=
201411270300 AAXX 27034 67665 42980 01503 10183 20115 48501
                   333 59013=
201411270000 AAXX 27004 67665 42980 01204 10194 20096 48493
                   333 59008=
201411262100 AAXX 26214 67665 42980 01003 10222 20089 48506
                   333 59002=
201411261500 AAXX 26154 67665 42980 11113 10326 20091 48494 81031
                   333 59004 81359 81080=
201411261200 AAXX 26124 67665 42680 20814 10332 20109 48504 81201
                   333 59010 81840 81080=
201411260900 AAXX 26094 67665 42980 11011 10307 20104 48539 80001
                   333 59007 81080=
201411260600 AAXX 26064 67665 NIL=
201411251800 AAXX 25184 67665 42980 20905 10269 20184 48504 82060
                   333 59009 82360=
201411251500 AAXX 25154 67665 42980 21008 10334 20117 48499 82060
                   333 59004 82360=
201411251200 AAXX 25124 67665 42980 30910 10342 20116 48515 83100
                   333 59000 83842=
201411250600 AAXX 25064 67665 32980 00905 10265 20105 48536 70200
                   333 10355 20//0 59002=
201411250300 AAXX 25034 67665 42980 01202 10187 20089 48512 70200
                   333 59004=
201411242100 AAXX 24214 67665 42980 10000 10227 20108 48521 70200 81030
                   333 59013 81360=
201411241800 AAXX 24184 67665 42980 11203 10268 20120 48515 70200 81030
                   333 10355 59011 81360=
201411241500 AAXX 24154 67665 42980 11306 10341 20128 48505 70200 81030
                   333 59009 81360=
201411241200 AAXX 24124 67665 NIL=
201411240900 AAXX 24094 67665 42980 00506 10309 20141 48536
                   333 58017=
201411240600 AAXX 24064 67665 32980 11005 10249 20126 48537 80001
                   333 10336 20//0 59018 81080=
201411240300 AAXX 24034 67665 42980 11003 10172 20077 48514 80002
                   333 59018 81080=
201411232100 AAXX 23214 67665 42980 11403 10207 20104 48531 80002
                   333 59002 81080=
201411231500 AAXX 23154 67665 42980 40904 10320 20094 48511 70222 80002
                   333 59004 84080=
201411231200 AAXX 23124 67665 42980 40805 10322 20110 48528 70222 80001
                   333 59008 84080=
201411230600 AAXX 23064 67665 32980 60706 10248 20146 48553 70222 80002
                   333 10//0 20//0 59004 86280
                   555 00///=
201411230300 AAXX 23034 67665 42980 21206 10180 20108 48525 70300 80001
                   333 58004 82080=
201411230000 AAXX 23004 67665 42980 11205 10201 20109 48518 70300 81030
                   333 58006 81360=
201411222100 AAXX 22214 67665 42980 01403 10219 20118 48530 70200
                   333 58008=
201411221800 AAXX 22184 67665 42780 21005 10264 20146 48528 70100 81031
                   333 10335 58010 81956 81360 81080=
201411221500 AAXX 22154 67665 42780 51406 10309 20142 48514 70322 81930
                   333 58010 81950 84850 81360=
201411221200 AAXX 22124 67665 42680 50507 10326 20168 48537 70222 85200
                   333 58017 85845=
201411220900 AAXX 22094 67665 42680 50610 10298 20178 48555 85202
                   333 5//// 85835 81080=
201411220600 AAXX 22064 67665 32580 30707 10250 20166 48558 81132
                   333 10331 20/// 58015 81820 81360 83080=
201411220300 AAXX 22034 67665 42980 11902 10184 20094 48528 81030
                   333 58010 81360=
201411220000 AAXX 22004 67665 42980 21603 10203 20097 48521 82030
                   333 58003 82360=
201411212100 AAXX 21214 67665 42980 21203 10226 20107 48527 82030
                   333 59014 82360=
201411210000 AAXX 21004 67665 42980 03605 10191 20151 48516
                   333 59019=
201411202100 AAXX 20214 67665 42980 13504 10203 20149 48537 81032
                   333 59006 81360 81080=
201411201500 AAXX 20154 67665 42680 52701 10266 20174 48510 70122 81132
                   333 59001 81945 81360 84080 91017=
201411201200 AAXX 20124 67665 42980 72502 10260 20154 48521 70322 83202
                   333 59015 83832 86280=
201411200900 AAXX 20094 67665 42680 31002 10237 20115 48542 70200 82130
                   333 59013 82830 83360=
201411200600 AAXX 20064 67665 NIL=
201411191800 AAXX 19184 67665 42980 60204 10195 20155 48533 86030
                   333 58002 86360=
201411191500 AAXX 19154 67665 42680 70405 10212 20153 48517 82830
                   333 59006 81640 82842 86459=
201411191200 AAXX 19124 67665 NIL=
201411190300 AAXX 19034 67665 42980 60912 10176 20139 48531 70222 86030
                   333 58002 86360=
201411190000 AAXX 19004 67665 42980 60914 10185 20144 48528 70222 86030
                   333 59001 86360=
201411182100 AAXX 18214 67665 42980 41009 10187 20146 48539 70222 84030
                   333 59003 84360=
201411181500 AAXX 18154 67665 NIL=
201411181200 AAXX 18124 67665 42680 61013 10223 20142 48530 86800
                   333 58038 83630 85832=
201411180900 AAXX 18094 67665 42560 70814 10216 20161 48550 8553/
                   333 58030 85625 87360=
201411180600 AAXX 18064 67665 12460 71009 10192 20166 48549 8553/
                   333 58020 85618 8/359=
201411180300 AAXX 18034 67665 42460 71005 10187 20177 48533 70222 8453/
                   333 58028 84610 87359=
201411172100 AAXX 17214 67665 41759 52303 10176 20135 48540 79596 81930
                   333 58037 81950 85359=
201411171800 AAXX 17184 67665 41780 51009 10262 20142 48515 71322 81931
                   333 58011 81956 85360=
201411171500 AAXX 17154 67665 42780 51005 10299 20153 48491 70222 83231
                   333 59002 84856 82360 84080=
201411171200 AAXX 17124 67665 42680 51008 10310 20157 48503 70222 84231
                   333 58001 84845 82360 82080=
201411170900 AAXX 17094 67665 42680 61113 10296 20156 48531 82231
                   333 58004 82845 83360 82080=
201411170600 AAXX 17064 67665 32980 70814 10254 20142 48534 87030
                   333 10344 20//0 58002 87360=
201411170300 AAXX 17034 67665 42980 21009 10224 20119 48510 70300 82030
                   333 59006 82359=
201411170000 AAXX 17004 67665 42980 11303 10235 20098 48493 70200 81030
                   333 59003 81360=
201411161800 AAXX 16184 67665 42980 01403 10256 20104 48504
                   333 58003=
201411161200 AAXX 16124 67665 42780 61505 10331 20175 48505 86200
                   333 59008 86850=
201411160900 AAXX 16094 67665 41670 50907 10303 20177 48527 70500 85200
                   333 59013 85840=
201411160600 AAXX 16064 67665 31970 11309 10260 20166 48535 70500 80002
                   333 10350 20//0 59012 81080=
201411150300 AAXX 15034 67665 42980 63003 10233 20144 48518 86030
                   333 59001 86360=
201411150000 AAXX 15004 67665 42980 11204 10226 20106 48501 81030
                   333 59018 81360=
201411142100 AAXX 14214 67665 42980 11102 10238 20089 48514 81030
                   333 59001 81360=
201411141500 AAXX 14154 67665 42780 40711 10327 20090 48488 82231
                   333 59009 82856 83360 81080=
201411141200 AAXX 14124 67665 NIL=
201411131800 AAXX 13184 67665 41660 32104 10234 20164 48498 71399 81960
                   333 58006 81940 83360=
201411131500 AAXX 13154 67665 41680 62409 10233 20139 48486 71722 81900
                   333 58011 81940 85845=
201411131200 AAXX 13124 67665 42680 40603 10330 20123 48501 84201
                   333 59005 84845 81080=
201411130900 AAXX 13094 67665 42680 43604 10287 20110 48528 84201
                   333 58009 84832 81080=
201411130600 AAXX 13064 67665 32580 51903 10250 20095 48524 81131
                   333 10340 20/// 58007 81825 83360 83080=
201411130300 AAXX 13034 67665 42980 31102 10223 20110 48508 70200 83031
                   333 58001 83360 81080=
201411122100 AAXX 12214 67665 42980 31103 10242 20082 48510 70200 83030
                   333 58000 83360=
201411121500 AAXX 12154 67665 42780 30606 10322 20049 48485 82201
                   333 59004 82856 81080=
201411121200 AAXX 12124 67665 42680 50309 10310 20063 48504 85100
                   333 58003 85845=
201411120900 AAXX 12094 67665 NIL=
201411120600 AAXX 12064 67665 NIL=
201411120300 AAXX 12034 67665 42980 40808 10229 20111 48508 84030
                   333 58002 84360=
201411120000 AAXX 12004 67665 42980 60908 10246 20150 48506 86030
                   333 58009 86360=
201411112100 AAXX 11214 67665 42980 20915 10260 20120 48512 82030
                   333 58002 82360=
201411111800 AAXX 11184 67665 42980 31004 10271 20125 48497 70200 83030
                   333 10320 59003 83360=
201411111500 AAXX 11154 67665 40907 10336 20124 48491 70222 84200
                   333 58001 84856=
201411111200 AAXX 11124 67665 42680 51014 10346 20123 48505 70222 85200
                   333 59002 85848=
201411110900 AAXX 11094 67665 42680 30306 10322 20132 48528 83100
                   333 58000 83840=
201411110600 AAXX 11064 67665 32980 10811 10280 20126 48530 80001
                   333 59006 81080=
201411110000 AAXX 11004 67665 42980 01103 10204 20088 48489 70200
                   333 59016=
201411102100 AAXX 10214 67665 42980 01103 10230 20089 48502 70200
                   333 59012=
201411101200 AAXX 10124 67665 42780 60705 10332 20136 48505 86230
                   333 59011 86850 82360=
201411100900 AAXX 10094 67665 42680 20805 10312 20138 48526 82200
                   333 59015 82840=
201411091800 AAXX 09184 67665 42980 01303 10256 20103 48505 70200
                   333 59005=
201411091500 AAXX 09154 67665 42680 30911 10314 20125 48501 70121 83400
                   333 59011 81839 83640=
201411091200 AAXX 09124 67665 42680 50706 10327 20117 48514 70122 84201
                   333 59014 84838 81080=
201411090000 AAXX 09004 67665 42980 11304 10191 20114 48511 81030
                   333 59014 81360=
201411080900 AAXX 08094 67665 42580 10810 10278 20111 48550 81530
                   333 59016 81625 81360=
201411080600 AAXX 08064 67665 32980 00910 10220 20103 48549
                   333 10350 20//0 59011=
201411071800 AAXX 07184 67665 42980 01008 10246 20114 48530
                   333 59010=
201411071200 AAXX 07124 67665 42680 50806 10302 20121 48543 85200
                   333 58011 85840=
201411070900 AAXX 07094 67665 NIL=
201411070300 AAXX 07034 67665 42980 61014 10221 20111 48547 70322 85032
                   333 58018 85360 82080=
201411070000 AAXX 07004 67665 42980 31102 10215 20114 48539 70200 83030
                   333 58022 83360=
201411062100 AAXX 06214 67665 42980 41005 10232 20114 48548 70200 83030
                   333 58023 83360=
201411061200 AAXX 06124 67665 41760 50613 10325 20102 48536 70522 85201
                   333 58016 85850 83080=
201411060900 AAXX 06094 67665 NIL=
201411060300 AAXX 06034 67665 42980 61003 10236 20140 48533 86030
                   333 58003 86360=
201411051800 AAXX 05184 67665 42980 11004 10275 20130 48523 70200 81030
                   333 59008 81360=
201411051200 AAXX 05124 67665 42680 31204 10335 20106 48523 70200 83101
                   333 59008 83835 81080=
201411050900 AAXX 05094 67665 41780 30205 10315 20099 48551 81101
                   333 58000 81850 83080=
201411050600 AAXX 05064 67665 12980 11007 10268 20125 48551 69904 81030
                   333 10360 20//0 59001 81360=
201411041800 AAXX 04184 67665 42980 21105 10268 20090 48529 82031
                   333 58010 82360 81080=
201411041200 AAXX 04124 67665 41770 41307 10335 20109 48531 70522 84200
                   333 58010 84856=
201411040900 AAXX 04094 67665 41660 30608 10312 20160 48548 70500 83200
                   333 58004 83843=
201411040600 AAXX 04064 67665 31960 00704 10278 20157 48554 70500
                   333 10352 20/// 5////=
201411040300 AAXX 04034 67665 42980 00903 10177 20064 48519 70200
                   333 59004=
201411031200 AAXX 03124 67665 42780 40906 10342 20105 48521 84200
                   333 58004 84857=
201411030900 AAXX 03094 67665 NIL=
201411030300 AAXX 03034 67665 42980 11204 10201 20134 48524 81030
                   333 58009 81360=
201411021800 AAXX 02184 67665 42980 21804 10253 20108 48518 70200 81031
                   333 10344 81360 81080=
201411021200 AAXX 02124 67665 42680 50607 10330 20111 48516 70322 83230
                   333 58015 83850 81360=
201411012100 AAXX 01214 67665 42980 00904 10247 20114 48519
                   333 59007=
201411011800 AAXX 01184 67665 42980 01005 10258 20094 48502
                   333 59000=
201411011200 AAXX 01124 67665 42780 30804 10326 20102 48500 83100
                   333 59001 83856=
201411010600 AAXX 01064 67665 32980 00708 10259 20080 48525
                   333 59005=

################################################################################
#  SYNOPS from 67666, Lusaka City Airport (Zambia) | 15-25-00S | 028-28-00E | 1280 m
################################################################################
201411280600 AAXX 28064 67666 32980 11005 10265 20146 48524 80002
                   333 10345 20210 58011 81080 91018=
201411271500 AAXX 27154 67666 NIL=
201411270600 AAXX 27064 67666 32980 08009 10240 20155 48502
                   333 10336 20199 58017 91017=
201411260600 AAXX 26064 67666 32980 01408 10251 20146 48524
                   333 10335 20214 58004 91019=
201411250600 AAXX 25064 67666 32980 00910 10270 20144 48529
                   333 10338 20184 59002
                   555 00/// 91019=
201411241200 AAXX 24124 67666 NIL=
201411240900 AAXX 24094 67666 NIL=
201411240600 AAXX 24064 67666 32980 20910 10253 20154 48530 80001
                   333 10321 20181 59017 82080 91019=
201411210600 AAXX 21064 67666 32980 10202 10219 20174 48/// 80001
                   333 10266 20149 58005 81080 91020=
201411200600 AAXX 20064 67666 32980 61010 10182 20146 48540 84072
                   333 10220 20140 58002 84360 82080
                   555 91021=
201411191200 AAXX 19124 67666 NIL=
201411190600 AAXX 19064 67666 42380 71008 10/// 20137 48536 875//
                   333 10215 20157 58003 87610
                   555 00/// 910215=
201411181500 AAXX 18154 67666 NIL=
201411180900 AAXX 18094 67666 41280 81424 10264 20165 48539 70222 8587/
                   333 58026 82707 83630 86360 91021=
201411180600 AAXX 18064 67666 11280 81712 10189 20174 48537 60204 70222 8567/
                   333 10310 20159 58015 85705 87459 91021=
201411170900 AAXX 17094 67666 NIL=
201411141200 AAXX 14124 67666 NIL=
201411140600 AAXX 14064 67666 11480 20000 10250 20168 48529 60084 70500 81102
                   333 10326 20175 58003 81810 81080 91019=
201411120900 AAXX 12094 67666 41675 40920 10290 20174 48508 70500 83530
                   333 59004 83630 81360 91017=
201411120600 AAXX 12064 67666 11570 30914 10243 20178 48504 69904 70500 81580
                   333 10348 20214 59007 81620 82359 91017=
201411100600 AAXX 10064 67666 31975 20910 10272 20130 48530 70500 81031
                   333 10306 20185 59008 81360 81080 91019=
201411070900 AAXX 07094 67666 42580 50606 10265 20174 48548 82130
                   333 58038 82835 83359 91022=
201411070600 AAXX 07064 67666 32980 70907 10210 20163 48556 8703/
                   333 10335 20190 58034 87359 91023=
201411060900 AAXX 06094 67666 NIL=
201411041200 AAXX 04124 67666 42580 40000 10330 20165 48522 84200
                   333 58005 84850 91017=
201411040600 AAXX 04064 67666 32980 00909 10270 20152 48545
                   333 10350 20180 58004 91021=
201411030900 AAXX 03094 67666 NIL=

################################################################################
#  SYNOPS from 67667, Mount Makulu (Zambia) | 15-33S | 028-15E | 1213 m
################################################################################
201411271500 AAXX 27154 67667 NIL=
201411260600 AAXX 26064 67667 NIL=
201411241200 AAXX 24124 67667 NIL=
201411240900 AAXX 24094 67667 NIL=
201411200600 AAXX 20064 67667 NIL=
201411191200 AAXX 19124 67667 NIL=
201411181500 AAXX 18154 67667 NIL=
201411170900 AAXX 17094 67667 NIL=
201411141200 AAXX 14124 67667 NIL=
201411120900 AAXX 12094 67667 NIL=
201411120600 AAXX 12064 67667 NIL=
201411070900 AAXX 07094 67667 NIL=
201411060900 AAXX 06094 67667 NIL=
201411030900 AAXX 03094 67667 NIL=

################################################################################
#  SYNOPS from 67673, Petauke (Zambia) | 14-15S | 031-17E | 1035 m
################################################################################
201411281200 AAXX 28124 67673 41670 41802 10355 20127 48519 84200
                   333 58010 84845=
201411280600 AAXX 28064 67673 31975 03402 10290 20139 48550 70500
                   333 10369 20228 58010
                   555 00/// 20000=
201411271500 AAXX 27154 67673 NIL=
201411270600 AAXX 27064 67673 31975 00303 10275 20144 48538 70500
                   333 10345 20211 59018=
201411260600 AAXX 26064 67673 31975 00909 10270 20171 48554 70500
                   333 10370 20230 58005
                   555 00/// 20000=
201411250600 AAXX 25064 67673 31975 00704 10300 20085 48554 70500
                   333 10372 20220 59004=
201411241200 AAXX 24124 67673 NIL=
201411240900 AAXX 24094 67673 NIL=
201411240600 AAXX 24064 67673 32980 00502 10282 20088 48555 70200
                   333 10356 20219 59015=
201411200600 AAXX 20064 67673 NIL=
201411191200 AAXX 19124 67673 NIL=
201411190600 AAXX 19064 67673 12580 80702 10179 20132 48558 69904 70252 885//
                   333 10218 20166 58004 88621=
201411181500 AAXX 18154 67673 NIL=
201411181200 AAXX 18124 67673 42675 60904 10336 20162 48532 84130
                   333 58028 84835 86060=
201411180900 AAXX 18094 67673 43680 61004 10248 20158 48561 86830
                   333 58031 82832 85638 84360=
201411180600 AAXX 18064 67673 32580 70905 10236 20154 48564 8653/
                   333 10370 20205 58028 86628 87360
                   555 00/// 20000=
201411171200 AAXX 17124 67673 41675 50902 10336 20120 48508 70522 85201
                   333 58008 85845 83080=
201411170900 AAXX 17094 67673 41675 50204 10310 20140 48541 70522 85201
                   333 58002 85835 83080=
201411170600 AAXX 17064 67673 31975 20704 10278 20168 48545 70500 80001
                   333 10370 20220 59001 82080
                   555 00/// 20990=
201411141200 AAXX 14124 67673 NIL=
201411120900 AAXX 12094 67673 NIL=
201411120600 AAXX 12064 67673 NIL=
201411100600 AAXX 10064 67673 31975 00504 10290 20150 48551 70500
                   333 10374 20225 59001
                   555 00/// 20990=
201411070900 AAXX 07094 67673 NIL=
201411060900 AAXX 06094 67673 NIL=
201411030900 AAXX 03094 67673 NIL=

################################################################################
#  SYNOPS from 67731, Senanga (Zambia) | 16-06S | 023-16E | 1027 m
################################################################################
201411280600 AAXX 28064 67731 12980 700// 10211 20202 48/// 60034 70162 8201/
                   333 10375 20202 5//// 87460=
201411271500 AAXX 27154 67731 NIL=
201411270600 AAXX 27064 67731 31950 307// 10261 20174 48/// 70500 80008
                   333 10372 20198 5//// 83080
                   555 00/// 20000=
201411260600 AAXX 26064 67731 32980 616// 10239 20161 48/// 70322 86032
                   333 10338 20188 5//// 86460 82080=
201411250600 AAXX 25064 67731 32980 613// 10237 20141 48/// 85032
                   333 10322 20181 5//// 85360 83080=
201411241200 AAXX 24124 67731 NIL=
201411240900 AAXX 24094 67731 NIL=
201411240600 AAXX 24064 67731 32880 213// 10261 20194 48/// 82010
                   333 10299 20200 5//// 82460
                   555 00/// 20019=
201411210600 AAXX 21064 67731 32980 127// 10245 20175 48/// 80008
                   333 10320 20180 5//// 81080=
201411200600 AAXX 20064 67731 32980 625// 10260 20183 48/// 80008
                   333 10318 20179 5//// 86080
                   555 00/// 20000=
201411191200 AAXX 19124 67731 NIL=
201411190600 AAXX 19064 67731 32480 309// 10221 20167 48/// 83100
                   333 10306 20179 5//// 83815
                   555 00/// 20001=
201411181500 AAXX 18154 67731 NIL=
201411180600 AAXX 18064 67731 12580 713// 10203 20162 48/// 60014 83520
                   333 10267 20160 5//// 83627 85460
                   555 00/// 20046=
201411170900 AAXX 17094 67731 NIL=
201411170600 AAXX 17064 67731 12480 812// 1//// 2//// 48/// 60054 83578
                   333 10328 20151 5//// 83613 84760 87280
                   555 00/// 20000=
201411141200 AAXX 14124 67731 NIL=
201411140600 AAXX 14064 67731 12480 411// 10246 20189 48/// 60134 82530
                   333 10329 20181 5//// 82615 84360
                   555 00/// 20003=
201411120900 AAXX 12094 67731 NIL=
201411120600 AAXX 12064 67731 NIL=
201411070900 AAXX 07094 67731 NIL=
201411060900 AAXX 06094 67731 NIL=
201411050600 AAXX 05064 67731 32980 416// 10256 20146 48/// 83032
                   333 10313 20209 5//// 83361 82080=
201411030900 AAXX 03094 67731 NIL=

################################################################################
#  SYNOPS from 67741, Sesheke (Zambia) | 17-28S | 024-18E | 949 m
################################################################################
201411280600 AAXX 28064 67741 11980 72701 10250 20193 48525 69904 76062 87070
                   333 10370 20211 58029 87460=
201411271500 AAXX 27154 67741 NIL=
201411270600 AAXX 27064 67741 32980 30000 10290 20184 48504 83030
                   333 10380 20238 59024 83362
                   555 00/// 20000=
201411260600 AAXX 26064 67741 NIL=
201411250600 AAXX 25064 67741 32980 20000 10254 20211 48506 82030
                   333 10374 20228 59007 82362=
201411241200 AAXX 24124 67741 NIL=
201411240900 AAXX 24094 67741 NIL=
201411200600 AAXX 20064 67741 NIL=
201411191200 AAXX 19124 67741 NIL=
201411181500 AAXX 18154 67741 NIL=
201411180600 AAXX 18064 67741 12680 60902 10210 20174 48546 69904 81532
                   333 10315 20189 58022 81635 86361 81080=
201411170900 AAXX 17094 67741 NIL=
201411141200 AAXX 14124 67741 NIL=
201411140600 AAXX 14064 67741 32980 31201 10250 20202 48525 82032
                   333 10315 20195 58000 82362 82080
                   555 00/// 20008=
201411120900 AAXX 12094 67741 NIL=
201411120600 AAXX 12064 67741 32980 51801 10255 20187 48507 81032
                   333 10332 20221 59029 81362 85080
                   555 00/// 20006=
201411070900 AAXX 07094 67741 NIL=
201411060900 AAXX 06094 67741 NIL=
201411040600 AAXX 04064 67741 11680 72702 10214 20194 48555 60014 72162 8197/
                   333 10239 20201 58007 81948 87460
                   555 00/// 20004=
201411030900 AAXX 03094 67741 NIL=

################################################################################
#  SYNOPS from 67743, Livingstone (Zambia) | 17-49S | 025-49E | 985 m
################################################################################
201411271500 AAXX 27154 67743 NIL=
201411260600 AAXX 26064 67743 32980 31204 10284 20111 48528 80001
                   333 10395 20210 58007 83080
                   555 00/// 91017=
201411241200 AAXX 24124 67743 NIL=
201411240900 AAXX 24094 67743 NIL=
201411200600 AAXX 20064 67743 32980 20103 10238 20146 48538 70200 81031
                   333 10295 20181 59022 81360 82080
                   555 00/// 91020=
201411191200 AAXX 19124 67743 NIL=
201411181500 AAXX 18154 67743 NIL=
201411180900 AAXX 18094 67743 42580 81112 10203 20146 48556 8547/
                   333 58037 84635 83845 86360 91022=
201411170900 AAXX 17094 67743 NIL=
201411141200 AAXX 14124 67743 NIL=
201411120900 AAXX 12094 67743 NIL=
201411120600 AAXX 12064 67743 NIL=
201411100900 AAXX 10094 67743 41575 60908 10304 20153 48521 70300 86131
                   333 59016 81835 86360 81075 91017=
201411070900 AAXX 07094 67743 42580 20908 10287 20171 48563 70100 81131
                   333 58007 81835 81360 81080 91022=
201411060900 AAXX 06094 67743 NIL=
201411030900 AAXX 03094 67743 NIL=

################################################################################
#  SYNOPS from 67751, Magoye (Zambia) | 16-00S | 027-36E | 1018 m
################################################################################
201411271500 AAXX 27154 67751 NIL=
201411260600 AAXX 26064 67751 NIL=
201411241200 AAXX 24124 67751 NIL=
201411240900 AAXX 24094 67751 NIL=
201411210600 AAXX 21064 67751 32980 00906 10245 20174 48///
                   333 10306 20151 58009=
201411200600 AAXX 20064 67751 32980 63604 10215 20146 80006
                   333 10255 20127 58007 86280=
201411191200 AAXX 19124 67751 NIL=
201411181500 AAXX 18154 67751 NIL=
201411170900 AAXX 17094 67751 NIL=
201411141200 AAXX 14124 67751 NIL=
201411120900 AAXX 12094 67751 NIL=
201411120600 AAXX 12064 67751 NIL=
201411070900 AAXX 07094 67751 NIL=
201411060900 AAXX 06094 67751 NIL=
201411030900 AAXX 03094 67751 NIL=

################################################################################
#  SYNOPS from 67753, Choma (Zambia) | 16-50S | 027-04E | 1213 m
################################################################################
201411280600 AAXX 28064 67753 32960 30000 10268 20156 48516 80002
                   333 10353 20187 58016 83080=
201411271500 AAXX 27154 67753 NIL=
201411270600 AAXX 27064 67753 32960 10714 10275 20111 48507 80001
                   333 10351 20204 59023 81080=
201411260600 AAXX 26064 67753 32960 10915 10283 20105 48526 81031
                   333 10360 20194 58002 81360 81080
                   555 00///=
201411250600 AAXX 25064 67753 32960 03612 10294 20109 48527
                   333 10354 20185 59008=
201411241200 AAXX 24124 67753 NIL=
201411240900 AAXX 24094 67753 NIL=
201411240600 AAXX 24064 67753 32980 10000 10274 20123 48535 80001
                   333 10340 20172 59012 81080=
201411200600 AAXX 20064 67753 32960 63621 10205 20140 48530 81031
                   333 10244 20130 59010 81360 85080=
201411191200 AAXX 19124 67753 NIL=
201411190600 AAXX 19064 67753 12560 70911 10175 20156 48537 69904 8353/
                   333 10239 20148 59001 83625 84360=
201411181500 AAXX 18154 67753 NIL=
201411180600 AAXX 18064 67753 32360 80912 10186 20162 48548 8567/
                   333 10296 20174 58021 85709 82360=
201411170900 AAXX 17094 67753 NIL=
201411170600 AAXX 17064 67753 31560 60820 10224 20162 48522 75152 82830
                   333 10312 20188 58002 81620 81825 84360=
201411141200 AAXX 14124 67753 NIL=
201411140600 AAXX 14064 67753 32960 40923 10270 20155 48525 84080
                   333 10316 20185 58006 84080=
201411130600 AAXX 13064 67753 11660 70000 10204 20175 48520 60054 70500 81272
                   333 10331 20186 58018 81830 83360 83080=
201411120900 AAXX 12094 67753 NIL=
201411120600 AAXX 12064 67753 31960 00615 10265 20166 48506 70500
                   333 10352 20201 59012=
201411100600 AAXX 10064 67753 31960 00822 10282 20136 48526 70500
                   333 10326 20171 59014
                   555 00///=
201411070900 AAXX 07094 67753 NIL=
201411070600 AAXX 07064 67753 32560 40914 10240 20171 48561 83802
                   333 10335 20201 58008 82620 81825 81080=
201411060900 AAXX 06094 67753 NIL=
201411060600 AAXX 06064 67753 32560 10922 10255 20165 48553 81101
                   333 10350 20214 58006 81820 81080=
201411040600 AAXX 04064 67753 11960 20000 10259 20160 48544 69974 70500 82030
                   333 10336 20171 58009 82360
                   555 00///=
201411030900 AAXX 03094 67753 NIL=
201411030600 AAXX 03064 67753 11960 10515 10281 20140 48536 69904 70500 81030
                   333 10320 20184 5//// 81360=

################################################################################
#  SYNOPS from 67855, Lupaki (Zambia) | 17-03-00S | 024-46-00E | 1000 m
################################################################################
201412010600 AAXX 01064 67855 12575 30302 10224 20180 3//// 48/// 60174 81531
                   333 20192 5//// 81620 83360=
201411301200 AAXX 30124 67855 NIL=
201411300600 AAXX 30064 67855 12975 51602 10252 20187 3//// 48/// 69904 85070
                   333 20213 5//// 85459=
201411291200 AAXX 29124 67855 41670 70601 10326 20157 3//// 48/// 71792 84233
                   333 5//// 81925 83830 87360=
201411290600 AAXX 29064 67855 NIL=
201411281800 AAXX 28184 67855 NIL=
201411281200 AAXX 28124 67855 NIL=
201411280600 AAXX 28064 67855 31970 31502 10270 20160 3//// 48/// 70511 81031
                   333 20186 5//// 81360 83080=
201411271800 AAXX 27184 67855 NIL=
201411271200 AAXX 27124 67855 NIL=
201411270600 AAXX 27064 67855 31970 40704 10276 20134 3//// 48/// 70500 81031
                   333 20203 5//// 81360=
201411261800 AAXX 26184 67855 NIL=
201411261200 AAXX 26124 67855 41870 20000 10372 20110 3//// 48/// 70500 82131
                   333 5//// 82857=
201411260600 AAXX 26064 67855 31970 30604 10264 20140 3//// 48/// 70511 83030
                   333 20194 5//// 83360=
201411251800 AAXX 25184 67855 NIL=
201411251200 AAXX 25124 67855 41870 43603 10378 20130 3//// 48/// 70511 84200
                   333 5//// 84857=
201411250600 AAXX 25064 67855 31670 60301 10268 20133 3//// 48/// 70522 82530
                   333 20215 5//// 82630 86360=
201411241800 AAXX 24184 67855 NIL=
201411241200 AAXX 24124 67855 41870 43603 10380 20125 3//// 48/// 70500 84100
                   333 5//// 84857=
201411240600 AAXX 24064 67855 31970 13603 10260 20098 3//// 48/// 70500 81030
                   333 20161 5//// 81360=
201411231800 AAXX 23184 67855 NIL=
201411231200 AAXX 23124 67855 NIL=
201411230600 AAXX 23064 67855 31970 20103 10258 20106 3//// 48/// 70511 80002
                   333 20192 5//// 82080=
201411221800 AAXX 22184 67855 NIL=
201411221200 AAXX 22124 67855 NIL=
201411220600 AAXX 22064 67855 31970 20307 10222 20165 3//// 48/// 70500 80001
                   333 20154 5//// 82080=
201411211200 AAXX 21124 67855 42875 51602 10352 20112 3//// 48/// 85101
                   333 5//// 85857=
201411201800 AAXX 20184 67855 NIL=
201411201200 AAXX 20124 67855 42775 50302 10292 20136 3//// 48/// 85201
                   333 5//// 85850=
201411200600 AAXX 20064 67855 32675 73601 10210 20157 3//// 48/// 81571
                   333 20150 5//// 81625 85459=
201411191800 AAXX 19184 67855 NIL=
201411191200 AAXX 19124 67855 42675 50000 10270 20130 3//// 48/// 85201
                   333 5//// 85840 83080=
201411190600 AAXX 19064 67855 32975 10000 10180 20125 3//// 48/// 80001
                   333 20118 5//// 81080=
201411181800 AAXX 18184 67855 NIL=
201411181200 AAXX 18124 67855 NIL=
201411180600 AAXX 18064 67855 11575 71203 10180 20131 3//// 48/// 60174 70262 8557/
                   333 20164 5//// 85620 87459=
201411171800 AAXX 17184 67855 NIL=
201411171200 AAXX 17124 67855 42775 71602 10280 20169 3//// 48///
                   333 5//// 81850 87459=
201411170600 AAXX 17064 67855 NIL=
201411161800 AAXX 16184 67855 NIL=
201411161200 AAXX 16124 67855 NIL=
201411160600 AAXX 16064 67855 NIL=
201411151800 AAXX 15184 67855 NIL=
201411150600 AAXX 15064 67855 11975 71402 10220 20191 3//// 48/// 60014 70398 87072
                   333 20202 5//// 87459=
201411141200 AAXX 14124 67855 41875 53603 10352 20156 3//// 48/// 72581 85232
                   333 5//// 85856=
201411140600 AAXX 14064 67855 12975 30000 10252 20181 3//// 48/// 69904 81032
                   333 20192 5//// 81360 83080=
201411131800 AAXX 13184 67855 NIL=
201411131200 AAXX 13124 67855 42875 53601 10308 20180 3//// 48/// 83232
                   333 5//// 83586 85080=
201411130600 AAXX 13064 67855 12575 30000 10232 20194 3//// 48/// 60244 81531
                   333 20195 5//// 81620 83080=
201411121200 AAXX 12124 67855 41870 43603 10362 20149 3//// 48/// 70500 84231
                   333 5//// 84857=
201411120600 AAXX 12064 67855 31970 10606 10274 20139 3//// 48/// 70500 81030
                   333 20244 5//// 81360=
201411111200 AAXX 11124 67855 42875 52901 10378 20106 3//// 48/// 81102
                   333 5//// 81857 85080=
201411110600 AAXX 11064 67855 NIL=
201411100600 AAXX 10064 67855 32975 70304 10270 20144 3//// 48/// 8703/
                   333 20190 5//// 87360=
201411091800 AAXX 09184 67855 NIL=
201411090600 AAXX 09064 67855 32975 73502 10250 20135 3//// 48/// 80002
                   333 20178 5//// 87080=
201411081800 AAXX 08184 67855 NIL=
201411081200 AAXX 08124 67855 42875 40000 10340 20143 3//// 48/// 84201
                   333 5//// 84856=
201411080600 AAXX 08064 67855 12975 10604 10244 20128 3//// 48/// 69904 81031
                   333 20200 5//// 81360=
201411071800 AAXX 07184 67855 NIL=
201411071200 AAXX 07124 67855 NIL=
201411070600 AAXX 07064 67855 NIL=
201411061200 AAXX 06124 67855 42875 51701 10334 20156 3//// 48/// 85100
                   333 5//// 85856=
201411060600 AAXX 06064 67855 NIL=
201411051800 AAXX 05184 67855 NIL=
201411051200 AAXX 05124 67855 42775 53201 10350 20165 3//// 48/// 85232
                   333 5//// 85850=
201411050600 AAXX 05064 67855 11970 30000 10234 20196 3//// 48/// 60144 70197 83032
                   333 20200 5//// 83360=
201411041200 AAXX 04124 67855 42875 50000 10368 20140 3//// 48/// 85231
                   333 5//// 85856=
201411040600 AAXX 04064 67855 12975 41603 10258 20184 3//// 48/// 69904 81032
                   333 20210 5//// 81360 84080=
201411031800 AAXX 03184 67855 NIL=
201411031200 AAXX 03124 67855 42775 50603 10330 20144 3//// 48/// 85232
                   333 5//// 85850 83360=
201411030600 AAXX 03064 67855 NIL=
201411021800 AAXX 02184 67855 NIL=
201411020600 AAXX 02064 67855 31970 20605 10264 20139 38/// 48/// 70500 80001
                   333 20224 5//// 82080=
201411011200 AAXX 01124 67855 41770 10705 10370 20085 3//// 48/// 70500 81100
                   333 5//// 81850=
