################################################################################
# Query made at 04/14/2022 02:59:53 UTC
# Country like Zamb*
# Time interval: from 03/01/2017 05:30  to 03/31/2017 06:30  UTC
################################################################################

################################################################################
#  SYNOPS from 67403, Kawambwa (Zambia) | 09-48S | 029-05E | 1323 m
################################################################################
201703281200 AAXX 28124 67403 NIL=
201703280600 AAXX 28064 67403 12980 30905 10190 20173 48528 60104 83031
                   333 10290 20172 58003 83360 81080
                   555 00170=
201703270600 AAXX 27064 67403 31365 50902 10193 20182 48530 70342 83530
                   333 10296 20188 58009 83608 84360
                   555 00171=
201703241200 AAXX 24124 67403 NIL=
201703240600 AAXX 24064 67403 11910 83001 10178 20177 48531 60454 76366 8807/
                   333 10306 20176 58013 88460
                   555 00174=
201703220600 AAXX 22064 67403 12480 60903 10209 20187 48510 60484 81530
                   333 10299 20179 59015 81610 85360
                   555 00162=
201703210600 AAXX 21064 67403 31480 50905 10209 20180 48530 70320 84530
                   333 10278 20179 59007 84610 82360
                   555 00169=
201703200600 AAXX 20064 67403 12380 71204 10193 20177 48531 60334 8253/
                   333 10302 20170 59002 82608 86360
                   555 00162=
201703170600 AAXX 17064 67403 11475 70902 10191 20183 48516 60134 70322 8653/
                   333 10220 20170 59002 86610 85360
                   555 00161=
201703160600 AAXX 16064 67403 11480 82702 10192 20184 48519 60074 70362 8133/
                   333 10300 20180 58013 82610 81958 87360
                   555 00174=
201703150900 AAXX 15094 67403 NIL=
201703150600 AAXX 15064 67403 12980 30903 10211 20177 48506 69904 81031
                   333 10308 20180 59013 81360 83080
                   555 00170=
201703140600 AAXX 14064 67403 12980 31408 10204 20167 48519 69964 82031
                   333 10280 20180 59002 82360 82080
                   555 00168=
201703100600 AAXX 10064 67403 11970 80000 10191 20183 48504 69964 70522 87031
                   333 10249 20175 59014 87360 83080
                   555 00170=
201703090600 AAXX 09064 67403 11970 80000 10192 20183 48518 60044 76066 8703/
                   333 10//0 20//0 58007 87360
                   555 00///=
201703061200 AAXX 06124 67403 NIL=
201703060900 AAXX 06094 67403 NIL=
201703060600 AAXX 06064 67403 32980 70901 10204 20189 48509 87031
                   333 10308 20186 58005 87360 82080
                   555 00184=
201703030900 AAXX 03094 67403 NIL=
201703030600 AAXX 03064 67403 11980 62201 10203 20183 48515 60224 70322 81531
                   333 10228 20170 59007 81610 84360 83080
                   555 00174=
201703021500 AAXX 02154 67403 NIL=
201703020600 AAXX 02064 67403 11480 83003 10211 20196 48523 60014 71722 81931
                   333 10250 20186 58005 82610 81920 83820 87360
                   555 00188=
201703010600 AAXX 01064 67403 12980 50901 10194 20173 48517 69994 85031
                   333 10264 20173 58007 85360 82380
                   555 00182=

################################################################################
#  SYNOPS from 67413, Mbala (Zambia) | 08-51S | 031-20E | 1673 m
################################################################################
201703281200 AAXX 28124 67413 NIL=
201703241200 AAXX 24124 67413 NIL=
201703240600 AAXX 24064 67413 12480 70000 10190 20174 48551 60044 875//
                   333 10265 20160 58016 87615
                   555 00160 91025=
201703210600 AAXX 21064 67413 12480 60000 10120 20167 48542 60024 83560
                   333 10258 20166 59005 83615 85359
                   555 00166 91025=
201703200600 AAXX 20064 67413 32480 61210 10200 20152 48547 83530
                   333 10265 20154 59006 83615 85358
                   555 00154 91025=
201703150900 AAXX 15094 67413 NIL=
201703150600 AAXX 15064 67413 12480 71109 10175 20166 48526 60544 85270
                   333 10245 20144 59012 82615 86358
                   555 00144 91022=
201703140600 AAXX 14064 67413 12480 71707 10187 20164 48539 60084 8453/
                   333 10250 20158 58003 84620 87359
                   555 00181 91024=
201703061200 AAXX 06124 67413 NIL=
201703060900 AAXX 06094 67413 NIL=
201703030900 AAXX 03094 67413 NIL=
201703030600 AAXX 03064 67413 12980 80000 10190 20166 48540 60014 84037
                   333 10245 20164 59004 84359 88270
                   555 00160 91024=
201703021500 AAXX 02154 67413 NIL=

################################################################################
#  SYNOPS from 67441, Mwinilunga (Zambia) | 11-45S | 024-26E | 1361 m
################################################################################
201703281200 AAXX 28124 67441 NIL=
201703241200 AAXX 24124 67441 NIL=
201703150900 AAXX 15094 67441 NIL=
201703061200 AAXX 06124 67441 NIL=
201703060900 AAXX 06094 67441 NIL=
201703030900 AAXX 03094 67441 NIL=
201703030600 AAXX 03064 67441 NIL=
201703021500 AAXX 02154 67441 NIL=

################################################################################
#  SYNOPS from 67461, Mansa (Zambia) | 11-06S | 028-51E | 1382 m
################################################################################
201703281200 AAXX 28124 67461 NIL=
201703270600 AAXX 27064 67461 32480 81102 10196 20184 48537 8657/
                   333 10254 20179 58013 86610 87460
                   555 00186 91021=
201703241200 AAXX 24124 67461 NIL=
201703240600 AAXX 24064 67461 11360 80102 10176 20176 48539 60464 76366 8567/
                   333 10290 20167 58015 85705 88460
                   555 00172 91021=
201703170600 AAXX 17064 67461 12980 72002 10188 20171 48514 60014 8707/
                   333 10280 20164 59003 87460
                   555 00176 91018=
201703150900 AAXX 15094 67461 NIL=
201703140600 AAXX 14064 67461 12480 50802 10200 20159 48525 60184 81531
                   333 10250 20172 58008 81617 83360 82080
                   555 00168 91019=
201703100600 AAXX 10064 67461 12380 82502 10190 20176 48501 60044 8667/
                   333 10250 20175 59010 86708 88360
                   555 00179 91017=
201703090600 AAXX 09064 67461 11960 80000 10186 20181 48511 60084 76166 8802/
                   333 10260 20175 58000 88460
                   555 00180 91018=
201703061200 AAXX 06124 67461 NIL=
201703060900 AAXX 06094 67461 NIL=
201703060600 AAXX 06064 67461 12980 70000 10203 20186 48512 60074 8707/
                   333 10269 20169 58008 87460
                   555 00172 91017=
201703030900 AAXX 03094 67461 NIL=
201703030600 AAXX 03064 67461 11915 80000 10180 20180 48517 60504 76366 8802/
                   333 10248 20175 58010 88460
                   555 00180 91020=
201703021500 AAXX 02154 67461 NIL=
201703010600 AAXX 01064 67461 12480 70000 10195 20195 48509 60124 8157/
                   333 10258 20175 58013 81610 87360
                   555 00179 91018=

################################################################################
#  SYNOPS from 67475, Kasama (Zambia) | 10-13S | 031-08E | 1382 m
################################################################################
201703281200 AAXX 28124 67475 NIL=
201703271200 AAXX 27124 67475 42660 61410 10255 20180 48519 85202
                   333 58013 85848 83080 91019=
201703241200 AAXX 24124 67475 NIL=
201703240600 AAXX 24064 67475 12460 61505 10188 20175 48/// 60614 70322 84578
                   333 10290 20156 5//// 84615 82460 86280
                   555 00151=
201703220600 AAXX 22064 67475 32460 81212 10197 20185 48531 70342 886//
                   333 10278 20161 59007 88710
                   555 00156 91021=
201703211200 AAXX 21124 67475 41760 51006 10265 20162 48/// 71522 84271
                   333 59011 81950 83850 81361 81080 91018=
201703210900 AAXX 21094 67475 42660 70909 10240 20171 48534 872//
                   333 59007 87835 91021=
201703210600 AAXX 21064 67475 32460 60909 10204 20178 48538 865//
                   333 10280 20167 59006 86615
                   555 00163 91022=
201703201200 AAXX 20124 67475 42760 61307 10265 20172 48518 84232
                   333 59002 81950 83850 81361 83080 91019=
201703200600 AAXX 20064 67475 32460 81208 10183 20172 48543 885//
                   333 10278 20167 58000 88615
                   555 00152 91022=
201703170600 AAXX 17064 67475 12450 80000 10182 20182 48533 60034 70242 886//
                   333 10240 20164 5//// 88615
                   555 00160 91021=
201703160600 AAXX 16064 67475 12360 73401 10185 20//0 48523 69924 70222 8367/
                   333 10273 20161 58006 83709 87460
                   555 00159 91020=
201703150900 AAXX 15094 67475 42660 60000 10232 20167 48511 861//
                   333 59018 86840 91019=
201703150600 AAXX 15064 67475 32960 10000 10203 20159 48518 81051
                   333 10274 20162 59017 81359 81080
                   555 00150 91020=
201703141200 AAXX 14124 67475 42760 70000 10246 20165 48503 85271
                   333 58002 85850 83360 81080 91018=
201703140900 AAXX 14094 67475 42660 61201 10235 20172 48529 84231
                   333 59005 84835 81360 82080 91021=
201703140600 AAXX 14064 67475 12560 41011 10194 20161 48534 60114 82231
                   333 10264 20165 59005 82820 83358 81080
                   555 00165 91021=
201703100600 AAXX 10064 67475 12960 80000 10200 20165 48514 60054 79225 8807/
                   333 10223 20158 59010 88460
                   555 00159 91019=
201703090600 AAXX 09064 67475 11320 83503 10184 20184 48523 60104 76144 8577/
                   333 10228 20169 58004 85709 88459
                   555 00161 91020=
201703070600 AAXX 07064 67475 12960 50000 10211 20169 48507 69904 70222 84084
                   333 10274 20161 59011 84360 84080
                   555 00160 91018=
201703061200 AAXX 06124 67475 NIL=
201703060900 AAXX 06094 67475 NIL=
201703060600 AAXX 06064 67475 11350 81001 10180 20180 48517 60194 76166 8377/
                   333 10286 20169 58003 83706 88460
                   555 00170=
201703030900 AAXX 03094 67475 41660 70000 10249 20175 48519 71522 8527/
                   333 59004 81935 84835 86461 91019=
201703030600 AAXX 03064 67475 12260 73504 10191 20182 48524 60074 8167/
                   333 10270 20166 59005 81704 87360
                   555 00164 91020=
201703021500 AAXX 02154 67475 NIL=
201703021200 AAXX 02124 67475 41340 82318 10210 20186 48497 76222 8427/
                   333 58008 81930 81709 88460 91017=
201703020600 AAXX 02064 67475 11460 80000 10191 20183 48529 60024 70242 886//
                   333 10254 20176 58006 88710
                   555 00180 91021=
201703010600 AAXX 01064 67475 11360 70000 10192 20180 48523 60044 71522 8177/
                   333 10258 20169 58004 81707 81615 87460
                   555 00168 91020=

################################################################################
#  SYNOPS from 67476, Misamfu (Zambia) | 10-06S | 031-15E | 1536 m
################################################################################
201703281200 AAXX 28124 67476 NIL=
201703241200 AAXX 24124 67476 NIL=
201703160600 AAXX 16064 67476 12480 81401 10185 20179 48/// 60014 85530
                   333 10272 20172 58006 85618 86359
                   555 00180=
201703150900 AAXX 15094 67476 NIL=
201703150600 AAXX 15064 67476 32980 11602 10195 20158 48/// 81030
                   333 10250 20168 59017 81360
                   555 00170=
201703140600 AAXX 14064 67476 12580 51403 10175 20162 48/// 60134 81531
                   333 10274 20155 58002 81627 85360 81080
                   555 00153=
201703061200 AAXX 06124 67476 NIL=
201703060900 AAXX 06094 67476 NIL=
201703030900 AAXX 03094 67476 NIL=
201703030600 AAXX 03064 67476 NIL=
201703021500 AAXX 02154 67476 NIL=
201703010600 AAXX 01064 67476 12475 60000 10193 20177 48/// 60074 83531
                   333 10258 20175 58005 83618 84360 82080
                   555 00186=

################################################################################
#  SYNOPS from 67477, Mpika (Zambia) | 11-54S | 031-26E | 1400 m
################################################################################
201703281200 AAXX 28124 67477 NIL=
201703241200 AAXX 24124 67477 NIL=
201703240600 AAXX 24064 67477 11980 80000 10183 20180 48535 60164 72122 8807/
                   333 10265 20162 58002 88459
                   555 00158=
201703220600 AAXX 22064 67477 32480 60903 10218 20170 48532 84501
                   333 10264 20178 59013 84610 83080
                   555 00157=
201703210600 AAXX 21064 67477 12480 51208 10212 20170 48545 69904 84501
                   333 10234 20172 58004 85611 83080
                   555 00160=
201703170600 AAXX 17064 67477 32480 50906 10200 20180 48535 83501
                   333 10284 20163 58011 83612 83080
                   555 00167=
201703160600 AAXX 16064 67477 32480 50904 10216 20170 48525 82530
                   333 10267 20165 58001 82610 84359
                   555 00159=
201703150900 AAXX 15094 67477 NIL=
201703150600 AAXX 15064 67477 32480 30904 10207 20163 48522 82130
                   333 10276 20147 59019 82814 82359
                   555 00142=
201703140600 AAXX 14064 67477 12480 60910 10178 20160 48541 69904 84530
                   333 10272 20148 58000 84610 83359
                   555 00160=
201703100600 AAXX 10064 67477 11980 80000 10185 20170 48518 60054 72122 8807/
                   333 10262 20172 59002 88459
                   555 00172=
201703090600 AAXX 09064 67477 11475 70906 10207 20160 48520 60204 74042 83570
                   333 10242 20170 59004 83610 85459
                   555 00169=
201703070600 AAXX 07064 67477 12480 61206 10216 20160 48515 69904 82570
                   333 10278 20182 59011 82610 86459
                   555 00176=
201703061200 AAXX 06124 67477 NIL=
201703060900 AAXX 06094 67477 NIL=
201703060600 AAXX 06064 67477 11978 80000 10178 20170 48525 60124 76062 8807/
                   333 10273 20149 58000 88459
                   555 00163=
201703030900 AAXX 03094 67477 NIL=
201703030600 AAXX 03064 67477 11470 80000 10188 20170 48525 60214 72842 8357/
                   333 10248 20158 59003 83610 87459
                   555 00132=
201703021500 AAXX 02154 67477 NIL=
201703020600 AAXX 02064 67477 11480 80000 10179 20160 48530 60654 72122 8807/
                   333 10272 20166 58000 88459
                   555 00170=
201703010600 AAXX 01064 67477 11980 80000 10170 20170 48532 60234 79599 8807/
                   333 10258 20159 58010 88459
                   555 00159=

################################################################################
#  SYNOPS from 67481, Isoka (Zambia) | 10-07S | 032-38E | 1360 m
################################################################################
201703281200 AAXX 28124 67481 NIL=
201703280600 AAXX 28064 67481 11375 80303 10190 20187 48/// 60024 75052 887//
                   333 10260 20168 5//// 88706=
201703241200 AAXX 24124 67481 NIL=
201703240600 AAXX 24064 67481 12480 73002 10196 20174 48/// 69904 875//
                   333 10286 20171 58020 87610=
201703220600 AAXX 22064 67481 12480 33002 10205 20192 48/// 60024 83130
                   333 10280 20182 59045 83810 81360
                   555 00///=
201703210600 AAXX 21064 67481 32380 83002 10190 20187 48/// 886//
                   333 10272 20186 58032 88706
                   555 00186=
201703200600 AAXX 20064 67481 12380 80302 10180 20176 48/// 60084 886//
                   333 10268 20166 5//// 88706
                   555 00///=
201703170600 AAXX 17064 67481 12480 62002 10194 20183 48/// 60034 8557/
                   333 10234 20168 58010 85610 86360
                   555 00160=
201703160600 AAXX 16064 67481 11380 72003 10192 20189 48/// 60294 72166 8277/
                   333 10260 20176 58006 82706 87460
                   555 00154=
201703150900 AAXX 15094 67481 NIL=
201703150600 AAXX 15064 67481 12480 62402 10190 20157 48/// 60034 86500
                   333 10252 20170 58025 86610
                   555 00160=
201703140900 AAXX 14094 67481 42380 71204 10192 20174 48/// 86580
                   333 5//// 86609 81360=
201703140600 AAXX 14064 67481 11360 80000 10166 20163 48/// 60084 76166 8577/
                   333 10274 20167 58003 85706 88459
                   555 00150=
201703100600 AAXX 10064 67481 32980 70301 10198 20171 48/// 88090
                   333 10250 20172 59003 87360
                   555 00163=
201703091200 AAXX 09124 67481 42480 83007 10212 20173 48/// 8428/
                   333 5//// 84818 88361=
201703090600 AAXX 09064 67481 12480 70000 10200 20185 48/// 60014 83580
                   333 10245 20165 5//// 83610 87359
                   555 00160=
201703061200 AAXX 06124 67481 NIL=
201703060900 AAXX 06094 67481 NIL=
201703060600 AAXX 06064 67481 12980 71202 10190 20187 48/// 60284 87080
                   333 10278 20170 5//// 87361=
201703030900 AAXX 03094 67481 NIL=
201703030600 AAXX 03064 67481 12980 80000 10195 20173 48/// 60014 8809/
                   333 10253 20170 59005 88360=
201703021500 AAXX 02154 67481 NIL=
201703020600 AAXX 02064 67481 12480 72701 10192 20183 48/// 60104 83540
                   333 10270 20180 58005 83610 86361
                   555 00172=
201703010600 AAXX 01064 67481 11380 70000 10190 20178 48/// 60154 72052 82680
                   333 10264 20170 58013 82709 87360
                   555 00170=

################################################################################
#  SYNOPS from 67531, Zambezi (Zambia) | 13-32S | 023-07E | 1077 m
################################################################################
201703281200 AAXX 28124 67531 NIL=
201703280600 AAXX 28064 67531 32980 20903 10202 20178 48/// 70200 81031
                   333 10296 20169 58001 81362 81080
                   555 00171=
201703270600 AAXX 27064 67531 12480 60804 10212 20193 48/// 69914 70222 82531
                   333 10266 20180 58001 82610 84361 82080=
201703241200 AAXX 24124 67531 NIL=
201703240600 AAXX 24064 67531 12380 70000 10183 20180 48/// 60024 70222 8267/
                   333 10298 20170 58012 82706 87361
                   555 00179=
201703220600 AAXX 22064 67531 32980 31003 10210 20191 48/// 70200 83030
                   333 10303 20175 59015 83361
                   555 00181=
201703170600 AAXX 17064 67531 32480 62701 10191 20176 48/// 70222 8217/
                   333 10312 20162 58002 82815 86361
                   555 00169=
201703160600 AAXX 16064 67531 32380 71302 10195 20188 48/// 70222 82638
                   333 10304 20166 58001 82707 83361 84281
                   555 00170=
201703150900 AAXX 15094 67531 NIL=
201703150600 AAXX 15064 67531 32980 71002 10195 20166 48/// 70222 80008
                   333 10292 20155 59012 87281
                   555 00153=
201703140600 AAXX 14064 67531 12380 40000 10206 20191 48/// 69904 81132
                   333 10294 20174 59009 81808 81362 83081
                   555 00183=
201703100600 AAXX 10064 67531 12380 70000 10190 20183 48/// 60044 8367/
                   333 10291 20180 59001 83706 87460
                   555 00189=
201703090600 AAXX 09064 67531 12980 70000 10204 20190 48/// 60134 8707/
                   333 10386 20186 59003 87360
                   555 00193=
201703070600 AAXX 07064 67531 12380 70000 10197 20190 48/// 60134 70222 8267/
                   333 10212 20185 59008 82707 87360
                   555 00189=
201703061200 AAXX 06124 67531 NIL=
201703060900 AAXX 06094 67531 NIL=
201703060600 AAXX 06064 67531 32980 70000 10214 20201 48/// 8703/
                   333 10301 20189 59006 87361
                   555 00190=
201703030900 AAXX 03094 67531 NIL=
201703030600 AAXX 03064 67531 12980 70000 10201 20192 48/// 60424 70222 8707/
                   333 10275 20191 59020 87361
                   555 00198=
201703021500 AAXX 02154 67531 NIL=
201703020600 AAXX 02064 67531 12380 70301 10202 20193 48/// 60044 70222 8467/
                   333 10298 20191 58014 84706
                   555 00199=

################################################################################
#  SYNOPS from 67541, Kasempa (Zambia) | 13-32S | 025-51E | 1234 m
################################################################################
201703281200 AAXX 28124 67541 NIL=
201703241200 AAXX 24124 67541 NIL=
201703240600 AAXX 24064 67541 12380 70000 10190 20190 48527 60124 70222 8353/
                   333 10290 20180 58009 83606 87360=
201703150900 AAXX 15094 67541 NIL=
201703140600 AAXX 14064 67541 32980 60000 10194 20172 48522 70222 80006
                   333 10288 20154 59006 86080=
201703090600 AAXX 09064 67541 12380 70000 10195 20195 48500 60014 8353/
                   333 10274 20182 58000 83605 87360
                   555 00///=
201703070600 AAXX 07064 67541 12380 70103 10195 20193 48489 60274 70222 8353/
                   333 10264 20184 59011 83606 87360=
201703061200 AAXX 06124 67541 NIL=
201703060900 AAXX 06094 67541 NIL=
201703060600 AAXX 06064 67541 12980 70000 10195 20195 48500 60314 70222 87030
                   333 10278 20176 58000 87360=
201703030900 AAXX 03094 67541 NIL=
201703030600 AAXX 03064 67541 12380 70000 10186 20186 48508 60174 70222 8353/
                   333 10250 20178 59008 83606 87360=
201703021500 AAXX 02154 67541 NIL=
201703010600 AAXX 01064 67541 12980 00000 10193 20188 48510 60204 8703/
                   333 10246 20180 58012 87360
                   555 00///=

################################################################################
#  SYNOPS from 67543, Kabompo (Zambia) | 13-36S | 024-12E | 1075 m
################################################################################
201703281200 AAXX 28124 67543 NIL=
201703270600 AAXX 27064 67543 12980 70901 10//0 20//0 60104 87050
                   333 10312 20180 5//// 87360
                   555 00162=
201703241200 AAXX 24124 67543 NIL=
201703240600 AAXX 24064 67543 12380 70000 10//0 20//0 48/// 60124 8267/
                   333 10300 20188 5//// 82707 87360
                   555 00170=
201703220600 AAXX 22064 67543 32380 80000 10//0 20//0 48/// 886//
                   333 10312 20180 5//// 88707
                   555 00158=
201703210600 AAXX 21064 67543 32078 40601 10//0 20//0 48/// 84030
                   333 10314 20170 5//// 84362
                   555 00154=
201703200600 AAXX 20064 67543 32983 40902 10//0 20//0 48/// 80005
                   333 10312 20152 5//// 84280
                   555 00138=
201703150900 AAXX 15094 67543 NIL=
201703100600 AAXX 10064 67543 12378 80000 10//0 20//0 48/// 60124 887//
                   333 20184 5//// 88706
                   555 00176=
201703090600 AAXX 09064 67543 12375 80000 10//0 20//0 48/// 60024 886//
                   333 10304 20190 5//// 88707
                   555 00178=
201703070600 AAXX 07064 67543 12380 70000 10//0 20//0 48/// 60404 8367/
                   333 10312 20188 5//// 83706 87360
                   555 00178=
201703061200 AAXX 06124 67543 NIL=
201703060900 AAXX 06094 67543 NIL=
201703060600 AAXX 06064 67543 12370 70000 10/// 20/// 48/// 69904 70222 82630
                   333 10294 20192 5//// 82707 86360
                   555 00172=
201703030900 AAXX 03094 67543 NIL=
201703030600 AAXX 03064 67543 NIL=
201703021500 AAXX 02154 67543 NIL=
201703010600 AAXX 01064 67543 12980 70000 10//0 20//0 48/// 60134 8707/
                   333 10284 20182 87360
                   555 00162=

################################################################################
#  SYNOPS from 67551, Solwezi (Zambia) | 12-11S | 026-23E | 1386 m
################################################################################
201703281200 AAXX 28124 67551 NIL=
201703280600 AAXX 28064 67551 32358 71806 10181 20168 48536 86730
                   333 10236 20161 58002 86708 87362
                   555 00200 91021=
201703270600 AAXX 27064 67551 12370 51504 10188 20177 48535 60114 83630
                   333 10273 20160 58003 83610 85362
                   555 00200 91021=
201703241200 AAXX 24124 67551 NIL=
201703240600 AAXX 24064 67551 12270 82603 10176 20176 48532 60014 887//
                   333 10286 20150 58009 88703
                   555 00200=
201703220600 AAXX 22064 67551 12375 71106 10192 20182 48526 60034 877//
                   333 10282 20156 59012 87705
                   555 00200 91020=
201703170600 AAXX 17064 67551 32360 70000 10182 20151 48523 83630
                   333 10286 20143 58000 83707 87362
                   555 00210 91020=
201703160600 AAXX 16064 67551 32480 62703 10216 20183 48520 83108
                   333 10276 20170 58004 83810 86360
                   555 00221 91020=
201703150900 AAXX 15094 67551 NIL=
201703140600 AAXX 14064 67551 32375 71504 10178 20163 48526 83530
                   333 10274 20140 59018 83605 86362
                   555 00181 91020=
201703100600 AAXX 10064 67551 11980 73203 10175 20171 48512 60124 75052 8707/
                   333 10282 20148 59010 87362
                   555 00201 91017=
201703090600 AAXX 09064 67551 11975 70000 10190 20184 48514 60254 76066 8707/
                   333 10267 20156 58009 87362
                   555 00204 91019=
201703061200 AAXX 06124 67551 NIL=
201703060900 AAXX 06094 67551 NIL=
201703060600 AAXX 06064 67551 12980 70000 10189 20188 48522 8707/
                   333 10271 20155 58003 87362
                   555 00203 91020=
201703030900 AAXX 03094 67551 NIL=
201703030600 AAXX 03064 67551 11960 83203 10172 20169 48509 60144 76166 8807/
                   333 10244 20169 59015 88362
                   555 00191 91019=
201703021500 AAXX 02154 67551 NIL=
201703010600 AAXX 01064 67551 11360 80000 10173 20172 48537 60584 76166 8477/
                   333 10272 20169 58022 84605 88362
                   555 00193 91020=

################################################################################
#  SYNOPS from 67561, Ndola (Zambia) | 13-00S | 028-39E | 1269 m
################################################################################
201703281200 AAXX 28124 67561 NIL=
201703280600 AAXX 28064 67561 11375 71208 10196 20174 48544 60014 70522 85632
                   333 10252 20161 59008 85707 86360 81080 91022=
201703271200 AAXX 27124 67561 41675 61107 10243 20175 48532 70562 86230
                   333 58034 81930 86360
                   555 86835 77/// 8882/ 98043=
201703270600 AAXX 27064 67561 11460 79902 10184 20174 48544 60074 72844 875//
                   333 10264 20160 58011 87610 91022=
201703241200 AAXX 24124 67561 NIL=
201703240600 AAXX 24064 67561 31360 83007 10194 20186 48536 70522 8567/
                   333 10281 20246 58011 85705 819// 88459 91021=
201703211200 AAXX 21124 67561 41560 61606 10215 20176 48508 72162 86260
                   333 59030 81930 86835 83360
                   555 67024 78/// 8983/ 99038 91017=
201703210600 AAXX 21064 67561 11365 69902 10198 20177 48539 69904 70522 85532
                   333 10255 20160 59010 85609 85360 82080
                   555 00/// 91021=
201703200600 AAXX 20064 67561 31375 13011 10202 20161 48547 70522 82538
                   333 10282 20171 58003 82609 85360 86280
                   555 91023=
201703160600 AAXX 16064 67561 31958 79901 10192 20174 48508 70422 81038
                   333 10277 20150 58000 81360 87280
                   555 00/// 91019=
201703150900 AAXX 15094 67561 NIL=
201703150600 AAXX 15064 67561 31970 60604 10181 20149 48515 70522 80008
                   333 10263 20127 59016 86280 91019=
201703140600 AAXX 14064 67561 31275 71003 10172 20148 48530 70522 80008
                   333 10264 20129 59010 81705 87280
                   555 00///=
201703061200 AAXX 06124 67561 41575 60306 10263 20188 48480 70522 85238
                   333 59005 81920 85825 82361 85280
                   555 66031 77/// 8886/ 98025=
201703060900 AAXX 06094 67561 41460 70405 10231 20197 48513 70522 86630
                   333 58006 86610 86360 91018=
201703060600 AAXX 06064 67561 11259 80403 10193 20188 48510 69904 74042 8677/
                   333 10268 20179 58004 86704 88459 91018=
201703030900 AAXX 03094 67561 NIL=
201703030600 AAXX 03064 67561 11258 83106 10178 20174 48510 60304 76166 8477/
                   333 10275 20173 59014 84703 88459 91018=
201703021500 AAXX 02154 67561 41660 81105 10195 20191 48485 79599 8197/
                   333 59002 81935 88459=
201703021200 AAXX 02124 67561 41675 62906 10264 20184 48490 70522 86232
                   333 59009 81930 86835 82360 83080
                   555 66020 77/// 8891/ 98025=
201703020600 AAXX 02064 67561 11265 60503 10196 48525 60084 70522 85632
                   333 10246 20173 58000 85708 85360 83080 91020=

################################################################################
#  SYNOPS from 67563, Kafironda (Zambia) | 12-36S | 028-07E | 1243 m
################################################################################
201703281200 AAXX 28124 67563 NIL=
201703241200 AAXX 24124 67563 NIL=
201703240600 AAXX 24064 67563 11360 80000 10180 20155 48/// 60044 76166 887//
                   333 10290 20150 59027 88709=
201703150900 AAXX 15094 67563 NIL=
201703061200 AAXX 06124 67563 NIL=
201703060900 AAXX 06094 67563 NIL=
201703030900 AAXX 03094 67563 NIL=
201703030600 AAXX 03064 67563 NIL=
201703021500 AAXX 02154 67563 NIL=

################################################################################
#  SYNOPS from 67571, Serenje (Zambia) | 13-14S | 030-13E | 1384 m
################################################################################
201703281200 AAXX 28124 67571 42682 71208 10240 20174 48/// 70222 875//
                   333 5//// 87630=
201703280900 AAXX 28094 67571 42582 71208 10224 20170 48/// 70222 8253/
                   333 5//// 82620 87360=
201703280600 AAXX 28064 67571 12482 70904 10182 20163 48/// 69904 70222 8457/
                   333 10246 20173 5//// 84618 87460
                   555 00194=
201703241200 AAXX 24124 67571 41680 72706 10216 20176 48/// 79196 874//
                   333 5//// 81932 87632=
201703240900 AAXX 24094 67571 41682 73306 10250 20181 48/// 71799 84238
                   333 5//// 81930 84830 82360 87280=
201703240600 AAXX 24064 67571 12482 70904 10205 20182 48/// 60184 70222 81538
                   333 10276 20180 5//// 81618 81360 87280
                   555 00240=
201703220900 AAXX 22094 67571 42582 71208 10245 20176 48/// 70222 875//
                   333 5//// 87625=
201703220600 AAXX 22064 67571 12482 71508 10205 20179 48/// 60014 875//
                   333 10276 20185 5//// 87615
                   555 00214=
201703211200 AAXX 21124 67571 41682 71206 10241 20195 48/// 72162 8423/
                   333 5//// 81935 84835 85360=
201703210900 AAXX 21094 67571 41580 71506 10239 20180 48/// 76166 875//
                   333 5//// 87623=
201703210600 AAXX 21064 67571 11480 71506 10194 20//0 48/// 69904 75052 875//
                   333 10255 20178 5//// 87615
                   555 00200=
201703201200 AAXX 20124 67571 41582 60906 10224 20174 48/// 72052 83530
                   333 5//// 83627 84360=
201703200600 AAXX 20064 67571 11480 71206 10185 20161 48/// 75335 875//
                   333 10269 20171 5//// 87617
                   555 00182=
201703170600 AAXX 17064 67571 32982 71208 10210 20147 48/// 70222 80008
                   333 10281 20159 5//// 87281
                   555 00256=
201703160900 AAXX 16094 67571 42682 63602 10250 20160 48/// 70122 81935
                   333 85835 82081=
201703160600 AAXX 16064 67571 32982 70303 10211 20173 48/// 70311 80008
                   333 10280 20160 5//// 87280
                   555 00261=
201703150900 AAXX 15094 67571 42682 23605 10235 20140 48/// 70200 81101
                   333 5//// 81830 81081=
201703150600 AAXX 15064 67571 32982 11206 10185 20137 48/// 70200 80001
                   333 10239 20131 5//// 81081
                   555 00196=
201703141200 AAXX 14124 67571 42682 71206 10227 20138 48/// 70222 875//
                   333 5//// 87630=
201703140600 AAXX 14064 67571 12482 71208 10170 20144 48/// 69904 70222 82508
                   333 10238 20140 5//// 82618 87280
                   555 00175=
201703100600 AAXX 10064 67571 11280 73003 10188 20184 48/// 60144 75155 877//
                   333 10275 20179 5//// 87705
                   555 00208=
201703091200 AAXX 09124 67571 41682 72703 10250 20184 48/// 71799 84238
                   333 5//// 81935 84835 81360 87280=
201703090600 AAXX 09064 67571 12482 72702 10195 20180 48/// 60024 72162 875//
                   333 10269 20171 5//// 87615
                   555 00212=
201703070600 AAXX 07064 67571 12982 70905 10207 20173 48/// 69914 70222 8703/
                   333 10279 20180 5//// 87360
                   555 00216=
201703061200 AAXX 06124 67571 42682 73606 10253 20186 48/// 70222 8233/
                   333 5//// 81935 82835 87360=
201703060900 AAXX 06094 67571 42582 73006 10239 20182 48/// 70222 8353/
                   333 5//// 83623 87360=
201703060600 AAXX 06064 67571 12982 72703 10209 20164 48/// 69914 70222 8703/
                   333 10262 20180 5//// 87360
                   555 00246=
201703030900 AAXX 03094 67571 42482 73306 10222 20189 48/// 70222 875//
                   333 5//// 87618=
201703030600 AAXX 03064 67571 11282 82704 10176 20176 48/// 72842 885//
                   333 10225 20170 5//// 88705
                   555 00196=
201703021500 AAXX 02154 67571 NIL=
201703021200 AAXX 02124 67571 41475 81802 10200 20185 48/// 76166 8132/
                   333 5//// 81918 81618 88459=
201703020600 AAXX 02064 67571 11482 73002 10192 20181 48/// 75155 8257/
                   333 10257 20172 5//// 82615 87360
                   555 00212=
201703010600 AAXX 01064 67571 32482 70905 10204 20183 48/// 8457/
                   333 10275 20176 5//// 84615 87360
                   555 00224=

################################################################################
#  SYNOPS from 67575, Mkushi (Zambia) | 13-38-00S | 029-26-00E | 1237 m
################################################################################
201703281200 AAXX 28124 67575 NIL=
201703241200 AAXX 24124 67575 NIL=
201703150900 AAXX 15094 67575 NIL=
201703061200 AAXX 06124 67575 NIL=
201703060900 AAXX 06094 67575 NIL=
201703030900 AAXX 03094 67575 NIL=
201703030600 AAXX 03064 67575 NIL=
201703021500 AAXX 02154 67575 NIL=

################################################################################
#  SYNOPS from 67580, Msekera (Zambia) | 13-39S | 032-34E | 1025 m
################################################################################
201703281200 AAXX 28124 67580 NIL=
201703241200 AAXX 24124 67580 NIL=
201703150900 AAXX 15094 67580 NIL=
201703100600 AAXX 10064 67580 12480 70000 10205 20195 48/// 60184 8253/
                   333 10308 20190 58000 82616 87360
                   555 00///=
201703090600 AAXX 09064 67580 12580 73602 10232 20214 48/// 69934 85831
                   333 10289 20205 59001 82826 83628 83360 82080
                   555 00///=
201703061200 AAXX 06124 67580 NIL=
201703060900 AAXX 06094 67580 NIL=
201703060600 AAXX 06064 67580 12580 73602 10215 20206 48/// 60034 70262 81530
                   333 10324 20202 58008 81626 87360=
201703030900 AAXX 03094 67580 NIL=
201703030600 AAXX 03064 67580 12580 70603 10215 20191 48/// 60054 81130
                   333 10298 20195 59008 81826 87360=
201703021500 AAXX 02154 67580 NIL=
201703020600 AAXX 02064 67580 12580 70903 10230 20201 48/// 60314 83131
                   333 10294 20191 58001 83822 83360 82080=
201703010600 AAXX 01064 67580 12580 61202 10228 20207 48/// 60344 83131
                   333 10298 20192 58011 83824 82361 82080
                   555 00///=

################################################################################
#  SYNOPS from 67581, Chipata (Zambia) | 13-33S | 032-35E | 1028 m
################################################################################
201703281200 AAXX 28124 67581 NIL=
201703241200 AAXX 24124 67581 NIL=
201703240600 AAXX 24064 67581 12560 70000 10205 20195 48545 60104 8587/
                   333 10295 20107 58008 83620 82825 87459 91020=
201703160600 AAXX 16064 67581 32680 50000 10223 20167 48530 81132
                   333 10268 20082 59001 81360 82080=
201703150900 AAXX 15094 67581 NIL=
201703150600 AAXX 15064 67581 32980 21601 10225 20162 48531 82032
                   333 10270 20087 59021 82360 82080 91018=
201703140600 AAXX 14064 67581 32680 61408 10206 20135 48547 81132
                   333 10271 20096 58002 81830 86360
                   555 00181 91021=
201703101200 AAXX 10124 67581 42580 51501 10256 20196 48/// 83240
                   333 59012 83825 82361=
201703061200 AAXX 06124 67581 NIL=
201703060900 AAXX 06094 67581 NIL=
201703030900 AAXX 03094 67581 NIL=
201703030600 AAXX 03064 67581 NIL=
201703021500 AAXX 02154 67581 NIL=

################################################################################
#  SYNOPS from 67583, Lundazi (Zambia) | 12-17S | 033-12E | 1143 m
################################################################################
201703281200 AAXX 28124 67583 NIL=
201703241200 AAXX 24124 67583 NIL=
201703150900 AAXX 15094 67583 NIL=
201703100600 AAXX 10064 67583 12980 80000 10204 20191 48/// 60054 70202 8802/
                   333 10270 20176 5//// 88459
                   555 00///=
201703061200 AAXX 06124 67583 NIL=
201703060900 AAXX 06094 67583 NIL=
201703060600 AAXX 06064 67583 32578 80000 10200 20170 48/// 8457/
                   333 10320 20180 5//// 84625 87360=
201703030900 AAXX 03094 67583 NIL=
201703030600 AAXX 03064 67583 NIL=
201703021500 AAXX 02154 67583 NIL=
201703010600 AAXX 01064 67583 12978 80000 10210 20195 48/// 69994 82038
                   333 10290 20180 5//// 82360 88280
                   555 00///=

################################################################################
#  SYNOPS from 67599, Mfuwe (Zambia) | 13-16S | 031-56E | 568 m
################################################################################
201703281200 AAXX 28124 67599 NIL=
201703241200 AAXX 24124 67599 NIL=
201703240600 AAXX 24064 67599 12480 70000 10245 20224 48538 69954 872//
                   333 10335 20220 58005 87810
                   555 00205 91018=
201703210600 AAXX 21064 67599 12580 50000 10254 20218 48527 60034 83131
                   333 10305 20//0 59003 83825 82360 85080
                   555 00198 91019=
201703200600 AAXX 20064 67599 12580 61702 10246 20204 48553 60034 81130
                   333 10343 20213 59007 81825 86360
                   555 00208 91019=
201703150900 AAXX 15094 67599 NIL=
201703150600 AAXX 15064 67599 32980 40701 1//// 20181 48521 84030
                   333 10300 20172 59025 84360
                   555 00158 91017=
201703140600 AAXX 14064 67599 32580 61802 10230 20185 48550 82131
                   333 10310 20170 58009 82820 81360 86080
                   555 00158 91019=
201703090600 AAXX 09064 67599 31456 80000 10231 20217 48514 76222 8217/
                   333 10315 20217 59005 82820 88459
                   555 00/// 91015=
201703070600 AAXX 07064 67599 11480 40000 10245 20224 48510 60384 72844 83630
                   333 10315 20205 59016 83610 83360
                   555 00200 91014=
201703061200 AAXX 06124 67599 NIL=
201703060900 AAXX 06094 67599 NIL=
201703060600 AAXX 06064 67599 11359 80000 10225 20224 48518 60204 75999 8197/
                   333 10335 20215 58015 86605 81920 88458
                   555 00210 91016=
201703030900 AAXX 03094 67599 NIL=
201703030600 AAXX 03064 67599 12380 73403 10230 20215 48519 60184 8353/
                   333 10311 20202 59014 83610 87360
                   555 00202 91016=
201703021500 AAXX 02154 67599 NIL=
201703010600 AAXX 01064 67599 12480 60000 10245 20223 48528 60044 86200
                   333 10309 20220 58008 86812
                   555 00210 91017=

################################################################################
#  SYNOPS from 67625, Kalabo (Zambia) | 14-51S | 022-42E | 1033 m
################################################################################
201703281200 AAXX 28124 67625 NIL=
201703241200 AAXX 24124 67625 NIL=
201703150900 AAXX 15094 67625 NIL=
201703100600 AAXX 10064 67625 11478 80603 10190 20190 48/// 60534 76366 8462/
                   333 10289 20190 59006 84710 88460
                   555 00188=
201703061200 AAXX 06124 67625 NIL=
201703060900 AAXX 06094 67625 NIL=
201703030900 AAXX 03094 67625 NIL=
201703030600 AAXX 03064 67625 NIL=
201703021500 AAXX 02154 67625 NIL=
201703010600 AAXX 01064 67625 12982 70604 10205 20190 48/// 60354 83033
                   333 10252 20192 58009 83360 87075
                   555 00184=

################################################################################
#  SYNOPS from 67633, Mongu (Zambia) | 15-15S | 023-09E | 1052 m
################################################################################
201703281200 AAXX 28124 67633 NIL=
201703280600 AAXX 28064 67633 32980 00702 10211 20175 48534 70200
                   333 10//0 20//0 58010 91021=
201703270600 AAXX 27064 67633 12980 40904 10225 20192 48535 60054 70200 84030
                   333 10300 20199 59001 84362
                   555 00/// 91020=
201703241200 AAXX 24124 67633 NIL=
201703220600 AAXX 22064 67633 32680 60902 10219 20191 48526 82130
                   333 10306 20187 59018 82840 84360 91020=
201703210600 AAXX 21064 67633 32980 00903 10230 20179 48552
                   333 10313 20165 58000
                   555 00/// 91028=
201703200600 AAXX 20064 67633 32980 00904 10223 20182 48550
                   333 10314 20175 58002
                   555 00/// 91024=
201703170600 AAXX 17064 67633 32980 50902 10225 20190 48518 70222 83038
                   333 10309 20198 58006 83360 83280 91018=
201703160600 AAXX 16064 67633 32980 30503 10223 20182 48516 70200 81031
                   333 10296 20176 59007 81360 82080 91018=
201703150900 AAXX 15094 67633 NIL=
201703150600 AAXX 15064 67633 32980 60904 10212 20167 48514 70222 83038
                   333 10301 20174 59010 83361 86280 91018=
201703140600 AAXX 14064 67633 32980 40905 10227 20191 48527 70222 84032
                   333 10286 20195 59006 84360 83080 91019=
201703100600 AAXX 10064 67633 11980 80203 10196 20194 48484 60144 76162 8807/
                   333 10294 20195 59002 88460
                   555 00170 91015=
201703090600 AAXX 09064 67633 32980 72703 10222 20199 48497 69904 87070
                   333 10258 20189 59001 87360
                   555 00174 91016=
201703070600 AAXX 07064 67633 12680 80902 10204 20198 48484 60404 70222 8197/
                   333 10275 20190 59006 81940 87460
                   555 00198 91014=
201703061200 AAXX 06124 67633 NIL=
201703060900 AAXX 06094 67633 NIL=
201703030900 AAXX 03094 67633 NIL=
201703030600 AAXX 03064 67633 NIL=
201703021500 AAXX 02154 67633 NIL=
201703020600 AAXX 02064 67633 32980 60203 10222 20195 48526 70222 84038
                   333 10296 20198 58019 84361 86280 91019=
201703010600 AAXX 01064 67633 12980 60903 10205 20193 48505 60344 86030
                   333 10254 20187 58010 86360
                   555 00209 91017=

################################################################################
#  SYNOPS from 67641, Kaoma (Zambia) | 14-48S | 024-48E | 1213 m
################################################################################
201703281200 AAXX 28124 67641 NIL=
201703270600 AAXX 27064 67641 12980 40702 10199 20184 48536 60094 81032
                   333 10//0 20169 58006 81360 83080 91021=
201703241200 AAXX 24124 67641 NIL=
201703220600 AAXX 22064 67641 12580 30702 10215 20192 48525 69904 81130
                   333 10//0 20188 59011 81830 82360
                   555 00/// 91019=
201703210600 AAXX 21064 67641 32980 21202 10199 20178 48534 80001
                   333 10//0 20170 59002 82080
                   555 00/// 91021=
201703160600 AAXX 16064 67641 32980 70000 10183 20172 48502 81038
                   333 10295 20157 59007 81360 86280 91016=
201703150900 AAXX 15094 67641 NIL=
201703150600 AAXX 15064 67641 32980 41002 10185 20162 48508 80002
                   333 10283 20149 59013 84080 91017=
201703100600 AAXX 10064 67641 11678 82701 10196 20193 48490 60154 75055 8553/
                   333 10272 20180 59004 85630 87360
                   555 00/// 91015=
201703091200 AAXX 09124 67641 41559 63009 10259 20195 48482 76066 86231
                   333 59011 81923 86825 82361 82080
                   555 66026 77/// 88901 98039 91014=
201703061200 AAXX 06124 67641 NIL=
201703060900 AAXX 06094 67641 NIL=
201703030900 AAXX 03094 67641 NIL=
201703030600 AAXX 03064 67641 12680 72702 10205 20195 48498 60154 82530
                   333 10//0 20184 59016 82630 85360 91015=
201703021500 AAXX 02154 67641 NIL=

################################################################################
#  SYNOPS from 67655, Mumbwa (Zambia) | 15-04S | 027-11E | 1216 m
################################################################################
201703281200 AAXX 28124 67655 NIL=
201703241200 AAXX 24124 67655 NIL=
201703150900 AAXX 15094 67655 NIL=
201703061200 AAXX 06124 67655 NIL=
201703060900 AAXX 06094 67655 NIL=
201703030900 AAXX 03094 67655 NIL=
201703030600 AAXX 03064 67655 NIL=
201703021500 AAXX 02154 67655 NIL=

################################################################################
#  SYNOPS from 67659, Kafue Polder (Zambia) | 15-46S | 027-55E | 978 m
################################################################################
201703281200 AAXX 28124 67659 NIL=
201703280600 AAXX 28064 67659 32980 11804 10215 20190 48/// 70222 81030
                   333 10270 20210 5//// 81360=
201703241200 AAXX 24124 67659 NIL=
201703220600 AAXX 22064 67659 12580 72005 10229 20194 48/// 60064 8553/
                   333 10280 20220 59007 85625 82360
                   555 00///=
201703210600 AAXX 21064 67659 32480 71803 10223 20200 48/// 8453/
                   333 10288 20210 59020 84620 83360
                   555 00///=
201703170600 AAXX 17064 67659 32580 42004 10224 20181 48/// 70222 84200
                   333 10300 20190 58019 84825=
201703160600 AAXX 16064 67659 32980 31202 10192 20174 48/// 70322 83001
                   333 10285 20200 5//// 83080=
201703150900 AAXX 15094 67659 NIL=
201703150600 AAXX 15064 67659 32980 60902 10205 20165 48/// 70322 86030
                   333 10275 20162 59014 86360=
201703140600 AAXX 14064 67659 32480 41803 10215 20149 48/// 70322 83201
                   333 10265 20170 58005 83820 81080=
201703100600 AAXX 10064 67659 11470 81904 10191 20184 48/// 60064 76066 86641
                   333 10295 20190 58007 86620 82460
                   555 00///=
201703070600 AAXX 07064 67659 32480 61403 10225 20215 48/// 70222 84401
                   333 10296 20225 59002 83620 81825 82080=
201703061200 AAXX 06124 67659 NIL=
201703060900 AAXX 06094 67659 NIL=
201703060600 AAXX 06064 67659 12480 81502 10225 20215 48/// 69934 70222 85521
                   333 10220 20195 5//// 85620 83460=
201703030900 AAXX 03094 67659 NIL=
201703030600 AAXX 03064 67659 12480 71202 10220 20209 48/// 60044 70322 84431
                   333 10277 20218 5//// 83620 81820 83360=
201703021500 AAXX 02154 67659 NIL=

################################################################################
#  SYNOPS from 67662, Kabwe Agric (Zambia) | 14-24S | 028-30E | 1165 m
################################################################################
201703281200 AAXX 28124 67662 NIL=
201703241200 AAXX 24124 67662 NIL=
201703150900 AAXX 15094 67662 NIL=
201703140600 AAXX 14064 67662 32480 61206 10189 20158 83508
                   333 10256 20142 83614 86280
                   555 00140=
201703090600 AAXX 09064 67662 12380 70000 10213 20192 60044 8667/
                   333 10261 20180 86609 87360
                   555 00177=
201703070600 AAXX 07064 67662 32380 71202 10214 20201 48/// 876//
                   333 10282 20189 87709
                   555 00182=
201703061200 AAXX 06124 67662 NIL=
201703060900 AAXX 06094 67662 NIL=
201703060600 AAXX 06064 67662 31368 70000 10207 20203 48/// 72842 8667/
                   333 10276 20173 5//// 86707 87460
                   555 00169=
201703030900 AAXX 03094 67662 NIL=
201703030600 AAXX 03064 67662 NIL=
201703021500 AAXX 02154 67662 NIL=
201703020600 AAXX 02064 67662 12380 70000 10205 20190 48/// 60154 876//
                   333 10270 20178 5//// 87708
                   555 00172=
201703010600 AAXX 01064 67662 11360 80000 10204 20198 48/// 60024 76266 887//
                   333 10270 20191 88707
                   555 00184=

################################################################################
#  SYNOPS from 67663, Kabwe (Zambia) | 14-27S | 028-28E | 1206 m
################################################################################
201703281200 AAXX 28124 67663 NIL=
201703241200 AAXX 24124 67663 NIL=
201703150900 AAXX 15094 67663 NIL=
201703061200 AAXX 06124 67663 NIL=
201703060900 AAXX 06094 67663 NIL=
201703030900 AAXX 03094 67663 NIL=
201703030600 AAXX 03064 67663 NIL=
201703021500 AAXX 02154 67663 NIL=

################################################################################
#  SYNOPS from 67665, Lusaka Internationalairport (Zambia) | 15-19S | 028-27E | 1152 m
################################################################################
201703310600 AAXX 31064 67665 32380 70809 10175 20142 48578 86630
                   333 58013 86708 82360
                   555 00///=
201703310400 AAXX 31044 67665 42980 11105 10150 20125 48559 81030
                   333 58009 81360 Q1024.4=
201703310300 AAXX 31034 67665 42980 00904 10153 20128 48555
                   333 58010 91023=
201703310000 AAXX 31004 67665 42980 01202 10142 20114 48551
                   333 58011=
201703302100 AAXX 30214 67665 42980 01303 10158 20114 48569
                   333 58020 91025=
201703301800 AAXX 30184 67665 42980 20000 10174 20144 48547 82030
                   333 58023 82360=
201703301500 AAXX 30154 67665 42380 41109 10228 20155 48557 84200
                   333 58050 84822=
201703300900 AAXX 30094 67665 42380 40915 10225 20155 48574 84200
                   333 58021 84815=
201703300600 AAXX 30064 67665 32380 10912 10180 20138 48567 81600
                   333 10275 20//0 58012 81708=
201703292100 AAXX 29214 67665 42980 01003 10157 20136 48550
                   333 58005=
201703291800 AAXX 29184 67665 42980 21403 10179 20145 48538 82030
                   333 10275 58000 82360=
201703291500 AAXX 29154 67665 42680 30908 10244 20140 48538 83200
                   333 58004 83848=
201703290900 AAXX 29094 67665 42680 60713 10224 20172 48556 70322 86501
                   333 59008 86630 82080=
201703290600 AAXX 29064 67665 32480 60907 10192 20160 48555 70222 85530
                   333 10264 20//0 59009 85615 83360=
201703290300 AAXX 29034 67665 42980 31403 20149 48541 70300 83030
                   333 59008 83360=
201703282100 AAXX 28214 67665 42980 01602 10173 20149 48457 70100
                   333 59007=
201703281800 AAXX 28184 67665 42980 21503 10190 20140 48536 83030
                   333 59005 82360 91021=
201703281200 AAXX 28124 67665 NIL=
201703280900 AAXX 28094 67665 42580 60711 10231 20161 48565 86800
                   333 59007 83620 83822 91023=
201703280600 AAXX 28064 67665 32480 10910 10185 20153 48564 81531
                   333 10249 20//0 58004 81610 81360 81080=
201703280300 AAXX 28034 67665 42980 01305 10165 20149 48549 70200
                   333 58010=
201703271800 AAXX 27184 67665 42980 21003 10184 20160 48543 70200 80002
                   333 10249 58010 82080=
201703271500 AAXX 27154 67665 42780 60905 10224 20161 48548 70122 84202
                   333 58026 84850 83080=
201703271200 AAXX 27124 67665 42680 60609 10230 20160 48555 70222 86503
                   333 58022 86630 82080=
201703270900 AAXX 27094 67665 42480 50914 10230 20151 48572 85501
                   333 58013 85618 82080=
201703270600 AAXX 27064 67665 32380 60911 10191 20157 48560 86602
                   333 10275 20//0 58009 86708 82080=
201703270300 AAXX 27034 67665 42380 40907 10172 20164 48535 70300 84502
                   333 58011 84502=
201703262100 AAXX 26214 67665 42980 21203 10183 20165 48547 70200 82030
                   333 58011 82360=
201703261800 AAXX 26184 67665 42980 20807 10206 20175 48538 70200 82030
                   333 58007 82360=
201703261500 AAXX 26154 67665 42680 41308 10250 20174 48526 70122 82230
                   333 59001 82845 83360=
201703260900 AAXX 26094 67665 42580 60909 10233 20180 48560 70222 86530
                   333 5//// 86625 82360=
201703260600 AAXX 26064 67665 12480 80907 10191 20157 48551 70310 885//
                   333 10240 20/// 58012 88618=
201703252100 AAXX 25214 67665 42980 42003 10182 20141 48537 70222 80002
                   333 59004 84080=
201703250600 AAXX 25064 67665 12380 52901 10206 20174 48542 60034 81632
                   333 10264 20//0 58001 81705 83360 84080
                   555 00///=
201703242100 AAXX 24214 67665 42980 32603 10186 20170 48543 83030
                   333 58005 83360 91021=
201703241800 AAXX 24184 67665 42980 52604 10200 20175 48527 82038
                   333 58008 82360 84280=
201703241200 AAXX 24124 67665 42560 62809 10224 20175 48525 70266 85533
                   333 59004 85630 84360 84380 91019=
201703240900 AAXX 24094 67665 41560 83306 10228 20184 48552 72582 8753/
                   333 58003 87620 88759 91022=
201703240600 AAXX 24064 67665 42480 70907 10202 20186 70222 85630
                   333 10210 59002 85708 83620 81360
                   555 91021=
201703231800 AAXX 23184 67665 42980 21403 10206 20163 48524 81031
                   333 10267 59007 81360 81080=
201703230900 AAXX 23094 67665 42480 70609 10233 20183 48548 70222 875//
                   333 59005 87620=
201703230600 AAXX 23064 67665 32480 61006 10207 20184 48541 70122 85530
                   333 10264 20//0 59009 85615 82360=
201703230300 AAXX 23034 67665 42380 41105 10186 20171 48523 70200 83600
                   333 59009 83709=
201703230000 AAXX 23004 67665 42980 31102 10181 20165 48521 70200 83030
                   333 59007 83360=
201703222100 AAXX 22214 67665 42980 11202 10191 20175 48538 70200 81030
                   333 59004 81360=
201703221800 AAXX 22184 67665 42480 41106 10202 20186 48520 70200 83230
                   333 58006 83820 81360
                   555 91020=
201703221500 AAXX 22154 67665 42480 51109 10242 20181 70222 83230
                   333 10264 58004 83825 82360=
201703221200 AAXX 22124 67665 42460 71111 10223 20177 48452 70222 85230
                   333 58009 85825 83360
                   555 91019=
201703211800 AAXX 21184 67665 42760 61505 10197 20174 48535 70222 81930
                   333 10272 59022 81956 86360=
201703211500 AAXX 21154 67665 42660 61504 10212 20174 48518 70222 85230
                   333 59019 85845 84360=
201703211200 AAXX 21124 67665 42680 70407 10258 20183 48526 70222 86830
                   333 59032 84630 85830 83360=
201703210900 AAXX 21094 67665 42480 71009 10224 20186 48552 70222 87530
                   333 59021 86610 83360=
201703210000 AAXX 21004 67665 42359 51107 10182 20175 48546 76166 83532
                   333 59006 83704 84360=
201703201800 AAXX 20184 67665 42980 11105 10201 20173 48556 81030
                   333 10267 20//0 58006 81360=
201703201500 AAXX 20154 67665 42780 31007 10260 20150 48543 70100 84101
                   333 59007 83850 82080=
201703200900 AAXX 20094 67665 42580 50913 10234 20164 48576 70222 85530
                   333 59001 85625 84360=
201703200600 AAXX 20064 67665 32480 41012 10195 20164 48570 81530
                   333 10295 20//0 58004 81615 84359=
201703200300 AAXX 20034 67665 42980 11106 10178 20165 48556 81030
                   333 58008 81359=
201703191500 AAXX 19154 67665 42680 41011 10258 20170 48552 70100 84200
                   333 58001 84842=
201703190600 AAXX 19064 67665 32380 11007 10194 20161 48561 70100 81600
                   333 10268 20//0 58007 81706
                   555 00///=
201703190300 AAXX 19034 67665 42980 20000 10165 20148 48545 82030
                   333 58016 82360 91022=
201703190000 AAXX 19004 67665 42980 30000 10174 20150 48549 83030
                   333 58015 83360=
201703182100 AAXX 18214 67665 42980 21202 10187 20156 48549 82030
                   333 58006 82360 91022=
201703181800 AAXX 18184 67665 42980 31104 10199 20169 48542 83030
                   333 58011 83359=
201703181500 AAXX 18154 67665 42680 31008 10256 20172 48546 83530
                   333 58013 83540 81359=
201703181200 AAXX 18124 67665 42580 61011 10256 20188 48651 86500
                   333 58014 86632=
201703180600 AAXX 18064 67665 42480 20805 10190 20166 48554 70100 82500
                   333 10234 58001 82615=
201703180000 AAXX 18004 67665 42980 11303 10171 20154 48534 70100 81030
                   333 53013 81360 555 91021=
201703171800 AAXX 17184 67665 42980 11402 10198 20158 48531 81030
                   333 10276 58020 81360=
201703171500 AAXX 17154 67665 42980 60810 10244 20150 48532 81032
                   333 58028 81360 83080=
201703171200 AAXX 17124 67665 42680 50812 10250 20116 48537 84232
                   333 58032 84840 81360 82080=
201703170600 AAXX 17064 67665 32980 21105 10179 20155 48542 70200 80001
                   333 10290 20//0 58020 82080=
201703170300 AAXX 17034 67665 42980 00703 10154 20136 48521 70200
                   333 58019=
201703162100 AAXX 16214 67665 42980 20000 10175 20150 48525 70200 82030
                   333 58012 82360=
201703161800 AAXX 16184 67665 42480 41003 10209 20168 48513 70200 81130
                   333 59007 81830 83360
                   555 91018=
201703161500 AAXX 16154 67665 42680 31206 10261 20161 48506 70200 83100
                   333 10287 59004 83840=
201703161200 AAXX 16124 67665 42680 30803 10276 20131 48522 70300 83102
                   333 59003 83840 82080
                   555 91018=
201703160900 AAXX 16094 67665 42680 50504 10254 20150 48537 83102
                   333 5//// 83830 82080 91020=
201703160600 AAXX 16064 67665 32980 50000 10229 20175 48529 70322 80001
                   333 10226 59008 85080=
201703151800 AAXX 15184 67665 42980 21503 10190 20154 48504 70200 83030
                   333 10268 59020 83360=
201703151500 AAXX 15154 67665 42780 30903 10259 20149 48512 70100 83100
                   333 59027 93850=
201703151200 AAXX 15124 67665 42580 50805 10243 20143 48514 70222 85100
                   333 59021 85830=
201703150900 AAXX 15094 67665 NIL=
201703150600 AAXX 15064 67665 32980 31203 10189 20165 48516 70300 82031
                   333 59012 82360 81080=
201703141200 AAXX 14124 67665 42680 70807 10236 20149 48535 86102
                   333 59006 86835 84080=
201703140900 AAXX 14094 67665 42580 60813 10213 20157 48553 70222 85502
                   333 59005 85625 83080=
201703140600 AAXX 14064 67665 32480 31007 10186 20143 48538 82531
                   333 10268 20//0 59006 82612 81360 81080=
201703140300 AAXX 14034 67665 42980 51103 10169 20148 48535 85031
                   333 59001 85360 81080=
201703140000 AAXX 14004 67665 42980 41003 10172 20150 48539 84031
                   333 58004 84360 81080=
201703132100 AAXX 13214 67665 42980 10000 10171 20148 48550 81031
                   333 58008 81360 81080=
201703131800 AAXX 13184 67665 42980 40000 10195 20141 48541 80002
                   333 58009 84080=
201703131500 AAXX 13154 67665 42580 61206 10232 20170 48533 86262
                   333 58009 819// 86832 82660 83080=
201703130600 AAXX 13064 67665 32360 71104 10175 20158 48553 83632
                   333 10215 20//0 84608 82360 85280
                   555 00///=
201703130300 AAXX 13034 67665 41/15 91004 10166 20166 48536 74644 8////
                   333 58018 89/// 91021=
201703130000 AAXX 13004 67665 41/10 91004 10177 20177 48536 8////
                   333 58019 89///=
201703122100 AAXX 12214 67665 42980 21004 10187 20163 48545 82030
                   333 58006 82360 91022=
201703121800 AAXX 12184 67665 42680 12007 10199 20181 48535 70122 81533
                   333 58005 81630 83360 82080=
201703121200 AAXX 12124 67665 42570 10231 20169 48534 70222 875//
                   333 58017 87630=
201703120900 AAXX 12094 67665 42460 70609 10215 20155 48553 70222 85530
                   333 58014 85630 87360=
201703120600 AAXX 12064 67665 32460 70809 10184 20159 48537 70222 84530
                   333 58009 84625 86360
                   555 91021=
201703111800 AAXX 11184 67665 42660 71008 10189 20166 48521 8253/
                   333 58011 82645 87360=
201703111500 AAXX 11154 67665 42660 70901 10206 20167 48509 8557/
                   333 58013 85640 87459=
201703111200 AAXX 11124 67665 42660 70814 10219 20156 48516 8657/
                   333 58012 86630 87459=
201703110900 AAXX 11094 67665 42580 70815 10205 20179 48536 70222 885//
                   333 58016 88620=
201703110600 AAXX 11064 67665 11359 80912 10177 20174 48529 60074 75152 8477/
                   333 10254 20//0 58017 84708 87459=
201703110300 AAXX 11034 67665 42359 80707 10171 20155 48511 70222 8677/
                   333 58020 86709 87459=
201703110000 AAXX 11004 67665 41959 81106 10177 20161 48515 76152 8707/
                   333 58017 87459=
201703102100 AAXX 10214 67665 42760 71304 10183 20159 48522 70222 84530
                   333 58013 84656 86360=
201703101800 AAXX 10184 67665 42460 71106 10999 20158 48512 70222 82270
                   333 58019 82825 86459
                   555 91018=
201703101500 AAXX 10154 67665 42459 70810 10228 20156 48499 70222 86570
                   333 10254 58022 82830 84625 83360=
201703101200 AAXX 10124 67665 41559 71009 10222 20167 48505 70222 8757/
                   333 58017 87625 83459
                   555 91017=
201703100900 AAXX 10094 67665 42460 80812 10207 20168 48520 70122 8557/
                   333 58006 85618 88459 91018=
201703100600 AAXX 10064 67665 11459 81107 10185 20170 48514 60244 75166 8567/
                   333 58004 85712 88459=
201703092100 AAXX 09214 67665 41756 82003 10176 20176 48510 79566 82972
                   333 58003 81956 85459 84080=
201703091500 AAXX 09154 67665 42660 50403 10252 20176 48480 70122 83232
                   333 59013 83845 85360=
201703091200 AAXX 09124 67665 42660 70306 10243 20183 48490 70322 85230
                   333 59010 85830 85360=
201703090900 AAXX 09094 67665 42480 70804 10248 20162 48518 70222 83230
                   333 59011 83825 86360=
201703090300 AAXX 09034 67665 42480 50000 10198 20185 48505 70222 85500
                   333 59007 85703=
201703090000 AAXX 09004 67665 42980 63103 10197 20185 48504 70222 80002
                   333 58001 86080=
201703081800 AAXX 08184 67665 42980 50702 10216 20194 48502 70222 85031
                   333 58006 85360 84080=
201703081200 AAXX 08124 67665 42680 60405 10266 20176 48504 70222 85232
                   333 58013 85835 82360 84080=
201703080900 AAXX 08094 67665 42580 70410 10251 20184 48530 70322 86532
                   333 58012 86620 83360 84080=
201703080600 AAXX 08064 67665 12480 50707 10210 20189 48521 60034 70322 84532=
201703080300 AAXX 08034 67665 42980 50905 10188 20175 48502 85030
                   333 58008 85360=
201703080000 AAXX 08004 67665 42980 51003 10199 20185 48499 85030
                   333 58005 85360=
201703072100 AAXX 07214 67665 42980 10303 10197 20187 48512 81030
                   333 58004 81360=
201703070900 AAXX 07094 67665 42460 70711 10250 20191 48518 70222 874//
                   333 58004 85620=
201703070600 AAXX 07064 67665 32760 40807 10207 20191 48496 70222 82240
                   333 10210 20//0 59001 82825 86459
                   555 91018=
201703070000 AAXX 07004 67665 42460 91007 10199 20191 48495 70200 84030
                   333 58001 84360 555 91016=
201703062100 AAXX 06214 67665 42560 91101 10198 20173 48508 70222 83032
                   333 58002 83360 82080=
201703061800 AAXX 06184 67665 42680 41205 10199 20181 48493 70222 81233
                   333 58001 81845 83360 82080=
201703061200 AAXX 06124 67665 NIL=
201703060900 AAXX 06094 67665 NIL=
201703060600 AAXX 06064 67665 12360 70503 10205 20190 48514 60024 8377/
                   333 10270 20//0 58010 83709 87459
                   555 00///=
201703060000 AAXX 06004 67665 41360 70601 10199 20191 48496 8373/
                   333 58004 83704 87459=
201703051800 AAXX 05184 67665 42760 60402 10213 20176 48493 86032
                   333 10270 58012 81956 86360 82080=
201703051500 AAXX 05154 67665 42660 70302 10230 20193 48468 70122 81932
                   333 58004 81940 84360 86280=
201703051200 AAXX 05124 67665 41560 73206 10244 20184 48490 72582 8197/
                   333 58006 81928 84830 87459=
201703050600 AAXX 05064 67665 12460 73504 10196 20181 48513 60024 70222 85530
                   333 10264 20//0 58010 85610 85360=
201703050300 AAXX 05034 67665 41/04 /0000 10190 20181 48495 74644 8773/
                   333 58013 87701 83359=
201703042100 AAXX 04214 67665 42980 30000 10193 20182 48497 70222 83030
                   333 58002 83360=
201703041800 AAXX 04184 67665 42560 70000 10203 20186 48481 70222 81230
                   333 59006 81830 86360=
201703041500 AAXX 04154 67665 42560 72807 10230 20185 48472 70222 85230
                   333 10264 59004 84830 85360=
201703041200 AAXX 04124 67665 42560 73406 10238 20185 48484 70222 84234
                   333 59001 84825 85360 82080
                   555 91014=
201703040900 AAXX 04094 67665 41456 70104 10225 20188 48503 78022 8557/
                   333 59011 85612 87459 91016=
201703040600 AAXX 04064 67665 31459 62402 10197 20181 48494 74244 865//
                   333 59008 86612=
201703031800 AAXX 03184 67665 42760 62903 10201 20180 48486 71322 81932
                   333 10270 59023 81956 84360 83080=
201703031500 AAXX 03154 67665 41660 71802 10207 20181 48474 76022 86230
                   333 59025 81930 85835 84359=
201703031200 AAXX 03124 67665 42560 70507 10255 20189 48488 70222 86830
                   333 59027 82625 85828 84360=
201703030900 AAXX 03094 67665 NIL=
201703030600 AAXX 03064 67665 NIL=
201703030300 AAXX 03034 67665 42360 50000 10178 20172 48504 70222 82502
                   333 59012 83703 84080=
201703021800 AAXX 02184 67665 41760 61202 10198 20190 48508 71322 81930
                   333 59013 81930 81956 86360=
201703021500 AAXX 02154 67665 NIL=
201703021200 AAXX 02124 67665 42660 71404 10255 20188 48514 70222 86832
                   333 58000 82620 85825 82360 83080=
201703020900 AAXX 02094 67665 41560 70706 10231 20186 48537 76022 86832
                   333 58002 83618 85820 82359 84080=
201703020600 AAXX 02064 67665 11360 60902 10202 20173 48530 60034 72842 83632
                   333 10274 20//0 59003 83706 84360 82080
                   555 00///=
201703020000 AAXX 02004 67665 42980 20702 10186 20171 48516 82030
                   333 58000 82360=
201703010900 AAXX 01094 67665 41458 73306 10211 20189 48533 78062 86570
                   333 58011 86615 85459=
201703010600 AAXX 01064 67665 42460 70000 10201 20177 48534 70222 86530
                   333 10208 58015 86620 83360
                   555 91020=

################################################################################
#  SYNOPS from 67666, Lusaka City Airport (Zambia) | 15-25-00S | 028-28-00E | 1280 m
################################################################################
201703281200 AAXX 28124 67666 NIL=
201703280600 AAXX 28064 67666 32480 40910 10190 20152 48556 83531
                   333 10242 20150 58001 83612 81360 84080
                   555 00/// 91023=
201703270600 AAXX 27064 67666 12360 80912 10182 20162 48547 60024 888//
                   333 10263 20170 58013 88610 91023=
201703241200 AAXX 24124 67666 NIL=
201703240600 AAXX 24064 67666 31480 81210 10201 20181 48536 60014 888//
                   333 10255 20188 58003 88612 81815
                   555 91020=
201703220600 AAXX 22064 67666 12480 71013 10200 20187 48542 60084 85530
                   333 10250 20186 59002 85609 83359
                   555 00/// 91022=
201703210600 AAXX 21064 67666 11380 60910 10190 20172 48528 60024 75022 84630
                   333 10269 20179 59017 84708 85359
                   555 00/// 91022=
201703200600 AAXX 20064 67666 32480 70907 10193 20162 48560 81530
                   333 10271 20175 59003 81613 87360
                   555 00/// 91024=
201703172100 AAXX 17214 67666 42980 11703 10178 20154 48542 70100 81030
                   333 58018 81360=
201703160600 AAXX 16064 67666 32980 70902 10210 20159 48522 80008
                   333 10258 20137 59006 87280 91019=
201703150900 AAXX 15094 67666 NIL=
201703150600 AAXX 15064 67666 32980 20906 10187 20123 48519 82030
                   333 10251 20120 59016 82359 91019=
201703140600 AAXX 14064 67666 32380 50906 10179 20137 48536 70222 84530
                   333 10261 20159 59006 84609 83359 91021=
201703100600 AAXX 10064 67666 11380 71207 10179 20169 43497 60444 75152 8467/
                   333 10270 20170 58004 84708 87459
                   555 00/// 91018=
201703090600 AAXX 09064 67666 32980 61004 10208 20164 48505 86070
                   333 10274 20180 59011 86359
                   555 00/// 91017=
201703070600 AAXX 07064 67666 32480 70806 10206 20190 48501 8567/
                   333 10271 20190 58002 85712 87359 91017=
201703061200 AAXX 06124 67666 NIL=
201703060900 AAXX 06094 67666 NIL=
201703060600 AAXX 06064 67666 32380 80905 10213 20193 48502 70222 886//
                   333 10266 20191 58002 88707 91017=
201703030900 AAXX 03094 67666 NIL=
201703030600 AAXX 03064 67666 12580 61702 10204 20179 48500 69904 83171
                   333 10261 20168 59020 83825 85356 91017=
201703021500 AAXX 02154 67666 NIL=
201703020600 AAXX 02064 67666 12380 70906 10201 20195 48520 60074 8463/
                   333 10252 20179 58001 84708 83459 91019=

################################################################################
#  SYNOPS from 67667, Mount Makulu (Zambia) | 15-33S | 028-15E | 1213 m
################################################################################
201703281200 AAXX 28124 67667 NIL=
201703280600 AAXX 28064 67667 32580 20901 10198 20154 48/// 81101
                   333 10242 20161 59001 81825 82080
                   555 00161=
201703241200 AAXX 24124 67667 NIL=
201703240600 AAXX 24064 67667 32580 70901 10210 20181 48/// 87502
                   333 10254 20191 59004 87625 86080
                   555 00172=
201703220600 AAXX 22064 67667 12580 81400 10200 20187 48/// 60084 885//
                   333 10252 20185 59005 88620
                   555 00176=
201703210600 AAXX 21064 67667 31580 81000 10185 20178 48/// 75022 885//
                   333 10269 20170 58017 88520
                   555 00165=
201703160600 AAXX 16064 67667 32980 50000 10213 20183 48/// 80002
                   333 10265 20130 5//// 85080
                   555 00116=
201703150900 AAXX 15094 67667 NIL=
201703150600 AAXX 15064 67667 32980 40902 10200 20137 48/// 80002
                   333 10288 20138 5//// 84080
                   555 00125=
201703100600 AAXX 10064 67667 11580 80901 10181 20180 48/// 60134 75022 885//
                   333 10280 20170 58002 88280
                   555 00156=
201703061200 AAXX 06124 67667 NIL=
201703060900 AAXX 06094 67667 NIL=
201703060600 AAXX 06064 67667 32580 70501 10218 20206 48/// 85502
                   333 10286 20181 58008 85620 86080
                   555 00170=
201703030900 AAXX 03094 67667 NIL=
201703030600 AAXX 03064 67667 12580 70000 10198 20186 48/// 60154 82508
                   333 10252 20180 59022 82625 87280
                   555 00165=
201703021500 AAXX 02154 67667 NIL=
201703020600 AAXX 02064 67667 12580 70000 10205 20181 48/// 60054 87502
                   333 10260 20181 58003 87620 85080
                   555 00166=
201703010600 AAXX 01064 67667 12580 70000 10204 20200 48/// 60044 85508
                   333 10274 20172 58015 85620 87280
                   555 00163=

################################################################################
#  SYNOPS from 67673, Petauke (Zambia) | 14-15S | 031-17E | 1035 m
################################################################################
201703281200 AAXX 28124 67673 NIL=
201703280600 AAXX 28064 67673 32584 70502 10200 20170 48564 8313/
                   333 10296 20178 58007 83828 87360=
201703241200 AAXX 24124 67673 42684 60902 10272 20203 48514 86201
                   333 59028 81935 86835 84080=
201703201200 AAXX 20124 67673 42684 50903 10254 20188 48543 85231
                   333 59014 85835 83360 84080=
201703161200 AAXX 16124 67673 42684 51701 10278 20158 48518 85201
                   333 58003 85832 84080=
201703151200 AAXX 15124 67673 42684 60000 10260 20170 48512 85230
                   333 59033 85835 86360=
201703150900 AAXX 15094 67673 42684 60000 10246 20158 48532 84130
                   333 59011 84832 86360=
201703150600 AAXX 15064 67673 32584 30903 10210 20170 48536 83130
                   333 10275 20154 59014 83828 82360=
201703101200 AAXX 10124 67673 41575 80000 10210 20193 48498 76122 8627/
                   333 58000 86830 88459=
201703090600 AAXX 09064 67673 32584 60501 10234 20197 48530 86831
                   333 10296 20192 59002 82830 84631 84360 82080
                   555 00///=
201703070600 AAXX 07064 67673 12584 63602 10240 20197 48520 69904 86501
                   333 10314 20198 58008 86630 83080=
201703061200 AAXX 06124 67673 42684 43601 10274 20195 48501 84231
                   333 5//// 84835 82360 83080=
201703060900 AAXX 06094 67673 NIL=
201703030900 AAXX 03094 67673 NIL=
201703030600 AAXX 03064 67673 NIL=
201703021500 AAXX 02154 67673 NIL=
201703020600 AAXX 02064 67673 12584 50000 10220 20190 48541 60294 83132
                   333 10280 20180 58012 83828 84360 85080=
201703010600 AAXX 01064 67673 12580 70000 10220 20206 48541 60034 8357/
                   333 10270 20190 59003 83620 85360
                   555 00///=

################################################################################
#  SYNOPS from 67731, Senanga (Zambia) | 16-06S | 023-16E | 1027 m
################################################################################
201703281200 AAXX 28124 67731 NIL=
201703241200 AAXX 24124 67731 NIL=
201703170600 AAXX 17064 67731 32980 410// 10240 20167 48/// 70222 80002
                   333 10310 20194 59001 84080
                   555 00189=
201703160600 AAXX 16064 67731 32980 412// 10236 20167 48/// 70222 84030
                   333 10229 20179 59006 84360
                   555 00170=
201703150900 AAXX 15094 67731 NIL=
201703061200 AAXX 06124 67731 NIL=
201703060900 AAXX 06094 67731 NIL=
201703060600 AAXX 06064 67731 12480 710// 10228 20192 48/// 60024 70122 83578
                   333 10300 20184 59001 83613 85760 86280
                   555 00171=
201703030900 AAXX 03094 67731 NIL=
201703030600 AAXX 03064 67731 11459 812// 10201 20191 48/// 60024 72566 8357/
                   333 10302 20149 59014 83610 88760
                   555 00144=
201703021500 AAXX 02154 67731 NIL=

################################################################################
#  SYNOPS from 67741, Sesheke (Zambia) | 17-28S | 024-18E | 949 m
################################################################################
201703281200 AAXX 28124 67741 NIL=
201703241200 AAXX 24124 67741 NIL=
201703160600 AAXX 16064 67741 32980 20000 10214 20171 48517 82031
                   333 10299 20149 59008 82362 81080
                   555 00143=
201703150900 AAXX 15094 67741 NIL=
201703150600 AAXX 15064 67741 32980 10000 10209 20167 48529 80001
                   333 10296 20150 59019 81080
                   555 00142=
201703140600 AAXX 14064 67741 32680 10901 10212 20193 48546 81530
                   333 10293 20165 5//// 81640 81362=
201703090600 AAXX 09064 67741 12680 80000 10219 20210 48510 60034 885//
                   333 10282 20205 58000 88630
                   555 00202=
201703061200 AAXX 06124 67741 NIL=
201703060900 AAXX 06094 67741 NIL=
201703030900 AAXX 03094 67741 NIL=
201703030600 AAXX 03064 67741 NIL=
201703021500 AAXX 02154 67741 NIL=

################################################################################
#  SYNOPS from 67743, Livingstone (Zambia) | 17-49S | 025-49E | 985 m
################################################################################
201703281200 AAXX 28124 67743 NIL=
201703241200 AAXX 24124 67743 NIL=
201703150900 AAXX 15094 67743 NIL=
201703061200 AAXX 06124 67743 NIL=
201703060900 AAXX 06094 67743 NIL=
201703060600 AAXX 06064 67743 11359 81703 10215 20211 48498 60244 74442 8663/
                   333 10318 20204 58004 86709 84358 91015=
201703030900 AAXX 03094 67743 NIL=
201703030600 AAXX 03064 67743 NIL=
201703021500 AAXX 02154 67743 NIL=

################################################################################
#  SYNOPS from 67751, Magoye (Zambia) | 16-00S | 027-36E | 1018 m
################################################################################
201703281200 AAXX 28124 67751 NIL=
201703241200 AAXX 24124 67751 NIL=
201703150900 AAXX 15094 67751 NIL=
201703061200 AAXX 06124 67751 NIL=
201703060900 AAXX 06094 67751 NIL=
201703030900 AAXX 03094 67751 NIL=
201703030600 AAXX 03064 67751 NIL=
201703021500 AAXX 02154 67751 NIL=

################################################################################
#  SYNOPS from 67753, Choma (Zambia) | 16-50S | 027-04E | 1213 m
################################################################################
201703281200 AAXX 28124 67753 NIL=
201703270600 AAXX 27064 67753 31359 83002 10181 20177 48556 75052 886//
                   333 10258 20158 58012 88706=
201703241200 AAXX 24124 67753 NIL=
201703240600 AAXX 24064 67753 32560 70000 10200 20198 48529 8153/
                   333 10261 20180 59006 81620 86360=
201703210600 AAXX 21064 67753 32560 61211 10184 20167 48547 83550
                   333 10247 20164 59017 83620 83360
                   555 00///=
201703200600 AAXX 20064 67753 31359 82912 10184 20168 48566 75155 886//
                   333 10266 20170 58004 88707
                   555 00///=
201703160600 AAXX 16064 67753 32960 10000 10205 20169 48521 80001
                   333 10273 20144 59009 81080=
201703150900 AAXX 15094 67753 NIL=
201703150600 AAXX 15064 67753 32960 30000 10183 20156 48527 83030
                   333 10250 20130 59018 83360=
201703140600 AAXX 14064 67753 32560 40606 10194 20174 48538 82530
                   333 10250 20150 59004 82620 82360=
201703100600 AAXX 10064 67753 11359 82610 10184 20171 48508 60244
                   333 10256 20164 58013 88706
                   555 00///=
201703090600 AAXX 09064 67753 32560 30902 10214 20186 48501 81130
                   333 10264 20170 58004 81820 82360
                   555 00///=
201703070600 AAXX 07064 67753 32560 70906 10206 20190 48511 83530
                   333 10271 20189 58005 83620 84360=
201703061200 AAXX 06124 67753 NIL=
201703060900 AAXX 06094 67753 NIL=
201703060600 AAXX 06064 67753 12360 82902 10190 20190 48499 60024 886//
                   333 10283 20180 58009 88707=
201703030900 AAXX 03094 67753 NIL=
201703030600 AAXX 03064 67753 11356 83504 10179 20179 48508 60364 76166 887//
                   333 10250 20170 59018 88706=
201703021500 AAXX 02154 67753 NIL=
201703020600 AAXX 02064 67753 12360 72802 10204 20198 48529 60174 84630
                   333 10269 20170 58002 84709 83360=
201703010600 AAXX 01064 67753 12460 71804 10201 20135 48520 60144 84530
                   333 10264 20184 58014 84615 83360
                   555 00///=

################################################################################
#  SYNOPS from 67855, Lupaki (Zambia) | 17-03-00S | 024-46-00E | 1000 m
################################################################################
201703281800 AAXX 28184 67855 NIL=
201703281200 AAXX 28124 67855 NIL=
201703280600 AAXX 28064 67855 31970 12001 10180 20158 3//// 48/// 70500 80001
                   333 20125 5//// 81080=
201703271200 AAXX 27124 67855 42675 50000 10276 20164 3//// 48/// 83202
                   333 5//// 83835 85080=
201703270600 AAXX 27064 67855 32975 30903 10170 20150 3//// 48/// 81031
                   333 20125 5//// 81360 83080=
201703261800 AAXX 26184 67855 NIL=
201703261200 AAXX 26124 67855 NIL=
201703251800 AAXX 25184 67855 NIL=
201703250600 AAXX 25064 67855 11575 72101 10196 20188 3//// 48/// 60014 70242 81502
                   333 20158 5//// 81620 87080=
201703241200 AAXX 24124 67855 41675 73604 10284 20202 3//// 48/// 71798 85233
                   333 5//// 81935 84840 87080=
201703240600 AAXX 24064 67855 12975 30000 10202 20193 3//// 48/// 69904 81031
                   333 20178 5//// 81360 83080=
201703231200 AAXX 23124 67855 41670 72001 10256 20204 3//// 48/// 72582 84232
                   333 5//// 84835 85360 87080=
201703230600 AAXX 23064 67855 12575 70000 10194 20189 3//// 48/// 60014 81531
                   333 20170 5//// 81620 87360=
201703221200 AAXX 22124 67855 41675 72003 10276 20187 3//// 48/// 70262 8427/
                   333 84835 87360=
201703220600 AAXX 22064 67855 11970 71901 10202 20175 3//// 48/// 69904 8707/
                   333 20188 5//// 87458=
201703211200 AAXX 21124 67855 41670 71209 10270 20185 3//// 48/// 75052 8557/
                   333 5//// 85630 87359=
201703210600 AAXX 21064 67855 32575 61801 10200 20165 3//// 48/// 86530
                   333 20150 5//// 86620=
201703201800 AAXX 20184 67855 NIL=
201703201200 AAXX 20124 67855 42975 82002 10270 20173 3//// 48/// 8807/
                   333 5//// 88360=
201703200600 AAXX 20064 67855 32575 61810 10202 20155 3//// 48/// 86530
                   333 20189 5//// 86620 83360=
201703191200 AAXX 19124 67855 42675 41403 10308 20135 3//// 48/// 84230
                   333 5//// 84845=
201703190600 AAXX 19064 67855 12575 41102 10196 20166 3//// 48/// 69904 81530
                   333 20155 5//// 81620 84360=
201703181800 AAXX 18184 67855 NIL=
201703181200 AAXX 18124 67855 42675 52002 10296 20160 3//// 48/// 85200
                   333 5//// 85840=
201703180600 AAXX 18064 67855 31970 00603 10184 20163 3//// 48/// 70500
                   333 20140 5////=
201703171800 AAXX 17184 67855 NIL=
201703171200 AAXX 17124 67855 41670 50702 10294 20170 3//// 48/// 70511 85100
                   333 5//// 85840=
201703170600 AAXX 17064 67855 31970 00605 10216 20163 3//// 48/// 70500
                   333 20148 5////=
201703161800 AAXX 16184 67855 NIL=
201703161200 AAXX 16124 67855 42975 41403 10318 20113 3//// 48/// 80001
                   333 5//// 84080=
201703160600 AAXX 16064 67855 32975 61801 10162 20136 3//// 48/// 86031
                   333 20125 5//// 86360=
201703151200 AAXX 15124 67855 42675 31902 10290 20134 3//// 48/// 83101
                   333 5//// 83845=
201703150600 AAXX 15064 67855 32975 01401 10170 20148 3//// 48///
                   333 20124 5////=
201703141800 AAXX 14184 67855 NIL=
201703141200 AAXX 14124 67855 42775 10604 10302 20128 3//// 48/// 81100
                   333 5//// 81850=
201703140600 AAXX 14064 67855 32975 00604 10180 20143 3//// 48///
                   333 20135 5////=
201703131200 AAXX 13124 67855 42675 10301 10302 20130 3//// 48/// 81101
                   333 5//// 81845=
201703130600 AAXX 13064 67855 32975 33601 10186 20138 3//// 48/// 81031
                   333 20134 5//// 81360 83080=
201703121200 AAXX 12124 67855 42675 72702 10276 20179 3//// 48/// 85232
                   333 5//// 85840 87080=
201703120600 AAXX 12064 67855 32975 61601 10176 20144 3//// 48/// 86031
                   333 20145 5//// 86360=
201703111800 AAXX 11184 67855 NIL=
201703111200 AAXX 11124 67855 42675 60303 10264 20146 3//// 48/// 83231
                   333 5//// 83840 86360=
201703110600 AAXX 11064 67855 12575 71110 10178 20123 3//// 48/// 69904 8557/
                   333 20170 5//// 85620 87360=
201703101800 AAXX 10184 67855 NIL=
201703101200 AAXX 10124 67855 NIL=
201703100600 AAXX 10064 67855 12975 70902 10200 20166 3//// 48/// 69904 8707/
                   333 20173 5//// 87360=
201703091800 AAXX 09184 67855 NIL=
201703091200 AAXX 09124 67855 41670 71205 10264 20192 3//// 48/// 79598 85233
                   333 5//// 81935 84840 87080=
201703090600 AAXX 09064 67855 32575 41001 10202 20188 3//// 48/// 81530
                   333 20175 5//// 81620 84360=
201703081800 AAXX 08184 67855 NIL=
201703081200 AAXX 08124 67855 42675 50702 10294 20187 3//// 48/// 85202
                   333 5//// 85845=
201703080600 AAXX 08064 67855 12575 20305 10194 20185 3//// 48/// 60044 82500
                   333 20195 5//// 82620=
201703071800 AAXX 07184 67855 NIL=
201703071200 AAXX 07124 67855 42675 50403 10308 20204 3//// 48/// 85232
                   333 5//// 85845=
201703070600 AAXX 07064 67855 12575 50702 10214 20196 3//// 48/// 70354 82531
                   333 20193 5//// 82620 85360=
201703061200 AAXX 06124 67855 41675 63401 10286 20190 3//// 48/// 70185 83232
                   333 5//// 83840 86080=
201703060600 AAXX 06064 67855 12575 71103 10216 20209 3//// 48/// 60094 82531
                   333 20204 5//// 82620 87080=
201703051200 AAXX 05124 67855 NIL=
201703050600 AAXX 05064 67855 12975 50000 10218 20213 3//// 48/// 60024 85072
                   333 20198 5//// 85360 83360=
201703041200 AAXX 04124 67855 41670 71403 10298 20210 3//// 48/// 78198 85203
                   333 5//// 81935 84840 87080=
201703040600 AAXX 04064 67855 11575 70000 10222 20208 3//// 48/// 60024 72162 8357/
                   333 20208 5//// 83625 87360=
201703031800 AAXX 03184 67855 NIL=
201703031200 AAXX 03124 67855 42775 73501 10296 20193 3//// 48/// 84202
                   333 5//// 84850 87080=
201703030600 AAXX 03064 67855 32575 70302 10222 20199 3//// 48/// 81531
                   333 20196 5//// 81625 83360=
201703021200 AAXX 02124 67855 42775 51102 10310 20182 3//// 48/// 85232
                   333 5//// 85850=
201703020600 AAXX 02064 67855 NIL=
201703011200 AAXX 01124 67855 42675 53301 10294 20194 3//// 48/// 85200
                   333 5//// 85840=
201703010600 AAXX 01064 67855 12975 41105 10202 20172 3//// 48/// 69904 84070
                   333 20168 5//// 84360=
