################################################################################
# Query made at 04/14/2022 04:03:43 UTC
# Country like Zamb*
# Time interval: from 11/01/2015 05:30  to 12/01/2015 06:30  UTC
################################################################################

################################################################################
#  SYNOPS from 67403, Kawambwa (Zambia) | 09-48S | 029-05E | 1323 m
################################################################################
201512010600 AAXX 01064 67403 12980 30901 10206 20184 48533 60114 83081
                   333 10/// 20172 58007 83360 82080=
201511271200 AAXX 27124 67403 41605 71620 10204 20186 48476 79796 8193/
                   333 58000 81940 81840 86360=
201511261200 AAXX 26124 67403 41680 52703 10277 20200 48479 71792 81901
                   333 58007 81945 84845 82080=
201511260600 AAXX 26064 67403 12980 80602 10200 20179 48516 60034 70226 87037
                   333 10/// 20/// 58009 87360 88280=
201511230900 AAXX 23094 67403 42680 71005 10248 20190 48519 84031
                   333 58020 84830 83360 83080=
201511201200 AAXX 20124 67403 42680 73202 10267 20206 48481 84237
                   333 59009 84845 82360 86280=
201511200900 AAXX 20094 67403 42680 63405 10257 20197 48503 83131
                   333 58004 83835 82360 84080=
201511200600 AAXX 20064 67403 12980 72701 10216 20185 48504 60054 84037
                   333 10/// 20168 59003 84360 82680=
201511191200 AAXX 19124 67403 42780 40802 10318 20188 48472 84201
                   333 59019 84850 81080=
201511190900 AAXX 19094 67403 42680 42702 10292 20179 48502 84200
                   333 59013 84845=
201511190600 AAXX 19064 67403 32980 20901 10244 20197 48509 82081
                   333 10/// 20179 59014 82360 81080=
201511180600 AAXX 18064 67403 12480 50902 10219 20194 48521 60074 70326 83530
                   333 10/// 20172 58004 83615 85360=
201511170600 AAXX 17064 67403 12880 73002 10197 20182 48506 60324 70226 8197/
                   333 10/// 20165 58010 81958 87360=
201511110600 AAXX 11064 67403 31880 32703 10224 20182 48518 70500 81337
                   333 10/// 20181 59004 81958 82360 83280=
201511100900 AAXX 10094 67403 42680 5//// 10285 20163 48513 70300 82231
                   333 59014 82830 81360 81080=
201511100600 AAXX 10064 67403 11902 1//// 10219 20166 48521 80001
                   333 10/// 20157 59027 81080=
201511021200 AAXX 02124 67403 41680 62703 10209 20184 48483 72999 81930
                   333 58015 81940 82840 84360=
201511020600 AAXX 02064 67403 12480 62705 10223 20202 48507 60384 70222 84530
                   333 10/// 20176 59006 84615 84360=

################################################################################
#  SYNOPS from 67413, Mbala (Zambia) | 08-51S | 031-20E | 1673 m
################################################################################
201512010600 AAXX 01064 67413 12980 71007 10200 20177 48558 60014 8703/
                   333 10300 20/// 58007 87360 91026=
201511300600 AAXX 30064 67413 32480 10915 10215 20168 48549 81100
                   333 10270 20/// 59006 81818 91025=
201511270600 AAXX 27064 67413 32480 81020 10195 20172 48534 885//
                   333 10260 20/// 58002 88620 91023=
201511261200 AAXX 26124 67413 NIL=
201511260600 AAXX 26064 67413 NIL=
201511230900 AAXX 23094 67413 NIL=
201511200600 AAXX 20064 67413 12580 20000 10220 20174 48525 69904 82500
                   333 10300 20/// 58005 82620 91023=
201511190900 AAXX 19094 67413 NIL=
201511110600 AAXX 11064 67413 NIL=
201511100900 AAXX 10094 67413 NIL=
201511060600 AAXX 06064 67413 32480 31315 10178 20131 48553 83500
                   333 10230 20/// 58002 83615 91025=

################################################################################
#  SYNOPS from 67441, Mwinilunga (Zambia) | 11-45S | 024-26E | 1361 m
################################################################################
201512010600 AAXX 01064 67441 12382 815// 10195 20184 48575 60094 8663/
                   333 10270 20/// 59008 86709 87360=
201511270600 AAXX 27064 67441 32982 102// 10200 20177 48537 80001
                   333 10270 20/// 59008 81080=
201511261200 AAXX 26124 67441 NIL=
201511260600 AAXX 26064 67441 12482 700// 10193 20173 48543 60424 8113/
                   333 10285 20/// 58001 81818 87360=
201511250600 AAXX 25064 67441 32582 600// 10210 20180 48544 81130
                   333 10290 20/// 59010 81820 86360=
201511240600 AAXX 24064 67441 12982 700// 10210 20187 48553 60074 8703/
                   333 10300 20/// 59003 87360=
201511230900 AAXX 23094 67441 NIL=
201511190900 AAXX 19094 67441 NIL=
201511190600 AAXX 19064 67441 12982 700// 10207 20182 48540 60084 83035
                   333 10290 20/// 59002 83360 85280=
201511180600 AAXX 18064 67441 11960 800// 10180 20173 48542 60374 76166 8802/
                   333 10295 20/// 59009 88460=
201511170600 AAXX 17064 67441 12980 706// 10187 20173 48550 69904 87030
                   333 10270 20/// 59003 87360=
201511110600 AAXX 11064 67441 NIL=
201511100900 AAXX 10094 67441 NIL=
201511060600 AAXX 06064 67441 32580 709// 10190 20140 48/// 8413/
                   333 10320 20/// 5//// 84820 85360=

################################################################################
#  SYNOPS from 67461, Mansa (Zambia) | 11-06S | 028-51E | 1382 m
################################################################################
201511261200 AAXX 26124 67461 NIL=
201511260600 AAXX 26064 67461 32980 73303 10210 20179 48514 83038
                   333 10319 20182 58001 83360 87280 91018=
201511230900 AAXX 23094 67461 NIL=
201511200600 AAXX 20064 67461 12580 71412 10218 20192 48497 60244 83530
                   333 10351 20206 59003 83640 87360 91015=
201511190900 AAXX 19094 67461 42780 30502 10294 20201 48493 83201
                   333 59015 83848 82080 91016=
201511190600 AAXX 19064 67461 32980 30000 10232 20200 48514 83031
                   333 10290 20176 59003 83361 82080 91017=
201511180600 AAXX 18064 67461 12980 70000 10222 20189 48516 60094 8707/
                   333 10281 20185 59004 87460 91018=
201511170900 AAXX 17094 67461 42680 70000 10257 20190 48518 8523/
                   333 58002 85845 85360 91018=
201511170600 AAXX 17064 67461 32980 70000 10214 20185 48519 8707/
                   333 10298 20186 58008 87460 91019=
201511110600 AAXX 11064 67461 NIL=
201511100900 AAXX 10094 67461 NIL=
201511100600 AAXX 10064 67461 11978 40903 10220 20174 48524 60054 70511 84030
                   333 10335 20167 59021 84360 91019=
201511030600 AAXX 03064 67461 11975 81205 10190 20174 48530 60224 70522 8807/
                   333 10311 20170 58020 88460 91020=
201511020600 AAXX 02064 67461 32580 71902 10240 20195 48514 70222 8327/
                   333 10330 20182 59010 83831 87460 91017=

################################################################################
#  SYNOPS from 67475, Kasama (Zambia) | 10-13S | 031-08E | 1382 m
################################################################################
201511300600 AAXX 30064 67475 12580 31211 10218 20175 48548 69904 70310 83500
                   333 10285 20169 59005 83620=
201511271200 AAXX 27124 67475 41775 72713 10248 20178 48485 71799 83278
                   333 58002 81950 83462 86280 91016=
201511270600 AAXX 27064 67475 32980 63608 10213 20188 48515 85078
                   333 10278 20173 59012 85359 86280 91019=
201511261200 AAXX 26124 67475 41775 62612 10273 20172 48484 71522 8427/
                   333 58009 81950 83850 85463 91015=
201511260600 AAXX 26064 67475 11280 82906 10188 20181 48526 60194 70252 8677/
                   333 10300 20163 58010 87705 88460 91021=
201511250600 AAXX 25064 67475 12580 41213 10224 20167 48518 60014 84131
                   333 10278 20162 59014 84825 81359 81080 91019=
201511240600 AAXX 24064 67475 12580 71213 10232 20185 48532 60014 82268
                   333 10300 20177 59004 82825 83360 86280 91021=
201511230900 AAXX 23094 67475 42680 71211 10256 20185 48530 70322 85208
                   333 58024 85825 87280 91021=
201511230600 AAXX 23064 67475 12580 81709 10204 20186 48535 60494 70322 86508
                   333 10315 20168 5//// 86620 88280 91021=
201511200600 AAXX 20064 67475 31975 70106 10243 20146 48513 70522 80008
                   333 10331 20182 59005 87280 91019=
201511190900 AAXX 19094 67475 41675 33309 10291 20151 48506 70500 83200
                   333 5//// 83200 5//// 83843 91018=
201511190600 AAXX 19064 67475 31975 33503 10244 20172 48518 70510 80001
                   333 10308 20163 59012 83080 91019=
201511180600 AAXX 18064 67475 11575 23510 10221 20182 48530 60014 70500 81131
                   333 10296 20172 58005 81820 81361 82080 91021=
201511170600 AAXX 17064 67475 11575 50602 10216 20176 48525 60134 70522 81138
                   333 10311 20169 59002 81820 82359 84280=
201511110600 AAXX 11064 67475 31975 70213 10240 20149 48525 70502 80008
                   333 10306 20179 5//// 87280 91020=
201511100900 AAXX 10094 67475 NIL=
201511100600 AAXX 10064 67475 11975 70803 10200 20159 48532 69914 70502 8707/
                   333 10297 20149 59014 87359 91021=
201511050600 AAXX 05064 67475 31378 81121 10170 20141 48561 70502 886//
                   333 10266 20166 58023 88710 91025=
201511040600 AAXX 04064 67475 31970 81206 10201 20149 48540 70522 8807/
                   333 10284 20169 58009 88360 91022=
201511020600 AAXX 02064 67475 11970 43209 10221 20184 48519 69904 70522 84072
                   333 10302 20173 59005 84360 81080 91019=

################################################################################
#  SYNOPS from 67476, Misamfu (Zambia) | 10-06S | 031-15E | 1536 m
################################################################################
201512010600 AAXX 01064 67476 12980 21302 10215 20177 48/// 69904 82001
                   333 10298 20178 58000 82080=
201511300600 AAXX 30064 67476 12580 11104 10224 20174 48/// 69904 81100
                   333 10281 20169 59005 81829=
201511261200 AAXX 26124 67476 NIL=
201511260600 AAXX 26064 67476 11979 70000 10185 20177 48/// 60234 76166 87071
                   333 10303 20175 58010 87459 81080=
201511230900 AAXX 23094 67476 NIL=
201511190900 AAXX 19094 67476 NIL=
201511110600 AAXX 11064 67476 NIL=
201511100900 AAXX 10094 67476 NIL=

################################################################################
#  SYNOPS from 67477, Mpika (Zambia) | 11-54S | 031-26E | 1400 m
################################################################################
201511300600 AAXX 30064 67477 32480 40000 10208 20/// 48556 84501
                   333 10290 20186 59003 84612 81080=
201511270600 AAXX 27064 67477 12980 40000 10227 20//0 48520 60104 80001
                   333 10280 20180 59006 84080=
201511261200 AAXX 26124 67477 NIL=
201511260600 AAXX 26064 67477 12480 80000 10202 20/// 48527 60064 8357/
                   333 10305 20183 58006 83614 86459=
201511250600 AAXX 25064 67477 32480 10000 10229 20/// 48520 81130
                   333 10273 20188 5//// 81816 81359=
201511230900 AAXX 23094 67477 NIL=
201511200600 AAXX 20064 67477 32980 20000 10258 20/// 48520 80001
                   333 10322 20199 59004 82080=
201511190900 AAXX 19094 67477 NIL=
201511190600 AAXX 19064 67477 32980 00000 10258 20/// 48524
                   333 10318 20174 59007=
201511180600 AAXX 18064 67477 32980 40000 10249 20/// 48526 80001
                   333 10286 20160 59002 84080=
201511170600 AAXX 17064 67477 12480 30000 10228 20/// 48528 60104 81130
                   333 10300 20160 58001 81814 83461=
201511110600 AAXX 11064 67477 NIL=
201511100900 AAXX 10094 67477 NIL=
201511100600 AAXX 10064 67477 32980 00000 10253 20/// 48532
                   333 10329 20162 59018=
201511090600 AAXX 09064 67477 32980 30000 10244 20/// 48550 81031
                   333 10319 20163 5//// 81359 83080=
201511060600 AAXX 06064 67477 12480 20000 10170 20/// 48556 60014 82100
                   333 10196 20133 58006 82814=
201511040600 AAXX 04064 67477 11478 80000 10180 20/// 48544 60124 79622 8197/
                   333 10311 20168 58014 81914 88459=
201511020600 AAXX 02064 67477 32980 00000 10249 20/// 48520
                   333 10334 20163 5////=

################################################################################
#  SYNOPS from 67481, Isoka (Zambia) | 10-07S | 032-38E | 1360 m
################################################################################
201512010600 AAXX 01064 67481 12580 32302 10228 20171 48/// 69904 82101
                   333 10304 20185 58000 82820 83080=
201511300600 AAXX 30064 67481 32480 12702 10222 20182 48/// 81101
                   333 10292 20185 59006 81815
                   555 59006 81815 81080=
201511270600 AAXX 27064 67481 12480 70000 10211 20182 48/// 60164 8117/
                   333 10270 20185 5//// 81810 87460=
201511261200 AAXX 26124 67481 NIL=
201511260600 AAXX 26064 67481 11480 70000 10210 20164 48/// 60024 72162 8157/
                   333 10310 20190 5//// 81610 87460=
201511250600 AAXX 25064 67481 12480 10000 10225 20178 48/// 60024 81130
                   333 10276 20170 59013 81817 81360
                   555 00/// 20000 40018 5//// 6////=
201511240600 AAXX 24064 67481 32580 60603 10242 20170 48/// 85501
                   333 10354 20215 59008 85625 84080=
201511230900 AAXX 23094 67481 NIL=
201511200900 AAXX 20094 67481 42780 40000 10290 20130 48/// 81000
                   333 5//// 84856=
201511200600 AAXX 20064 67481 32980 50303 10255 20155 48/// 80004
                   333 10350 20195 58003 85080=
201511190900 AAXX 19094 67481 NIL=
201511190600 AAXX 19064 67481 32980 13602 10259 20141 48/// 80001
                   333 10339 20189 59014 81080=
201511180600 AAXX 18064 67481 32580 10104 10232 20155 48/// 81120
                   333 10360 20167 58004 81830 81361=
201511170600 AAXX 17064 67481 32580 40301 10240 20171 48/// 81130
                   333 10340 20191 59001 81828 83361=
201511110600 AAXX 11064 67481 32980 52103 10234 20157 48/// 80001
                   333 10320 20180 59004 85080=
201511100900 AAXX 10094 67481 42780 50000 10276 20123 48/// 84230
                   333 5//// 84850 83361=
201511100600 AAXX 10064 67481 11478 20000 10204 20182 48/// 60054 72842 81130
                   333 10315 20179 59017 81810 82360=
201511020600 AAXX 02064 67481 32980 51604 10232 20177 48/// 85030
                   333 10305 20180 5//// 85360=

################################################################################
#  SYNOPS from 67531, Zambezi (Zambia) | 13-32S | 023-07E | 1077 m
################################################################################
201511270600 AAXX 27064 67531 32980 03606 10243 20194 48///
                   333 10347 20184 59003=
201511261200 AAXX 26124 67531 NIL=
201511260600 AAXX 26064 67531 32480 20302 10225 20196 48/// 70200 82130
                   333 10287 20170 59018 82813 81360=
201511240600 AAXX 24064 67531 12980 40302 10225 20198 48/// 60074 70211 83032
                   333 10327 20183 59013 83362 81080=
201511230900 AAXX 23094 67531 NIL=
201511200600 AAXX 20064 67531 12980 73304 10225 20181 48/// 69904 70222 8707/
                   333 10347 20195 59002 87362=
201511190900 AAXX 19094 67531 NIL=
201511180600 AAXX 18064 67531 32980 60301 10216 20185 48/// 70222 86070
                   333 10345 20192 59009 86360=
201511170600 AAXX 17064 67531 32980 63602 10205 20183 48/// 70222 86032
                   333 10297 20155 58002 86361 82081=
201511110600 AAXX 11064 67531 NIL=
201511100900 AAXX 10094 67531 NIL=
201511020600 AAXX 02064 67531 11980 73606 10196 20175 48/// 60314 70266 8707/
                   333 10353 20175 59005 87460=

################################################################################
#  SYNOPS from 67541, Kasempa (Zambia) | 13-32S | 025-51E | 1234 m
################################################################################
201511261200 AAXX 26124 67541 NIL=
201511260600 AAXX 26064 67541 32980 2//00 10224 20197 48/// 82030
                   333 10322 20157 59005 82360=
201511230900 AAXX 23094 67541 NIL=
201511200600 AAXX 20064 67541 12380 70000 10204 20195 48508 69904 70222 8353/
                   333 10/// 20/// 58008 83606 87360=
201511190900 AAXX 19094 67541 NIL=
201511110600 AAXX 11064 67541 NIL=
201511100900 AAXX 10094 67541 NIL=

################################################################################
#  SYNOPS from 67543, Kabompo (Zambia) | 13-36S | 024-12E | 1075 m
################################################################################
201511270600 AAXX 27064 67543 32980 0//01 10236 20193 48/// 70200
                   333 10336 20166 59010=
201511261200 AAXX 26124 67543 NIL=
201511260600 AAXX 26064 67543 NIL=
201511250600 AAXX 25064 67543 32980 7//00 10238 20201 48/// 70222 8703/
                   333 10332 20187 59009 87360=
201511240600 AAXX 24064 67543 32983 7//00 10232 20201 48/// 70222 8703/
                   333 10330 20182 59010 87360=
201511230900 AAXX 23094 67543 42583 6//01 10268 20208 48/// 70222 85531
                   333 5//// 85620 81360 81080=
201511200600 AAXX 20064 67543 11583 7//00 10230 20185 48/// 69904 71792 8237/
                   333 10346 20196 58002 81920 82820 87360=
201511190900 AAXX 19094 67543 NIL=
201511190600 AAXX 19064 67543 32983 4//01 10236 20197 48/// 70222 81035
                   333 10328 20178 5//// 81360 84280=
201511110600 AAXX 11064 67543 NIL=
201511100900 AAXX 10094 67543 NIL=
201511090600 AAXX 09064 67543 32975 0//01 10241 20181 48/// 70200
                   333 10358 20159 58014=
201511020600 AAXX 02064 67543 12982 7//00 10204 20189 48/// 60084 8707/
                   333 10372 20185 58005 87360=

################################################################################
#  SYNOPS from 67551, Solwezi (Zambia) | 12-11S | 026-23E | 1386 m
################################################################################
201511300600 AAXX 30064 67551 12360 71404 10192 20182 48549 60224 876//
                   333 10254 20146 59024 87708 91022=
201511261200 AAXX 26124 67551 NIL=
201511260600 AAXX 26064 67551 12970 70903 10205 20169 48516 60014 8707/
                   333 10260 20152 58003 87362 91019=
201511250600 AAXX 25064 67551 12475 71105 10216 20169 48514 60124 81131
                   333 10314 20172 59017 81810 86362 81080 91019=
201511230900 AAXX 23094 67551 NIL=
201511190900 AAXX 19094 67551 NIL=
201511190600 AAXX 19064 67551 12975 23202 10204 20176 48506 60014 80001
                   333 10280 20160 59009 82080 91018=
201511170600 AAXX 17064 67551 12475 70903 10227 20171 48523 60074 8117/
                   333 10281 20162 58006 81820 86362 91020=
201511110600 AAXX 11064 67551 NIL=
201511100900 AAXX 10094 67551 NIL=
201511050600 AAXX 05064 67551 11459 81306 10170 20140 48561 69944 70522 875//
                   333 10170 20152 58027 88612
                   555 00/// 20000 91024=
201511020600 AAXX 02064 67551 11358 82604 10190 20190 48522 60164 70596 8197/
                   333 10336 20184 59009 81907 88362 91019=

################################################################################
#  SYNOPS from 67561, Ndola (Zambia) | 13-00S | 028-39E | 1269 m
################################################################################
201511261200 AAXX 26124 67561 NIL=
201511260600 AAXX 26064 67561 31960 50000 10213 20186 48519 70522 83038
                   333 10301 20177 58001 83360 85280 91019=
201511230900 AAXX 23094 67561 NIL=
201511200600 AAXX 20064 67561 31960 50304 10246 20157 48506 70511 81032
                   333 10334 20199 59013 81360 84080 91017=
201511190900 AAXX 19094 67561 NIL=
201511190600 AAXX 19064 67561 31958 30000 10245 20184 48519 70411 83030
                   333 10315 20185 59002 83360 91019=
201511180600 AAXX 18064 67561 11959 60000 10225 20190 48519 60024 70422 81038
                   333 10295 20180 59007 81360 86280=
201511110600 AAXX 11064 67561 NIL=
201511100900 AAXX 10094 67561 NIL=
201511090600 AAXX 09064 67561 31959 00000 10225 20128 48544 70400
                   333 10325 20155 58009=
201511011200 AAXX 01124 67561 42680 60000 10323 20111 48483 84260
                   333 59015 81948 84850 82360
                   555 66/// 77/// 8858/ 98021 91014=
201511010600 AAXX 01064 67561 31959 30504 10246 20167 48517 70422 83030
                   333 10314 20187 59017 83360
                   555 00/// 91019=

################################################################################
#  SYNOPS from 67563, Kafironda (Zambia) | 12-36S | 028-07E | 1243 m
################################################################################
201511261200 AAXX 26124 67563 NIL=
201511260600 AAXX 26064 67563 11570 80000 10205 20166 48/// 60074 70222 8157/
                   333 10304 20180 58002 81616 87458=
201511230900 AAXX 23094 67563 NIL=
201511190900 AAXX 19094 67563 NIL=
201511180600 AAXX 18064 67563 11770 70000 10225 20180 48/// 60174 70522 87070
                   333 10310 20170 5//// 87459=
201511110600 AAXX 11064 67563 NIL=
201511100900 AAXX 10094 67563 NIL=
201511020600 AAXX 02064 67563 11980 70000 10230 20200 48/// 60184 70522 81038
                   333 10340 20186 5//// 81366 86280=

################################################################################
#  SYNOPS from 67571, Serenje (Zambia) | 13-14S | 030-13E | 1384 m
################################################################################
201512010600 AAXX 01064 67571 32982 71205 10240 20166 81038
                   333 10297 20185 81360 87280=
201511300600 AAXX 30064 67571 11482 71806 10204 20181 60014 72052 877//
                   333 10327 20185 87709=
201511270600 AAXX 27064 67571 32982 12702 10226 20155 48/// 80008
                   333 10304 20155 5//// 81080=
201511261200 AAXX 26124 67571 NIL=
201511260600 AAXX 26064 67571 32482 73002 10206 20177 48/// 70222 83508
                   333 10295 20190 5//// 83618 87280=
201511230900 AAXX 23094 67571 NIL=
201511200900 AAXX 20094 67571 42682 33604 10295 20147 70300 83200
                   333 5//// 83835=
201511200600 AAXX 20064 67571 32982 61505 10243 20148 48/// 70311 86031
                   333 10334 20210 5//// 86360 81080=
201511190900 AAXX 19094 67571 42682 33602 10305 20138 48/// 70300 83200
                   333 5//// 83835=
201511190600 AAXX 19064 67571 12982 10304 10250 20123 48/// 69904 70200 80001
                   333 10320 20180 5//// 81081=
201511180600 AAXX 18064 67571 32982 30303 10249 20138 48/// 70200 81031
                   333 10281 20200 81360 83080=
201511170600 AAXX 17064 67571 32981 71206 10205 20166 48522 70222 8703/
                   333 10301 20185 58006 87360=
201511110600 AAXX 11064 67571 32981 20604 10253 20136 48514 70200 82030
                   333 10328 20192 59006 82360=
201511100900 AAXX 10094 67571 42675 71205 10287 20119 48516 70322 8323/
                   333 59016 83835 87360=
201511100600 AAXX 10064 67571 32970 70602 10230 20132 48523 70322 8703/
                   333 10336 20152 59018 87360=

################################################################################
#  SYNOPS from 67575, Mkushi (Zambia) | 13-38-00S | 029-26-00E | 1237 m
################################################################################
201511261200 AAXX 26124 67575 NIL=
201511260600 AAXX 26064 67575 32980 50602 10220 20182 48/// 70200 83072
                   333 10325 20175 5//// 83360 82080=
201511230900 AAXX 23094 67575 NIL=
201511200600 AAXX 20064 67575 32980 20905 10276 20159 48/// 70200 81032
                   333 10334 20205 5//// 81360 81080=
201511190900 AAXX 19094 67575 NIL=
201511190600 AAXX 19064 67575 32980 20000 10237 20173 48/// 70200
                   333 10322 20170 5//// 82080=
201511180600 AAXX 18064 67575 32980 43601 10222 20181 48/// 70222 81032
                   333 10288 20175 5//// 83080=
201511170600 AAXX 17064 67575 12980 71002 10205 20194 48/// 60064 70122 85072
                   333 10320 20180 5//// 85360 82080=
201511110600 AAXX 11064 67575 NIL=
201511100900 AAXX 10094 67575 NIL=
201511090600 AAXX 09064 67575 32980 20904 10250 20136 48/// 70200 82031
                   333 10340 20145 5//// 82360 81080=
201511060600 AAXX 06064 67575 32980 00904 10190 20122 48/// 70200
                   333 10210 20130 5////=

################################################################################
#  SYNOPS from 67580, Msekera (Zambia) | 13-39S | 032-34E | 1025 m
################################################################################
201512010600 AAXX 01064 67580 12980 70000 10255 20179 48/// 69904 81038
                   333 10310 20/// 59011 81362 86280=
201511300600 AAXX 30064 67580 12580 41507 10244 20186 48/// 60154 82101
                   333 10305 20/// 58000 82820 82080=
201511270600 AAXX 27064 67580 32980 50302 10284 20172 48/// 80008
                   333 10367 20/// 59008 85280=
201511261200 AAXX 26124 67580 42980 72702 10342 20073 48/// 81038
                   333 59008 81360 87280=
201511260900 AAXX 26094 67580 42780 70000 10328 20087 48/// 81108
                   333 59003 81856 87280=
201511260600 AAXX 26064 67580 32980 70000 10323 20158 48/// 81038
                   333 10340 20/// 59006 81360 87280=
201511240600 AAXX 24064 67580 12480 71203 10235 20181 48/// 60054 875//
                   333 10342 20/// 5//// 87616=
201511230900 AAXX 23094 67580 NIL=
201511200600 AAXX 20064 67580 32680 41003 10300 20172 48/// 81101
                   333 10380 20/// 59008 81830 83080=
201511190900 AAXX 19094 67580 NIL=
201511190600 AAXX 19064 67580 32980 20905 10305 20158 48/// 80001
                   333 10371 20/// 58001 82080=
201511180600 AAXX 18064 67580 32980 60603 10300 20122 48/// 80008
                   333 10352 20/// 59017 86280=
201511170600 AAXX 17064 67580 12580 31203 10242 20175 48/// 60014 81132
                   333 10346 20/// 58016 81825 82362 81080=
201511110600 AAXX 11064 67580 32980 41103 10295 20146 48/// 84030
                   333 10339 20/// 59001 84361=
201511100900 AAXX 10094 67580 42680 71503 10319 20131 48/// 83131
                   333 59015 83842 85360 82080=
201511100600 AAXX 10064 67580 32980 72102 10270 20160 48/// 86031
                   333 10369 20/// 59017 86360 83080=
201511040900 AAXX 04094 67580 41575 81605 10188 20159 48/// 70252 885//
                   333 58061 88628=
201511020600 AAXX 02064 67580 31980 33605 10289 20164 48/// 70511 80001
                   333 10366 20/// 59006 83080=

################################################################################
#  SYNOPS from 67581, Chipata (Zambia) | 13-33S | 032-35E | 1028 m
################################################################################
201511261200 AAXX 26124 67581 NIL=
201511260600 AAXX 26064 67581 32980 33606 10280 20117 48545 70200 80002
                   333 10336 20166 59006 83080 91017=
201511230900 AAXX 23094 67581 NIL=
201511200600 AAXX 20064 67581 32680 31604 10289 20263 48537 70200 81102
                   333 10357 20209 59007 81830 82080 91017=
201511190900 AAXX 19094 67581 NIL=
201511190600 AAXX 19064 67581 32960 00906 10295 20151 48535
                   333 10350 20220 5//// 91017=
201511180600 AAXX 18064 67581 32980 30607 10295 20116 48/// 80001
                   333 10342 20170 5//// 83080=
201511170600 AAXX 17064 67581 12680 31606 10255 20169 48541 69904 70200 81130
                   333 10348 20185 58014 81830 82360 91019=
201511110600 AAXX 11064 67581 NIL=
201511100900 AAXX 10094 67581 NIL=
201511090600 AAXX 09064 67581 32980 30403 10285 20132 48569 80002
                   333 10349 20177 58005 83080 91021=
201511050600 AAXX 05064 67581 31480 51508 10172 20117 48590 70222 8457/
                   333 10300 20126 58022 84625 85460 91026=
201511020600 AAXX 02064 67581 32980 00905 10284 20165 48519 70200
                   333 10350 20207 59017 91016=

################################################################################
#  SYNOPS from 67583, Lundazi (Zambia) | 12-17S | 033-12E | 1143 m
################################################################################
201511261200 AAXX 26124 67583 NIL=
201511260600 AAXX 26064 67583 32580 73603 10262 20181 48/// 70220 81231
                   333 10/// 20/// 59002 81830 82360 87080=
201511250600 AAXX 25064 67583 31659 11201 10258 20134 48/// 70500 81030
                   333 10/// 20/// 5//// 81360=
201511230900 AAXX 23094 67583 NIL=
201511190900 AAXX 19094 67583 NIL=
201511110600 AAXX 11064 67583 NIL=
201511100900 AAXX 10094 67583 NIL=
201511020600 AAXX 02064 67583 32980 53601 10275 20177 48/// 81043
                   333 10/// 20/// 59009 82360 83080=

################################################################################
#  SYNOPS from 67599, Mfuwe (Zambia) | 13-16S | 031-56E | 568 m
################################################################################
201511300600 AAXX 30064 67599 12580 42003 10260 20214 48569 60144 82132
                   333 10330 20206 58005 83820 81360 81080 91020=
201511261200 AAXX 26124 67599 NIL=
201511260600 AAXX 26064 67599 32980 60000 10295 20174 48530 80002
                   333 10367 20205 59012 86080 91015=
201511250600 AAXX 25064 67599 32980 01406 10280 20146 48538
                   333 10338 20221 59022 91016=
201511230900 AAXX 23094 67599 NIL=
201511190900 AAXX 19094 67599 NIL=
201511180600 AAXX 18064 67599 32980 30000 10290 20183 48531 80004
                   333 10375 20206 59015 83080 91015=
201511170600 AAXX 17064 67599 32980 71805 10266 20197 48535 8703/
                   333 10381 20224 58013 87360 91016=
201511110600 AAXX 11064 67599 NIL=
201511100900 AAXX 10094 67599 NIL=
201511060600 AAXX 06064 67599 32980 01803 10230 20136 48585
                   333 10256 20173 59012=
201511020600 AAXX 02064 67599 32980 43605 10325 20186 48521
                   333 10410 20235 59019 84080 91013=

################################################################################
#  SYNOPS from 67625, Kalabo (Zambia) | 14-51S | 022-42E | 1033 m
################################################################################
201511261200 AAXX 26124 67625 NIL=
201511260600 AAXX 26064 67625 32982 33304 10233 20177 48/// 80001
                   333 10393 20169 59009 83075=
201511230900 AAXX 23094 67625 NIL=
201511190900 AAXX 19094 67625 NIL=
201511110600 AAXX 11064 67625 NIL=
201511100900 AAXX 10094 67625 NIL=

################################################################################
#  SYNOPS from 67633, Mongu (Zambia) | 15-15S | 023-09E | 1052 m
################################################################################
201511261200 AAXX 26124 67633 NIL=
201511260600 AAXX 26064 67633 NIL=
201511230900 AAXX 23094 67633 NIL=
201511190900 AAXX 19094 67633 NIL=
201511110600 AAXX 11064 67633 NIL=
201511100900 AAXX 10094 67633 NIL=

################################################################################
#  SYNOPS from 67641, Kaoma (Zambia) | 14-48S | 024-48E | 1213 m
################################################################################
201511300600 AAXX 30064 67641 11850 80802 10200 20198 48548 60524 75055 8453/
                   333 10301 20184 58013 84640 87360=
201511261200 AAXX 26124 67641 NIL=
201511260600 AAXX 26064 67641 32980 22804 10230 20180 48497 80002
                   333 10347 20187 59008 82080 91015=
201511250600 AAXX 25064 67641 32980 20802 10260 20167 48508 80002
                   333 10336 20196 59022 82080 91016=
201511230900 AAXX 23094 67641 NIL=
201511190900 AAXX 19094 67641 NIL=
201511190600 AAXX 19064 67641 32980 63602 10241 20190 48498 82032
                   333 10344 20207 59005 82360 83080 91015=
201511170600 AAXX 17064 67641 12980 72202 10197 20190 48501 60494 87030
                   333 10343 20181 59005 87360 91016=
201511110600 AAXX 11064 67641 32980 13002 10247 20123 48499 80001
                   333 10375 20176 59017 81080 91015=
201511100900 AAXX 10094 67641 NIL=
201511100600 AAXX 10064 67641 32980 00000 10229 20121 48513
                   333 10371 20150 59019 91017=
201511060600 AAXX 06064 67641 32980 21202 10210 20114 48549 80002
                   333 10267 20155 59014 82080 91022=
201511020600 AAXX 02064 67641 11975 72706 10214 20176 48488 69964 70522 87030
                   333 10350 20205 59007 87360 91014=

################################################################################
#  SYNOPS from 67655, Mumbwa (Zambia) | 15-04S | 027-11E | 1216 m
################################################################################
201512010600 AAXX 01064 67655 12980 20905 10235 20177 48564 60044 81078
                   333 10261 20/// 59016 81360 81280 91023=
201511300600 AAXX 30064 67655 12480 81108 10210 20180 48572 60154 8457/
                   333 10261 20/// 58011 84616 87360 91025=
201511270600 AAXX 27064 67655 32980 00906 10260 20160 48517
                   333 10352 20/// 59015 91017=
201511261200 AAXX 26124 67655 NIL=
201511260600 AAXX 26064 67655 NIL=
201511230900 AAXX 23094 67655 NIL=
201511200600 AAXX 20064 67655 32980 72308 10232 20182 48530 8707/
                   333 10330 20/// 58005 87460 91019=
201511190900 AAXX 19094 67655 NIL=
201511110600 AAXX 11064 67655 NIL=
201511100900 AAXX 10094 67655 NIL=
201511060600 AAXX 06064 67655 32980 00816 10185 20106 48418
                   333 10241 20/// 59007 91014=

################################################################################
#  SYNOPS from 67659, Kafue Polder (Zambia) | 15-46S | 027-55E | 978 m
################################################################################
201511270600 AAXX 27064 67659 32980 10402 10270 20163 48/// 70222 81002
                   333 10364 20/// 59022 81080=
201511261200 AAXX 26124 67659 NIL=
201511260600 AAXX 26064 67659 NIL=
201511230900 AAXX 23094 67659 NIL=
201511230600 AAXX 23064 67659 31480 71203 10235 20205 48/// 60174 70322 83630
                   333 10310 20/// 58039 83615 87360=
201511190900 AAXX 19094 67659 NIL=
201511110600 AAXX 11064 67659 NIL=
201511100900 AAXX 10094 67659 NIL=
201511090600 AAXX 09064 67659 32980 01704 10280 20/// 48///
                   333 10350 20/// 59002=

################################################################################
#  SYNOPS from 67662, Kabwe Agric (Zambia) | 14-24S | 028-30E | 1165 m
################################################################################
201511261200 AAXX 26124 67662 NIL=
201511260600 AAXX 26064 67662 32980 42802 10235 20182 48/// 83031
                   333 10316 20/// 5//// 83360 81080=
201511230900 AAXX 23094 67662 NIL=
201511190900 AAXX 19094 67662 NIL=
201511110600 AAXX 11064 67662 31975 00503 10265 20131 48/// 70500
                   333 10355 20/// 5////=
201511100900 AAXX 10094 67662 NIL=
201511100600 AAXX 10064 67662 31975 03603 10259 20099 48/// 70500
                   333 10355 20/// 5////=
201511020600 AAXX 02064 67662 31975 62803 10263 20157 48/// 70522 80008
                   333 10358 20/// 5//// 86280=

################################################################################
#  SYNOPS from 67663, Kabwe (Zambia) | 14-27S | 028-28E | 1206 m
################################################################################
201511300600 AAXX 30064 67663 12480 80809 10208 20183 48559 60054 8753/
                   333 10240 20192 58006 87618 85360=
201511261200 AAXX 26124 67663 NIL=
201511260600 AAXX 26064 67663 NIL=
201511250600 AAXX 25064 67663 32980 20910 10229 20154 48512 80002
                   333 10286 20180 59034 82080=
201511240600 AAXX 24064 67663 32480 60810 10226 20186 48545 85530
                   333 10300 20201 58007 85618 86360=
201511230900 AAXX 23094 67663 NIL=
201511190900 AAXX 19094 67663 NIL=
201511170600 AAXX 17064 67663 31965 70207 10240 20175 48522 70522 84038
                   333 10301 20193 59004 84360 85280=
201511110600 AAXX 11064 67663 NIL=
201511100900 AAXX 10094 67663 NIL=
201511090600 AAXX 09064 67663 31965 00909 10255 20187 48519 70500
                   333 10344 20189 58012=

################################################################################
#  SYNOPS from 67665, Lusaka Internationalairport (Zambia) | 15-19S | 028-27E | 1152 m
################################################################################
201512010600 AAXX 01064 67665 32980 40909 10230 20151 48560 83031
                   333 10302 20//0 59015 83360 82080=
201511302100 AAXX 30214 67665 42980 71403 10224 20134 48549 70222 80001
                   333 59025 87080=
201511300900 AAXX 30094 67665 42580 71110 10238 20126 48576 70222 86830
                   333 59003 85835 83360=
201511291800 AAXX 29184 67665 42980 51009 10207 20134 48562
                   333 58020=
201511291200 AAXX 29124 67665 42680 70710 10241 20164 48560 875//
                   333 58052 87638=
201511290900 AAXX 29094 67665 42580 80913 10220 20157 48569 70222 885//
                   333 58043 88632=
201511290600 AAXX 29064 67665 42580 70915 10216 20114 11024 48569 58043 70322 875// 87635=
201511290300 AAXX 29034 67665 42980 51009 10207 20112 48545 70222 85031
                   333 58034 85360 81080=
201511282100 AAXX 28214 67665 42980 50906 10233 20126 48544 70222 85030
                   333 58039 85360=
201511281200 AAXX 28124 67665 42680 60512 10315 20183 48518 81932
                   333 58025 81942 85845 81360 84080=
201511280900 AAXX 28094 67665 63506 10298 20161 48544 83202
                   333 58029 83835 84080=
201511280600 AAXX 28064 67665 33504 10246 20133 48531 80002
                   333 10360 20//0 58021 86080=
201511271800 AAXX 27184 67665 42980 21001 10273 20136 48492 70200 82030
                   333 10360 58004 82360=
201511271500 AAXX 27154 67665 42780 20704 10335 20130 48481 70200 81200
                   333 58000 81850=
201511271200 AAXX 27124 67665 42580 31302 10335 20130 48496 70300 83100
                   333 59006 83835=
201511270600 AAXX 27064 67665 32980 03007 10250 20128 48510
                   333 59017=
201511270300 AAXX 27034 67665 42980 02404 10170 20075 48486
                   333 59018=
201511262100 AAXX 26214 67665 42980 21602 10214 20076 48498 82030
                   333 59014 82360=
201511261200 AAXX 26124 67665 NIL=
201511260900 AAXX 26094 67665 42580 50803 10285 20133 48524 7322/ 82102
                   333 59011 82828 85080=
201511260600 AAXX 26064 67665 NIL=
201511260000 AAXX 26004 67665 42980 51902 10188 20094 48487 70310 80001
                   333 59013 85080=
201511252100 AAXX 25214 67665 42980 00000 10211 20118 48509 70200
                   333 59027=
201511251800 AAXX 25184 67665 42980 31202 10238 20121 48501 70200 80001
                   333 10334 59018 83080=
201511251500 AAXX 25154 67665 42780 31002 10301 20131 48486 70122 82201
                   333 59029 82856 81080=
201511251200 AAXX 25124 67665 42680 40904 10299 20134 48508 70300 83201
                   333 59032 83845 81080=
201511250900 AAXX 25094 67665 42980 11207 10265 20156 48532 80001
                   333 59023 81080=
201511250600 AAXX 25064 67665 42980 10909 10256 20155 48541 70200 81031
                   333 59017 81360 81080=
201511242100 AAXX 24214 67665 42980 01106 10203 20117 48527 70200
                   333 59011=
201511241800 AAXX 24184 67665 42980 01005 10232 20127 48512 70100
                   333 59016=
201511241200 AAXX 24124 67665 42680 30508 10271 20145 48536 70201 81130
                   333 58006 81840 82360=
201511240900 AAXX 24094 67665 42680 41012 10248 20154 48553 70122 81130
                   333 58004 81830 83360=
201511231800 AAXX 23184 67665 42960 21105 10226 20164 48533 70100 82031
                   333 58010 82060 82080=
201511231200 AAXX 23124 67665 42660 40709 10280 20198 48532 70300 84201
                   333 58031 84835 83080=
201511230900 AAXX 23094 67665 42680 40611 10247 20195 48544 70222 82531
                   333 58046 82628 81359 82080=
201511230600 AAXX 23064 67665 42460 60406 10209 20141 48545 70122 83531
                   333 58048 83625 86360 83080=
201511230300 AAXX 23034 67665 42460 70808 10192 20134 48525 70222 8703/
                   333 58051 87359=
201511222100 AAXX 22214 67665 42960 72002 10195 20132 48541 70299 8701/
                   333 58054 87459=
201511220900 AAXX 22094 67665 42580 72612 10290 20169 48508 8413/
                   333 58004 84830 84360=
201511210600 AAXX 21064 67665 12980 72703 10232 20184 48504 60014 70222 82032
                   333 10330 20//0 59009 82360 86080=
201511210300 AAXX 21034 67665 42960 52502 10203 20145 48482 70222 84032
                   333 59016 84360 82080=
201511210000 AAXX 21004 67665 42960 43003 10216 20144 48489 70222 84030
                   333 59004 84360=
201511202100 AAXX 20214 67665 42760 52402 10233 20149 48501 70222 81930
                   333 59007 81956 86360=
201511201500 AAXX 20154 67665 41760 71703 10285 20180 48490 71722 8197/
                   333 59010 81950 87459=
201511201200 AAXX 20124 67665 42660 62213 10298 20179 48490 70322 84202
                   333 59003 84845 85080=
201511200900 AAXX 20094 67665 42980 70709 10293 20182 48513 70222 87031
                   333 59005 87360=
201511200600 AAXX 20064 67665 31980 71011 10257 20155 48516 8703/
                   333 59007 87360=
201511200000 AAXX 20004 67665 42980 31106 10240 20144 48495 83030
                   333 59004 83360=
201511192100 AAXX 19214 67665 42980 30709 10251 20129 48510 83030
                   333 58003 83360=
201511191800 AAXX 19184 67665 42980 31003 10281 20139 48497 70200 81032
                   333 10354 59008 81360 83080=
201511191500 AAXX 19154 67665 42578 41207 10333 20143 48484 70222 82202
                   333 59012 82856 83080=
201511191200 AAXX 19124 67665 42780 40809 10330 20145 48497 70222 83202
                   333 59008 83850 83080=
201511190900 AAXX 19094 67665 NIL=
201511181800 AAXX 18184 67665 42980 61703 10247 20143 48500 86030
                   333 59/// 86360=
201511181500 AAXX 18154 67665 42680 61804 10257 20147 48489 72922 81932
                   333 59004 81940 84842 82360 84080=
201511181200 AAXX 18124 67665 42680 50412 10322 20133 48504 85232
                   333 59011 85832 81360 81080=
201511180900 AAXX 18094 67665 42680 50607 10298 20119 48529 70222 83201
                   333 59014 83830 83360 81080=
201511180600 AAXX 18064 67665 32980 50604 10256 20164 48531 70222 84032
                   333 10379 20//0 59010 84360 83080=
201511172100 AAXX 17214 67665 42980 31402 10227 20156 48516 82031
                   333 59017 82360 81080=
201511171500 AAXX 17154 67665 42680 50909 10289 20167 48496 82200
                   333 59011 82850 84030=
201511171200 AAXX 17124 67665 42680 50803 10289 20186 48512 85200
                   333 59011 85838=
201511170900 AAXX 17094 67665 42680 71009 10258 20176 48538 8553/
                   333 59006 85632 85360=
201511170300 AAXX 17034 67665 42980 31001 10184 20105 48519 70200 83030
                   333 59009 83360 91019=
201511170000 AAXX 17004 67665 42980 30203 10206 20115 48517 70200 83030
                   333 58012 83360 91018=
201511162100 AAXX 16214 67665 42980 30000 10211 20112 48530 70200 83030
                   333 58028 83360 91020=
201511160900 AAXX 16094 67665 42960 60203 10239 20152 48531 86030
                   333 58029 86360=
201511152100 AAXX 15214 67665 42980 73510 10245 20120 48517 80007
                   333 58026 87280=
201511151800 AAXX 15184 67665 42980 72505 10251 20129 48488 70222 87007
                   333 58015 87280=
201511151500 AAXX 15154 67665 42980 72410 10312 20163 48476 70222 87007
                   333 58007 87280=
201511151200 AAXX 15124 67665 42980 72010 10315 20154 48491 87007
                   333 58001 87280 91014=
201511150900 AAXX 15094 67665 42980 72513 10300 20133 48509 87007
                   333 59006 87280=
201511150600 AAXX 15064 67665 42980 62412 10262 20129 48510 86002
                   333 10//0 20//0 59005 86080=
201511150300 AAXX 15034 67665 42980 02504 10218 20106 48480 70200
                   333 59020=
201511150000 AAXX 15004 67665 42980 02708 10247 20134 48485 70200
                   333 59013=
201511142100 AAXX 14214 67665 42980 21403 10223 20106 48488 70200 80001
                   333 59026 82080=
201511140600 AAXX 14064 67665 31980 53303 10278 20163 48519 70500 85030
                   333 59015 85360=
201511140300 AAXX 14034 67665 42980 12002 10204 20109 48498 81030
                   333 59008 81360=
201511140000 AAXX 14004 67665 42980 22402 10221 20110 48495 59008 82030 82360=
201511132100 AAXX 13214 67665 42980 21304 10223 20102 48513 82030
                   333 59001 82360=
201511131800 AAXX 13184 67665 42980 20903 10283 20119 48508 70100 80001
                   333 10374 58009 82080=
201511131500 AAXX 13154 67665 42980 30705 10351 20131 48493 70200 82061
                   333 58005 82360 81080=
201511131200 AAXX 13124 67665 42780 50703 10354 20114 48513 70222 83201
                   333 58006 83850 82080=
201511130900 AAXX 13094 67665 42980 32806 10332 20157 48535 81031
                   333 58005 81360 81080=
201511130600 AAXX 13064 67665 32980 23001 10274 20132 48533 70300 81031
                   333 10385 20//0 58002=
201511130300 AAXX 13034 67665 42980 00000 10197 20111 48505 70200
                   333 59003 91017=
201511130000 AAXX 13004 67665 42980 00000 10225 20116 48504 70200
                   333 58000=
201511122100 AAXX 12214 67665 42980 01601 10241 20126 48517 70200
                   333 59001 91018=
201511121800 AAXX 12184 67665 42980 01404 10273 20116 48498
                   333 59007=
201511121500 AAXX 12154 67665 42780 21304 10343 20130 48487 82100
                   333 59004 82850=
201511121200 AAXX 12124 67665 42680 32804 10343 20120 48506 83100
                   333 59003 83842=
201511120900 AAXX 12094 67665 42680 22604 10308 20072 48527 70300 82100
                   333 58000 82835=
201511111800 AAXX 11184 67665 42980 11205 10277 20152 48506 81030
                   333 59007 81360=
201511111500 AAXX 11154 67665 42780 20806 10337 20174 48491 82100
                   333 59011 82856=
201511111200 AAXX 11124 67665 42680 41710 10336 20187 48509 84100
                   333 58000 84845=
201511110600 AAXX 11064 67665 32980 00608 10268 20161 48531
                   333 10361 20//0 59011=
201511110300 AAXX 11034 67665 42980 01303 10178 20087 48510 70200
                   333 59008 91018=
201511110000 AAXX 11004 67665 42980 01506 10197 20070 48501 70200
                   333 59018 11016=
201511102100 AAXX 10214 67665 42980 01405 10203 20079 48516 70200
                   333 59010 91018=
201511100900 AAXX 10094 67665 NIL=
201511100600 AAXX 10064 67665 32980 01008 10272 20091 48540 70200
                   333 10//0 20//0 59017=
201511100300 AAXX 10034 67665 42980 01403 10179 20099 48517 70200
                   333 59010 91019=
201511100000 AAXX 10004 67665 42980 02802 10194 20098 48577 70200
                   333 59008=
201511091500 AAXX 09154 67665 42980 00914 10331 20135 48523 70200
                   333 58011 91018=
201511091200 AAXX 09124 67665 42980 01507 10349 20118 48534 70300 81031
                   333 58009 81360 81080 91018=
201511090600 AAXX 09064 67665 32980 01103 10256 20070 48558 70200
                   333 10345 20//0 58006=
201511090300 AAXX 09034 67665 42980 01601 10155 20080 48524 70200
                   333 58005=
201511082100 AAXX 08214 67665 42980 01003 10186 20072 48535 70200
                   333 58006=
201511081800 AAXX 08184 67665 42980 11404 10236 20086 48524 80001
                   333 58005 81080=
201511081500 AAXX 08154 67665 42980 20305 10322 20154 48510 80001
                   333 59004 82080=
201511080900 AAXX 08094 67665 42980 21207 10293 20148 48547 70200 80001
                   333 59007 81080 91020=
201511080600 AAXX 08064 67665 32980 20806 10226 20106 48548 82030
                   333 59011 82360=
201511080000 AAXX 08004 67665 42980 02402 10143 20053 48510
                   333 59021=
201511072100 AAXX 07214 67665 42980 01503 10171 20067 48527
                   333 59024=
201511071800 AAXX 07184 67665 42980 21106 10214 20090 48515 70200 80002
                   333 10310 59033 82080=
201511071500 AAXX 07154 67665 42980 31005 10290 20121 48511 70200 80002
                   333 59027 82080=
201511071200 AAXX 07124 67665 42980 21005 10288 20118 48525 70200 80002
                   333 59027 82080=
201511070900 AAXX 07094 67665 42980 21305 10257 20115 48550 80002
                   333 59030 82080=
201511070600 AAXX 07064 67665 32980 10814 10217 20105 48549 70200 80001
                   333 10294 20//0 59028 81080=
201511070300 AAXX 07034 67665 42980 01004 10118 20037 48517 70200
                   333 59029=
201511061800 AAXX 06184 67665 42980 01007 10204 20087 48546
                   333 59028=
201511061500 AAXX 06154 67665 42980 01008 10271 20103 48535
                   333 59026=
201511061200 AAXX 06124 67665 42980 10907 10267 20100 48549 80001
                   333 59029 81080=
201511060900 AAXX 06094 67665 42980 00914 10224 20104 48574 70200 80001
                   333 59019 81080=
201511060600 AAXX 06064 67665 32980 00817 10185 20106 48580 70200
                   333 10248 20//0 59014=
201511051800 AAXX 05184 67665 42980 00708 10173 20112 48562 70112
                   333 59002=
201511051200 AAXX 05124 67665 42580 70811 10223 20155 48569 70222 87500
                   333 58007 87635=
201511050900 AAXX 05094 67665 42480 80918 10185 20135 48588 885//
                   333 58014 88620=
201511050600 AAXX 05064 67665 42380 80820 10172 20129 48590 886//
                   333 58031 88707=
201511050300 AAXX 05034 67665 42680 41010 10156 20116 48572 70100 84530
                   333 58041 84633 91025=
201511040600 AAXX 04064 67665 32480 70723 10183 20133 48563 8553/
                   333 10311 20//0 58038 85612 86359=
201511040000 AAXX 04004 67665 42980 30715 10206 20131 48524 83030
                   333 58021 83360=
201511032100 AAXX 03214 67665 42980 21711 10248 20154 48520 82030
                   333 58015 82360=
201511031800 AAXX 03184 67665 42980 30000 10249 20147 48506 70100 82031
                   333 58003 82360 83080=
201511031200 AAXX 03124 67665 42980 62705 20185 48514 70200 86030
                   333 58034 86360 91017=
201511030300 AAXX 03034 67665 42960 63005 10216 20154 48511 70222 86030
                   333 58026 86360 91017=
201511022100 AAXX 02214 67665 42780 /2708 10239 20161 48503 70222 8193/
                   333 58015 819// 87360=
201511021800 AAXX 02184 67665 42759 72807 10236 20086 48502 8193/
                   333 58025 81956 85360=
201511021200 AAXX 02124 67665 42780 42106 10348 20179 48485 83201
                   333 59012 83856 82080=
201511020900 AAXX 02094 67665 42980 32209 10325 20117 48514 70300 82031
                   333 59012 82360 83080 91016=
201511020600 AAXX 02064 67665 32980 52912 10260 20146 48506 70200 80001
                   333 10360 59020 85080 91016=
201511020000 AAXX 02004 67665 42980 20903 10207 20092 48477 82030
                   333 59021 82360=
201511011800 AAXX 01184 67665 42980 11102 10278 20121 48482 70200 81030
                   333 10360 59019 81360=
201511011500 AAXX 01154 67665 42980 30902 10343 20151 48469 70100 82061
                   333 59024 82360 81080=
201511011200 AAXX 01124 67665 42680 53405 10336 20153 48497 70222 85200
                   333 59013 85845=
201511010900 AAXX 01094 67665 42680 30407 10325 20177 48526 82101
                   333 59007 82830 81080=
201511010600 AAXX 01064 67665 31959 13506 10255 20144 48526 70500 80001
                   333 59018 81080=

################################################################################
#  SYNOPS from 67666, Lusaka City Airport (Zambia) | 15-25-00S | 028-28-00E | 1280 m
################################################################################
201512010600 AAXX 01064 67666 32980 50914 10230 20159 48554 83036
                   333 10283 20/// 59014 83359 83080 91022=
201511300600 AAXX 30064 67666 32580 70908 10211 20167 48559 8353/
                   333 10235 20/// 58004 83615 85359=
201511270600 AAXX 27064 67666 32980 01310 10265 20165 48519
                   333 10323 20/// 59011 91017=
201511261200 AAXX 26124 67666 NIL=
201511260600 AAXX 26064 67666 32980 30000 10231 20168 48513 80001
                   333 10300 20/// 59014 83080 91018=
201511230900 AAXX 23094 67666 NIL=
201511200600 AAXX 20064 67666 32980 81210 10250 20165 48511 85038
                   333 10345 20/// 59008 85359 88278 91017=
201511190900 AAXX 19094 67666 NIL=
201511180600 AAXX 18064 67666 32980 70000 10237 20163 48523 85038
                   333 10301 20/// 59009 85359 86279 91019=
201511170600 AAXX 17064 67666 12980 70909 10220 20165 48531 69904 81138
                   333 10300 20/// 59001 81820 84359 86280 91020=
201511110600 AAXX 11064 67666 NIL=
201511100900 AAXX 10094 67666 NIL=
201511100600 AAXX 10064 67666 32980 00905 10271 20102 48525
                   333 10340 20/// 59017 91020=
201511030600 AAXX 03064 67666 11960 73411 10221 20180 48529 69934 70500 86038
                   333 10355 20/// 58029 86358 87278 91019=
201511020600 AAXX 02064 67666 31970 32705 10250 20147 48495 80001
                   333 10345 20/// 59026 83080 91016=

################################################################################
#  SYNOPS from 67667, Mount Makulu (Zambia) | 15-33S | 028-15E | 1213 m
################################################################################
201511300600 AAXX 30064 67667 32680 61007 10235 20169 48543 83102
                   333 10240 20180 59002 83830 86080=
201511261200 AAXX 26124 67667 NIL=
201511260600 AAXX 26064 67667 32980 62705 10245 20159 48/// 80002
                   333 10325 20180 59012 86080=
201511230900 AAXX 23094 67667 NIL=
201511230600 AAXX 23064 67667 12980 70903 10277 20147 48/// 60174 80008
                   333 10295 20160 58049 87280=
201511190900 AAXX 19094 67667 NIL=
201511180600 AAXX 18064 67667 31970 70805 10250 20116 48/// 70522 80008
                   333 10310 20170 59008=
201511170600 AAXX 17064 67667 31976 70906 10250 20165 48507 70522 82103
                   333 10280 20200 58001 82835 87280=
201511110600 AAXX 11064 67667 NIL=
201511100900 AAXX 10094 67667 NIL=
201511060600 AAXX 06064 67667 31970 00908 10195 20092 48/// 70500
                   333 10238 20135 59015=

################################################################################
#  SYNOPS from 67673, Petauke (Zambia) | 14-15S | 031-17E | 1035 m
################################################################################
201511270600 AAXX 27064 67673 32984 23602 10270 20169 48525 80001
                   333 10340 20205 59003 82080=
201511261200 AAXX 26124 67673 NIL=
201511260600 AAXX 26064 67673 32980 53605 10270 20100 48528 80008
                   333 10330 20205 59012 85280=
201511250600 AAXX 25064 67673 31975 11304 10240 20125 48535 70500 81080
                   333 10300 20206 59029 81360=
201511230900 AAXX 23094 67673 42684 43604 10278 20184 48555 84131
                   333 58074 84832 82360 82080=
201511201200 AAXX 20124 67673 41680 43602 10345 20156 48492 70500 84245
                   333 59020 84845 82360 81080=
201511200900 AAXX 20094 67673 41680 40204 10328 20167 48528 70500 84101
                   333 59011 84840 82080=
201511200600 AAXX 20064 67673 31980 30503 10290 20180 48534 70500 80001
                   333 10352 20230 59013 83080=
201511191200 AAXX 19124 67673 42684 63603 10330 20145 48501 86230
                   333 59004 86845 83360=
201511190900 AAXX 19094 67673 NIL=
201511190600 AAXX 19064 67673 32984 23602 10290 20130 48547 80001
                   333 10350 20203 58008 82080=
201511180600 AAXX 18064 67673 32980 60206 10280 20147 48537 80008
                   333 10320 20210 59017 86280=
201511170600 AAXX 17064 67673 12680 31303 10240 20177 48547 60154 70200 81130
                   333 10358 20210 58006 81835 83360=
201511110600 AAXX 11064 67673 NIL=
201511100900 AAXX 10094 67673 41675 41801 10320 20132 48551 70500 84130
                   333 59013 84842 83360=
201511100600 AAXX 10064 67673 31975 3//// 10290 20130 48553 70500 83030
                   333 10365 20210 59017 83360=
201511090600 AAXX 09064 67673 32980 10303 10280 20092 48568 80002
                   333 10350 20190 59016 81080=
201511031200 AAXX 03124 67673 41675 60901 10335 20150 48509 70522 86231
                   333 58019 86845 84360 82080=
201511020600 AAXX 02064 67673 31975 32702 10305 20147 48530 70500 80001
                   333 10350 20240 59012 83080=

################################################################################
#  SYNOPS from 67731, Senanga (Zambia) | 16-06S | 023-16E | 1027 m
################################################################################
201511300600 AAXX 30064 67731 32580 826// 10218 20195 48/// 70322 82382
                   333 10238 20189 5//// 82920 84623 84360 82080=
201511270600 AAXX 27064 67731 32980 233// 10269 20160 48/// 70200 83030
                   333 10368 20204 59003 83361=
201511261200 AAXX 26124 67731 NIL=
201511260600 AAXX 26064 67731 NIL=
201511230900 AAXX 23094 67731 NIL=
201511200600 AAXX 20064 67731 12980 509// 10230 20194 48/// 60184 70222 84038
                   333 10374 20199 58011 84360 83280=
201511190900 AAXX 19094 67731 NIL=
201511190600 AAXX 19064 67731 32980 331// 10277 20202 48/// 70200 83030
                   333 10362 20219 59003 83361=
201511180600 AAXX 18064 67731 12980 103// 10265 20182 48/// 69904 70200 81020
                   333 10265 20180 59014 81462=
201511170600 AAXX 17064 67731 12580 710// 10237 20177 48/// 69904 70322 82320
                   333 10353 20184 58018 82927 82633 84460=
201511110600 AAXX 11064 67731 NIL=
201511100900 AAXX 10094 67731 42980 028// 10354 20109 48///
                   333 5////=
201511100600 AAXX 10064 67731 32980 021// 10262 20124 48///
                   333 10379 20172 5////=
201511040600 AAXX 04064 67731 32980 616// 10248 20187 48/// 70222 84032
                   333 10355 20199 59005 84360 85080=
201511020600 AAXX 02064 67731 12680 819// 10225 20186 48/// 69904 70222 82982
                   333 10265 20168 5//// 82930 85362 84080=

################################################################################
#  SYNOPS from 67741, Sesheke (Zambia) | 17-28S | 024-18E | 949 m
################################################################################
201511261200 AAXX 26124 67741 NIL=
201511260600 AAXX 26064 67741 NIL=
201511250600 AAXX 25064 67741 32980 20601 10263 20169 48527 80001
                   333 10343 20173 59025 82080=
201511230900 AAXX 23094 67741 NIL=
201511200600 AAXX 20064 67741 12980 60901 10221 20198 48500 60404 86070
                   333 10375 20206 58007 86461=
201511190900 AAXX 19094 67741 NIL=
201511190600 AAXX 19064 67741 32980 13501 10294 20205 48/// 80001
                   333 10375 20230 59009 81080=
201511110600 AAXX 11064 67741 NIL=
201511100900 AAXX 10094 67741 NIL=

################################################################################
#  SYNOPS from 67743, Livingstone (Zambia) | 17-49S | 025-49E | 985 m
################################################################################
201511261200 AAXX 26124 67743 NIL=
201511260600 AAXX 26064 67743 NIL=
201511230900 AAXX 23094 67743 NIL=
201511190900 AAXX 19094 67743 NIL=
201511110600 AAXX 11064 67743 NIL=
201511100900 AAXX 10094 67743 NIL=

################################################################################
#  SYNOPS from 67751, Magoye (Zambia) | 16-00S | 027-36E | 1018 m
################################################################################
201511261200 AAXX 26124 67751 NIL=
201511260600 AAXX 26064 67751 NIL=
201511230900 AAXX 23094 67751 NIL=
201511190900 AAXX 19094 67751 NIL=
201511170600 AAXX 17064 67751 31976 61303 10255 20176 48/// 70500 86030
                   333 10/// 20215 5//// 86360=
201511110600 AAXX 11064 67751 NIL=
201511100900 AAXX 10094 67751 NIL=

################################################################################
#  SYNOPS from 67753, Choma (Zambia) | 16-50S | 027-04E | 1213 m
################################################################################
201511300600 AAXX 30064 67753 11560 70000 10205 20182 48/// 69954 70500 8355/
                   333 10291 20170 5//// 83625 84360=
201511261200 AAXX 26124 67753 NIL=
201511260600 AAXX 26064 67753 31960 30000 10237 20164 48/// 70500 80001
                   333 10317 20179 5//// 83080
                   555 00///=
201511230900 AAXX 23094 67753 NIL=
201511200600 AAXX 20064 67753 11580 80000 10178 20173 48527 60314 79596 86308
                   333 10280 20168 58023 81625 83930 82835 82280=
201511190900 AAXX 19094 67753 NIL=
201511190600 AAXX 19064 67753 11960 30000 10268 20142 48515 69964 70500 81032
                   333 10330 20/// 58005 81360 82080=
201511180600 AAXX 18064 67753 31960 63511 10242 20168 48513 70500 85032
                   333 10295 20190 59024 85360 81080=
201511170600 AAXX 17064 67753 31560 81308 10220 20164 48512 70500 8453/
                   333 10331 20209 5//// 84620 84360=
201511110600 AAXX 11064 67753 31960 00414 10279 20110 48526 70500
                   333 10357 20190 59008=
201511100900 AAXX 10094 67753 NIL=
201511030600 AAXX 03064 67753 11960 30000 10257 20107 48524 60024 70500 83030
                   333 10350 20182 5////=
201511020600 AAXX 02064 67753 11960 70000 10274 20153 48/// 69904 70500 8707/
                   333 10335 20215 5//// 87360=

################################################################################
#  SYNOPS from 67855, Lupaki (Zambia) | 17-03-00S | 024-46-00E | 1000 m
################################################################################
201512010600 AAXX 01064 67855 NIL=
201511301200 AAXX 30124 67855 NIL=
201511300600 AAXX 30064 67855 NIL=
201511291200 AAXX 29124 67855 NIL=
201511290600 AAXX 29064 67855 12975 71002 10204 20178 3//// 48/// 60284 8707/
                   333 20174 5//// 87459=
201511281200 AAXX 28124 67855 42875 41004 10344 20163 3//// 48/// 84232
                   333 5//// 84857=
201511280600 AAXX 28064 67855 32975 40507 10258 20167 3//// 48/// 84072
                   333 20220 5//// 84360 83080=
201511271200 AAXX 27124 67855 41870 33405 10382 20140 3//// 48/// 70500 83102
                   333 5//// 83857=
201511270600 AAXX 27064 67855 31970 03604 10300 20127 3//// 48/// 70500
                   333 20165 5////=
201511261200 AAXX 26124 67855 42875 23603 10380 20108 3//// 48/// 82100
                   333 5//// 82857=
201511260600 AAXX 26064 67855 32975 13603 10276 20122 3//// 48/// 81030
                   333 20155 5//// 81360=
201511251200 AAXX 25124 67855 42875 12501 10336 20096 3//// 48/// 81100
                   333 5//// 81857=
201511250600 AAXX 25064 67855 32975 00604 10250 20129 3//// 48///
                   333 20162 5////=
201511241200 AAXX 24124 67855 42975 01203 10332 20108 3//// 48///
                   333 5////=
201511240600 AAXX 24064 67855 32975 00703 10236 20141 3//// 48///
                   333 20168 5////=
201511231200 AAXX 23124 67855 NIL=
201511230600 AAXX 23064 67855 12975 10904 10228 20181 3//// 48/// 69904 80002
                   333 20178 5//// 87080=
201511221200 AAXX 22124 67855 41975 70000 10234 20187 3//// 48/// 70298 8707/
                   333 5//// 87459=
201511220600 AAXX 22064 67855 11670 70000 10208 20189 3//// 48/// 60034 79598 85273
                   333 20200 5//// 81930 84835 87080=
201511211200 AAXX 21124 67855 NIL=
201511210600 AAXX 21064 67855 NIL=
201511201200 AAXX 20124 67855 42875 73503 10324 20180 3//// 48/// 83102
                   333 5//// 83857 87080=
201511200600 AAXX 20064 67855 12975 73001 10234 20178 3//// 48/// 60094 80002
                   333 20186 5//// 87080=
201511191200 AAXX 19124 67855 41875 50606 10334 20175 3//// 48/// 70522 85201
                   333 5//// 85857=
201511190600 AAXX 19064 67855 11975 50301 10234 20174 3//// 48/// 69904 72162 85070
                   333 20204 5//// 85459=
201511181200 AAXX 18124 67855 41670 73603 10288 20188 3//// 48/// 79598 85203
                   333 5//// 81930 84840 87080=
201511180600 AAXX 18064 67855 32675 10101 10254 20196 3//// 48/// 81232
                   333 20176 5//// 81830=
201511171200 AAXX 17124 67855 42975 73601 10254 20174 3//// 48/// 8707/
                   333 5//// 87360=
201511170600 AAXX 17064 67855 11675 70000 10198 20180 3//// 48/// 60124 70298 8157/
                   333 20192 5//// 81630 87360=
201511161200 AAXX 16124 67855 41870 50701 10326 20151 3//// 48/// 70511 85202
                   333 5//// 84857 83080=
201511160600 AAXX 16064 67855 11970 40302 10270 20150 3//// 48/// 69904 70500 84071
                   333 20214 5//// 84360=
201511151200 AAXX 15124 67855 41975 82502 10334 20125 3//// 48/// 72162 8870/
                   333 5//// 88459=
201511150600 AAXX 15064 67855 77970 80000 10282 20128 3//// 48/// 69904 76062 8807/
                   333 20248 5//// 88458=
201511141200 AAXX 14124 67855 41870 63003 10388 20120 3//// 48/// 70511 81102
                   333 5//// 81857 86080=
201511140600 AAXX 14064 67855 31970 50301 10300 20124 38/// 48/// 70511 80002
                   333 20225 5//// 85080=
201511131200 AAXX 13124 67855 41870 31702 10388 20082 3//// 48/// 70500 83200
                   333 5//// 83857=
201511130600 AAXX 13064 67855 31970 00303 10302 20096 3//// 48/// 70500
                   333 20187 5////=
201511121200 AAXX 12124 67855 41970 00303 10392 20063 3//// 48/// 70500
                   333 5////=
201511120600 AAXX 12064 67855 31970 00602 10294 20071 3//// 48/// 70500
                   333 20189 5////=
201511111200 AAXX 11124 67855 41960 01104 10396 20074 3//// 48/// 70500
                   333 5////=
201511110600 AAXX 11064 67855 31970 00306 10300 20094 3//// 48/// 70500
                   333 20199 5////=
201511101200 AAXX 10124 67855 41770 31203 10400 20070 3//// 48/// 70500 81102
                   333 5//// 81850 83080=
201511100600 AAXX 10064 67855 NIL=
201511090600 AAXX 09064 67855 32975 03603 10276 20035 3//// 48///
                   333 20132 5////=
201511080600 AAXX 08064 67855 NIL=
201511070600 AAXX 07064 67855 32975 43603 10323 20058 3//// 48/// 84031
                   333 20100 5//// 84360=
201511041200 AAXX 04124 67855 42775 71305 10250 20093 3//// 48/// 8557/
                   333 5//// 85650 87459=
201511040600 AAXX 04064 67855 32675 70910 10196 20108 3//// 48/// 875//
                   333 20163 5//// 87640=
201511030600 AAXX 03064 67855 11970 31306 10246 20151 3//// 48/// 69904 70500 81031
                   333 20159 5//// 81360 83080=
201511011800 AAXX 01184 67855 NIL=
201511010600 AAXX 01064 67855 31970 03301 10296 20063 3//// 48/// 70500
                   333 20182 5////=
