################################################################################
# Query made at 04/14/2022 03:50:16 UTC
# Country like Zamb*
# Time interval: from 03/01/2015 05:30  to 03/31/2015 06:30  UTC
################################################################################

################################################################################
#  SYNOPS from 67403, Kawambwa (Zambia) | 09-48S | 029-05E | 1323 m
################################################################################
201503310600 AAXX 31064 67403 11980 33602 10202 20178 48521 60024 70120 83080
                   333 10/// 20174 58001 83360=
201503300600 AAXX 30064 67403 11380 70000 10192 20179 48520 60034 70322 8373/
                   333 10/// 20167 58008 83707 87360=
201503271200 AAXX 27124 67403 NIL=
201503270600 AAXX 27064 67403 12980 50904 10206 20189 48519 60064 70166 85080
                   333 10/// 20180 58001 85360=
201503261500 AAXX 26154 67403 NIL=
201503260600 AAXX 26064 67403 12980 70908 10206 20186 48518 60134 70266 87030
                   333 10/// 20169 58001 87360=
201503250900 AAXX 25094 67403 NIL=
201503250600 AAXX 25064 67403 11480 60902 10192 20176 48517 69904 70322 81530
                   333 10//0 20173 58006 81610 86360=
201503240900 AAXX 24094 67403 NIL=
201503240600 AAXX 24064 67403 12980 60905 10207 20183 48511 69954 85031
                   333 10/// 20179 5//// 85360 83080=
201503230600 AAXX 23064 67403 NIL=
201503221500 AAXX 22154 67403 NIL=
201503211500 AAXX 21154 67403 NIL=
201503200600 AAXX 20064 67403 12980 11205 10221 20181 48511 60014 81031
                   333 10/// 20182 58000 81360 81080=
201503190600 AAXX 19064 67403 12980 70901 10206 20188 48509 60014 87030
                   333 10/// 20179 59007 87360=
201503180900 AAXX 18094 67403 NIL=
201503170600 AAXX 17064 67403 32980 30901 10218 20182 48520 83031
                   333 10/// 20181 58004 83360 82080=
201503151500 AAXX 15154 67403 NIL=
201503130900 AAXX 13094 67403 NIL=
201503130600 AAXX 13064 67403 12980 30902 10199 20181 48511 69904 70300 82530
                   333 10/// 20163 59015 82610 83360=
201503110600 AAXX 11064 67403 11760 80000 10168 20150 48519 60254 79596 8197/
                   333 10/// 20161 58007 81950 88459=
201503101200 AAXX 10124 67403 NIL=
201503100600 AAXX 10064 67403 12980 41202 10198 20174 48514 60094 74030 84030
                   333 10/// 20157 58002 84360=
201503080600 AAXX 08064 67403 NIL=
201503071500 AAXX 07154 67403 NIL=
201503060900 AAXX 06094 67403 NIL=
201503060600 AAXX 06064 67403 12380 61803 10187 20176 48527 60214 70300 86630
                   333 10/// 20161 58008 86708 82360=
201503051500 AAXX 05154 67403 NIL=
201503050600 AAXX 05064 67403 12380 70902 10185 20177 48519 60104 70369 8167/
                   333 10/// 20167 59003 81708 87360=
201503040900 AAXX 04094 67403 NIL=
201503030600 AAXX 03064 67403 11980 80903 10187 20177 48517 69944 70222 8703/
                   333 10/// 20161 58010 87361=
201503030300 AAXX 03034 67403 NIL=
201503021500 AAXX 02154 67403 NIL=
201503020600 AAXX 02064 67403 12980 70902 10187 20163 48507 69954 86031
                   333 10//0 20165 59003 86360 82080=
201503011500 AAXX 01154 67403 NIL=

################################################################################
#  SYNOPS from 67413, Mbala (Zambia) | 08-51S | 031-20E | 1673 m
################################################################################
201503300600 AAXX 30064 67413 12480 50000 10175 20167 48549 60194 82582
                   333 10200 20/// 58003 82615 83360 82080 91025=
201503271200 AAXX 27124 67413 NIL=
201503261500 AAXX 26154 67413 NIL=
201503260600 AAXX 26064 67413 NIL=
201503250900 AAXX 25094 67413 NIL=
201503240900 AAXX 24094 67413 NIL=
201503230600 AAXX 23064 67413 NIL=
201503221500 AAXX 22154 67413 NIL=
201503211500 AAXX 21154 67413 NIL=
201503190600 AAXX 19064 67413 NIL=
201503180900 AAXX 18094 67413 NIL=
201503151500 AAXX 15154 67413 NIL=
201503130900 AAXX 13094 67413 NIL=
201503101200 AAXX 10124 67413 NIL=
201503080600 AAXX 08064 67413 NIL=
201503071500 AAXX 07154 67413 NIL=
201503060900 AAXX 06094 67413 NIL=
201503051500 AAXX 05154 67413 NIL=
201503050600 AAXX 05064 67413 12980 81005 10180 20156 45236 60184 8807/
                   333 10250 20/// 59003 88359 91023=
201503040900 AAXX 04094 67413 NIL=
201503030300 AAXX 03034 67413 NIL=
201503021500 AAXX 02154 67413 NIL=
201503011500 AAXX 01154 67413 NIL=

################################################################################
#  SYNOPS from 67441, Mwinilunga (Zambia) | 11-45S | 024-26E | 1361 m
################################################################################
201503310600 AAXX 31064 67441 11365 827// 10182 20176 48547 60074 78066 885//
                   333 10265 20/// 58007 88610=
201503300600 AAXX 30064 67441 NIL=
201503271200 AAXX 27124 67441 NIL=
201503261500 AAXX 26154 67441 NIL=
201503260600 AAXX 26064 67441 31975 615// 10190 20183 48557 70522 8603/
                   333 10300 20/// 58008 86360=
201503250900 AAXX 25094 67441 NIL=
201503250600 AAXX 25064 67441 31470 716// 10190 20183 48547 70522 8413/
                   333 10300 20/// 59002 84620 86360=
201503240900 AAXX 24094 67441 NIL=
201503230600 AAXX 23064 67441 NIL=
201503221500 AAXX 22154 67441 NIL=
201503211500 AAXX 21154 67441 NIL=
201503200600 AAXX 20064 67441 11970 609// 10196 20183 48547 60024 70511 84031
                   333 10300 20/// 58004 84360 82080=
201503190600 AAXX 19064 67441 NIL=
201503180900 AAXX 18094 67441 NIL=
201503151500 AAXX 15154 67441 NIL=
201503130900 AAXX 13094 67441 NIL=
201503110600 AAXX 11064 67441 31470 827// 10182 20176 48557 70522 886//
                   333 10290 20/// 58013 88612=
201503101200 AAXX 10124 67441 NIL=
201503100600 AAXX 10064 67441 11970 015// 10183 20171 48538 60054 70522 8704/
                   333 10292 20/// 5//// 87460=
201503080600 AAXX 08064 67441 NIL=
201503071500 AAXX 07154 67441 NIL=
201503060900 AAXX 06094 67441 NIL=
201503060600 AAXX 06064 67441 11460 827// 10190 20183 48557 60044 70542 8563/
                   333 10282 20/// 58011 85612 86360=
201503051500 AAXX 05154 67441 NIL=
201503040900 AAXX 04094 67441 41470 836// 10185 20173 48557 70522 886//
                   333 58015 88612=
201503030300 AAXX 03034 67441 NIL=
201503021500 AAXX 02154 67441 NIL=
201503020600 AAXX 02064 67441 31470 832// 10180 20172 48528 70522 886//
                   333 10270 20/// 59014 88613=
201503011500 AAXX 01154 67441 NIL=

################################################################################
#  SYNOPS from 67461, Mansa (Zambia) | 11-06S | 028-51E | 1382 m
################################################################################
201503300600 AAXX 30064 67461 12480 73303 10200 20184 48516 60024 8653/
                   333 10259 20180 59001 86615 87360 91019=
201503271200 AAXX 27124 67461 NIL=
201503270600 AAXX 27064 67461 32580 41302 10220 20198 48517 84530
                   333 10293 20174 59010 84620 81361 91018=
201503261500 AAXX 26154 67461 NIL=
201503260600 AAXX 26064 67461 NIL=
201503250900 AAXX 25094 67461 NIL=
201503240900 AAXX 24094 67461 NIL=
201503240600 AAXX 24064 67461 32580 51404 10212 20186 48518 83531
                   333 10294 20174 59003 83623 83361 82080=
201503230600 AAXX 23064 67461 NIL=
201503221500 AAXX 22154 67461 NIL=
201503211500 AAXX 21154 67461 NIL=
201503200600 AAXX 20064 67461 32580 61208 10221 20197 48520 82530
                   333 10305 20172 58011 82627 85360 91019=
201503190600 AAXX 19064 67461 32980 71103 10210 20195 48508 8707/
                   333 10302 20190 59017 87460 91017=
201503180900 AAXX 18094 67461 NIL=
201503151500 AAXX 15154 67461 NIL=
201503130900 AAXX 13094 67461 NIL=
201503130600 AAXX 13064 67461 32580 71307 10210 20188 48516 84530
                   333 10288 20178 59019 84627 85360 91018=
201503101200 AAXX 10124 67461 NIL=
201503080600 AAXX 08064 67461 NIL=
201503071500 AAXX 07154 67461 NIL=
201503060900 AAXX 06094 67461 NIL=
201503051500 AAXX 05154 67461 NIL=
201503040900 AAXX 04094 67461 NIL=
201503040600 AAXX 04064 67461 11280 81207 10185 20183 48528 72166 8467/
                   333 10271 20178 58005 84702 88458 91020=
201503030600 AAXX 03064 67461 32480 80000 10194 20180 48524 8807/
                   333 10298 20175 58019 83617 88459 91019=
201503030300 AAXX 03034 67461 NIL=
201503021500 AAXX 02154 67461 NIL=
201503020600 AAXX 02064 67461 12480 60000 10190 20199 48506 60194 81570
                   333 10276 20165 59003 81616 86459 91017=
201503011500 AAXX 01154 67461 NIL=

################################################################################
#  SYNOPS from 67475, Kasama (Zambia) | 10-13S | 031-08E | 1382 m
################################################################################
201503310600 AAXX 31064 67475 12480 40409 10197 20185 48537 60214 70342 81532
                   333 10285 20169 58007 81615 84360 81080 91022=
201503300600 AAXX 30064 67475 12480 53610 10202 20184 48530 69934 81678
                   333 10260 20161 59002 81712 83360 85280 91021=
201503271200 AAXX 27124 67475 NIL=
201503270600 AAXX 27064 67475 12380 20806 10208 20177 48531 69904 81570
                   333 10300 20158 59004 91021=
201503261500 AAXX 26154 67475 NIL=
201503260600 AAXX 26064 67475 12380 61011 10205 20166 48526 69904 83608
                   333 10290 20167 58001 83710 85280 91022=
201503250900 AAXX 25094 67475 NIL=
201503250600 AAXX 25064 67475 12480 80708 10201 20178 48535 69914 8657/
                   333 10273 20173 58012 86615 87459 91021=
201503240900 AAXX 24094 67475 42680 61013 10261 20165 48526 70322 85570
                   333 5//// 85630 85360 91020=
201503240600 AAXX 24064 67475 42480 51207 10202 20174 48523 70322 82271
                   333 10290 20165 59003 82810 85359 81080 91020=
201503230600 AAXX 23064 67475 NIL=
201503221500 AAXX 22154 67475 NIL=
201503211500 AAXX 21154 67475 NIL=
201503200600 AAXX 20064 67475 12580 51005 10203 20177 48527 69904 82270
                   333 10295 20169 58007 82820 85359 91021=
201503191500 AAXX 19154 67475 41780 51604 10269 20165 48493 76011 81978
                   333 58004 81956 82464 85280 91016=
201503190900 AAXX 19094 67475 42680 51105 10270 20195 48524 81238
                   333 5//// 81835 81361 84280 91020=
201503190600 AAXX 19064 67475 32480 60306 10205 20179 48520 81678
                   333 10290 20170 59005 81712 84360 85280 91020=
201503180900 AAXX 18094 67475 NIL=
201503170600 AAXX 17064 67475 12980 50801 10204 20175 48536 60014 82078
                   333 10290 20154 58002 82460 85280 91022=
201503160600 AAXX 16064 67475 32480 41009 10210 20179 48534 84570
                   333 10278 20152 58004 84620 81360 91021=
201503151500 AAXX 15154 67475 NIL=
201503131200 AAXX 13124 67475 42680 61206 10257 20181 48499 84232
                   333 5//// 81945 83845 82363 83080 91017=
201503130900 AAXX 13094 67475 42680 60907 10240 20185 48522 85230
                   333 5//// 85830 83361 91020=
201503130600 AAXX 13064 67475 11380 62807 10173 20166 48527 60184 71422 8177/
                   333 10266 20152 59016 81706 86460 91020=
201503110600 AAXX 11064 67475 11380 60405 10205 20187 48530 60024 75022 8367/
                   333 10282 20169 5//// 83707 85459 91021=
201503101200 AAXX 10124 67475 42680 60809 10270 20173 48498 84272
                   333 5//// 81945 83845 84362 81080 91017=
201503100600 AAXX 10064 67475 11380 60604 10174 20174 48/// 60024 72844 83671
                   333 10276 20141 5//// 83707 85359 82080=
201503080600 AAXX 08064 67475 NIL=
201503071500 AAXX 07154 67475 NIL=
201503060900 AAXX 06094 67475 42680 61305 10241 20165 48538 70322 84208
                   333 58008 84830 86280 91022=
201503060600 AAXX 06064 67475 12480 51004 10194 20172 48536 60044 70322 82674
                   333 10265 20155 58007 82714 84359 83080 91022=
201503051500 AAXX 05154 67475 42780 71507 10211 20189 48497 71782 8627/
                   333 58004 81956 85856 87460 91017=
201503051200 AAXX 05124 67475 43680 62211 10252 20175 48504 70322 8527/
                   333 58002 81945 84845 86360 91018=
201503050600 AAXX 05064 67475 12480 51803 10182 20169 48529 60414 70322 83671
                   333 10248 20154 59007 83710 82850 84359 83080
                   91021=
201503040900 AAXX 04094 67475 42580 81612 10216 20178 48534 70322 8557/
                   333 58001 85625 88460 91021=
201503030900 AAXX 03094 67475 42680 71702 10250 20181 48531 85272
                   333 58017 85835 85460 86080 91021=
201503030600 AAXX 03064 67475 12980 72008 10204 20166 48531 69914 86078
                   333 10280 20180 58019 86460 85280 91021=
201503030300 AAXX 03034 67475 NIL=
201503021500 AAXX 02154 67475 NIL=
201503020600 AAXX 02064 67475 11980 73103 10176 20171 48511 60214 70262 8707/
                   333 10265 20155 59002 87459 91019=
201503011500 AAXX 01154 67475 NIL=

################################################################################
#  SYNOPS from 67476, Misamfu (Zambia) | 10-06S | 031-15E | 1536 m
################################################################################
201503310600 AAXX 31064 67476 12580 50403 10201 20184 48/// 60084 81530
                   333 10281 20178 5//// 81620 85360=
201503300600 AAXX 30064 67476 12480 43602 10199 20179 48/// 69904 81631
                   333 10255 20171 5//// 81715 84360 81080=
201503271200 AAXX 27124 67476 NIL=
201503270600 AAXX 27064 67476 12980 00703 10201 20176 48/// 69904
                   333 10295 20168 59004=
201503261500 AAXX 26154 67476 NIL=
201503260600 AAXX 26064 67476 12480 40501 10195 20180 48/// 60014 81632
                   333 10283 20161 58000 81717 83360 83080=
201503250900 AAXX 25094 67476 NIL=
201503250600 AAXX 25064 67476 12480 80802 10195 20181 48/// 60074 8667/
                   333 10278 20181 58013 86715 87459=
201503240900 AAXX 24094 67476 NIL=
201503240600 AAXX 24064 67476 12980 50902 10196 20178 48/// 69904 85030
                   333 10296 20153 5//// 85360=
201503230600 AAXX 23064 67476 NIL=
201503221500 AAXX 22154 67476 NIL=
201503211500 AAXX 21154 67476 NIL=
201503190600 AAXX 19064 67476 NIL=
201503180900 AAXX 18094 67476 NIL=
201503151500 AAXX 15154 67476 NIL=
201503130900 AAXX 13094 67476 NIL=
201503130600 AAXX 13064 67476 12980 71802 10170 20162 48/// 60694 87030
                   333 10275 20160 5//// 87359=
201503110600 AAXX 11064 67476 12980 60000 10191 20182 48/// 60084 86031
                   333 10287 20176 58001 86359 82080=
201503101200 AAXX 10124 67476 NIL=
201503100600 AAXX 10064 67476 11360 00000 10170 20167 48/// 60044 74042
                   333 10280 20159 5////=
201503080600 AAXX 08064 67476 NIL=
201503071500 AAXX 07154 67476 NIL=
201503060900 AAXX 06094 67476 NIL=
201503051500 AAXX 05154 67476 NIL=
201503040900 AAXX 04094 67476 NIL=
201503030300 AAXX 03034 67476 NIL=
201503021500 AAXX 02154 67476 NIL=
201503020600 AAXX 02064 67476 12980 70000 10174 20169 48/// 60354 87071
                   333 10271 20161 5//// 87459 83080=
201503011500 AAXX 01154 67476 NIL=

################################################################################
#  SYNOPS from 67477, Mpika (Zambia) | 11-54S | 031-26E | 1400 m
################################################################################
201503310600 AAXX 31064 67477 12980 30000 10215 20185 48541 60054 83030
                   333 10245 20170 58003 83360=
201503300600 AAXX 30064 67477 12980 60000 10190 20187 48536 6///4 86030
                   333 10266 20163 5//// 86359=
201503271200 AAXX 27124 67477 NIL=
201503270600 AAXX 27064 67477 32480 10000 10210 20176 48533 81100
                   333 10270 20164 59010 81814=
201503261500 AAXX 26154 67477 NIL=
201503260600 AAXX 26064 67477 32680 60000 10210 20170 48541 81101
                   333 10265 20165 58006 81830 85080=
201503250900 AAXX 25094 67477 NIL=
201503250600 AAXX 25064 67477 32980 60000 10200 20178 48537
                   333 10250 20175 58002 86359=
201503240900 AAXX 24094 67477 NIL=
201503230600 AAXX 23064 67477 NIL=
201503221500 AAXX 22154 67477 NIL=
201503211500 AAXX 21154 67477 NIL=
201503200600 AAXX 20064 67477 31478 60606 10219 20176 48536 72842 85540
                   333 10270 20181 58006 85612 82459=
201503190600 AAXX 19064 67477 32980 00000 10205 20173 48527
                   333 10270 20175 59004=
201503180900 AAXX 18094 67477 NIL=
201503170600 AAXX 17064 67477 32980 00000 10/// 20182 48541
                   333 10276 20165 58007=
201503160600 AAXX 16064 67477 31480 20606 10208 20168 48533 72842 82100
                   333 10256 20165 59001 82811=
201503151500 AAXX 15154 67477 NIL=
201503130900 AAXX 13094 67477 NIL=
201503130600 AAXX 13064 67477 32980 81202 10195 20172 48530 887//
                   333 10270 20161 59014 88459=
201503110600 AAXX 11064 67477 32480 20000 10210 20178 48528 82100
                   333 10268 20175 5//// 82814=
201503101200 AAXX 10124 67477 NIL=
201503080600 AAXX 08064 67477 NIL=
201503071500 AAXX 07154 67477 NIL=
201503060900 AAXX 06094 67477 NIL=
201503060600 AAXX 06064 67477 32980 00000 10200 20168 48541
                   333 10260 20170 58010=
201503051500 AAXX 05154 67477 NIL=
201503050600 AAXX 05064 67477 32980 80000 10180 20168 48537 887//
                   333 10215 20150 58004 88359=
201503040900 AAXX 04094 67477 NIL=
201503040600 AAXX 04064 67477 11405 81508 10178 20170 48540 60054 74042 8657/
                   333 10260 20162 58001 86610 84458=
201503030300 AAXX 03034 67477 NIL=
201503021500 AAXX 02154 67477 NIL=
201503020600 AAXX 02064 67477 11478 80000 10187 20172 48413 60024 72842 8457/
                   333 10236 20161 5//// 84610 86459=
201503011500 AAXX 01154 67477 NIL=

################################################################################
#  SYNOPS from 67481, Isoka (Zambia) | 10-07S | 032-38E | 1360 m
################################################################################
201503310600 AAXX 31064 67481 12680 70000 10193 20181 48/// 60084 81290
                   333 10280 20178 58003 81841 87360=
201503300600 AAXX 30064 67481 12480 70103 10190 20177 48/// 69904 81590
                   333 10257 20179 5//// 81610 87360=
201503271200 AAXX 27124 67481 42780 33602 10284 20168 48/// 83201
                   333 59021 83850 81080=
201503270600 AAXX 27064 67481 32480 10000 10220 20175 48/// 81501
                   333 10282 20164 59010 81610 81080=
201503261500 AAXX 26154 67481 NIL=
201503260600 AAXX 26064 67481 12580 51403 10220 20168 48/// 60084 81584
                   333 10280 20165 58005 81620 81361 84080=
201503250900 AAXX 25094 67481 42580 61802 10248 20179 48/// 85280
                   333 58009 84828 81628 83361=
201503250600 AAXX 25064 67481 12480 63603 10212 20181 48/// 60014 81580
                   333 10262 20180 58009 81612 86361=
201503240900 AAXX 24094 67481 NIL=
201503240600 AAXX 24064 67481 32380 62001 10199 20173 48/// 82630
                   333 10275 20180 58000 82707 86360=
201503230600 AAXX 23064 67481 NIL=
201503221500 AAXX 22154 67481 NIL=
201503211500 AAXX 21154 67481 NIL=
201503200900 AAXX 20094 67481 42580 60604 10255 20185 48/// 86220
                   333 58002 86829 82361=
201503200600 AAXX 20064 67481 32980 71402 10213 20177 48/// 87070
                   333 10281 20188 58005 87360=
201503191200 AAXX 19124 67481 42680 61002 10276 20191 48/// 86220
                   333 59012 86835 81361=
201503190900 AAXX 19094 67481 42580 51204 10/// 20185 48580 81528
                   333 58004 81627 82361 83280=
201503190600 AAXX 19064 67481 31980 61202 10220 20178 48/// 86020
                   333 10274 20180 59007 86361=
201503180900 AAXX 18094 67481 NIL=
201503170600 AAXX 17064 67481 32980 41502 10216 20185 83034
                   333 10/// 20/// 58006 83361 83080=
201503151500 AAXX 15154 67481 NIL=
201503130900 AAXX 13094 67481 42580 41004 10242 20182 48/// 84100
                   333 5//// 84825=
201503130600 AAXX 13064 67481 12380 71201 10197 20185 48/// 60024 87620
                   333 10274 20189 59012 87708 82360=
201503110900 AAXX 11094 67481 42580 50803 10/// 20189 48/// 83230
                   333 5//// 83823 81625 82361=
201503110600 AAXX 11064 67481 32380 73601 10195 20180 82630
                   333 10283 20171 59002 82706 87360=
201503101200 AAXX 10124 67481 NIL=
201503100600 AAXX 10064 67481 12980 30502 10211 20173 48/// 69904 83031
                   333 10282 20161 58004 83361 81080=
201503080600 AAXX 08064 67481 NIL=
201503071500 AAXX 07154 67481 NIL=
201503060900 AAXX 06094 67481 42580 62402 10224 20178 48/// 83414
                   333 58005 82820 81622 81361 85080=
201503060600 AAXX 06064 67481 12480 60000 10190 20169 48/// 60104 81590
                   333 10226 20156 58008 81610 86361=
201503051500 AAXX 05154 67481 NIL=
201503050600 AAXX 05064 67481 11375 83301 10179 20168 48/// 60024 74144 8677/
                   333 10216 20174 59006 86705 88360=
201503040900 AAXX 04094 67481 NIL=
201503040600 AAXX 04064 67481 31370 80000 10189 20179 48/// 74344 8677/
                   333 10269 20182 58005 86706 88360=
201503030600 AAXX 03064 67481 32980 51503 10203 20183 48/// 83034
                   333 10272 20174 58015 83360 83080=
201503030300 AAXX 03034 67481 NIL=
201503021500 AAXX 02154 67481 NIL=
201503020600 AAXX 02064 67481 12980 80601 10186 20168 48/// 60094 8807/
                   333 10275 20165 58002 88459=
201503011500 AAXX 01154 67481 NIL=

################################################################################
#  SYNOPS from 67531, Zambezi (Zambia) | 13-32S | 023-07E | 1077 m
################################################################################
201503310600 AAXX 31064 67531 11380 70702 10207 20198 48/// 60024 70255 8367/
                   333 10296 20183 5//// 83707 87460=
201503301200 AAXX 30124 67531 42680 60302 10281 20193 48/// 70222 84202
                   333 5//// 84836 83081=
201503300600 AAXX 30064 67531 NIL=
201503271200 AAXX 27124 67531 NIL=
201503261500 AAXX 26154 67531 NIL=
201503260600 AAXX 26064 67531 32980 20101 10207 20187 48/// 70200 82031
                   333 10314 20176 5//// 82362 81081=
201503250900 AAXX 25094 67531 42680 50901 10263 20200 48/// 70222 82108
                   333 5//// 82838 84281=
201503250600 AAXX 25064 67531 12680 70000 10215 20194 48/// 60034 70222 8257/
                   333 10320 20190 5//// 82638 86360=
201503240900 AAXX 24094 67531 42980 21206 10282 20186 48/// 70200 80001
                   333 5//// 82082=
201503240600 AAXX 24064 67531 32980 20804 10212 20181 48/// 70200 81031
                   333 10326 20157 5//// 81362 81082=
201503230600 AAXX 23064 67531 NIL=
201503221500 AAXX 22154 67531 NIL=
201503211500 AAXX 21154 67531 NIL=
201503200600 AAXX 20064 67531 32980 41303 10225 20196 48/// 70210 84030
                   333 10315 20171 5//// 84362=
201503190600 AAXX 19064 67531 32480 40301 10220 20190 48/// 70211 82232
                   333 10322 20186 5//// 82818 83362 82081=
201503180900 AAXX 18094 67531 42980 11007 10292 20194 48/// 70200 81030
                   333 5//// 81362=
201503151500 AAXX 15154 67531 NIL=
201503130900 AAXX 13094 67531 NIL=
201503130600 AAXX 13064 67531 12980 11103 10206 20189 48/// 60024 70200 81030
                   333 10304 20173 5//// 81362=
201503110600 AAXX 11064 67531 12980 70903 10200 20185 48/// 60104 70222 8707/
                   333 10322 20182 5//// 87360=
201503101200 AAXX 10124 67531 42780 21202 10309 20170 48/// 70300 82100
                   333 5//// 82853=
201503080600 AAXX 08064 67531 NIL=
201503071500 AAXX 07154 67531 NIL=
201503060900 AAXX 06094 67531 NIL=
201503060600 AAXX 06064 67531 11370 73504 10210 20197 48/// 60024 72996 8267/
                   333 10295 20199 58012 82706 82620 86360=
201503051500 AAXX 05154 67531 NIL=
201503040900 AAXX 04094 67531 42480 81005 10232 20188 48/// 70222 8557/
                   333 58000 85618 88460=
201503040600 AAXX 04064 67531 12380 81201 10204 20198 48/// 60044 70222 8567/
                   333 10284 20192 58003 85607 88459=
201503030600 AAXX 03064 67531 12380 71401 10197 20188 48/// 60024 70222 8267/
                   333 10270 20175 58013 82706 87360=
201503030300 AAXX 03034 67531 NIL=
201503021500 AAXX 02154 67531 NIL=
201503020600 AAXX 02064 67531 12380 63002 10196 20187 48/// 60414 70222 83630
                   333 10260 20176 59007 83707 86362=
201503011500 AAXX 01154 67531 NIL=

################################################################################
#  SYNOPS from 67541, Kasempa (Zambia) | 13-32S | 025-51E | 1234 m
################################################################################
201503300600 AAXX 30064 67541 NIL=
201503271200 AAXX 27124 67541 NIL=
201503270600 AAXX 27064 67541 12980 10000 10223 20190 48522 69904 70222 80001
                   333 10/// 20/// 59006 81080=
201503261500 AAXX 26154 67541 NIL=
201503260600 AAXX 26064 67541 NIL=
201503250900 AAXX 25094 67541 NIL=
201503240900 AAXX 24094 67541 NIL=
201503230600 AAXX 23064 67541 NIL=
201503221500 AAXX 22154 67541 NIL=
201503211500 AAXX 21154 67541 NIL=
201503200600 AAXX 20064 67541 12980 10703 10243 20202 48522 69904 70222 81030
                   333 10/// 20/// 58004 81360=
201503190600 AAXX 19064 67541 NIL=
201503180900 AAXX 18094 67541 NIL=
201503160600 AAXX 16064 67541 12980 20000 10214 20185 48517 69904 70222 80002
                   333 10/// 20/// 59008 82080=
201503151500 AAXX 15154 67541 NIL=
201503130900 AAXX 13094 67541 NIL=
201503130600 AAXX 13064 67541 32980 10000 10189 20178 48520 70222 80001
                   333 10/// 20/// 59007 81080=
201503110600 AAXX 11064 67541 12980 60703 10209 20200 48523 60034 70222 86030
                   333 10/// 20/// 58004 86360=
201503101200 AAXX 10124 67541 NIL=
201503100600 AAXX 10064 67541 12980 10501 10197 20188 48519 60064 70222 81030
                   333 10/// 20/// 58001 81360=
201503080600 AAXX 08064 67541 NIL=
201503071500 AAXX 07154 67541 NIL=
201503060900 AAXX 06094 67541 NIL=
201503051500 AAXX 05154 67541 NIL=
201503040900 AAXX 04094 67541 NIL=
201503030300 AAXX 03034 67541 NIL=
201503021500 AAXX 02154 67541 NIL=
201503011500 AAXX 01154 67541 NIL=

################################################################################
#  SYNOPS from 67543, Kabompo (Zambia) | 13-36S | 024-12E | 1075 m
################################################################################
201503300600 AAXX 30064 67543 NIL=
201503271200 AAXX 27124 67543 NIL=
201503270600 AAXX 27064 67543 11/05 ///00 10182 20176 48/// 60034 74542
                   333 10325 20164 5////=
201503261500 AAXX 26154 67543 NIL=
201503260600 AAXX 26064 67543 32980 7//00 10198 20184 48/// 8705/
                   333 10330 20175 5//// 87360=
201503250900 AAXX 25094 67543 42680 7//00 10284 20185 48/// 85100
                   333 5//// 85830 84280=
201503250600 AAXX 25064 67543 12980 7//00 10206 20182 48/// 60014 81047
                   333 10328 20172 5//// 81360 87280=
201503240900 AAXX 24094 67543 NIL=
201503230600 AAXX 23064 67543 NIL=
201503221500 AAXX 22154 67543 NIL=
201503211500 AAXX 21154 67543 NIL=
201503190600 AAXX 19064 67543 NIL=
201503180900 AAXX 18094 67543 42680 1//00 10300 20168 48/// 81101
                   333 5//// 81835 81085=
201503151500 AAXX 15154 67543 NIL=
201503130900 AAXX 13094 67543 NIL=
201503101200 AAXX 10124 67543 NIL=
201503080600 AAXX 08064 67543 NIL=
201503071500 AAXX 07154 67543 NIL=
201503060900 AAXX 06094 67543 NIL=
201503051500 AAXX 05154 67543 NIL=
201503040900 AAXX 04094 67543 NIL=
201503030300 AAXX 03034 67543 NIL=
201503021500 AAXX 02154 67543 NIL=
201503020600 AAXX 02064 67543 32480 7//00 10200 20191 48/// 875//
                   333 10304 20186 5//// 87615=
201503011500 AAXX 01154 67543 NIL=

################################################################################
#  SYNOPS from 67551, Solwezi (Zambia) | 12-11S | 026-23E | 1386 m
################################################################################
201503300600 AAXX 30064 67551 12380 70904 10184 20178 48504 60324 85530
                   333 10237 20170 59002 85706 87362 91017=
201503271200 AAXX 27124 67551 NIL=
201503261500 AAXX 26154 67551 NIL=
201503260600 AAXX 26064 67551 NIL=
201503250900 AAXX 25094 67551 NIL=
201503240900 AAXX 24094 67551 NIL=
201503230600 AAXX 23064 67551 NIL=
201503221500 AAXX 22154 67551 NIL=
201503211500 AAXX 21154 67551 NIL=
201503190600 AAXX 19064 67551 NIL=
201503180900 AAXX 18094 67551 NIL=
201503170600 AAXX 17064 67551 32980 30703 10189 20175 48537 80001
                   333 10292 20150 58024 83080 91021=
201503151500 AAXX 15154 67551 NIL=
201503130900 AAXX 13094 67551 NIL=
201503110600 AAXX 11064 67551 32980 63603 10190 20170 48535 86030
                   333 10288 20166 58015 86362 91021=
201503101200 AAXX 10124 67551 NIL=
201503100600 AAXX 10064 67551 12980 71302 10198 20179 48513 60054 8707/
                   333 10293 20202 58016 87362 91019=
201503080600 AAXX 08064 67551 NIL=
201503071500 AAXX 07154 67551 NIL=
201503060900 AAXX 06094 67551 NIL=
201503051500 AAXX 05154 67551 NIL=
201503050600 AAXX 05064 67551 41370 81203 10177 20172 48531 60014 8677/
                   333 10264 20170 58002 86707 87362 91021=
201503040900 AAXX 04094 67551 NIL=
201503030600 AAXX 03064 67551 12475 70000 10186 20169 48525 60124 83630
                   333 10255 20169 58008 82710 87362 91020=
201503030300 AAXX 03034 67551 NIL=
201503021500 AAXX 02154 67551 NIL=
201503011500 AAXX 01154 67551 NIL=

################################################################################
#  SYNOPS from 67561, Ndola (Zambia) | 13-00S | 028-39E | 1269 m
################################################################################
201503300600 AAXX 30064 67561 11360 70000 10191 20182 48516 60294 70522 8667/
                   333 10264 20169 58002 86708 87459
                   555 20036 91020=
201503291200 AAXX 29124 67561 41659 70000 10190 20182 48486 79596 8624/
                   333 58008 81930 86835 87459
                   555 66/// 77104 8876/ 98012 91016=
201503290600 AAXX 29064 67561 11460 70000 10192 20183 48514 60364 70562 84538
                   333 10304 20161 59007 84610 86360 87280
                   555 91020=
201503271200 AAXX 27124 67561 41580 41004 10291 20161 48515 85200
                   333 59014 81930 85835
                   555 66/// 77086 8877/ 98022 91018=
201503270600 AAXX 27064 67561 31965 10804 10207 20182 48531 70500 80002
                   333 10290 20160 59004 81080
                   555 00/// 20086 91020=
201503261500 AAXX 26154 67561 41775 51004 10276 20168 48511 70522 83282
                   333 59004 81950 83855 82362 83080=
201503261200 AAXX 26124 67561 42680 60005 10285 20181 48528 85280
                   333 58016 81935 85840 85362
                   555 66/// 77070 8886/ 98021 91019=
201503260600 AAXX 26064 67561 12980 41103 10215 20181 48536 60094 82032
                   333 10296 20163 58002 82360 83080
                   555 00/// 91021=
201503250900 AAXX 25094 67561 NIL=
201503240900 AAXX 24094 67561 NIL=
201503240600 AAXX 24064 67561 11975 30805 10204 20182 48530 69904 70500 80002
                   333 10294 20156 58001 83080
                   555 00/// 91020=
201503230600 AAXX 23064 67561 31960 30000 10210 20183 48530 70500 80002
                   333 59011 83080 555 00/// 91020=
201503221500 AAXX 22154 67561 NIL=
201503220600 AAXX 22064 67561 31360 20805 10210 20181 48540 70500 81182
                   333 10296 20166 58002 81809 81360 82080
                   555 00/// 91021=
201503211500 AAXX 21154 67561 42780 51108 10286 20171 48511
                   333 58011 81956 85857 82080=
201503211200 AAXX 21124 67561 42680 62209 10281 20164 48523 86200
                   333 58009 86850 555 67/// 78101 8970/ 99034
                   91019=
201503210600 AAXX 21064 67561 31475 11005 10216 20181 48539 70500 81131
                   333 10304 20165 58010 81810 81360 81080
                   555 00/// 20002 91021=
201503200600 AAXX 20064 67561 11965 61104 10217 20185 48529 60024 70522 86082
                   333 10300 20164 58004 86360 86080 91020=
201503191200 AAXX 19124 67561 42680 70805 10292 20161 48510 84238
                   333 58009 84835 85360 86280
                   555 66/// 77106 8868/ 98032 91017=
201503190600 AAXX 19064 67561 31970 70912 10218 20184 48525 70511 86038
                   333 10309 20172 58001 86360 87280
                   555 00/// 91020=
201503180900 AAXX 18094 67561 NIL=
201503180600 AAXX 18064 67561 31970 10709 10210 20179 48524 70500 80002
                   333 10301 20155 59012 81080
                   555 00/// 91020=
201503170600 AAXX 17064 67561 31970 60000 10211 20186 48536 70511 80008
                   333 10293 20156 58002 86280
                   555 00/// 91021=
201503151500 AAXX 15154 67561 41780 41005 10277 20164 48505 84232
                   333 58004 81945 84850 81360 81080=
201503151200 AAXX 15124 67561 42680 60605 10274 20176 48515 70222 86230
                   333 58001 86835 81361
                   555 77048 8885/ 98032 91018=
201503150600 AAXX 15064 67561 11975 70803 10184 20173 48529 60184 70522 84038
                   333 10281 20154 58006 84360 86280
                   555 91020=
201503140600 AAXX 14064 67561 31960 70000 10194 20169 48535 69904 70522 8708/
                   333 10280 20162 58000 87360
                   555 91020=
201503131200 AAXX 13124 67561 41675 71605 10265 20165 48509 70522 87230
                   333 59014 81935 87840 82360
                   555 66/// 77023 8886/ 98024 91017=
201503130900 AAXX 13094 67561 42580 50908 10264 20153 48534 84130
                   333 59011 84824 82360 91020=
201503130600 AAXX 13064 67561 31970 60806 10214 20176 48528 70511 86030
                   333 10256 20164 59012 86360
                   555 00/// 91020=
201503120600 AAXX 12064 67561 11365 71003 10189 20183 48537 60024 72162 82638
                   333 10290 20169 58012 82708 86360 87280
                   555 00/// 91021=
201503101200 AAXX 10124 67561 NIL=
201503100600 AAXX 10064 67561 31270 40000 10216 20191 48531 60074 70522 81102
                   333 10196 20170 58008 81806 83080
                   555 00/// 91020=
201503091200 AAXX 09124 67561 41675 63404 10248 20185 48503 79522 86201
                   333 58007 81940 86843 81080
                   555 66/// 77098 8874/ 98005 91017=
201503090600 AAXX 09064 67561 31960 40000 10205 20184 48523 70511 83081
                   333 10290 20159 59005 83360 82080
                   555 00/// 91019=
201503080600 AAXX 08064 67561 31960 70000 10195 20172 48574 70522 87030
                   333 10291 20155 59004 87360
                   555 00/// 91020=
201503071500 AAXX 07154 67561 41660 42210 10282 20154 48496 84201
                   333 59006 84855 82080=
201503070600 AAXX 07064 67561 31960 70000 10182 20164 48530 70511 81038
                   333 10291 20136 59007 81360 87280
                   555 00/// 91020=
201503060900 AAXX 06094 67561 NIL=
201503060600 AAXX 06064 67561 31960 60000 10192 20166 48528 70522 84038
                   333 10276 20154 58005 84360 86280 91021=
201503051500 AAXX 05154 67561 41660 61805 10259 20167 48502 70522 85208
                   333 58005 85845 86280=
201503051200 AAXX 05124 67561 41660 60000 10259 20168 48516 70522 86201
                   333 58003 86830 83080 91018=
201503050600 AAXX 05064 67561 31360 80000 10166 20162 48530 70522 8367/
                   333 10246 20151 59010 83706 88459 91021=
201503040900 AAXX 04094 67561 41360 70000 10203 20170 48539 72065 8657/
                   333 58008 86610 87459=
201503040600 AAXX 04064 67561 31360 80305 10185 20173 48541 70522 877//
                   333 10272 20175 58013 87707
                   555 00/// 91022=
201503031200 AAXX 03124 67561 41575 60000 10259 20184 48508 70522 85208
                   333 58022 81925 85830 84280
                   555 66/// 77066 8874/ 98083 91017=
201503030600 AAXX 03064 67561 11359 70804 10191 20183 48529 69904 70422 8567/
                   333 10278 20174 58024 85706 87459
                   555 00/// 91020=
201503030300 AAXX 03034 67561 41260 70000 10184 20180 48489 70522 8363/
                   333 58008 83605 87360=
201503021500 AAXX 02154 67561 41759 70000 10199 20176 48479 79599 8347/
                   333 58009 81950 83656 87460=
201503021200 AAXX 02124 67561 41675 60000 10270 20173 48486 70522 86200
                   333 58003 81938 86840 91015=
201503020600 AAXX 02064 67561 31259 60000 10197 20171 48506 70522 82688
                   333 10266 20165 59001 82706 84360 86280
                   555 00/// 20124 91018=
201503020300 AAXX 02034 67561 41260 80000 10182 20177 48502 70522 8567/
                   333 59001 85705 81950 88459=
201503011500 AAXX 01154 67561 NIL=
201503010600 AAXX 01064 67561 11360 60000 10192 20177 48499 60124 70522 83638
                   333 10272 20164 59014 83709 85360 86280
                   555 00/// 20006 91018=

################################################################################
#  SYNOPS from 67563, Kafironda (Zambia) | 12-36S | 028-07E | 1243 m
################################################################################
201503300600 AAXX 30064 67563 NIL=
201503271200 AAXX 27124 67563 NIL=
201503261500 AAXX 26154 67563 NIL=
201503260600 AAXX 26064 67563 NIL=
201503250900 AAXX 25094 67563 NIL=
201503240900 AAXX 24094 67563 NIL=
201503230600 AAXX 23064 67563 NIL=
201503221500 AAXX 22154 67563 NIL=
201503211500 AAXX 21154 67563 NIL=
201503190600 AAXX 19064 67563 NIL=
201503180900 AAXX 18094 67563 NIL=
201503151500 AAXX 15154 67563 NIL=
201503130900 AAXX 13094 67563 NIL=
201503101200 AAXX 10124 67563 NIL=
201503080600 AAXX 08064 67563 NIL=
201503071500 AAXX 07154 67563 NIL=
201503060900 AAXX 06094 67563 NIL=
201503051500 AAXX 05154 67563 NIL=
201503040900 AAXX 04094 67563 NIL=
201503030300 AAXX 03034 67563 NIL=
201503021500 AAXX 02154 67563 NIL=
201503011500 AAXX 01154 67563 NIL=

################################################################################
#  SYNOPS from 67571, Serenje (Zambia) | 13-14S | 030-13E | 1384 m
################################################################################
201503310600 AAXX 31064 67571 12582 70903 10201 20187 48532 60024 70222 8154/
                   333 10255 20182 58012 81620 87360=
201503300600 AAXX 30064 67571 11482 70000 10188 20177 48511 60134 72052 81648
                   333 10280 20169 59005 81615 86360 87280=
201503271200 AAXX 27124 67571 42682 60605 10283 20149 48505 70322 83200
                   333 59014 81945 86845=
201503270600 AAXX 27064 67571 32982 10903 10/// 20161 48522 70200 80001
                   333 10301 20150 59006 81081=
201503261500 AAXX 26154 67571 NIL=
201503260600 AAXX 26064 67571 12982 60906 10200 20155 48532 60054 70122 81048
                   333 10294 20168 58005 81360 86280=
201503251200 AAXX 25124 67571 41682 70904 10262 20171 48504 72162 875//
                   333 59002 81940 87840=
201503250900 AAXX 25094 67571 42682 60605 10270 20157 48525 70311 85240
                   333 58001 85830 81361=
201503250600 AAXX 25064 67571 32982 10906 10216 20164 48523 70100 81041
                   333 10289 20175 81360 81080=
201503241200 AAXX 24124 67571 42682 40608 10273 20151 48505 70111 84240
                   333 59006 81945 84845 81361=
201503240900 AAXX 24094 67571 42682 71205 10245 20159 48524 70222 875//
                   333 59001 87630=
201503240600 AAXX 24064 67571 32582 11205 10210 20170 48532 70200 81500
                   333 10291 20175 59001 81620=
201503231200 AAXX 23124 67571 42682 40906 10271 20165 48515 70111 84500
                   333 59003 81935 84635=
201503230900 AAXX 23094 67571 42582 70908 10235 20161 48524 70222 875//
                   333 59009 87628=
201503230600 AAXX 23064 67571 NIL=
201503221500 AAXX 22154 67571 NIL=
201503211500 AAXX 21154 67571 NIL=
201503200600 AAXX 20064 67571 32582 10906 10211 20173 48522 70200 81540
                   333 10303 20165 58004 81620 81360=
201503191200 AAXX 19124 67571 41682 60906 10287 20170 48495 71799 84208
                   333 58006 81945 84845 85281=
201503190900 AAXX 19094 67571 42682 70906 10278 20171 48526 70222 81648
                   333 58005 81635 81361 87281=
201503190600 AAXX 19064 67571 32482 70905 10212 20175 48522 81648
                   333 10310 20179 58000 81710 86360 87280=
201503181200 AAXX 18124 67571 42682 31205 10296 20135 48496 70200 83240
                   333 59011 81945 83845 81361=
201503180900 AAXX 18094 67571 42682 10906 10275 20131 48515 70200 81542
                   333 59009 81635 81361 81081=
201503171200 AAXX 17124 67571 42682 41206 10290 20179 48505 70200 84201
                   333 59005 81945 84845 81080=
201503170600 AAXX 17064 67571 12982 11206 10216 20166 48533 69904 70200 81040
                   333 10297 20161 58002 81360=
201503151500 AAXX 15154 67571 NIL=
201503130900 AAXX 13094 67571 42682 41206 10246 20159 48524 70300 84200
                   333 59014 81935 84835=
201503130600 AAXX 13064 67571 32982 30906 10205 20159 48522 70111 83040
                   333 10269 20170 59015 83360=
201503110600 AAXX 11064 67571 32582 71205 10195 20168 48522 70311 875//
                   333 10276 20174 59004 87620=
201503101200 AAXX 10124 67571 42682 31505 10261 20157 48504 70200 83200
                   333 58003 83835=
201503100600 AAXX 10064 67571 32482 71206 10193 20171 48521 70222 85508
                   333 10277 20155 58010 85618 87281=
201503080600 AAXX 08064 67571 NIL=
201503071500 AAXX 07154 67571 NIL=
201503060900 AAXX 06094 67571 42682 51505 10254 20157 48534 70311 85501
                   333 58001 85630 81081=
201503060600 AAXX 06064 67571 32982 40000 10184 20159 48531 70200 80001
                   333 10260 20130 58000 84081=
201503051500 AAXX 05154 67571 NIL=
201503050600 AAXX 05064 67571 12480 71206 10171 20136 48530 69904 70222 81588
                   333 10/// 20/// 59006 81615 81360 87280=
201503041200 AAXX 04124 67571 41582 81505 10188 20140 48511 75052 885//
                   333 58008 88625=
201503040900 AAXX 04094 67571 NIL=
201503031200 AAXX 03124 67571 42682 70906 10245 20177 48548 55019 81930 83630 81930 83630
                   81360 87280=
201503030900 AAXX 03094 67571 42582 70906 10221 20175 48533 70222 8657/
                   333 58028 86620 87360=
201503030600 AAXX 03064 67571 11682 81205 10175 20164 48531 60644 75052 8247/
                   333 10278 20158 5//// 82630 88460=
201503030300 AAXX 03034 67571 NIL=
201503021500 AAXX 02154 67571 NIL=
201503020600 AAXX 02064 67571 12382 70000 10187 20170 48501 60054 70222 8164/
                   333 10248 20165 59002 81708 87360=
201503011500 AAXX 01154 67571 NIL=

################################################################################
#  SYNOPS from 67575, Mkushi (Zambia) | 13-38-00S | 029-26-00E | 1237 m
################################################################################
201503310600 AAXX 31064 67575 12380 50000 10201 20187 48/// 60074 70226 81672
                   333 10270 20185 5//// 81706 83360 82080=
201503300600 AAXX 30064 67575 12380 70000 10200 20182 48/// 60044 70126 81672
                   333 10285 20170 5//// 81704 83360 83080=
201503271200 AAXX 27124 67575 NIL=
201503270600 AAXX 27064 67575 32980 11202 10228 20187 48/// 70200 80001
                   333 10310 20155 5//// 81080=
201503261500 AAXX 26154 67575 NIL=
201503260600 AAXX 26064 67575 12980 20401 10210 20179 48/// 60184 70200 81072
                   333 10310 20165 5//// 81360 81080=
201503250900 AAXX 25094 67575 NIL=
201503240900 AAXX 24094 67575 NIL=
201503240600 AAXX 24064 67575 32480 30602 10215 20185 48/// 70300 83500
                   333 10300 20165 5//// 83612=
201503230600 AAXX 23064 67575 NIL=
201503221500 AAXX 22154 67575 NIL=
201503211500 AAXX 21154 67575 NIL=
201503200600 AAXX 20064 67575 32980 20902 10220 20182 48/// 70300 81231
                   333 10315 20170 5//// 81820 81360 81080=
201503190600 AAXX 19064 67575 32480 70904 10222 20147 48/// 70321 84572
                   333 10317 20175 5//// 84615 82360 81080=
201503180900 AAXX 18094 67575 NIL=
201503170600 AAXX 17064 67575 32580 10902 10225 20179 48/// 70300 81201
                   333 10310 20175 5//// 81820 81080=
201503151500 AAXX 15154 67575 NIL=
201503130900 AAXX 13094 67575 NIL=
201503130600 AAXX 13064 67575 12980 50902 10190 20170 48/// 60164 70122 84072
                   333 10275 20160 5//// 84360 81080=
201503110600 AAXX 11064 67575 32380 50901 10207 20179 48/// 70321 84670
                   333 10295 20165 5//// 84708 81360=
201503101200 AAXX 10124 67575 NIL=
201503100600 AAXX 10064 67575 32480 21202 10216 20178 48/// 70300 81501
                   333 10315 20150 5//// 81612 81080=
201503080600 AAXX 08064 67575 NIL=
201503071500 AAXX 07154 67575 NIL=
201503060900 AAXX 06094 67575 NIL=
201503060600 AAXX 06064 67575 32980 20000 10185 20157 48/// 70100 80001
                   333 10280 20135 5//// 82080=
201503051500 AAXX 05154 67575 NIL=
201503050600 AAXX 05064 67575 32380 50902 10170 20154 48/// 70222 83672
                   333 10237 20145 5//// 83706 81360 83080=
201503040900 AAXX 04094 67575 NIL=
201503030600 AAXX 03064 67575 11380 80000 10191 20177 48/// 60034 76162 8677/
                   333 10291 20180 5//// 86706 82358=
201503030300 AAXX 03034 67575 NIL=
201503021500 AAXX 02154 67575 NIL=
201503020600 AAXX 02064 67575 32480 50000 10205 20174 48/// 69904 70122 83531
                   333 10275 20175 5//// 83612 82360 81080=
201503011500 AAXX 01154 67575 NIL=

################################################################################
#  SYNOPS from 67580, Msekera (Zambia) | 13-39S | 032-34E | 1025 m
################################################################################
201503310600 AAXX 31064 67580 12480 71203 10225 20206 48/// 60054 81132
                   333 10247 20/// 58003 81818 86362=
201503300600 AAXX 30064 67580 11980 80000 10214 20199 48/// 60014 70262 87070
                   333 10318 20/// 5//// 87460=
201503271200 AAXX 27124 67580 NIL=
201503270600 AAXX 27064 67580 12580 10000 10246 20193 48/// 69934 81101
                   333 10320 20/// 59009 81820 81080=
201503261500 AAXX 26154 67580 NIL=
201503260600 AAXX 26064 67580 32480 70000 10240 20191 48/// 81108
                   333 10303 20/// 58005 81818 87280=
201503250900 AAXX 25094 67580 42680 70603 10293 20202 48/// 86231
                   333 58005 86844 81361 82080=
201503250600 AAXX 25064 67580 32980 70000 10230 20203 48/// 87031
                   333 10311 20/// 58003 87360 81080=
201503240900 AAXX 24094 67580 42680 70902 10290 20202 48/// 87101
                   333 59007 87848 82080=
201503240600 AAXX 24064 67580 12580 51003 10234 20191 48/// 69904 81131
                   333 10315 20/// 59007 81820 83360 81080=
201503231200 AAXX 23124 67580 41780 61203 10295 20208 48/// 71521 86203
                   333 5//// 81950 85856 82080=
201503230900 AAXX 23094 67580 42680 70000 10272 20196 48/// 872//
                   333 5//// 87848=
201503230600 AAXX 23064 67580 NIL=
201503221500 AAXX 22154 67580 NIL=
201503211500 AAXX 21154 67580 NIL=
201503200600 AAXX 20064 67580 32580 41103 10248 20197 48/// 83801
                   333 10303 20/// 58004 82822 81624 81080=
201503190900 AAXX 19094 67580 42680 71202 10279 20198 48/// 87131
                   333 58005 87848 82361 81080=
201503190600 AAXX 19064 67580 NIL=
201503181200 AAXX 18124 67580 42782 70000 10306 20206 48/// 85208
                   333 59009 85856 86280=
201503180900 AAXX 18094 67580 42682 61203 10283 20196 48/// 81108
                   333 59005 81845 86280=
201503171200 AAXX 17124 67580 42780 61203 10307 20214 48/// 86200
                   333 59006 86856=
201503170600 AAXX 17064 67580 12482 10903 10230 20200 48/// 60224 81130
                   333 10314 20/// 58003 81818 81362=
201503160600 AAXX 16064 67580 12580 31104 10232 20196 48/// 60074 83500
                   333 10277 20//0 5//// 83624=
201503151500 AAXX 15154 67580 NIL=
201503130900 AAXX 13094 67580 42680 70903 10275 20186 48/// 85238
                   333 59013 85845 82362 85280=
201503130600 AAXX 13064 67580 12980 61503 10222 20178 48/// 60014 86030
                   333 10292 20/// 59011 86362=
201503110600 AAXX 11064 67580 32580 51502 10220 20185 48/// 83831
                   333 10295 20/// 5//// 82822 81624 81360 82080=
201503101200 AAXX 10124 67580 NIL=
201503100600 AAXX 10064 67580 32580 32004 10229 20190 48/// 82801
                   333 10320 20/// 5//// 81820 81622 81080=
201503080600 AAXX 08064 67580 NIL=
201503071500 AAXX 07154 67580 NIL=
201503060900 AAXX 06094 67580 42680 41504 10252 20144 48/// 82101
                   333 58005 82834 82080=
201503060600 AAXX 06064 67580 32980 11203 10209 20151 48/// 80001
                   333 10272 20/// 5//// 81080=
201503051500 AAXX 05154 67580 NIL=
201503050600 AAXX 05064 67580 32980 71402 10195 20157 48/// 82038
                   333 10252 20/// 5//// 82360 87280=
201503040900 AAXX 04094 67580 41680 71207 10217 20164 48/// 70152 875//
                   333 5//// 87630=
201503040600 AAXX 04064 67580 12580 71807 10194 20162 48/// 60034 875//
                   333 10294 20/// 58010 87620=
201503031200 AAXX 03124 67580 42780 71204 10278 20202 48/// 85238
                   333 5//// 85856 81362 87280=
201503030900 AAXX 03094 67580 42680 71605 10260 20192 48/// 83237
                   333 5//// 83835 81361 87280=
201503030600 AAXX 03064 67580 32480 71504 10220 20187 48/// 82178
                   333 10314 20/// 58028 82816 85360 87280=
201503030300 AAXX 03034 67580 NIL=
201503021500 AAXX 02154 67580 NIL=
201503020900 AAXX 02094 67580 42680 72702 10264 20206 48/// 86201
                   333 58010 86842 83080=
201503020600 AAXX 02064 67580 32580 30302 10220 20195 48/// 81131
                   333 10299 20//0 58001 81820 81361 82080=
201503011500 AAXX 01154 67580 NIL=

################################################################################
#  SYNOPS from 67581, Chipata (Zambia) | 13-33S | 032-35E | 1028 m
################################################################################
201503300600 AAXX 30064 67581 12580 83602 10210 20193 48544 60034 8217/
                   333 10300 20162 5//// 82825 88459 91020=
201503271200 AAXX 27124 67581 NIL=
201503261500 AAXX 26154 67581 NIL=
201503260600 AAXX 26064 67581 NIL=
201503250900 AAXX 25094 67581 NIL=
201503250600 AAXX 25064 67581 32580 50000 10248 20175 48554 70222 81130
                   333 10306 20166 58003 81825 84360 91021=
201503240900 AAXX 24094 67581 NIL=
201503230600 AAXX 23064 67581 NIL=
201503221500 AAXX 22154 67581 NIL=
201503211500 AAXX 21154 67581 NIL=
201503200600 AAXX 20064 67581 32580 30704 10245 20193 48553 82101
                   333 10305 20170 58009 82830 81080
                   555 00180 91021=
201503191500 AAXX 19154 67581 42680 42402 10275 20188 48519 82202
                   333 58007 81940 82840 83080 91016=
201503191200 AAXX 19124 67581 42680 62505 10295 20194 48530 86200
                   333 5//// 86830 91017=
201503190600 AAXX 19064 67581 32660 50000 10230 20198 48541 81130
                   333 10311 20169 5//// 81832 85360 91019=
201503180900 AAXX 18094 67581 42680 32803 10284 20178 48558 82132
                   333 59004 82832 81360 82080 91019=
201503170600 AAXX 17064 67581 12680 21203 10244 20192 48552 60054 70200 81130
                   333 10300 20159 58002 81830 81360
                   555 00172 91021=
201503151500 AAXX 15154 67581 NIL=
201503130900 AAXX 13094 67581 NIL=
201503130600 AAXX 13064 67581 12980 50000 10211 20183 48544 6///4 70222 84030
                   333 10282 20154 59013 84360 91020=
201503110600 AAXX 11064 67581 32660 50000 10223 20176 48/// 81138
                   333 10302 20166 5//// 81830 84360 83280=
201503101200 AAXX 10124 67581 NIL=
201503100600 AAXX 10064 67581 32680 23603 10230 20168 48542 82131
                   333 10300 20154 5//// 82830 81360 82080 91019=
201503080600 AAXX 08064 67581 NIL=
201503071500 AAXX 07154 67581 NIL=
201503060900 AAXX 06094 67581 42680 43104 10260 20150 48554 83101
                   333 58005 83830 83080 91021=
201503060600 AAXX 06064 67581 32980 33502 10209 20136 48550 83031
                   333 10265 20114 5//// 83360 81080 91021=
201503051500 AAXX 05154 67581 NIL=
201503050600 AAXX 05064 67581 32660 61505 10206 20141 48/// 81132
                   333 10251 20134 5//// 81830 83360 85280
                   555 00144=
201503040900 AAXX 04094 67581 NIL=
201503040600 AAXX 04064 67581 32480 51008 10200 20195 48544 83502
                   333 10291 20153 58009 83620 83080
                   555 00172 91021=
201503030900 AAXX 03094 67581 42680 63302 10260 20194 48/// 85138
                   333 5//// 85832 81360 85280=
201503030600 AAXX 03064 67581 32680 63403 10220 20183 48543 82238
                   333 10291 20175 58024 82830 83359 85280
                   555 00190 91020=
201503030300 AAXX 03034 67581 NIL=
201503021500 AAXX 02154 67581 NIL=
201503020600 AAXX 02064 67581 32480 51602 10214 20186 48520 85131
                   333 10290 20150 58000 85820 82360 82080 91017=
201503011500 AAXX 01154 67581 NIL=

################################################################################
#  SYNOPS from 67583, Lundazi (Zambia) | 12-17S | 033-12E | 1143 m
################################################################################
201503310600 AAXX 31064 67583 12580 71801 10236 20205 48/// 60024 81530
                   333 10/// 20/// 59020 81630 87360=
201503300600 AAXX 30064 67583 NIL=
201503271200 AAXX 27124 67583 NIL=
201503270600 AAXX 27064 67583 32580 10301 10230 20194 48/// 81501
                   333 10/// 20/// 58010 81625 81080=
201503261500 AAXX 26154 67583 NIL=
201503260600 AAXX 26064 67583 32580 71501 10218 20184 48/// 82535
                   333 10/// 20/// 59001 82625 83360 85280=
201503250900 AAXX 25094 67583 NIL=
201503250600 AAXX 25064 67583 32580 61202 10235 20206 82531
                   333 10/// 20/// 59005 82625 84360 81080=
201503240900 AAXX 24094 67583 NIL=
201503240600 AAXX 24064 67583 32680 61302 10230 20175 48/// 81530
                   333 10/// 20/// 59006 81630 85360=
201503230600 AAXX 23064 67583 NIL=
201503221500 AAXX 22154 67583 NIL=
201503211500 AAXX 21154 67583 NIL=
201503200600 AAXX 20064 67583 32680 10902 10250 20194 48/// 81501
                   333 10/// 20/// 59004 81630 81080=
201503190600 AAXX 19064 67583 42580 70902 10245 20194 48/// 81531
                   333 10/// 20/// 59002 81625 86360 81080=
201503180900 AAXX 18094 67583 NIL=
201503170600 AAXX 17064 67583 32980 11203 10250 20199 48/// 80001
                   333 10/// 20/// 58005 81080=
201503151500 AAXX 15154 67583 NIL=
201503130900 AAXX 13094 67583 NIL=
201503130600 AAXX 13064 67583 32580 31202 10230 20193 48/// 81531
                   333 10312 20/// 58003 81625 82360 81080=
201503110600 AAXX 11064 67583 32580 31501 10238 20197 48/// 81531
                   333 10318 20/// 59002 81620 81360 81080=
201503101200 AAXX 10124 67583 NIL=
201503100600 AAXX 10064 67583 32580 20903 10235 20191 48/// 81531
                   333 10330 20/// 5//// 81625 82080=
201503080600 AAXX 08064 67583 NIL=
201503071500 AAXX 07154 67583 NIL=
201503060900 AAXX 06094 67583 NIL=
201503051500 AAXX 05154 67583 NIL=
201503050600 AAXX 05064 67583 32980 13501 10190 20154 48/// 87030
                   333 10262 20/// 58002 87360=
201503040900 AAXX 04094 67583 NIL=
201503030600 AAXX 03064 67583 32580 71504 10220 20193 48/// 85531
                   333 10306 20/// 59008 85627 81360 81080=
201503030300 AAXX 03034 67583 NIL=
201503021500 AAXX 02154 67583 NIL=
201503020600 AAXX 02064 67583 32680 73502 10210 20172 81137
                   333 10305 20//0 5//// 81835 81360 87280=
201503011500 AAXX 01154 67583 NIL=

################################################################################
#  SYNOPS from 67599, Mfuwe (Zambia) | 13-16S | 031-56E | 568 m
################################################################################
201503310600 AAXX 31064 67599 32480 70000 10230 20216 48545 85230
                   333 10318 20200 58004 85815 85359 91019=
201503300600 AAXX 30064 67599 12060 80000 10222 20214 48537 60084 72844 8677/
                   333 10336 20210 58017 86701 88358 91018=
201503271200 AAXX 27124 67599 NIL=
201503270600 AAXX 27064 67599 32980 00806 10250 20201 48544
                   333 10350 20190 59008 91018=
201503261500 AAXX 26154 67599 NIL=
201503260600 AAXX 26064 67599 12980 50000 10242 20210 48548 60044 81032
                   333 10335 20195 58005 81360 85080 91019=
201503250900 AAXX 25094 67599 NIL=
201503250600 AAXX 25064 67599 12980 41803 10245 20221 48544 60044 83031
                   333 10335 20205 59001 83360 82080 91018=
201503240900 AAXX 24094 67599 NIL=
201503240600 AAXX 24064 67599 12480 40000 10242 20210 48544 69994 70200 82480
                   333 10335 20195 59001 82610 82358 91018=
201503230600 AAXX 23064 67599 NIL=
201503221500 AAXX 22154 67599 NIL=
201503211500 AAXX 21154 67599 NIL=
201503200600 AAXX 20064 67599 32980 20606 10255 20219 48545 82030
                   333 10350 20200 58009 82360 91018=
201503190600 AAXX 19064 67599 32980 71806 10245 20216 48534 8703/
                   333 10356 20210 59002 87360 91017=
201503180900 AAXX 18094 67599 NIL=
201503170600 AAXX 17064 67599 12980 20000 10236 20205 48543 69934 82030
                   333 10332 20190 58002 82360 91018=
201503151500 AAXX 15154 67599 NIL=
201503130900 AAXX 13094 67599 NIL=
201503130600 AAXX 13064 67599 12070 60000 10212 20204 48532 60014 70222 8173/
                   333 10330 20195 59013 81701 87358 91018=
201503110600 AAXX 11064 67599 12980 31805 10235 20202 48532 69904 82031
                   333 10336 20240 59003 82360 83080 91017=
201503101200 AAXX 10124 67599 NIL=
201503100600 AAXX 10064 67599 12980 31804 10240 20211 48538 60014 83030
                   333 10345 20200 58011 83360 91018=
201503080600 AAXX 08064 67599 NIL=
201503071500 AAXX 07154 67599 NIL=
201503060900 AAXX 06094 67599 NIL=
201503060600 AAXX 06064 67599 32980 10000 10208 20171 48542 70200 80008
                   333 10305 20155 58004 81280 91019=
201503051500 AAXX 05154 67599 NIL=
201503040900 AAXX 04094 67599 NIL=
201503030600 AAXX 03064 67599 12370 72702 10228 20216 48540 60114 70222 81734
                   333 10333 20240 58033 81706 83359 86072 91018=
201503030300 AAXX 03034 67599 NIL=
201503021500 AAXX 02154 67599 NIL=
201503011500 AAXX 01154 67599 NIL=

################################################################################
#  SYNOPS from 67625, Kalabo (Zambia) | 14-51S | 022-42E | 1033 m
################################################################################
201503310600 AAXX 31064 67625 11382 60000 10213 20207 48/// 60064 75052 83633
                   333 10320 20174 58001 83710 84360 86075=
201503300600 AAXX 30064 67625 12682 40604 10235 20214 48/// 60394 84201
                   333 10300 20175 58008 81730 83075=
201503271200 AAXX 27124 67625 NIL=
201503261500 AAXX 26154 67625 NIL=
201503260600 AAXX 26064 67625 12982 20101 10232 20200 48/// 60014 81031
                   333 10326 20189 58013 81360 82075=
201503250900 AAXX 25094 67625 NIL=
201503250600 AAXX 25064 67625 12982 70204 10203 20196 48/// 69924 84033
                   333 10357 20199 58008 84360 87075=
201503240900 AAXX 24094 67625 NIL=
201503240600 AAXX 24064 67625 32982 70304 10227 20188 48/// 80004
                   333 10347 20180 58000 87075=
201503230600 AAXX 23064 67625 NIL=
201503221500 AAXX 22154 67625 NIL=
201503211500 AAXX 21154 67625 NIL=
201503190600 AAXX 19064 67625 32982 30906 10245 20187 48/// 83001
                   333 10355 20180 59005 83075=
201503180900 AAXX 18094 67625 NIL=
201503160600 AAXX 16064 67625 32982 20904 10230 20179 48/// 82031
                   333 10330 20175 59005 81360 81075=
201503151500 AAXX 15154 67625 NIL=
201503130900 AAXX 13094 67625 NIL=
201503130600 AAXX 13064 67625 32982 00805 10220 20191 48///
                   333 10326 20170 58002=
201503101200 AAXX 10124 67625 NIL=
201503100600 AAXX 10064 67625 32982 00904 10230 20194 48///
                   333 10335 20174 59002=
201503080600 AAXX 08064 67625 NIL=
201503071500 AAXX 07154 67625 NIL=
201503060900 AAXX 06094 67625 NIL=
201503060600 AAXX 06064 67625 32982 30905 10234 20214 48/// 83001
                   333 10300 20185 59010 83075=
201503051500 AAXX 05154 67625 NIL=
201503050600 AAXX 05064 67625 12482 70906 10198 20194 48/// 60454 876//
                   333 10280 20180 58001 87725=
201503040900 AAXX 04094 67625 NIL=
201503030900 AAXX 03094 67625 42480 60904 10260 20204 48/// 866//
                   333 58019 86726=
201503030600 AAXX 03064 67625 32982 60904 10210 20196 48/// 8605/
                   333 10300 20185 59009 86360=
201503030300 AAXX 03034 67625 NIL=
201503021500 AAXX 02154 67625 NIL=
201503020600 AAXX 02064 67625 12482 61807 10210 20204 48/// 60504 8664/
                   333 10275 20180 58001 83720 83360=
201503011500 AAXX 01154 67625 NIL=

################################################################################
#  SYNOPS from 67633, Mongu (Zambia) | 15-15S | 023-09E | 1052 m
################################################################################
201503310600 AAXX 31064 67633 32480 70602 10220 20204 48508 70322 83538
                   333 10330 20198 59011 83608 84360 86280=
201503300600 AAXX 30064 67633 32980 60303 10219 20202 48516 70122 86030
                   333 10284 20192 58000 86360 91018=
201503271200 AAXX 27124 67633 NIL=
201503270600 AAXX 27064 67633 12980 23302 10230 20209 48529 69904 70200 80002
                   333 10316 20191 58008 82080 91019=
201503261500 AAXX 26154 67633 NIL=
201503260600 AAXX 26064 67633 12980 40202 10241 20201 48519 60054 70222 84032
                   333 10335 20195 59009 83360 82080 91018=
201503250900 AAXX 25094 67633 NIL=
201503250600 AAXX 25064 67633 12980 40902 10237 20200 48529 60244 70122 84032
                   333 10350 20190 58017 84360 84080 91019=
201503241200 AAXX 24124 67633 42780 40304 10330 20189 48505 70222 83202
                   333 59016 83850 83080 91014=
201503240900 AAXX 24094 67633 NIL=
201503240600 AAXX 24064 67633 32980 60902 10234 20185 48514 70222 80008
                   333 10358 20209 59008 86280=
201503230600 AAXX 23064 67633 NIL=
201503221500 AAXX 22154 67633 NIL=
201503211500 AAXX 21154 67633 NIL=
201503200600 AAXX 20064 67633 12980 30903 10214 20200 48529 60074 70200 83030
                   333 10337 20191 58017 83361 91019=
201503190600 AAXX 19064 67633 32980 61206 10232 20176 48508 70122 84038
                   333 10350 20192 58002 84360 86280 91017=
201503180900 AAXX 18094 67633 NIL=
201503170600 AAXX 17064 67633 32980 30706 10234 20175 48518 70200 83030
                   333 10355 20185 58002 83361 91018=
201503160600 AAXX 16064 67633 32980 30906 10230 20172 48518 70300 83032
                   333 10350 20181 59005 83360 83080 91018=
201503151500 AAXX 15154 67633 NIL=
201503130900 AAXX 13094 67633 NIL=
201503111200 AAXX 11124 67633 42780 41803 10306 20183 48510 70222 84200
                   333 59007 84856 91016=
201503110600 AAXX 11064 67633 32980 10402 10240 20205 48529 70100 81030
                   333 10340 20185 58001 81360 91019=
201503101200 AAXX 10124 67633 NIL=
201503100600 AAXX 10064 67633 32980 00703 10241 20186 48529 70100
                   333 10345 20181 58012 91019=
201503080600 AAXX 08064 67633 NIL=
201503071500 AAXX 07154 67633 NIL=
201503060900 AAXX 06094 67633 NIL=
201503060600 AAXX 06064 67633 32980 30607 10235 20199 48530 70111 81032
                   333 10300 20201 58015 81360 83080 91019=
201503051500 AAXX 05154 67633 NIL=
201503050600 AAXX 05064 67633 11980 60904 10199 20193 48511 60114 72162 86030
                   333 10288 20180 59007 86360 91017=
201503040900 AAXX 04094 67633 NIL=
201503031200 AAXX 03124 67633 41680 71506 10260 20211 48500 79582 86208
                   333 58003 81940 85840 87280 91015=
201503030900 AAXX 03094 67633 42580 71503 10250 20200 48526 70322 85808
                   333 58007 83820 82622 87280 91019=
201503030600 AAXX 03064 67633 12980 70902 10216 20202 48516 60034 70222 8707/
                   333 10309 20194 58013 87460 91017=
201503030300 AAXX 03034 67633 NIL=
201503021500 AAXX 02154 67633 NIL=
201503020600 AAXX 02064 67633 32975 73305 10208 20199 48495 70222 87070
                   333 10270 20190 59004 87460 91016=
201503011500 AAXX 01154 67633 NIL=

################################################################################
#  SYNOPS from 67641, Kaoma (Zambia) | 14-48S | 024-48E | 1213 m
################################################################################
201503310600 AAXX 31064 67641 12680 73601 10210 20200 48503 60044 875//
                   333 10275 20202 59007 87630 91016=
201503300600 AAXX 30064 67641 11675 80000 10200 20193 48508 60074 76065 8457/
                   333 10270 20193 59011 84630 87460 91017=
201503271200 AAXX 27124 67641 NIL=
201503270600 AAXX 27064 67641 12982 21001 10210 20195 48519 60044 82030
                   333 10327 20179 58003 82360 91018=
201503261500 AAXX 26154 67641 NIL=
201503260600 AAXX 26064 67641 NIL=
201503250900 AAXX 25094 67641 NIL=
201503250600 AAXX 25064 67641 32982 30902 10211 20187 48516 80001
                   333 10331 20174 58003 83083 91017=
201503240900 AAXX 24094 67641 NIL=
201503240600 AAXX 24064 67641 32982 40902 10227 20180 48515 80002
                   333 10330 20180 5//// 84080 91017=
201503230600 AAXX 23064 67641 NIL=
201503221500 AAXX 22154 67641 NIL=
201503211500 AAXX 21154 67641 NIL=
201503200600 AAXX 20064 67641 32980 20201 10232 20193 48482 80001
                   333 10320 20180 59028 82080 91014=
201503190600 AAXX 19064 67641 32980 40601 10215 20186 48509 80001
                   333 10335 20180 58011 84080 91017=
201503180900 AAXX 18094 67641 NIL=
201503170600 AAXX 17064 67641 32980 10701 10215 20181 48519 81030
                   333 10327 20172 58016 81360 91018=
201503160600 AAXX 16064 67641 32980 11501 10217 20183 48509 80001
                   333 10319 20170 59014 81080 91017=
201503151500 AAXX 15154 67641 NIL=
201503130900 AAXX 13094 67641 NIL=
201503130600 AAXX 13064 67641 32980 00201 10210 20181 48509
                   333 10320 20166 58001 91017=
201503110600 AAXX 11064 67641 32982 60702 10205 20174 48511 86030
                   333 10332 20185 59007 86360 91017=
201503101200 AAXX 10124 67641 NIL=
201503100600 AAXX 10064 67641 32982 00902 10209 20178 48518
                   333 10337 20167 58001 91018=
201503080600 AAXX 08064 67641 NIL=
201503071500 AAXX 07154 67641 NIL=
201503060900 AAXX 06094 67641 NIL=
201503060600 AAXX 06064 67641 32980 30501 10210 20190 48500 82031
                   333 10306 20186 59023 82360 81080 91016=
201503051500 AAXX 05154 67641 NIL=
201503050600 AAXX 05064 67641 12682 71202 10187 20171 48518 60114 82530
                   333 10280 20180 58011 82630 86360 91018=
201503040900 AAXX 04094 67641 NIL=
201503040600 AAXX 04064 67641 12682 80000 10191 20183 48509 60134 875//
                   333 10272 20185 58022 87630 91017=
201503030600 AAXX 03064 67641 12580 70905 10210 20189 48490 69954 85530
                   333 10301 20191 58000 85630 82360 91015=
201503030300 AAXX 03034 67641 NIL=
201503021500 AAXX 02154 67641 NIL=
201503020600 AAXX 02064 67641 12980 7//// 10212 20197 48490 60024 87030
                   333 10252 20195 59010 87360 91015=
201503011500 AAXX 01154 67641 NIL=

################################################################################
#  SYNOPS from 67655, Mumbwa (Zambia) | 15-04S | 027-11E | 1216 m
################################################################################
201503300600 AAXX 30064 67655 NIL=
201503271200 AAXX 27124 67655 NIL=
201503261500 AAXX 26154 67655 NIL=
201503260600 AAXX 26064 67655 NIL=
201503250900 AAXX 25094 67655 NIL=
201503240900 AAXX 24094 67655 NIL=
201503230600 AAXX 23064 67655 NIL=
201503221500 AAXX 22154 67655 NIL=
201503211500 AAXX 21154 67655 NIL=
201503190600 AAXX 19064 67655 NIL=
201503180900 AAXX 18094 67655 NIL=
201503170600 AAXX 17064 67655 32980 40810 10212 20175 48558 80001
                   333 10290 20/// 59006 84080 91021=
201503151500 AAXX 15154 67655 NIL=
201503130900 AAXX 13094 67655 NIL=
201503130600 AAXX 13064 67655 32980 00810 10195 20164 48548
                   333 10285 20/// 59008 91021=
201503101200 AAXX 10124 67655 NIL=
201503100600 AAXX 10064 67655 32580 41104 10200 20185 48551 84530
                   333 10303 20/// 5//// 91022=
201503080600 AAXX 08064 67655 NIL=
201503071500 AAXX 07154 67655 NIL=
201503060900 AAXX 06094 67655 NIL=
201503051500 AAXX 05154 67655 NIL=
201503040900 AAXX 04094 67655 NIL=
201503030300 AAXX 03034 67655 NIL=
201503021500 AAXX 02154 67655 NIL=
201503011500 AAXX 01154 67655 NIL=

################################################################################
#  SYNOPS from 67659, Kafue Polder (Zambia) | 15-46S | 027-55E | 978 m
################################################################################
201503310600 AAXX 31064 67659 32480 71104 10202 20/// 48/// 70222 83510
                   333 10278 20/// 83610 85360=
201503300600 AAXX 30064 67659 31480 70604 10214 20/// 48/// 60054 70222 85530
                   333 10338 20/// 5//// 85620 83360=
201503271200 AAXX 27124 67659 NIL=
201503261500 AAXX 26154 67659 NIL=
201503260600 AAXX 26064 67659 32880 10902 10224 20/// 48/// 70222 81030
                   333 10326 20/// 59003 81360=
201503250900 AAXX 25094 67659 NIL=
201503250600 AAXX 25064 67659 32880 10604 10225 20189 48/// 70222 81030
                   333 10320 20/// 59002 81360=
201503240900 AAXX 24094 67659 NIL=
201503240600 AAXX 24064 67659 32380 10602 10235 20187 48/// 70222 81100
                   333 10308 20/// 59004 81810=
201503230600 AAXX 23064 67659 NIL=
201503221500 AAXX 22154 67659 NIL=
201503211500 AAXX 21154 67659 NIL=
201503200600 AAXX 20064 67659 32480 11002 10240 20196 48/// 70322 81102
                   333 10295 20/// 58007 81815 81080=
201503190600 AAXX 19064 67659 32980 10805 10230 20203 48/// 70222 81001
                   333 10314 20/// 58004 81080=
201503180900 AAXX 18094 67659 NIL=
201503170600 AAXX 17064 67659 32980 10904 10220 20176 48/// 70222 80002
                   333 10294 20/// 58004 81080=
201503160600 AAXX 16064 67659 32980 00906 10220 20176 48/// 70222
                   333 10302 20/// 59002=
201503151500 AAXX 15154 67659 NIL=
201503130900 AAXX 13094 67659 NIL=
201503130600 AAXX 13064 67659 32/80 /0000 10221 20175 48///
                   333 10267 20/// 59012=
201503101200 AAXX 10124 67659 NIL=
201503080600 AAXX 08064 67659 NIL=
201503071500 AAXX 07154 67659 NIL=
201503060900 AAXX 06094 67659 NIL=
201503051500 AAXX 05154 67659 NIL=
201503040900 AAXX 04094 67659 NIL=
201503030300 AAXX 03034 67659 NIL=
201503021500 AAXX 02154 67659 NIL=
201503011500 AAXX 01154 67659 NIL=

################################################################################
#  SYNOPS from 67662, Kabwe Agric (Zambia) | 14-24S | 028-30E | 1165 m
################################################################################
201503300600 AAXX 30064 67662 12380 80502 10190 20182 48/// 60714 8367/
                   333 10315 20/// 5//// 83709 88460=
201503271200 AAXX 27124 67662 NIL=
201503261500 AAXX 26154 67662 NIL=
201503260600 AAXX 26064 67662 NIL=
201503250900 AAXX 25094 67662 NIL=
201503250600 AAXX 25064 67662 32480 31203 10212 20187 48/// 81130
                   333 10302 20/// 5//// 81819 82360=
201503240900 AAXX 24094 67662 NIL=
201503230600 AAXX 23064 67662 NIL=
201503221500 AAXX 22154 67662 NIL=
201503211500 AAXX 21154 67662 NIL=
201503200600 AAXX 20064 67662 32480 21104 10234 20199 48/// 81101
                   333 10303 20/// 5//// 81818 82080=
201503190600 AAXX 19064 67662 NIL=
201503180900 AAXX 18094 67662 NIL=
201503170600 AAXX 17064 67662 32980 10903 10219 20190 48/// 80001
                   333 10294 20/// 5//// 81080=
201503160600 AAXX 16064 67662 32980 11003 10208 20184 48/// 81030
                   333 10293 20//0 5//// 81360=
201503151500 AAXX 15154 67662 NIL=
201503130900 AAXX 13094 67662 NIL=
201503101200 AAXX 10124 67662 NIL=
201503100600 AAXX 10064 67662 32480 41006 10229 20193 48/// 82131
                   333 10297 20/// 5//// 82816 81361 82080=
201503080600 AAXX 08064 67662 NIL=
201503071500 AAXX 07154 67662 NIL=
201503060900 AAXX 06094 67662 NIL=
201503060600 AAXX 06064 67662 32480 50302 10201 20176 48/// 81102
                   333 10264 20/// 5//// 81819 84080=
201503051500 AAXX 05154 67662 NIL=
201503040900 AAXX 04094 67662 NIL=
201503030300 AAXX 03034 67662 NIL=
201503021500 AAXX 02154 67662 NIL=
201503011500 AAXX 01154 67662 NIL=

################################################################################
#  SYNOPS from 67663, Kabwe (Zambia) | 14-27S | 028-28E | 1206 m
################################################################################
201503310600 AAXX 31064 67663 12480 70605 10204 20198 48514 60024 84670
                   333 10265 20187 59009 84709 85460=
201503300600 AAXX 30064 67663 12480 71004 10188 20183 48521 60314 70222
                   333 10287 20179 59006 81618 87360=
201503271200 AAXX 27124 67663 NIL=
201503270600 AAXX 27064 67663 32980 00607 10232 20183 48531 70200
                   333 10308 20172 59003=
201503261500 AAXX 26154 67663 NIL=
201503260600 AAXX 26064 67663 32980 21209 10225 20187 48534 82030
                   333 10302 20183 58002 82360=
201503250900 AAXX 25094 67663 NIL=
201503240900 AAXX 24094 67663 NIL=
201503240600 AAXX 24064 67663 12580 20910 10219 20186 48518 69904 70300 82500
                   333 10300 20171 59011 82620=
201503230600 AAXX 23064 67663 NIL=
201503221500 AAXX 22154 67663 NIL=
201503211500 AAXX 21154 67663 NIL=
201503200600 AAXX 20064 67663 32580 21707 10220 20194 48538 81532
                   333 10298 20187 58010 81620 81360 82080=
201503190600 AAXX 19064 67663 32980 31909 10217 20184 48528 81032
                   333 10319 20182 59001 81360 83080=
201503180900 AAXX 18094 67663 NIL=
201503170600 AAXX 17064 67663 32980 21008 10225 20185 48538 80002
                   333 10286 20173 59016 82080=
201503160600 AAXX 16064 67663 32980 10806 10208 20177 48552 70100 81030
                   333 10288 20168 58009 81360=
201503151500 AAXX 15154 67663 NIL=
201503130900 AAXX 13094 67663 NIL=
201503130600 AAXX 13064 67663 32980 00803 10195 20168 48538
                   333 10287 20156 59002=
201503110600 AAXX 11064 67663 32480 31305 10208 20188 48535 70300 83500
                   333 10282 20173 59001 83618=
201503101200 AAXX 10124 67663 NIL=
201503100600 AAXX 10064 67663 32980 10905 10216 20186 48538 70100 80002
                   333 10292 20177 58021 82080=
201503080600 AAXX 08064 67663 NIL=
201503071500 AAXX 07154 67663 NIL=
201503060900 AAXX 06094 67663 NIL=
201503060600 AAXX 06064 67663 32980 50000 10188 20169 48538 80008
                   333 10268 20146 58004 85280=
201503051500 AAXX 05154 67663 NIL=
201503050600 AAXX 05064 67663 11480 50514 10184 20162 48533 69904 72842 83502
                   333 10228 20149 59008 83618 83080=
201503040900 AAXX 04094 67663 NIL=
201503030600 AAXX 03064 67663 11480 80906 10184 20180 48559 60224 76166 885//
                   333 10287 20179 58030 88618=
201503030300 AAXX 03034 67663 NIL=
201503021500 AAXX 02154 67663 NIL=
201503020600 AAXX 02064 67663 12980 70304 10102 20186 48532 60094 84038
                   333 10268 20175 58002 84360 87280=
201503011500 AAXX 01154 67663 NIL=

################################################################################
#  SYNOPS from 67665, Lusaka Internationalairport (Zambia) | 15-19S | 028-27E | 1152 m
################################################################################
201503310300 AAXX 31034 67665 42460 80906 10196 20171 48520 885//
                   333 5//// 88615=
201503310000 AAXX 31004 67665 42360 70807 10195 20172 48527 8563/
                   333 59/// 85709 86360=
201503302100 AAXX 30214 67665 42980 61008 10195 20164 48531 86030
                   333 59/// 86360=
201503301800 AAXX 30184 67665 42980 40904 10204 20174 48521 70222 83031
                   333 10280 83360 83080=
201503301500 AAXX 30154 67665 42680 60807 10250 20174 48504 70222 84231
                   333 58001 84845 81360 83080=
201503301200 AAXX 30124 67665 60603 10249 20178 48515 70222 83230
                   333 58003 83830 84360=
201503300900 AAXX 30094 67665 42460 70504 10214 20176 48543 70122 8453/
                   333 58005 84618 87360 91021=
201503300600 AAXX 30064 67665 NIL=
201503291500 AAXX 29154 67665 42680 61003 10262 20188 48504 81930
                   333 10313 20/// 58007 81945 83848 84360=
201503291200 AAXX 29124 67665 42680 62103 10253 20203 48512 84532
                   333 58004 84640 82360 84080=
201503290600 AAXX 29064 67665 11659 71503 10185 20177 48539 60404 79198 8297/
                   333 10310 20/// 59007 82935 87458=
201503281800 AAXX 28184 67665 42780 41004 10225 20184 48522 82930 88003 82956 83360=
201503281500 AAXX 28154 67665 42680 61210 10280 20160 48500 82902
                   333 10318 20/// 59009 82942 84845 84080=
201503281200 AAXX 28124 67665 42680 51603 10276 20170 48512 81902
                   333 59012 81938 84840 84080=
201503280900 AAXX 28094 67665 42680 60307 10272 20174 48539 81900
                   333 59007 81932 85835=
201503271200 AAXX 27124 67665 NIL=
201503270900 AAXX 27094 67665 42680 30610 10276 20179 48548 83500
                   333 58003 83630=
201503270600 AAXX 27064 67665 32980 01106 10220 20156 48493
                   333 59006=
201503261500 AAXX 26154 67665 NIL=
201503260900 AAXX 26094 67665 42580 60611 10271 20228 48555 70122 86200
                   333 58001 86828=
201503260600 AAXX 26064 67665 NIL=
201503260300 AAXX 26034 67665 42980 01202 10178 20162 48530 70200
                   333 58003=
201503260000 AAXX 26004 67665 42980 00000 10185 20161 48527 70200
                   333 59005=
201503252100 AAXX 25214 67665 42980 11002 10201 20164 48534 70200 81030
                   333 58005 81360=
201503251800 AAXX 25184 67665 42980 11303 10220 20174 48526 70100 81030
                   333 58004 81360=
201503251500 AAXX 25154 67665 42680 40809 10282 20218 48516 70122 83201
                   333 59003 83845 82080=
201503250900 AAXX 25094 67665 42580 60510 10256 20197 48553 85230
                   333 58004 85825 81360=
201503250600 AAXX 25064 67665 32480 30805 10204 20183 48546 83530
                   333 58004 83615 81360=
201503250300 AAXX 25034 67665 42980 11103 10162 20136 48522 81030
                   333 59002 81360=
201503250000 AAXX 25004 67665 42980 20802 10176 20153 48531 82030
                   333 58007 82360=
201503242100 AAXX 24214 67665 42980 21304 10192 20151 48527 82030
                   333 58001 82360=
201503241800 AAXX 24184 67665 42980 31003 10210 20164 48521 83030
                   333 10310 59002 83360=
201503241500 AAXX 24154 67665 42780 51005 10262 20179 48516 70222 85200
                   333 59009 85850=
201503241200 AAXX 24124 67665 42680 50709 10279 20191 48529 70122 85200
                   333 59008 85840=
201503240900 AAXX 24094 67665 42560 60614 10262 20219 48549 70222 86100
                   333 59007 86825=
201503240600 AAXX 24064 67665 32960 40906 10204 20181 48542 70322 84060
                   333 10300 20//0 58005 84860=
201503240300 AAXX 24034 67665 42980 01103 10165 20150 48526
                   333 59005=
201503240000 AAXX 24004 67665 42980 01107 10178 20162 48524
                   333 58001=
201503232100 AAXX 23214 67665 42980 01103 10185 20153 48527
                   333 59001=
201503231200 AAXX 23124 67665 42680 60813 10280 20184 48537 86200
                   333 59007 81938 85840=
201503230600 AAXX 23064 67665 NIL=
201503230000 AAXX 23004 67665 42980 01304 10173 30139 48519 70200
                   333 59007=
201503221800 AAXX 22184 67665 42980 11006 10209 20173 48526 81600
                   333 59005 81359=
201503221500 AAXX 22154 67665 NIL=
201503221200 AAXX 22124 67665 42680 60912 10277 20204 48542 86200
                   333 58003 86840=
201503220900 AAXX 22094 67665 42680 60813 10234 20194 48561 86500
                   333 58001 86630=
201503220300 AAXX 22034 67665 42980 01005 10172 20120 48535 70200
                   333 58004 91021=
201503220000 AAXX 22004 67665 42980 00904 10171 20120 48500 70200
                   333 59005 91020=
201503212100 AAXX 21214 67665 42980 01304 10185 20126 48536 70200
                   333 59005 91021=
201503211500 AAXX 21154 67665 NIL=
201503211200 AAXX 21124 67665 42580 60811 10278 20164 48541 70122 86200
                   333 58005 86825=
201503210300 AAXX 21034 67665 42980 01206 10175 20151 48533
                   333 58007=
201503202100 AAXX 20214 67665 42980 00603 10186 20127 48541
                   333 58005=
201503201800 AAXX 20184 67665 42980 11303 10216 20144 47852 70200 81030
                   333 10312 58009 81360=
201503201500 AAXX 20154 67665 42680 21012 10290 20153 48521 70100 82100
                   333 58004 82845 91017=
201503201200 AAXX 20124 67665 42680 40711 10290 20204 48533 70122 84200
                   333 58004 84830=
201503200900 AAXX 20094 67665 42580 70812 10269 20227 48556 70222 872//
                   333 58004 87825=
201503200600 AAXX 20064 67665 32560 11006 10209 20184 48546 70300 81101
                   333 10305 20//0 58006 81130 81080=
201503200300 AAXX 20034 67665 42980 00000 10169 20145 48525 70200
                   333 58009=
201503192100 AAXX 19214 67665 42980 21203 10201 20170 49537 70200 80001
                   333 58013 82080=
201503191800 AAXX 19184 67665 42980 31105 10228 20166 48518 70200 82031
                   333 58010 82360 83080=
201503191500 AAXX 19154 67665 42680 51007 10276 20187 48516 70122 82101
                   333 58005 82850 85080=
201503190900 AAXX 19094 67665 42580 60612 10263 20196 48551 85101
                   333 58006 85830 81080=
201503190600 AAXX 19064 67665 NIL=
201503190300 AAXX 19034 67665 42980 11305 10174 20141 48516 81030
                   333 59005 81360=
201503182100 AAXX 18214 67665 42980 11304 10190 20158 48523 81030
                   333 59007 81360=
201503181800 AAXX 18184 67665 42980 21203 10218 20171 48509 82030
                   333 59009 82360=
201503181500 AAXX 18154 67665 42780 40908 10286 20164 48512 70222 84201
                   333 59007 84850 81080=
201503181200 AAXX 18124 67665 42680 60912 10283 20169 48525 70222 85200
                   333 59004 85835=
201503180900 AAXX 18094 67665 42580 60613 10262 20179 48544 70222 86800
                   333 59005 84618 83820=
201503171800 AAXX 17184 67665 42780 21304 10208 20124 48516 81131
                   333 59018 81856 81360 81080=
201503171200 AAXX 17124 67665 42680 50907 10298 20169 48531 85100
                   333 59012 85842=
201503170900 AAXX 17094 67665 42680 40405 10274 20168 48551 70200 82130
                   333 59007 82830 81360=
201503170600 AAXX 17064 67665 32980 11103 10209 20169 48546 70200 81030
                   333 10285 20//0 59006 81360=
201503170300 AAXX 17034 67665 42980 01603 10155 20111 48522 70200
                   333 58001=
201503170000 AAXX 17004 67665 42980 00000 10166 20098 48527 70200
                   333 58004=
201503161200 AAXX 16124 67665 42680 40608 10263 20166 48532 70300 84100
                   333 58001 84835=
201503160900 AAXX 16094 67665 42580 20710 10248 20178 48555 81130
                   333 59002 81825 81360=
201503160600 AAXX 16064 67665 32980 01009 10196 20146 48551
                   333 58001=
201503160300 AAXX 16034 67665 42980 00000 10153 20127 48519 70200
                   333 59006=
201503160000 AAXX 16004 67665 42980 00000 10162 20162 48522 70200
                   333 59011=
201503152100 AAXX 15214 67665 42980 00000 10175 20124 48534 70200
                   333 59008=
201503151800 AAXX 15184 67665 42980 01204 10203 20117 48527 70121
                   333 59009=
201503151500 AAXX 15154 67665 NIL=
201503150600 AAXX 15064 67665 32880 30911 10202 20151 48544 70222 83030
                   333 58002 83360=
201503150300 AAXX 15034 67665 42980 01202 10152 20125 48525 70200
                   333 58008=
201503142100 AAXX 14214 67665 42980 01003 10172 20111 48540 70200
                   333 58012=
201503141800 AAXX 14184 67665 42980 11204 10197 20120 48536 70200 81030
                   333 10290 58015 81360=
201503141500 AAXX 14154 67665 42780 20910 10270 20155 48526 70100 81130
                   333 58008 81850 81360=
201503141200 AAXX 14124 67665 42680 20711 10272 20184 48537 70200 82230
                   333 58016 82835 81360=
201503140900 AAXX 14094 67665 42680 10714 10250 20206 48550 70200 81180
                   333 59002 81830 81359=
201503140600 AAXX 14064 67665 32980 01008 10182 20153 48540 70200
                   333 10289 20//0 59005=
201503140300 AAXX 14034 67665 42980 00000 10140 20123 48516 70200
                   333 59013=
201503140000 AAXX 14004 67665 42980 00000 10153 20131 48516 70200
                   333 59007=
201503132100 AAXX 13214 67665 42980 01403 10166 20133 48529 70200
                   333 59008=
201503131800 AAXX 13184 67665 42980 01204 10189 20130 48520
                   333 59005=
201503131500 AAXX 13154 67665 42680 31009 10267 20169 48519 70122 83100
                   333 59006 83848=
201503131200 AAXX 13124 67665 42680 51109 10263 20172 48528 70322 85100
                   333 59037 85838=
201503130900 AAXX 13094 67665 42680 10610 10247 20171 48552 81100
                   333 59012 81830=
201503130600 AAXX 13064 67665 32980 01006 10184 20143 48545
                   333 59009=
201503130000 AAXX 13004 67665 42980 21302 10151 20105 48522 82030
                   333 59011=
201503122100 AAXX 12214 67665 42980 21603 10169 20134 48536 82030
                   333 59003 82360=
201503121800 AAXX 12184 67665 42980 21302 10197 20165 48527 70200 82030
                   333 10282 58001 82360=
201503121500 AAXX 12154 67665 42780 61207 10256 20151 48523 70222 85200
                   333 58000 85850=
201503121200 AAXX 12124 67665 42680 61109 10259 20149 48539 70222 86200
                   333 58008 86840=
201503111800 AAXX 11184 67665 42980 31105 10198 20131 48526 82031
                   333 58002 82360 82080=
201503111500 AAXX 11154 67665 42680 41002 10245 20156 48522 83231
                   333 59013 83842 82360 82060=
201503111200 AAXX 11124 67665 42680 50808 10254 20178 48530 85200
                   333 58003 85835=
201503110900 AAXX 11094 67665 42580 60607 10241 20178 48551 70222 86800
                   333 58008 83828 83630 91022=
201503110300 AAXX 11034 67665 42980 41103 10176 20139 48521 70222 84030
                   333 59013 84360=
201503101200 AAXX 10124 67665 NIL=
201503100900 AAXX 10094 67665 42680 50910 10242 20156 48543 85800
                   333 59002 82832 83635=
201503100600 AAXX 10064 67665 32480 40806 10199 20142 48545 84500
                   333 10235 20//0 58011 84615=
201503091800 AAXX 09184 67665 42980 31403 10211 20129 48516 70200 80001
                   333 58005 83080=
201503091500 AAXX 09154 67665 42680 31208 10267 20167 48510 70221 82231
                   333 58008 82835 81359 81080=
201503091200 AAXX 09124 67665 42680 50507 10282 20168 48532 70322 85200
                   333 58015 85830=
201503090300 AAXX 09034 67665 42980 31604 10156 20122 48514 83030
                   333 59000 83360=
201503090000 AAXX 09004 67665 42980 31603 10155 20121 48511 83030
                   333 59011 83360=
201503082100 AAXX 08214 67665 42980 31504 10184 20151 48522 83030
                   333 59006 83360=
201503081500 AAXX 08154 67665 42580 70804 10274 20195 48506 70222 82201
                   333 59012 82835 87080=
201503081200 AAXX 08124 67665 42580 70405 10272 20198 48512 70322 86201
                   333 59017 86830 83080=
201503080600 AAXX 08064 67665 NIL=
201503080300 AAXX 08034 67665 42980 10000 10154 20144 48512 70200 80001
                   333 59005 81080=
201503072100 AAXX 07214 67665 42980 20000 10180 20156 48528 70100 80001
                   333 59004 82080=
201503071800 AAXX 07184 67665 42980 10194 20154 48520 70200 80001
                   333 59005 83080=
201503071500 AAXX 07154 67665 NIL=
201503070600 AAXX 07064 67665 42980 61205 10181 20157 48541 80002
                   333 59001 86080=
201503061800 AAXX 06184 67665 42980 31304 10186 20154 48524 70200 80001
                   333 10280 58001 83080=
201503061500 AAXX 06154 67665 42780 41405 10257 20174 48524 70222 83201
                   333 58001 83850 82080=
201503061200 AAXX 06124 67665 42680 51005 10262 20180 48540 70222 85101
                   333 58002 75540 84080=
201503060900 AAXX 06094 67665 NIL=
201503060600 AAXX 06064 67665 32980 30802 10176 20133 48547 83032
                   333 58003 83360 82080=
201503051800 AAXX 05184 67665 42980 31203 10198 20149 48525 83032
                   333 59005 83360 82080=
201503051500 AAXX 05154 67665 42680 40203 10236 20156 48520 83201
                   333 59004 83838 83080=
201503051200 AAXX 05124 67665 42660 80703 10231 20169 48534 885//
                   333 59002 88630=
201503050900 AAXX 05094 67665 42560 60905 10221 20175 48551 70222 85501
                   333 59009 85625 84080=
201503050600 AAXX 05064 67665 31457 70904 10164 20149 48540 70222 85501
                   333 10250 20//0 59003 85610 86080=
201503050300 AAXX 05034 67665 42980 61004 10139 20125 48522 70222 80001
                   333 59014 86080=
201503050000 AAXX 05004 67665 42980 61202 10146 20134 48527 70322 80001
                   333 59004 86080=
201503041500 AAXX 04154 67665 42680 81109 10200 20161 48520 885//
                   333 58008 88630=
201503041200 AAXX 04124 67665 42580 70810 10204 20179 48533 70322 875//
                   333 58013 87620=
201503040900 AAXX 04094 67665 NIL=
201503030300 AAXX 03034 67665 NIL=
201503021500 AAXX 02154 67665 NIL=
201503021200 AAXX 02124 67665 42680 72803 10271 20222 48497 862//
                   333 58004 86835=
201503020900 AAXX 02094 67665 22580 73002 10236 20205 48519 70222 8483/
                   333 58007 81825 84628 87359=
201503020600 AAXX 02064 67665 12480 73005 10191 20175 48510 60034 70322 8653/
                   333 10278 20/// 59003 86615 86359=
201503020300 AAXX 02034 67665 42959 60000 10187 20171 48491 70222 86030
                   333 59008 86360=
201503020000 AAXX 02004 67665 41359 70000 10189 20173 48499 75022 8467/
                   333 59004 84709 87459=
201503012100 AAXX 01214 67665 42960 53104 10191 20170 48507 70222 85030
                   333 59014 85359=
201503011500 AAXX 01154 67665 NIL=

################################################################################
#  SYNOPS from 67666, Lusaka City Airport (Zambia) | 15-25-00S | 028-28-00E | 1280 m
################################################################################
201503310600 AAXX 31064 67666 32380 80909 10199 20187 48528 877//
                   333 10257 20/// 58005 87707 91020=
201503301200 AAXX 30124 67666 42580 50603 10255 20183 48506 83270
                   333 59002 83830 84359 91016=
201503300600 AAXX 30064 67666 11380 80806 10183 20180 48527 60104 75122 8377/
                   333 10241 20/// 5//// 83708 88458 91020=
201503271200 AAXX 27124 67666 NIL=
201503270600 AAXX 27064 67666 32980 00704 10250 20184 48582
                   333 10325 20/// 59004 91020=
201503261500 AAXX 26154 67666 NIL=
201503260600 AAXX 26064 67666 42980 20905 10220 20185 48542 82070
                   333 10289 20/// 58002 82359 91021=
201503250900 AAXX 25094 67666 NIL=
201503250600 AAXX 25064 67666 32980 31209 10215 20183 48530 83070
                   333 10285 20/// 58001 83358 91021=
201503241200 AAXX 24124 67666 42680 50708 10270 20175 48516 70222 85200
                   333 59007 85830 91018=
201503240900 AAXX 24094 67666 42580 40610 10247 20187 48532 70322 82800
                   333 59007 82620 84820 91020=
201503240600 AAXX 24064 67666 32480 30708 10210 20181 48530 82570
                   333 10271 20/// 59004 82610 82358 91021=
201503230900 AAXX 23094 67666 42580 60910 10245 20187 48546 70222 86800
                   333 59007 84620 84822 91021=
201503230600 AAXX 23064 67666 NIL=
201503221500 AAXX 22154 67666 NIL=
201503211500 AAXX 21154 67666 NIL=
201503200600 AAXX 20064 67666 32980 21006 10218 20188 48541 80001
                   333 10282 20/// 58006 82080 91021=
201503191200 AAXX 19124 67666 42580 60912 10284 20190 48517 83202
                   333 58006 83825 84080 91018=
201503190900 AAXX 19094 67666 42380 70920 10256 20193 48543 85802
                   333 58007 82615 83820 83080 91021=
201503190600 AAXX 19064 67666 32380 70916 10207 20186 48521 83506
                   333 10290 20/// 5//// 83610 85280 91020=
201503180900 AAXX 18094 67666 42580 40914 10259 20193 48533 81800
                   333 59005 81525 84825 91020=
201503170600 AAXX 17064 67666 32980 00905 10223 20153 48541
                   333 10276 20133 58005 91022=
201503160600 AAXX 16064 67666 32980 01008 10198 20153 48539
                   333 10274 20147 58028 91021=
201503151500 AAXX 15154 67666 NIL=
201503130900 AAXX 13094 67666 42980 00808 10240 20154 48532
                   333 59011 91021=
201503130600 AAXX 13064 67666 32980 00808 10195 20145 48538
                   333 10265 20/// 59009 91021=
201503110600 AAXX 11064 67666 32480 40908 10200 20176 48529 84570
                   333 10246 20/// 59008 84610 82359 91020=
201503101200 AAXX 10124 67666 NIL=
201503100600 AAXX 10064 67666 32580 41104 10200 20185 48551 84530
                   333 10303 20/// 5//// 91022=
201503080600 AAXX 08064 67666 NIL=
201503071500 AAXX 07154 67666 NIL=
201503060900 AAXX 06094 67666 NIL=
201503060600 AAXX 06064 67666 32980 70805 1//// 20174 48528 70200 80008
                   333 10260 20115 58003 87280 91021=
201503051500 AAXX 05154 67666 NIL=
201503050600 AAXX 05064 67666 32380 50804 10154 20148 48536 82571
                   333 10215 20114 59008 82710 82620 82459 84180
                   91021=
201503040900 AAXX 04094 67666 41379 80711 10175 20159 48546 75122 887//
                   333 58011 88707 91022=
201503030600 AAXX 03064 67666 11370 81010 10176 20167 48526 60094 75121 887//
                   333 10259 20120 58033 88708 91021=
201503030300 AAXX 03034 67666 NIL=
201503021500 AAXX 02154 67666 NIL=
201503020600 AAXX 02064 67666 12380 70905 1//// 20175 48500 60084 8457/
                   333 10256 20121 59001 84610 83359 91017=
201503011500 AAXX 01154 67666 NIL=

################################################################################
#  SYNOPS from 67667, Mount Makulu (Zambia) | 15-33S | 028-15E | 1213 m
################################################################################
201503300600 AAXX 30064 67667 NIL=
201503271200 AAXX 27124 67667 NIL=
201503261500 AAXX 26154 67667 NIL=
201503260600 AAXX 26064 67667 NIL=
201503250900 AAXX 25094 67667 NIL=
201503240900 AAXX 24094 67667 NIL=
201503230600 AAXX 23064 67667 NIL=
201503221500 AAXX 22154 67667 NIL=
201503211500 AAXX 21154 67667 NIL=
201503190600 AAXX 19064 67667 NIL=
201503180900 AAXX 18094 67667 NIL=
201503151500 AAXX 15154 67667 NIL=
201503130900 AAXX 13094 67667 NIL=
201503101200 AAXX 10124 67667 NIL=
201503080600 AAXX 08064 67667 NIL=
201503071500 AAXX 07154 67667 NIL=
201503060900 AAXX 06094 67667 NIL=
201503051500 AAXX 05154 67667 NIL=
201503040900 AAXX 04094 67667 NIL=
201503030300 AAXX 03034 67667 NIL=
201503021500 AAXX 02154 67667 NIL=
201503011500 AAXX 01154 67667 NIL=

################################################################################
#  SYNOPS from 67673, Petauke (Zambia) | 14-15S | 031-17E | 1035 m
################################################################################
201503300600 AAXX 30064 67673 11556 81001 10205 20192 48558 60524 75156 82537
                   333 10296 20244 58017 82624 83360 88280=
201503271200 AAXX 27124 67673 NIL=
201503270600 AAXX 27064 67673 32980 03402 10254 20162 48558 70200
                   333 10300 20267 59020=
201503261500 AAXX 26154 67673 NIL=
201503260600 AAXX 26064 67673 12584 43602 10234 20192 48567 60024 82131
                   333 10301 20190 58008 82828 83360 84080=
201503250900 AAXX 25094 67673 NIL=
201503240900 AAXX 24094 67673 NIL=
201503240600 AAXX 24064 67673 32584 50201 10248 20198 48562 85100
                   333 10306 20195 59006 85825=
201503230900 AAXX 23094 67673 42684 63603 10266 20186 48570 86200
                   333 59002 86532=
201503230600 AAXX 23064 67673 NIL=
201503221500 AAXX 22154 67673 NIL=
201503211500 AAXX 21154 67673 NIL=
201503200600 AAXX 20064 67673 12984 20503 10250 20184 48566 69944 81101
                   333 10310 20188 58006 81828 82080=
201503190600 AAXX 19064 67673 12580 60901 10230 20200 48557 69924 82131
                   333 10313 20190 58005 82828 86360 81080=
201503180900 AAXX 18094 67673 NIL=
201503170600 AAXX 17064 67673 12980 10303 10249 20194 48560 60104 81030
                   333 10300 20195 59006 81360=
201503160600 AAXX 16064 67673 32580 33601 10240 20188 48565 83130
                   333 10290 20175 58000 83828 82360=
201503151500 AAXX 15154 67673 NIL=
201503131200 AAXX 13124 67673 42680 51001 10290 20162 48534 85230
                   333 59012 85840 83360=
201503130900 AAXX 13094 67673 42680 41002 10270 20170 48561 84200
                   333 59013 84835=
201503101200 AAXX 10124 67673 42680 71403 10278 20186 48541 86231
                   333 58000 86833 84360 82080=
201503100600 AAXX 10064 67673 32580 30904 10231 20179 48555 82501
                   333 10290 20184 58009 82627 83080=
201503080600 AAXX 08064 67673 NIL=
201503071500 AAXX 07154 67673 NIL=
201503060900 AAXX 06094 67673 42580 40803 10254 20154 48562 82101
                   333 59001 82830 84080=
201503060600 AAXX 06064 67673 32980 40701 10216 20141 48559 81031
                   333 10262 20152 59004 81360 84080=
201503051500 AAXX 05154 67673 NIL=
201503050600 AAXX 05064 67673 32580 60701 10194 20159 48559 82538
                   333 10227 20148 59007 82623 82360 86280=
201503040900 AAXX 04094 67673 42580 71105 10214 20154 48559 875//
                   333 58004 87625=
201503040600 AAXX 04064 67673 12475 60904 10182 20144 48562 60234 86531
                   333 10267 20168 58006 86620 85360 83080=
201503030900 AAXX 03094 67673 42580 71001 10240 20198 48561 86538
                   333 58029 86628 85360 86280=
201503030300 AAXX 03034 67673 NIL=
201503021500 AAXX 02154 67673 NIL=
201503011500 AAXX 01154 67673 NIL=

################################################################################
#  SYNOPS from 67731, Senanga (Zambia) | 16-06S | 023-16E | 1027 m
################################################################################
201503310600 AAXX 31064 67731 12380 811// 10220 20203 48/// 60124 70222 8377/
                   333 10309 20168 58008 83709 88460=
201503300600 AAXX 30064 67731 12480 706// 10212 20202 48/// 60104 70322 86520
                   333 10261 20192 59007 86615 83460=
201503271200 AAXX 27124 67731 NIL=
201503270600 AAXX 27064 67731 12480 420// 10231 20208 48/// 60044 70222 83530
                   333 10334 20170 59004 83615 82360=
201503261500 AAXX 26154 67731 NIL=
201503260600 AAXX 26064 67731 12980 225// 10230 20175 48/// 60074 70200 80008
                   333 10343 20188 58011 82080=
201503250900 AAXX 25094 67731 NIL=
201503240900 AAXX 24094 67731 NIL=
201503240600 AAXX 24064 67731 32980 128// 10251 20178 48/// 70200 80008
                   333 10347 20191 59016 81080=
201503230600 AAXX 23064 67731 NIL=
201503221500 AAXX 22154 67731 NIL=
201503211500 AAXX 21154 67731 NIL=
201503200600 AAXX 20064 67731 12980 310// 10200 20209 48/// 60014 70200 80008
                   333 10350 20182 58012 83080=
201503190600 AAXX 19064 67731 32980 113// 10255 20182 48/// 70200 80008
                   333 10336 20189 58002 81080=
201503180900 AAXX 18094 67731 NIL=
201503160600 AAXX 16064 67731 32980 228// 10240 20169 48/// 70200 82030
                   333 10331 20181 59002 82361=
201503151500 AAXX 15154 67731 NIL=
201503130900 AAXX 13094 67731 NIL=
201503110600 AAXX 11064 67731 32980 017// 10238 20193 48/// 70200
                   333 10279 20183 59005=
201503101200 AAXX 10124 67731 NIL=
201503100600 AAXX 10064 67731 32980 218// 10228 20181 48/// 70200 82010
                   333 10350 20160 58009 82462=
201503080600 AAXX 08064 67731 NIL=
201503071500 AAXX 07154 67731 NIL=
201503060900 AAXX 06094 67731 NIL=
201503060600 AAXX 06064 67731 12980 122// 10237 20177 48/// 69904 70200 80008
                   333 10313 20191 58007 81080=
201503051500 AAXX 05154 67731 NIL=
201503050600 AAXX 05064 67731 12480 710// 10225 20170 48/// 60024 70266 83570
                   333 10268 20169 59004 83612 85760=
201503040900 AAXX 04094 67731 NIL=
201503040600 AAXX 04064 67731 11475 809// 10209 20175 48/// 60014 76266 8357/
                   333 10295 20172 59001 83611 88760=
201503030600 AAXX 03064 67731 12580 613// 10221 20195 48/// 60074 70322 81911
                   333 10291 20197 58011 81920 82622 83460 81080=
201503030300 AAXX 03034 67731 NIL=
201503021500 AAXX 02154 67731 NIL=
201503020600 AAXX 02064 67731 32580 426// 10220 20201 48/// 70300 82910
                   333 10283 20189 59014 82923 82625 81460=
201503011500 AAXX 01154 67731 NIL=

################################################################################
#  SYNOPS from 67741, Sesheke (Zambia) | 17-28S | 024-18E | 949 m
################################################################################
201503310600 AAXX 31064 67741 12680 60902 10231 20/// 48/// 60064 86570
                   333 10285 20216 5//// 86635 84460=
201503300600 AAXX 30064 67741 NIL=
201503271200 AAXX 27124 67741 NIL=
201503270600 AAXX 27064 67741 32980 33401 10265 20/// 48/// 83040
                   333 10369 20187 59010 83362=
201503261500 AAXX 26154 67741 NIL=
201503260600 AAXX 26064 67741 NIL=
201503250900 AAXX 25094 67741 NIL=
201503240900 AAXX 24094 67741 NIL=
201503230600 AAXX 23064 67741 NIL=
201503221500 AAXX 22154 67741 NIL=
201503211500 AAXX 21154 67741 NIL=
201503200600 AAXX 20064 67741 32980 11701 10253 20/// 48/// 81030
                   333 10365 20180 58012 81362=
201503190600 AAXX 19064 67741 32980 10802 10260 20/// 48/// 80001
                   333 10363 20169 59009 81080=
201503180900 AAXX 18094 67741 NIL=
201503170600 AAXX 17064 67741 32980 00000 10256 20/// 48///
                   333 10347 20181 59002=
201503160600 AAXX 16064 67741 32980 03301 10248 20//0 48///
                   333 10341 20183 5////=
201503151500 AAXX 15154 67741 NIL=
201503130900 AAXX 13094 67741 NIL=
201503130600 AAXX 13064 67741 32980 03601 10241 20/// 48///
                   333 10343 20194 59009=
201503110600 AAXX 11064 67741 32980 10901 10235 20/// 48/// 81030
                   333 10321 20180 58001 81362=
201503101200 AAXX 10124 67741 NIL=
201503100600 AAXX 10064 67741 12980 20901 10225 20/// 48/// 60034 82070
                   333 10344 20201 82362=
201503080600 AAXX 08064 67741 NIL=
201503071500 AAXX 07154 67741 NIL=
201503060900 AAXX 06094 67741 NIL=
201503051500 AAXX 05154 67741 NIL=
201503050600 AAXX 05064 67741 32980 10801 10218 20/// 48/// 80001
                   333 10295 20175 5//// 81080=
201503040900 AAXX 04094 67741 NIL=
201503040600 AAXX 04064 67741 32980 50903 10200 20174 48/// 85030
                   333 10271 20175 5//// 85362=
201503030300 AAXX 03034 67741 NIL=
201503021500 AAXX 02154 67741 NIL=
201503011500 AAXX 01154 67741 NIL=

################################################################################
#  SYNOPS from 67743, Livingstone (Zambia) | 17-49S | 025-49E | 985 m
################################################################################
201503300600 AAXX 30064 67743 32380 61602 10197 20182 48522 81630
                   333 10294 20190 59004 81708 83615 85359
                   555 00/// 20001 91019=
201503271200 AAXX 27124 67743 NIL=
201503261500 AAXX 26154 67743 NIL=
201503260600 AAXX 26064 67743 32980 11405 10224 20155 48541 80001
                   333 10352 20177 58009 81079
                   555 00/// 20000 91020=
201503250900 AAXX 25094 67743 NIL=
201503250600 AAXX 25064 67743 32980 50808 10221 20159 48535 70222 80001
                   333 10343 20175 58002 85075
                   555 00/// 20000 91019=
201503240900 AAXX 24094 67743 NIL=
201503240600 AAXX 24064 67743 32980 41212 10217 20162 48541 81101
                   333 59008 84075 555 91019=
201503230600 AAXX 23064 67743 32980 10809 10221 20159 48540 70300 81030
                   333 10350 20223 59009 81358
                   555 00/// 20000 91020=
201503221500 AAXX 22154 67743 42880 40912 10323 20146 48520 83131
                   333 59006 83858 81360 81080=
201503211500 AAXX 21154 67743 NIL=
201503190600 AAXX 19064 67743 NIL=
201503180900 AAXX 18094 67743 42680 30911 10288 20147 48544 70311 82231
                   333 59009 82848 82080 91019=
201503151500 AAXX 15154 67743 42680 30814 10311 20139 48522 70200 83200
                   333 59008 83853=
201503130900 AAXX 13094 67743 NIL=
201503101200 AAXX 10124 67743 42780 21107 10309 20146 48531 82100
                   333 58004 82856 91017=
201503080600 AAXX 08064 67743 32980 71203 10213 20140 48527 80001
                   333 10335 20145 59017 87080
                   555 00/// 20000 91019=
201503071500 AAXX 07154 67743 NIL=
201503060900 AAXX 06094 67743 NIL=
201503051500 AAXX 05154 67743 42880 31206 10304 20140 48511 81131
                   333 59006 81858 82360 82080=
201503040900 AAXX 04094 67743 NIL=
201503030900 AAXX 03094 67743 42470 81114 10196 20162 48550 70222 8677/
                   333 58045 86710 85615 88459 91022=
201503030300 AAXX 03034 67743 NIL=
201503021500 AAXX 02154 67743 NIL=
201503020600 AAXX 02064 67743 42680 51207 10259 20192 48518 81631
                   333 58001 81715 82830 81080 91017=
201503011500 AAXX 01154 67743 41680 43207 10296 20158 48463 71711 82931
                   333 59030 81950 82850 82360 82080=

################################################################################
#  SYNOPS from 67751, Magoye (Zambia) | 16-00S | 027-36E | 1018 m
################################################################################
201503300600 AAXX 30064 67751 12980 70000 10201 20188 60054 8707/
                   333 10274 20176 5//// 87360=
201503271200 AAXX 27124 67751 NIL=
201503261500 AAXX 26154 67751 NIL=
201503260600 AAXX 26064 67751 32908 01301 10169 20192 48/// 70200
                   333 10301 20158 59001=
201503250900 AAXX 25094 67751 NIL=
201503240900 AAXX 24094 67751 NIL=
201503230600 AAXX 23064 67751 NIL=
201503221500 AAXX 22154 67751 NIL=
201503211500 AAXX 21154 67751 NIL=
201503200600 AAXX 20064 67751 32980 00302 10241 20213 48///
                   333 10315 20159 59004=
201503190600 AAXX 19064 67751 32980 01002 10235 20189 48///
                   333 10320 20160 59006=
201503180900 AAXX 18094 67751 NIL=
201503170600 AAXX 17064 67751 32980 01004 10230 20177 48///
                   333 10309 20183 58005=
201503160600 AAXX 16064 67751 32980 00000 10215 20168 48///
                   333 10300 20137 5////=
201503151500 AAXX 15154 67751 NIL=
201503130900 AAXX 13094 67751 NIL=
201503130600 AAXX 13064 67751 32980 01301 10206 20165 48/// 70200
                   333 10290 20130 58010=
201503110600 AAXX 11064 67751 32980 01303 10222 20189 48/// 70200
                   333 10302 20169 58006=
201503101200 AAXX 10124 67751 NIL=
201503100600 AAXX 10064 67751 32980 41802 10220 20193 48/// 70200 84040
                   333 10317 20176 59016 84360=
201503080600 AAXX 08064 67751 NIL=
201503071500 AAXX 07154 67751 NIL=
201503060900 AAXX 06094 67751 NIL=
201503051500 AAXX 05154 67751 NIL=
201503050600 AAXX 05064 67751 32980 30904 10190 20161 48/// 81031
                   333 10230 20136 59040 82360 81080=
201503040900 AAXX 04094 67751 NIL=
201503040600 AAXX 04064 67751 12980 70908 10204 20180 48/// 69904 8707/
                   333 10265 20180 59015 81360=
201503030600 AAXX 03064 67751 11380 80000 10200 20192 48/// 60044 75052 8171/
                   333 10279 20187 58028 81706 88460=
201503030300 AAXX 03034 67751 NIL=
201503021500 AAXX 02154 67751 NIL=
201503011500 AAXX 01154 67751 NIL=

################################################################################
#  SYNOPS from 67753, Choma (Zambia) | 16-50S | 027-04E | 1213 m
################################################################################
201503310600 AAXX 31064 67753 32560 71007 10200 20185 48529 8453/
                   333 10258 20185 58006 83620 81825 83360
                   555 00///=
201503300600 AAXX 30064 67753 31560 30210 10202 20183 48529 60024 81130
                   333 10254 20175 5//// 81820 82360=
201503271200 AAXX 27124 67753 NIL=
201503270600 AAXX 27064 67753 32960 13610 10235 20182 48542 80001
                   333 10319 20165 59002 81080=
201503261500 AAXX 26154 67753 NIL=
201503260600 AAXX 26064 67753 32960 00612 10227 20183 48542
                   333 10304 20170 58000=
201503250900 AAXX 25094 67753 NIL=
201503250600 AAXX 25064 67753 32960 10000 10220 20172 48541 80001
                   333 10294 20149 58004 81080=
201503240900 AAXX 24094 67753 NIL=
201503240600 AAXX 24064 67753 32960 00000 10217 20181 48531
                   333 10293 20154 59006=
201503230600 AAXX 23064 67753 NIL=
201503221500 AAXX 22154 67753 NIL=
201503211500 AAXX 21154 67753 NIL=
201503190600 AAXX 19064 67753 32960 30000 10204 20155 48539 80001
                   333 10294 20148 58000 83080
                   555 00///=
201503180900 AAXX 18094 67753 NIL=
201503170600 AAXX 17064 67753 32960 13304 10219 20175 48541 81030
                   333 10289 20146 59007 81360=
201503160600 AAXX 16064 67753 32960 11004 10206 20167 48540 80001
                   333 10271 20126 58000 81080=
201503151500 AAXX 15154 67753 NIL=
201503130900 AAXX 13094 67753 NIL=
201503110600 AAXX 11064 67753 31560 20812 10209 20196 48540 70500 82530
                   333 10271 20159 59004 82620 81360
                   555 00///=
201503101200 AAXX 10124 67753 NIL=
201503100600 AAXX 10064 67753 32560 20511 10210 20186 48540 81130
                   333 10282 20170 58010 81825 81360=
201503080600 AAXX 08064 67753 NIL=
201503071500 AAXX 07154 67753 NIL=
201503060900 AAXX 06094 67753 NIL=
201503060600 AAXX 06064 67753 32960 30000 10185 20166 48538 81032
                   333 10269 20131 58004 81360 83080=
201503051500 AAXX 05154 67753 NIL=
201503050600 AAXX 05064 67753 12960 20806 10181 20165 48537 69904 81042
                   333 10227 20139 59013 81360 81080=
201503040900 AAXX 04094 67753 NIL=
201503040600 AAXX 04064 67753 12360 80912 10164 20151 48545 60064 8272/
                   333 10234 20147 58014 82709 86460=
201503030600 AAXX 03064 67753 11360 80612 10181 20173 48537 60294 76062 8672/
                   333 10257 20176 58032 86709 82460=
201503030300 AAXX 03034 67753 NIL=
201503021500 AAXX 02154 67753 NIL=
201503020600 AAXX 02064 67753 12960 63610 10207 20188 48501 60044 86030
                   333 10271 20171 58001 86360=
201503011500 AAXX 01154 67753 NIL=

################################################################################
#  SYNOPS from 67855, Lupaki (Zambia) | 17-03-00S | 024-46-00E | 1000 m
################################################################################
201503310600 AAXX 31064 67855 11675 50602 10214 20198 3//// 48/// 60014 70262 83570
                   333 20194 5//// 83630 85459=
201503301200 AAXX 30124 67855 41675 53601 10286 20186 3//// 48/// 70282 83232
                   333 5//// 83840 85360=
201503300600 AAXX 30064 67855 12975 60602 10202 20181 3//// 48/// 60404 86030
                   333 20178 5//// 86360=
201503291800 AAXX 29184 67855 NIL=
201503291200 AAXX 29124 67855 NIL=
201503290600 AAXX 29064 67855 12975 70000 10198 20183 3//// 48/// 60014 8707/
                   333 20184 5//// 87459=
201503281200 AAXX 28124 67855 NIL=
201503280600 AAXX 28064 67855 NIL=
201503271800 AAXX 27184 67855 NIL=
201503271200 AAXX 27124 67855 41670 73601 10326 20178 3//// 48/// 79598 85233
                   333 5//// 81925 84830 87080=
201503270600 AAXX 27064 67855 32975 20000 10232 20185 3//// 48/// 82030
                   333 20213 5//// 82360=
201503261800 AAXX 26184 67855 NIL=
201503261200 AAXX 26124 67855 42875 43403 10346 20166 3//// 48/// 84102
                   333 5//// 84857=
201503260600 AAXX 26064 67855 32975 10301 10219 20177 3//// 48/// 80002
                   333 20172 5//// 81080=
201503251200 AAXX 25124 67855 42875 40403 10345 20156 3//// 48/// 84102
                   333 5//// 84857=
201503250600 AAXX 25064 67855 32975 70402 10221 20170 38/// 48/// 80007
                   333 20175 5//// 87280=
201503241200 AAXX 24124 67855 42875 30302 10333 20154 3//// 48/// 82102
                   333 5//// 82857=
201503240600 AAXX 24064 67855 32975 10000 10204 20156 3//// 48/// 80001
                   333 20162 5//// 81080=
201503231800 AAXX 23184 67855 NIL=
201503231200 AAXX 23124 67855 42785 40203 10338 20167 3//// 48/// 84100
                   333 5//// 84857=
201503230600 AAXX 23064 67855 32975 01202 10211 20150 3//// 48///
                   333 5////=
201503221800 AAXX 22184 67855 NIL=
201503221200 AAXX 22124 67855 NIL=
201503220600 AAXX 22064 67855 32975 00601 10203 20139 3//// 48///
                   333 20150 5////=
201503211800 AAXX 21184 67855 NIL=
201503211200 AAXX 21124 67855 42775 41402 10317 20138 3//// 48/// 84100
                   333 5//// 84856=
201503210600 AAXX 21064 67855 NIL=
201503201800 AAXX 20184 67855 NIL=
201503201200 AAXX 20124 67855 41875 70000 10345 20167 3//// 48/// 71798 85273
                   333 5//// 81956 85857 87280=
201503200600 AAXX 20064 67855 32975 70000 10210 20173 3//// 48/// 8707/
                   333 20195 87460=
201503191800 AAXX 19184 67855 NIL=
201503191200 AAXX 19124 67855 42975 40401 10345 20147 3//// 48/// 84100
                   333 5//// 84858=
201503190600 AAXX 19064 67855 32975 10603 10223 20168 3//// 48/// 81030
                   333 20180 5//// 81360=
201503181800 AAXX 18184 67855 NIL=
201503181200 AAXX 18124 67855 42875 40403 10335 20159 3//// 48/// 84202
                   333 5//// 84857=
201503180600 AAXX 18064 67855 12975 70000 10203 20176 3//// 48/// 60034 85087
                   333 20176 5//// 85360 86280=
201503171800 AAXX 17184 67855 NIL=
201503171200 AAXX 17124 67855 42975 41202 10356 20111 3//// 48/// 84100
                   333 5//// 84858=
201503170600 AAXX 17064 67855 32975 00000 10199 20153 3//// 48///
                   333 20146 5////=
201503161800 AAXX 16184 67855 NIL=
201503161200 AAXX 16124 67855 42875 40802 10329 20142 3//// 48/// 84100
                   333 5//// 84858=
201503160600 AAXX 16064 67855 32975 10801 10186 20133 3//// 48/// 80001
                   333 20130 5//// 81080=
201503151800 AAXX 15184 67855 NIL=
201503151200 AAXX 15124 67855 NIL=
201503150600 AAXX 15064 67855 NIL=
201503141800 AAXX 14184 67855 NIL=
201503141200 AAXX 14124 67855 42975 40603 10347 20127 3//// 48/// 84100
                   333 5//// 84858=
201503140600 AAXX 14064 67855 NIL=
201503131200 AAXX 13124 67855 42875 40302 10333 20136 3//// 48/// 84100
                   333 5//// 84857=
201503130600 AAXX 13064 67855 32975 00401 10194 20139 3//// 48///
                   333 20144 5////=
201503121800 AAXX 12184 67855 NIL=
201503121200 AAXX 12124 67855 NIL=
201503120600 AAXX 12064 67855 32975 01202 10185 20118 38/// 48///
                   333 20118 5////=
201503111800 AAXX 11184 67855 NIL=
201503111200 AAXX 11124 67855 NIL=
201503110600 AAXX 11064 67855 12975 00602 10192 20124 3//// 48/// 69904
                   333 20120 5////=
201503101200 AAXX 10124 67855 NIL=
201503100600 AAXX 10064 67855 12975 10802 10202 20160 3//// 48/// 69904 81032
                   333 20171 5//// 81360=
201503091200 AAXX 09124 67855 NIL=
201503090600 AAXX 09064 67855 NIL=
201503081800 AAXX 08184 67855 NIL=
201503081200 AAXX 08124 67855 NIL=
201503080600 AAXX 08064 67855 32975 70000 10180 20138 3//// 48/// 80007
                   333 20132 5//// 87280=
201503071800 AAXX 07184 67855 NIL=
201503071200 AAXX 07124 67855 42875 42003 10296 20101 3//// 48/// 81101
                   333 5//// 81857 84080=
201503070600 AAXX 07064 67855 32975 10000 10162 20127 38/// 48/// 80002
                   333 20115 5//// 81080=
201503061800 AAXX 06184 67855 NIL=
201503061200 AAXX 06124 67855 42875 10603 10318 20134 38/// 48/// 81102
                   333 5//// 81857=
201503060600 AAXX 06064 67855 32975 00601 10174 20133 3//// 48///
                   333 20124 5////=
201503051800 AAXX 05184 67855 NIL=
201503051200 AAXX 05124 67855 42775 23002 10298 20148 3//// 48/// 82101
                   333 5//// 82856=
201503050600 AAXX 05064 67855 32975 11001 10173 20135 38/// 48/// 80002
                   333 20130 5//// 81080=
201503041800 AAXX 04184 67855 NIL=
201503041200 AAXX 04124 67855 42875 10202 10295 20123 3//// 48/// 81130
                   333 5//// 81857=
201503040600 AAXX 04064 67855 32975 11001 10183 20121 3//// 48/// 81030
                   333 20152 5//// 81360=
201503031800 AAXX 03184 67855 NIL=
201503031200 AAXX 03124 67855 42675 71402 10242 20156 3//// 48/// 8513/
                   333 5//// 85835 87359=
201503030600 AAXX 03064 67855 12575 71005 10145 20148 3//// 48/// 69924 8457/
                   333 20185 5//// 84620 87359=
201503021800 AAXX 02184 67855 NIL=
201503021200 AAXX 02124 67855 41675 70807 10271 20162 3//// 48/// 71722 85273
                   333 5//// 81935 85840 86459=
201503020600 AAXX 02064 67855 11970 61202 10198 20188 38/// 48/// 60014 70262 86081
                   333 20194 5//// 87359=
201503011200 AAXX 01124 67855 NIL=
201503010600 AAXX 01064 67855 11975 60401 10209 20196 3//// 48/// 60184 70362 86032
                   333 20193 5//// 86360=
