################################################################################
# Query made at 04/10/2022 06:54:42 UTC
# Country like Zamb*
# Time interval: from 09/01/2019 05:30  to 10/01/2019 06:30  UTC
################################################################################

################################################################################
#  SYNOPS from 67403, Kawambwa (Zambia) | 09-48S | 029-05E | 1323 m
################################################################################
201909300600 AAXX 30064 67403 31975 10225 10191 48501 70520 81531
                   333 10328 20192 5//// 81612 83360 81080
                   555 00182=
201909271200 AAXX 27124 67403 NIL=
201909270900 AAXX 27094 67403 NIL=
201909270600 AAXX 27064 67403 31975 01205 10168 20068 48550
                   333 10302 20136 58014
                   555 00146=
201909261200 AAXX 26124 67403 41770 51201 10292 20129 48512 84201
                   333 58015 84850 83080=
201909260900 AAXX 26094 67403 NIL=
201909260600 AAXX 26064 67403 31975 21008 10206 20115 48539 70500 80001
                   333 10316 20182 58021 82080
                   555 00172=
201909251200 AAXX 25124 67403 NIL=
201909250600 AAXX 25064 67403 NIL=
201909241200 AAXX 24124 67403 41670 40902 10333 20117 48485 84201
                   333 59004 84847 81080=
201909240600 AAXX 24064 67403 31975 00907 10227 20107 48520 70500
                   333 10346 20192 58000
                   555 00180=
201909231200 AAXX 23124 67403 41770 22201 10333 20086 48490 82101
                   333 5//// 82850 81080=
201909230600 AAXX 23064 67403 31975 02201 10216 20154 48519 70500
                   333 10300 20187 5////
                   555 00170=
201909200900 AAXX 20094 67403 NIL=
201909191200 AAXX 19124 67403 41870 31802 10311 20107 48503 70300 83201
                   333 5//// 83856 81080=
201909190600 AAXX 19064 67403 31975 40908 10214 20102 48525 70500 80001
                   333 10320 20172 58007 84080
                   555 00172=
201909180600 AAXX 18064 67403 31975 10903 10216 20100 48518 70500 80001
                   333 10318 20184 59007 81080
                   555 00173=
201909161200 AAXX 16124 67403 41975 52701 10308 20132 48500 70522 82201
                   333 5//// 85850 81080=
201909160900 AAXX 16094 67403 NIL=
201909160600 AAXX 16064 67403 31970 50905 10220 20113 48521 70522 85031
                   333 10336 20192 5//// 85360 82080
                   555 00190=
201909131200 AAXX 13124 67403 41770 52503 10307 20162 48500 70520 85201
                   333 59003 85850 82085=
201909121200 AAXX 12124 67403 41758 50901 10307 20140 48504 70522 84201
                   333 58004 84850 81080=
201909111200 AAXX 11124 67403 41770 42501 10313 21113 48500 84201
                   333 59011 84850 81080=
201909101200 AAXX 10124 67403 41770 61801 10279 20106 48509 70520 83130
                   333 59013 83850 85360=
201909091200 AAXX 09124 67403 NIL=
201909090900 AAXX 09094 67403 NIL=
201909060600 AAXX 06064 67403 NIL=
201909040900 AAXX 04094 67403 NIL=
201909031200 AAXX 03124 67403 NIL=
201909021200 AAXX 02124 67403 NIL=
201909020900 AAXX 02094 67403 NIL=

################################################################################
#  SYNOPS from 67413, Mbala (Zambia) | 08-51S | 031-20E | 1673 m
################################################################################
201909271200 AAXX 27124 67413 NIL=
201909270900 AAXX 27094 67413 NIL=
201909260900 AAXX 26094 67413 NIL=
201909260600 AAXX 26064 67413 NIL=
201909251200 AAXX 25124 67413 NIL=
201909250600 AAXX 25064 67413 NIL=
201909241200 AAXX 24124 67413 NIL=
201909240600 AAXX 24064 67413 NIL=
201909231200 AAXX 23124 67413 NIL=
201909230600 AAXX 23064 67413 NIL=
201909200900 AAXX 20094 67413 NIL=
201909180600 AAXX 18064 67413 NIL=
201909161200 AAXX 16124 67413 NIL=
201909160900 AAXX 16094 67413 NIL=
201909160600 AAXX 16064 67413 NIL=
201909091200 AAXX 09124 67413 NIL=
201909090900 AAXX 09094 67413 NIL=
201909060600 AAXX 06064 67413 NIL=
201909040900 AAXX 04094 67413 NIL=
201909031200 AAXX 03124 67413 NIL=
201909021200 AAXX 02124 67413 NIL=
201909020900 AAXX 02094 67413 NIL=
201909020600 AAXX 02064 67413 31978 01004 10205 20100 48/// 70500
                   333 1//// 20060 5////
                   555 00060=

################################################################################
#  SYNOPS from 67441, Mwinilunga (Zambia) | 11-45S | 024-26E | 1361 m
################################################################################
201910010600 AAXX 01064 67441 31660 80000 10185 20166 48547 79596 8197/
                   333 10308 20//0 58019 877//
                   555 00///=
201909271200 AAXX 27124 67441 NIL=
201909270900 AAXX 27094 67441 NIL=
201909270600 AAXX 27064 67441 31975 21204 10160 20092 48585 70500 80001
                   333 10278 2//// 58013 82075=
201909260900 AAXX 26094 67441 41970 00904 10260 20106 48576 70500
                   333 58021=
201909260600 AAXX 26064 67441 31965 00903 10205 20102 48578 70500
                   333 10330 2//// 58024=
201909251200 AAXX 25124 67441 NIL=
201909250900 AAXX 25094 67441 41975 30904 10300 20067 48/// 70500
                   333 5////=
201909250600 AAXX 25064 67441 31965 00903 10230 20085 48554 70500
                   333 10340 2//// 58001=
201909241200 AAXX 24124 67441 NIL=
201909240600 AAXX 24064 67441 31965 00000 10165 20122 48547 70500
                   333 10335 2//// 58002=
201909231200 AAXX 23124 67441 41675 50000 10320 20106 48530 70522 85100
                   333 5//// 85850=
201909230600 AAXX 23064 67441 31970 00000 10180 20155 48546 70500
                   333 10306 2//// 5////=
201909200900 AAXX 20094 67441 NIL=
201909200600 AAXX 20064 67441 31970 00000 10205 20077 48562 70500
                   333 10310 20/// 59006
                   555 00///=
201909180600 AAXX 18064 67441 NIL=
201909161200 AAXX 16124 67441 NIL=
201909160900 AAXX 16094 67441 NIL=
201909160600 AAXX 16064 67441 31970 00000 10185 20125 48557 70500
                   333 10320 2//// 59005=
201909120600 AAXX 12064 67441 31970 60000 10170 20110 48560 70522 86030
                   333 10320 2//// 5//// 86360=
201909091200 AAXX 09124 67441 NIL=
201909090900 AAXX 09094 67441 NIL=
201909090600 AAXX 09064 67441 31975 51203 10140 20063 48592 70522 80001
                   333 10252 2//// 5//// 85070=
201909060600 AAXX 06064 67441 31970 00000 10145 20102 48576 70500
                   333 10320 2//// 58017=
201909050600 AAXX 05064 67441 31965 30000 10190 20096 48559 70500 80001
                   333 10302 2//// 5//// 83070=
201909040900 AAXX 04094 67441 41675 40000 10270 20100 48/// 70500 84101
                   333 5//// 84840 82075=
201909040600 AAXX 04064 67441 31970 20000 10180 20112 48/// 70500 80001
                   333 10320 2//// 5//// 82070=
201909031200 AAXX 03124 67441 NIL=
201909021200 AAXX 02124 67441 NIL=
201909020900 AAXX 02094 67441 41970 50903 10250 20123 48/// 70522 80007
                   555 5//// 852370=

################################################################################
#  SYNOPS from 67461, Mansa (Zambia) | 11-06S | 028-51E | 1382 m
################################################################################
201910010600 AAXX 01064 67461 31965 62603 10236 20166 48506 70500 85031
                   333 10342 20188 58001 85360 84080
                   555 00/// 91017=
201909300600 AAXX 30064 67461 31957 00802 10230 20115 48504 70500
                   333 10329 20154 59011
                   555 00/// 91016=
201909271200 AAXX 27124 67461 NIL=
201909270900 AAXX 27094 67461 42980 01211 10225 20094 48555
                   333 58026 91023=
201909270600 AAXX 27064 67461 31975 01217 10164 20060 48540 70500
                   333 10264 20108 58003 91021=
201909260900 AAXX 26094 67461 NIL=
201909260600 AAXX 26064 67461 31658 41417 10195 20113 48540 70500 83101
                   333 10310 20164 58024 83830 81080 91021=
201909251200 AAXX 25124 67461 NIL=
201909250600 AAXX 25064 67461 31950 21316 10225 20107 48519 70500 80001
                   333 10335 20164 58006 82080 91018=
201909241200 AAXX 24124 67461 NIL=
201909240900 AAXX 24094 67461 41960 00815 10290 20104 48516 70500
                   333 58000 91017=
201909240600 AAXX 24064 67461 31950 01209 10221 20108 48513 70500
                   333 10340 20171 59001 91017=
201909231200 AAXX 23124 67461 NIL=
201909230600 AAXX 23064 67461 31950 01503 10210 20127 48513 70500
                   333 10330 20149 58000 91017=
201909200900 AAXX 20094 67461 NIL=
201909191200 AAXX 19124 67461 41940 00612 10308 20089 48518 70500
                   333 58000 91017=
201909190600 AAXX 19064 67461 31958 01313 10198 20090 48535 70500
                   333 10309 20145 59002
                   555 00/// 91020=
201909180600 AAXX 18064 67461 31970 01318 10208 20114 48538 70500
                   333 10303 20153 58000 91021=
201909161200 AAXX 16124 67461 NIL=
201909160900 AAXX 16094 67461 NIL=
201909160600 AAXX 16064 67461 31958 01315 10207 20129 48528 70500
                   333 10314 20157 59006 91020=
201909091200 AAXX 09124 67461 NIL=
201909090900 AAXX 09094 67461 41975 21316 10215 20088 48569 70500 80001
                   333 59014 82080 91024=
201909060600 AAXX 06064 67461 31956 01217 10198 20100 48553 70500
                   333 10310 20150 58005 91023=
201909040900 AAXX 04094 67461 NIL=
201909031200 AAXX 03124 67461 NIL=
201909021200 AAXX 02124 67461 NIL=
201909020900 AAXX 02094 67461 41940 31315 10285 20126 48541 70500
                   333 58024 83080 91020=

################################################################################
#  SYNOPS from 67469, Samfya (Zambia) | 11-22S | 029-54E | 1171 m
################################################################################
201909271200 AAXX 27124 67469 NIL=
201909270900 AAXX 27094 67469 42980 01108 10201 20120 48///
                   333 5////=
201909270600 AAXX 27064 67469 32980 01214 10160 20100 48///
                   333 10241 20137 5////=
201909260900 AAXX 26094 67469 42580 61413 10214 20150 48/// 83830
                   333 5//// 83625 83830 86360=
201909260600 AAXX 26064 67469 32480 31515 10191 20150 48/// 83530
                   333 10290 20174 5//// 83618 82360=
201909251200 AAXX 25124 67469 NIL=
201909250600 AAXX 25064 67469 NIL=
201909241200 AAXX 24124 67469 NIL=
201909240600 AAXX 24064 67469 NIL=
201909231200 AAXX 23124 67469 NIL=
201909230600 AAXX 23064 67469 NIL=
201909200900 AAXX 20094 67469 NIL=
201909180600 AAXX 18064 67469 NIL=
201909161200 AAXX 16124 67469 NIL=
201909160900 AAXX 16094 67469 NIL=
201909160600 AAXX 16064 67469 NIL=
201909091200 AAXX 09124 67469 NIL=
201909090900 AAXX 09094 67469 NIL=
201909060600 AAXX 06064 67469 NIL=
201909041200 AAXX 04124 67469 42680 20704 10258 20150 48/// 82200
                   333 5//// 82836=
201909040900 AAXX 04094 67469 42680 21410 10240 20150 48/// 82200
                   333 5//// 82837=
201909031200 AAXX 03124 67469 42680 31312 10260 20150 48/// 83200
                   333 5//// 83844=
201909021200 AAXX 02124 67469 42980 11004 10279 20170 48///
                   333 5//// 81080=
201909020900 AAXX 02094 67469 42980 01004 10250 20170 48///
                   333 5////=

################################################################################
#  SYNOPS from 67475, Kasama (Zambia) | 10-13S | 031-08E | 1382 m
################################################################################
201910010600 AAXX 01064 67475 11960 62305 10202 20159 48514 69904 70522 8603/
                   333 10256 20176 58002
                   555 00/// 91019=
201909300600 AAXX 30064 67475 31960 50805 10222 20137 48510 70500 80503
                   333 10346 20161 59019 85360
                   555 00/// 91018=
201909271200 AAXX 27124 67475 NIL=
201909270900 AAXX 27094 67475 41960 01505 10233 20098 48551 70500
                   333 59002 91023=
201909270600 AAXX 27064 67475 31960 71606 10160 20068 48567 70522 87030
                   333 10290 20108 58012 87360 91025=
201909260900 AAXX 26094 67475 NIL=
201909260600 AAXX 26064 67475 31960 21612 10190 20120 48556 70500 80001
                   333 10332 20158 5//// 82080 91024=
201909251200 AAXX 25124 67475 NIL=
201909250600 AAXX 25064 67475 31960 01206 10218 20091 48540 70500
                   333 10346 20144 58002 91022=
201909241200 AAXX 24124 67475 NIL=
201909240600 AAXX 24064 67475 NIL=
201909231200 AAXX 23124 67475 NIL=
201909230600 AAXX 23064 67475 31960 01012 10218 20126 48533 70500
                   333 10341 20156 59003 91021=
201909201200 AAXX 20124 67475 41660 11613 10302 20070 48510 70500 81100
                   333 59001 81845 91018=
201909200900 AAXX 20094 67475 41960 11219 10279 20078 48537 70500 80001
                   333 59002 80080 91021=
201909191200 AAXX 19124 67475 10304 20061 18511 70500 82100
                   333 59001 82845 91018=
201909190600 AAXX 19064 67475 31960 41215 10208 20100 48544 70522 80008
                   333 10326 20167 58007 84280
                   555 91022=
201909180900 AAXX 18094 67475 41960 41217 10276 20067 48535 70522 80008
                   333 59003 84280 91021=
201909180600 AAXX 18064 67475 31960 51214 10208 20091 48537 70522 80008
                   333 10328 20171 59005 85280 91022=
201909171200 AAXX 17124 67475 41660 21209 10301 20091 48511 70500 82100
                   333 58002 82840 91018=
201909161200 AAXX 16124 67475 41660 31613 10299 20096 48509 70500 83200
                   333 5//// 83845 91018=
201909160900 AAXX 16094 67475 41660 21211 10273 20116 48533 70500 82100
                   333 59004 82830 91021=
201909160600 AAXX 16064 67475 31960 01107 10209 20120 48536 70500
                   333 10328 20160 59001 91022=
201909131200 AAXX 13124 67475 41660 51208 10311 20092 48511 70521 85238
                   333 59004 85845 82360 85280 91018=
201909121200 AAXX 12124 67475 41660 33507 10311 20111 48515 70500 83200
                   333 58004 83845 91019=
201909120900 AAXX 12094 67475 41660 30711 10290 20126 48539 70500 83200
                   333 58002 83830 91021=
201909111200 AAXX 11124 67475 41660 51004 10294 20114 48510 70521 85200
                   333 59006 85845 91018=
201909110900 AAXX 11094 67475 41660 10707 10271 20102 48536 70500 82100
                   333 59008 82830 91021=
201909100600 AAXX 10064 67475 31960 01505 10196 20065 48559 70500
                   333 10291 20118 59026 91023=
201909091200 AAXX 09124 67475 NIL=
201909090900 AAXX 09094 67475 NIL=
201909090600 AAXX 09064 67475 31960 01208 10150 20062 48572 70500
                   333 10258 20085 59004 91026=
201909060600 AAXX 06064 67475 31960 01403 10209 20102 48558 70500
                   333 10321 20145 58011 91024=
201909041200 AAXX 04124 67475 41960 11302 10250 20059 48521 70500
                   333 59011 81080 91019=
201909040900 AAXX 04094 67475 41560 30907 10250 20075 48/// 70500
                   333 59012 81828 82080 91023=
201909031200 AAXX 03124 67475 41760 21013 10286 20079 48532 70510 81100
                   333 58016 81856 91021=
201909021200 AAXX 02124 67475 41960 01208 10302 20068 48516 70500
                   333 58025 91019=
201909020900 AAXX 02094 67475 41960 00910 10282 20094 48541 70500
                   333 58035 91022=
201909020600 AAXX 02064 67475 31960 00804 10214 20085 48482 70500
                   333 10332 20133 58022 91022=

################################################################################
#  SYNOPS from 67476, Misamfu (Zambia) | 10-06S | 031-15E | 1536 m
################################################################################
201910010600 AAXX 01064 67476 11974 70203 10200 20162 48/// 60034 70522 84038
                   333 10330 20141 58005 84360 86280
                   555 00/// 20000=
201909300600 AAXX 30064 67476 31975 50504 10230 20136 48/// 70510 85030
                   333 10303 20122 59017 85360
                   555 00///=
201909271200 AAXX 27124 67476 41778 12403 10266 20085 48/// 70500 81100
                   333 59008 81850=
201909270900 AAXX 27094 67476 41977 10906 10235 20099 48/// 70520 80001
                   333 5//// 81080=
201909270600 AAXX 27064 67476 31675 61604 10158 20069 48/// 70522 865//
                   333 10260 20088 5//// 86635=
201909260900 AAXX 26094 67476 41675 81406 10232 20122 48/// 70520 82107
                   333 5//// 82835 88280=
201909260600 AAXX 26064 67476 31973 11806 10192 20121 48/// 70500 81101
                   333 10305 20126 5//// 81820 81080=
201909251200 AAXX 25124 67476 41777 11205 10299 20057 48/// 70500 81101
                   333 5//// 81850 81080=
201909250900 AAXX 25094 67476 41976 01204 10273 20068 48/// 70500
                   333 58002=
201909250600 AAXX 25064 67476 31975 11305 10226 20088 48/// 70500 80001
                   333 10321 20100 58003 81080=
201909241200 AAXX 24124 67476 41777 11306 10314 20070 48/// 70500 81100
                   333 59003 81856=
201909240900 AAXX 24094 67476 41976 01306 10280 20082 48/// 70500
                   333 5////=
201909240600 AAXX 24064 67476 31975 00605 10216 20115 48/// 70500
                   333 10335 20114 5////=
201909231200 AAXX 23124 67476 41777 12705 10326 20064 48/// 70500 81100
                   333 5//// 81850=
201909230900 AAXX 23094 67476 41976 01204 10286 20104 48/// 70500
                   333 5////=
201909230600 AAXX 23064 67476 31975 00506 10220 20121 48/// 70500
                   333 10318 20117 5////=
201909201200 AAXX 20124 67476 41777 11505 10301 20067 48/// 70500 81100
                   333 5//// 81850=
201909200900 AAXX 20094 67476 41976 01305 10270 20089 48/// 70500
                   333 5////=
201909200600 AAXX 20064 67476 31975 11204 10214 20100 48/// 70500 80021
                   333 10310 20130 5//// 81080
                   555 00///=
201909191200 AAXX 19124 67476 41776 11404 10303 20059 48///
                   333 5//// 81856=
201909190600 AAXX 19064 67476 31974 11305 10220 20100 48/// 70500 80001
                   333 10305 20098 58006 81080
                   555 00///=
201909180900 AAXX 18094 67476 41976 21206 10272 20074 48/// 70500 80001
                   333 5//// 82080=
201909180600 AAXX 18064 67476 31975 11805 10212 20091 48/// 70500 80001
                   333 10304 20136 5//// 81080=
201909171200 AAXX 17124 67476 41778 11804 10296 20090 48/// 70500 81100
                   333 5//// 81856=
201909161200 AAXX 16124 67476 41777 21804 10296 20093 48/// 70500 82100
                   333 5//// 82850=
201909160900 AAXX 16094 67476 41976 01005 10266 20113 48/// 70500
                   333 5////=
201909160600 AAXX 16064 67476 31976 00905 10215 20123 48/// 70500
                   333 10309 20115 5////=
201909131200 AAXX 13124 67476 41776 62003 10298 20099 48/// 70520 862//
                   333 5//// 86850=
201909121200 AAXX 12124 67476 41777 31303 10305 20110 48/// 70500 83200
                   333 58004 83850=
201909120600 AAXX 12064 67476 31975 30706 10216 20145 48/// 70510 82030
                   333 10304 20129 5//// 82360=
201909101200 AAXX 10124 67476 41677 71502 10270 20092 48/// 70520 871//
                   333 5//// 87848=
201909091200 AAXX 09124 67476 41776 31803 10252 20065 48/// 70500 81101
                   333 5//// 81856 83080=
201909090900 AAXX 09094 67476 41977 20905 10217 20078 48/// 70500 80001
                   333 5//// 82080=
201909060900 AAXX 06094 67476 41976 01305 10266 20070 48/// 70500
                   333 5////=
201909060600 AAXX 06064 67476 31975 00905 10205 20110 48/// 70500
                   333 10303 20095 5////=
201909041200 AAXX 04124 67476 41777 12003 10281 20062 48/// 70500 81100
                   333 5//// 81850=
201909040900 AAXX 04094 67476 41677 10905 10250 20082 48/// 70500 81100
                   333 59007 81840 81080=
201909040600 AAXX 04064 67476 31976 11203 10190 20107 48/// 70500 80001
                   333 10290 20087 59004 81080
                   555 00/// 20000=
201909031200 AAXX 03124 67476 41775 11205 10287 20096 48/// 70500 81100
                   333 58015 81850=
201909021200 AAXX 02124 67476 41977 01805 10309 20045 48/// 70500
                   333 5////=
201909020900 AAXX 02094 67476 NIL=

################################################################################
#  SYNOPS from 67477, Mpika (Zambia) | 11-54S | 031-26E | 1400 m
################################################################################
201909300600 AAXX 30064 67477 31978 01204 10199 20130 48/// 70500
                   333 10311 20186 5////
                   555 00156=
201909271200 AAXX 27124 67477 NIL=
201909270900 AAXX 27094 67477 NIL=
201909270600 AAXX 27064 67477 31978 01205 10147 20130 48/// 70500
                   333 10199 20109 5////
                   555 00095=
201909260900 AAXX 26094 67477 NIL=
201909260600 AAXX 26064 67477 31478 81206 10146 20130 48/// 70500 885//
                   333 10282 20138 5//// 88610
                   555 00124=
201909251200 AAXX 25124 67477 NIL=
201909250600 AAXX 25064 67477 31978 01206 10199 20140 48/// 70500
                   333 10305 20174 5////
                   555 00163=
201909241200 AAXX 24124 67477 NIL=
201909240600 AAXX 24064 67477 31978 01208 10227 20140 48/// 70500
                   333 10319 20179 5////
                   555 00162=
201909231200 AAXX 23124 67477 41978 01208 10313 20140 48/// 70500
                   333 5////=
201909230600 AAXX 23064 67477 31978 01208 10231 20150 48/// 70500
                   333 10312 20186 5////
                   555 00165=
201909200900 AAXX 20094 67477 41978 01207 10253 20110 48/// 70500
                   333 5////=
201909191200 AAXX 19124 67477 41678 11206 10272 20090 48/// 70500 81100
                   333 5//// 81835=
201909190600 AAXX 19064 67477 31978 01205 10199 20110 48/// 70500
                   333 10281 20150 5////
                   555 00132=
201909180900 AAXX 18094 67477 41978 00903 10246 20080 48/// 70500
                   333 5////=
201909180600 AAXX 18064 67477 31978 01204 10194 20090 48/// 70500
                   333 10288 20150 5////
                   555 00132=
201909171200 AAXX 17124 67477 41678 11207 10277 20110 48/// 70500 81100
                   333 5//// 81830=
201909161200 AAXX 16124 67477 41678 10902 10280 20100 48/// 70500 81100
                   333 5//// 81833=
201909160900 AAXX 16094 67477 41978 01206 10261 20100 48/// 70500
                   333 5////=
201909160600 AAXX 16064 67477 31978 01207 10215 20110 48/// 70500
                   333 10304 20183 5////
                   555 00169=
201909121200 AAXX 12124 67477 41978 01203 10292 20090 48/// 70500
                   333 5////=
201909111200 AAXX 11124 67477 41678 41201 10282 20080 48/// 70500 83101
                   333 5//// 83836 82080=
201909110900 AAXX 11094 67477 41978 01202 10263 20100 48/// 70500
                   333 5////=
201909101200 AAXX 10124 67477 41978 51202 10242 20060 48/// 70522 83031
                   333 5//// 83362 83080=
201909091200 AAXX 09124 67477 41978 01502 10248 20070 48/// 70500
                   333 5////=
201909090900 AAXX 09094 67477 41978 30904 10197 20090 48/// 70500 80001
                   333 5//// 83080=
201909060600 AAXX 06064 67477 NIL=
201909041200 AAXX 04124 67477 41675 21204 10265 20154 48/// 70510 82100
                   333 5//// 82838=
201909040900 AAXX 04094 67477 41675 30907 10234 20120 48/// 70500 83100
                   333 5//// 83835=
201909031200 AAXX 03124 67477 NIL=
201909021200 AAXX 02124 67477 NIL=
201909020900 AAXX 02094 67477 41975 01211 10257 20120 48/// 70500
                   333 5////=

################################################################################
#  SYNOPS from 67481, Isoka (Zambia) | 10-07S | 032-38E | 1360 m
################################################################################
201910010600 AAXX 01064 67481 31970 73002 10210 20153 48/// 70522 8707/
                   333 10321 20175 5//// 87360
                   555 00///=
201909300600 AAXX 30064 67481 31970 03302 10222 20146 48/// 70500
                   333 10320 20140 5////
                   555 00///=
201909271200 AAXX 27124 67481 NIL=
201909270900 AAXX 27094 67481 41970 02704 10226 20103 48/// 70500
                   333 5////=
201909270600 AAXX 27064 67481 31970 02704 10172 20078 48/// 70500
                   333 10255 20152 5////=
201909260900 AAXX 26094 67481 41665 52005 10220 20126 48/// 70522 85100
                   333 5//// 85830=
201909260600 AAXX 26064 67481 31465 62006 10190 20132 48/// 70522 86500
                   333 10320 20175 5//// 86610=
201909251200 AAXX 25124 67481 41860 12702 10298 20070 48/// 70500
                   333 5//// 81857=
201909250900 AAXX 25094 67481 41970 01203 10278 20067 48/// 70500
                   333 5////=
201909250600 AAXX 25064 67481 31970 01202 10231 20155 48/// 70500
                   333 10318 20161 5////=
201909241200 AAXX 24124 67481 NIL=
201909240600 AAXX 24064 67481 31970 01202 10210 20108 48/// 70500
                   333 10330 20152 5////=
201909231200 AAXX 23124 67481 41960 01202 10325 20075 48/// 70500
                   333 5////=
201909230600 AAXX 23064 67481 31965 03002 10220 20122 48/// 70500
                   333 10320 20155 5////=
201909200900 AAXX 20094 67481 41970 12502 10270 20089 48/// 70500 80001
                   333 5//// 81080=
201909200600 AAXX 20064 67481 31970 01002 10227 20103 48/// 70500
                   333 10340 20164 5////
                   555 00///=
201909191200 AAXX 19124 67481 41765 22003 10300 20072 48/// 70500 82100
                   333 5//// 82856=
201909180900 AAXX 18094 67481 41970 01203 10264 20185 48/// 70500
                   333 5////=
201909180600 AAXX 18064 67481 31970 02702 10218 20100 48/// 70500
                   333 10310 20110 5////=
201909171200 AAXX 17124 67481 41670 12703 10294 20093 48/// 70500 81100
                   333 5//// 81836=
201909170900 AAXX 17094 67481 41670 12002 10266 20104 48/// 70500 81100
                   333 5//// 81830=
201909161200 AAXX 16124 67481 NIL=
201909160900 AAXX 16094 67481 NIL=
201909160600 AAXX 16064 67481 31970 02702 10222 20122 48/// 70500
                   333 10313 20150 5////=
201909121200 AAXX 12124 67481 41663 21202 10304 20126 48/// 70500 82100
                   333 5//// 82830=
201909120600 AAXX 12064 67481 31965 50302 10221 20122 48/// 70522 85030
                   333 10310 20116 5//// 85360=
201909110900 AAXX 11094 67481 41965 02102 10262 20130 48/// 70510
                   333 5////=
201909101200 AAXX 10124 67481 41665 22102 10278 20105 48/// 70500 82100
                   333 5//// 82835=
201909091200 AAXX 09124 67481 41670 12702 10248 20090 48/// 70500 81100
                   333 5//// 81830=
201909090900 AAXX 09094 67481 41970 02103 10210 20085 48/// 70500
                   333 5////=
201909090600 AAXX 09064 67481 31970 02002 10160 20086 48/// 70500
                   333 10301 20110 5////=
201909060600 AAXX 06064 67481 31970 01002 10210 20126 48/// 70500
                   333 10302 20148 5////=
201909040900 AAXX 04094 67481 NIL=
201909031200 AAXX 03124 67481 NIL=
201909021200 AAXX 02124 67481 41970 02802 10295 20087 48/// 70500
                   333 5////=
201909020900 AAXX 02094 67481 NIL=
201909020600 AAXX 02064 67481 31975 01002 10225 20107 48/// 70500
                   333 10320 20150 5////=

################################################################################
#  SYNOPS from 67531, Zambezi (Zambia) | 13-32S | 023-07E | 1077 m
################################################################################
201910010600 AAXX 01064 67531 11978 21805 10234 20158 48/// 69904 70500 80001
                   333 10355 20170 58009 82080
                   555 00160=
201909300600 AAXX 30064 67531 31975 23005 10220 20142 48/// 70500 80001
                   333 10341 20143 59019 82081
                   555 00152=
201909271200 AAXX 27124 67531 41970 11806 10307 20078 48/// 70500 80003
                   333 59011 81081=
201909270900 AAXX 27094 67531 41970 01012 10256 20100 48/// 70500
                   333 59004=
201909270600 AAXX 27064 67531 31970 11215 10190 20088 48/// 70500 80003
                   333 10301 20155 58010 81081
                   555 00143=
201909260900 AAXX 26094 67531 41970 01307 10252 20141 48/// 70500
                   333 5////=
201909260600 AAXX 26064 67531 31970 11207 10216 20136 48/// 70500 81030
                   333 10360 20203 58032 81362
                   555 00187=
201909251200 AAXX 25124 67531 NIL=
201909250600 AAXX 25064 67531 31975 21008 10231 20085 48/// 70500 80001
                   333 10370 20172 5//// 81080
                   555 00152=
201909241200 AAXX 24124 67531 41975 11505 10358 20082 48/// 70500 80001
                   333 5//// 81081=
201909240600 AAXX 24064 67531 31975 11806 10207 20118 48/// 70500 80001
                   333 10358 20162 5//// 81080
                   555 00148=
201909231200 AAXX 23124 67531 NIL=
201909230600 AAXX 23064 67531 31975 12705 10197 20144 48/// 70500 80001
                   333 10342 20166 58007 81080
                   555 00160=
201909201200 AAXX 20124 67531 41970 01806 10333 20080 48/// 70500
                   333 5////=
201909200900 AAXX 20094 67531 41970 00909 10293 20072 48/// 70500
                   333 59006=
201909200600 AAXX 20064 67531 31970 11006 10195 20044 48/// 70500 80001
                   333 10351 20159 59005 81081
                   555 00130=
201909190600 AAXX 19064 67531 31975 20906 10205 20062 48/// 70500 80001
                   333 10351 20142 58004 82081
                   555 00113=
201909180900 AAXX 18094 67531 41975 00910 10306 20084 48/// 70500
                   333 5////=
201909180600 AAXX 18064 67531 31975 10905 10190 20075 48/// 70500 80001
                   333 10350 20126 59004 81081
                   555 00112=
201909161200 AAXX 16124 67531 NIL=
201909160900 AAXX 16094 67531 41975 01009 10299 20099 48/// 70500
                   333 58003=
201909160600 AAXX 16064 67531 31975 01006 10218 20089 48/// 70500
                   333 10346 20156 59003
                   555 00131=
201909120600 AAXX 12064 67531 31970 11103 10194 20045 48/// 70500 80002
                   333 10335 20119 5//// 81080
                   555 00101=
201909110900 AAXX 11094 67531 41975 01207 10286 20035 48/// 70500
                   333 5////=
201909091200 AAXX 09124 67531 41775 21006 10270 20062 48/// 70500 82100
                   333 5//// 82857=
201909090900 AAXX 09094 67531 NIL=
201909060600 AAXX 06064 67531 31975 01006 10186 20063 48/// 70500
                   333 10352 20150 58020
                   555 00110=
201909040900 AAXX 04094 67531 41975 20909 10284 20095 48/// 70500 80001
                   333 5//// 82081=
201909040600 AAXX 04064 67531 31975 10608 10220 20113 48/// 70500 80001
                   333 10348 20193 5//// 81081=
201909031200 AAXX 03124 67531 NIL=
201909021200 AAXX 02124 67531 NIL=
201909020900 AAXX 02094 67531 NIL=
201909020600 AAXX 02064 67531 31975 20000 10174 20051 48/// 70500 80002
                   333 10330 20129 58013 82081
                   555 00125=

################################################################################
#  SYNOPS from 67541, Kasempa (Zambia) | 13-32S | 025-51E | 1234 m
################################################################################
201909300600 AAXX 30064 67541 32980 20000 10180 20078 48/// 70222 80002
                   333 10360 20070 5//// 82080
                   555 00/// 20000=
201909271200 AAXX 27124 67541 42980 10705 10280 20091 48/// 80001
                   333 5//// 81080=
201909270900 AAXX 27094 67541 42980 10703 10251 20094 48/// 80001
                   333 81080=
201909270600 AAXX 27064 67541 32980 10803 10175 20071 48/// 80001
                   333 10314 20090 5//// 81080=
201909260900 AAXX 26094 67541 42980 70805 10235 20118 48/// 87030
                   333 5//// 87360=
201909260600 AAXX 26064 67541 32980 50804 10200 20124 48/// 85030
                   333 10350 20150 5//// 85360=
201909251200 AAXX 25124 67541 41975 00705 10325 20089 48/// 70500
                   333 5////=
201909250600 AAXX 25064 67541 31960 00604 10235 20084 48/// 70500
                   333 10370 20170 5////=
201909241200 AAXX 24124 67541 41975 00602 10350 20095 48/// 70500
                   333 5////=
201909240900 AAXX 24094 67541 41975 00705 10310 20075 48/// 70500
                   333 5////=
201909240600 AAXX 24064 67541 31975 00000 10235 20080 48/// 70500
                   333 10360 20100 5////=
201909231200 AAXX 23124 67541 41975 10603 10335 20106 48/// 70522 81100
                   333 5//// 81858=
201909230600 AAXX 23064 67541 31975 00000 10160 20115 48/// 70500
                   333 10342 20102 5////=
201909201200 AAXX 20124 67541 41975 00703 10330 20070 48/// 70500
                   333 5////=
201909200900 AAXX 20094 67541 41975 00803 10285 20075 48/// 70500
                   333 5////=
201909191200 AAXX 19124 67541 41975 10807 10310 20030 48/// 70522 80001
                   333 5//// 81080=
201909190600 AAXX 19064 67541 31975 20802 10200 20061 48/// 70522 80002
                   333 10334 20140 5//// 82080
                   555 00/// 20000=
201909180600 AAXX 18064 67541 31975 40804 10220 20098 48/// 70522 80004
                   333 10340 20140 5//// 84080=
201909171200 AAXX 17124 67541 41975 00804 10330 20122 48/// 70500
                   333 5////=
201909161200 AAXX 16124 67541 41970 30805 10310 20115 48/// 70500 83100
                   333 5//// 83858=
201909160900 AAXX 16094 67541 41960 00812 10290 20114 48/// 70500
                   333 5////=
201909160600 AAXX 16064 67541 31960 00805 10220 20098 48/// 70500
                   333 10354 20120 5////=
201909131200 AAXX 13124 67541 41970 20602 10335 20065 48/// 70522 80002
                   333 5//// 82080=
201909111200 AAXX 11124 67541 41970 30602 10320 20066 48/// 70522 80003
                   333 5//// 83080=
201909110900 AAXX 11094 67541 41970 30000 10285 20045 48/// 70522 80003
                   333 5//// 83080=
201909101200 AAXX 10124 67541 42980 20000 10290 20055 48/// 82100
                   333 5//// 82858=
201909091200 AAXX 09124 67541 42980 30603 10265 20036 48/// 83100
                   333 5//// 83858=
201909090900 AAXX 09094 67541 42980 20604 10235 20059 48/// 80002
                   333 5//// 82080=
201909060600 AAXX 06064 67541 32980 30502 10215 20079 48/// 80003
                   333 10340 20090 5//// 83080=
201909041200 AAXX 04124 67541 42980 40503 10320 20080 48/// 80004
                   333 5//// 84080=
201909040900 AAXX 04094 67541 42980 40502 10275 20096 48/// 80004
                   333 5//// 84080=
201909031200 AAXX 03124 67541 NIL=
201909021200 AAXX 02124 67541 41970 00807 10330 20098 48/// 70500
                   333 5////=
201909020900 AAXX 02094 67541 42980 20715 10290 20095 48/// 70222 80002
                   333 5//// 82080=

################################################################################
#  SYNOPS from 67543, Kabompo (Zambia) | 13-36S | 024-12E | 1075 m
################################################################################
201909271200 AAXX 27124 67543 NIL=
201909270900 AAXX 27094 67543 NIL=
201909260900 AAXX 26094 67543 NIL=
201909260600 AAXX 26064 67543 NIL=
201909251200 AAXX 25124 67543 NIL=
201909250600 AAXX 25064 67543 NIL=
201909241200 AAXX 24124 67543 NIL=
201909240600 AAXX 24064 67543 NIL=
201909231200 AAXX 23124 67543 NIL=
201909230600 AAXX 23064 67543 NIL=
201909200900 AAXX 20094 67543 NIL=
201909180600 AAXX 18064 67543 NIL=
201909161200 AAXX 16124 67543 NIL=
201909160900 AAXX 16094 67543 NIL=
201909160600 AAXX 16064 67543 NIL=
201909110900 AAXX 11094 67543 41968 00901 10286 20041 48/// 70500
                   333 59021=
201909091200 AAXX 09124 67543 41970 42102 10272 20024 48/// 70510 84030
                   333 5//// 84360=
201909090900 AAXX 09094 67543 41970 01204 10244 20044 48/// 70500
                   333 5////=
201909060600 AAXX 06064 67543 31968 00000 10194 20045 48/// 70500
                   333 10354 20172 58018=
201909041200 AAXX 04124 67543 41670 11801 10336 20065 48/// 70500 80001
                   333 59007 81085=
201909040900 AAXX 04094 67543 41970 40905 10296 20070 48/// 70522 80005
                   333 59003 84280=
201909031200 AAXX 03124 67543 41670 21202 10332 20114 48/// 70500 82100
                   333 58020 82840=
201909021200 AAXX 02124 67543 41670 20902 10348 20091 48/// 70500 81101
                   333 5//// 81840 82080=
201909020900 AAXX 02094 67543 41970 21002 10308 20065 48/// 70500 80001
                   333 5//// 82080=

################################################################################
#  SYNOPS from 67551, Solwezi (Zambia) | 12-11S | 026-23E | 1386 m
################################################################################
201910010600 AAXX 01064 67551 11970 72006 10198 20157 48512 69904 79596 81937
                   333 10319 20184 58009 81940 84362 86280
                   555 00/// 20000 91019=
201909300600 AAXX 30064 67551 31970 23006 10214 20100 48505 70522 80007
                   333 10317 20131 59016 82280
                   555 91018=
201909271200 AAXX 27124 67551 41970 11805 10280 20065 48525 70500 80001
                   333 59007 81080 91019=
201909270900 AAXX 27094 67551 41970 00907 10235 20071 48554 70500
                   333 58005 91023=
201909270600 AAXX 27064 67551 31970 01809 10156 20061 48563 70500
                   333 10261 20124 58015=
201909260900 AAXX 26094 67551 41670 30914 10235 20115 48550 70500 83500
                   333 58019 83645=
201909260600 AAXX 26064 67551 NIL=
201909251200 AAXX 25124 67551 NIL=
201909250600 AAXX 25064 67551 31965 21206 10202 20089 48530 70521
                   333 10329 20172 58003 82280 91021=
201909241200 AAXX 24124 67551 NIL=
201909240600 AAXX 24064 67551 31960 00905 10218 20074 48529 70500
                   333 10348 20146 58007 91020=
201909231200 AAXX 23124 67551 NIL=
201909230600 AAXX 23064 67551 31960 00000 10186 20136 48524 70500
                   333 10307 20134 59029 91020=
201909200900 AAXX 20094 67551 NIL=
201909200600 AAXX 20064 67551 31970 00903 10185 20055 48540 70500
                   333 10305 20119 59004
                   555 00/// 91021=
201909190600 AAXX 19064 67551 31965 70905 10186 20066 48548 70500 80007
                   333 10303 20131 58004 87280
                   555 00/// 91022=
201909180600 AAXX 18064 67551 31965 01307 10193 20085 48536 70500
                   333 10304 20165 59005 91021=
201909161200 AAXX 16124 67551 NIL=
201909160900 AAXX 16094 67551 NIL=
201909160600 AAXX 16064 67551 31970 00906 10199 20094 48525 70500
                   333 10322 20163 58000 91021=
201909120600 AAXX 12064 67551 31960 21504 10186 20087 48537 70522 82030
                   333 10304 20118 58002 91021=
201909100600 AAXX 10064 67551 31959 11304 10149 20049 48549 70500 81030
                   333 10261 20096 59020 81362 91023=
201909091200 AAXX 09124 67551 NIL=
201909090900 AAXX 09094 67551 NIL=
201909060600 AAXX 06064 67551 31970 00000 10186 20090 48560 70500
                   333 10309 20115 58020 91023=
201909040900 AAXX 04094 67551 NIL=
201909031200 AAXX 03124 67551 NIL=
201909021200 AAXX 02124 67551 NIL=
201909020900 AAXX 02094 67551 41970 40910 10282 20087 48543 70500 80006
                   333 58023 84280=
201909020600 AAXX 02064 67551 31970 60805 10192 20094 48529 70522 86030
                   333 10319 20139 58013 86362 91020=

################################################################################
#  SYNOPS from 67561, Ndola (Zambia) | 13-00S | 028-39E | 1269 m
################################################################################
201909301200 AAXX 30124 67561 41958 50605 10325 20081 48471 70422 83208
                   333 59017 555 91013=
201909300600 AAXX 30064 67561 31956 20000 10219 20079 48501 70411 80002
                   333 10329 20142 59025 82080
                   555 00/// 91017=
201909271200 AAXX 27124 67561 NIL=
201909270900 AAXX 27094 67561 41970 00705 10221 20077 48567 70500
                   333 59010 91024=
201909270600 AAXX 27064 67561 31960 00908 10161 20061 48569 70500
                   333 10237 20101 58005 91025=
201909260900 AAXX 26094 67561 41570 80905 10191 20103 48574 70522 885//
                   333 58038 88620 91025=
201909260600 AAXX 26064 67561 31459 51210 10180 20114 48566 70422 85508
                   333 10312 20170 58026 85610 85280 91025=
201909251200 AAXX 25124 67561 41750 41010 10307 20072 48518 70400
                   333 58012 84856 91018=
201909250900 AAXX 25094 67561 31950 01010 10280 20092 48546 70400
                   333 59002 91021=
201909250600 AAXX 25064 67561 31958 00705 10220 20096 48543 70400
                   333 10335 20160 58007 91022=
201909241200 AAXX 24124 67561 41958 01205 10328 20061 48507 70400
                   333 58001 91017=
201909240600 AAXX 24064 67561 31954 01106 10234 20091 48536 70400
                   333 10341 20152 58010 91021=
201909231200 AAXX 23124 67561 41958 11204 10327 20069 48506 70400 81100
                   333 58004 81859 91017=
201909230600 AAXX 23064 67561 31957 00707 10216 20090 48526 70400
                   333 10333 20168 58000 91020=
201909201200 AAXX 20124 67561 41959 40000 10306 20089 48513 70411 81100
                   333 59011 84858 91017=
201909200900 AAXX 20094 67561 41959 10272 10090 48543 70400
                   333 59004 555 91021=
201909200600 AAXX 20064 67561 31958 01501 10220 20086 48547 70400
                   333 10313 20170 59001
                   555 00/// 91022=
201909191200 AAXX 19124 67561 41959 01215 10058 48523 70400 80002
                   555 91019=
201909190600 AAXX 19064 67561 31958 01120 10224 20040 48557 70400
                   333 10311 20168 58000
                   555 91022=
201909180600 AAXX 18064 67561 31956 01210 10216 20099 48548 70400
                   333 10316 20153 58001 91022=
201909171200 AAXX 17124 67561 41857 21703 10306 20090 48516 70400 82100
                   333 59005 82857 91018=
201909161200 AAXX 16124 67561 41956 30912 10293 20063 48515 70400 83100
                   333 58003 83858 91018=
201909160900 AAXX 16094 67561 41757 1//// 10279 20103 48547 70400 81100
                   333 58007 81856 91021=
201909160600 AAXX 16064 67561 31956 41113 10225 20128 48543 70411 83032
                   333 10319 20164 58008 83360 83080 91022=
201909131200 AAXX 13124 67561 41958 11905 10327 20037 48510 70422 81100
                   333 59010 81858 91017=
201909121200 AAXX 12124 67561 41857 20000 10312 20059 48520 70400 82100
                   333 58007 82857 91018=
201909101200 AAXX 10124 67561 41959 62403 10275 20041 48524 70422 81108
                   333 59023 81857 85280 91019=
201909091200 AAXX 09124 67561 NIL=
201909090900 AAXX 09094 67561 41975 00911 10241 20062 48/// 70500
                   333 5////=
201909090600 AAXX 09064 67561 31959 30804 10163 20024 48574 70400 80002
                   333 10225 20094 59013 83080 91026=
201909060600 AAXX 06064 67561 31957 00706 10212 20068 48566 70400
                   333 10316 20164 58020 91024=
201909040900 AAXX 04094 67561 NIL=
201909040600 AAXX 04064 67561 31959 00905 10200 20104 48559 70400
                   333 59003 555 00/// 91023=
201909031200 AAXX 03124 67561 41759 51506 10276 20085 48530 70422 85200
                   333 58021 85856 91021=
201909021200 AAXX 02124 67561 NIL=
201909020900 AAXX 02094 67561 41957 20906 10287 20097 48547 70400 80001
                   333 58028 82080 555 91021=

################################################################################
#  SYNOPS from 67563, Kafironda (Zambia) | 12-36S | 028-07E | 1243 m
################################################################################
201910010600 AAXX 01064 67563 31450 10210 10163 48/// 70522 87500
                   333 10351 20175 87612
                   555 00169=
201909300600 AAXX 30064 67563 31950 00302 10220 20110 48/// 70500
                   333 10341 20087 59045
                   555 00067=
201909271200 AAXX 27124 67563 NIL=
201909270900 AAXX 27094 67563 NIL=
201909260900 AAXX 26094 67563 NIL=
201909260600 AAXX 26064 67563 31550 71112 10205 20130 48/// 70522 87500
                   333 10330 20165 5//// 87615
                   555 00145=
201909251200 AAXX 25124 67563 NIL=
201909250600 AAXX 25064 67563 31950 00812 10210 20127 48/// 70500
                   333 10350 20105 5////
                   555 00104=
201909241200 AAXX 24124 67563 NIL=
201909240600 AAXX 24064 67563 31950 01205 10149 20090 48/// 70500
                   333 10320 20110 5////
                   555 00105=
201909231200 AAXX 23124 67563 NIL=
201909230600 AAXX 23064 67563 31950 00503 10216 20120 48/// 70500
                   333 10331 20110 5////
                   555 00105=
201909200900 AAXX 20094 67563 NIL=
201909200600 AAXX 20064 67563 31960 00802 10212 20100 48/// 70500
                   333 10317 20103 58001
                   555 00101=
201909190600 AAXX 19064 67563 31980 01005 10225 20110 48/// 70500
                   333 10319 20096 59002
                   555 00091=
201909180600 AAXX 18064 67563 31950 30805 10222 20110 48/// 70500 80001
                   333 10320 20122 58002 83080
                   555 00110=
201909161200 AAXX 16124 67563 NIL=
201909160900 AAXX 16094 67563 NIL=
201909160600 AAXX 16064 67563 31930 60402 10202 20120 48/// 70520 86030
                   333 10336 20119 58004 86360
                   555 00114=
201909130600 AAXX 13064 67563 31940 00501 10193 20110 48/// 70500
                   333 10324 20123 58002
                   555 00110=
201909120600 AAXX 12064 67563 31930 00000 10177 20060 48/// 70500
                   333 10318 20099 59002
                   555 00060=
201909100600 AAXX 10064 67563 31960 60000 10131 20070 48/// 70520 86030
                   333 10288 20064 59028 86360
                   555 00066=
201909091200 AAXX 09124 67563 NIL=
201909090900 AAXX 09094 67563 NIL=
201909090600 AAXX 09064 67563 31960 30702 10135 20070 48/// 70500 80001
                   333 10284 20045 59011 83080
                   555 00046=
201909060600 AAXX 06064 67563 31940 00402 10166 20090 48/// 70500
                   333 10322 20091 58015
                   555 00086=
201909050600 AAXX 05064 67563 31940 00301 10180 20100 48/// 70500
                   333 10306 20082 59010
                   555 00082=
201909040900 AAXX 04094 67563 NIL=
201909040600 AAXX 04064 67563 31940 01602 10190 20120 48/// 70500
                   333 10310 20106 59003
                   555 00100=
201909031200 AAXX 03124 67563 NIL=
201909021200 AAXX 02124 67563 NIL=
201909020900 AAXX 02094 67563 NIL=
201909020600 AAXX 02064 67563 31940 00302 10206 20120 48/// 70500
                   333 10350 20109 58028
                   555 00108=

################################################################################
#  SYNOPS from 67571, Serenje (Zambia) | 13-14S | 030-13E | 1384 m
################################################################################
201910010600 AAXX 01064 67571 32965 13003 10201 20141 48/// 70500 81030
                   333 10337 20173 5//// 81360
                   555 00/// 20000=
201909300600 AAXX 30064 67571 32965 60603 10244 20117 48463 70511 80008
                   333 10323 20171 5//// 86280
                   555 00///=
201909271200 AAXX 27124 67571 NIL=
201909270900 AAXX 27094 67571 42980 01206 10194 20067 48/// 70500
                   333 5////=
201909270600 AAXX 27064 67571 12580 11208 10131 20066 48/// 69904 70500 81500
                   333 10265 20101 5//// 81620=
201909260900 AAXX 26094 67571 42480 81508 10144 20101 48/// 885//
                   333 5//// 88617=
201909260600 AAXX 26064 67571 11370 81508 10118 20108 48/// 75155 887//
                   333 10286 20117 5//// 88709=
201909251200 AAXX 25124 67571 42965 31506 10268 20091 48484 70500 83200
                   333 58014 83845=
201909250600 AAXX 25064 67571 32965 01208 10196 20086 48/// 70500
                   333 10306 20167 5////=
201909241200 AAXX 24124 67571 NIL=
201909240600 AAXX 24064 67571 32965 00909 10224 20092 48/// 70500
                   333 10306 20194 5////=
201909231200 AAXX 23124 67571 41960 01207 10310 20061 48545 70500
                   333 58006=
201909230600 AAXX 23064 67571 31960 00302 10240 20101 48483 70500
                   333 10312 20169 58024=
201909201200 AAXX 20124 67571 41758 11209 10273 20070 48474 70500 81100
                   333 59001 81850=
201909200900 AAXX 20094 67571 41689 10912 10244 20076 48493 70500 81100
                   333 59010 81830=
201909200600 AAXX 20064 67571 31960 01213 10206 20091 48502 70500
                   333 10287 20155 59002
                   555 00///=
201909191200 AAXX 19124 67571 42396 31812 10274 20014 48484 70511 80001
                   333 58001 83080=
201909180900 AAXX 18094 67571 42965 01505 10245 20062 48504 70500
                   333 58003=
201909180600 AAXX 18064 67571 32965 01205 10182 20087 48/// 70500
                   333 10281 20129 5////=
201909171200 AAXX 17124 67571 42965 01508 10270 20089 48474 70500
                   333 59003=
201909161200 AAXX 16124 67571 42665 11206 10270 20059 48474 70500 81200
                   333 58001 81848=
201909160900 AAXX 16094 67571 42665 51208 10248 20091 48/// 70500 85200
                   333 5//// 85838=
201909160600 AAXX 16064 67571 32965 01505 10197 20117 48/// 70500
                   333 10306 20170 5////=
201909131200 AAXX 13124 67571 41760 11208 10302 20041 48464 70500 81100
                   333 5//// 81850=
201909101200 AAXX 10124 67571 42975 61502 10256 20064 48474 70511 86030
                   333 59025 86361=
201909091200 AAXX 09124 67571 42680 11207 10225 20051 48503 70500 81100
                   333 59028 81840=
201909090900 AAXX 09094 67571 42980 11205 10193 20052 48/// 70500 80001
                   333 5//// 81081=
201909090600 AAXX 09064 67571 32980 11507 10142 20051 48/// 70500 80001
                   333 10200 20082 5//// 81081=
201909060900 AAXX 06094 67571 41858 21205 10244 20083 48524 70500 82500
                   333 58021 82657=
201909060600 AAXX 06064 67571 NIL=
201909050900 AAXX 05094 67571 42965 00903 10269 20079 48505 70500
                   333 59004=
201909041200 AAXX 04124 67571 42665 11506 10255 20080 48/// 70500 81100
                   333 5//// 81840=
201909040900 AAXX 04094 67571 42665 31205 10235 20095 48/// 70500 83200
                   333 5//// 83830=
201909031200 AAXX 03124 67571 42665 41506 10232 20125 48/// 70511 84500
                   333 5//// 84635=
201909021200 AAXX 02124 67571 42965 00906 10277 20111 48484 70500
                   333 58036=
201909020900 AAXX 02094 67571 42965 01206 10244 20126 48503 70500
                   333 58040=
201909020600 AAXX 02064 67571 32965 51205 10201 20110 48502 70500 80008
                   333 10321 20187 5//// 85281=

################################################################################
#  SYNOPS from 67575, Mkushi (Zambia) | 13-38-00S | 029-26-00E | 1237 m
################################################################################
201910010600 AAXX 01064 67575 31965 83603 10234 20148 48463 70522 81037
                   333 10361 20178 58003 81360 88278
                   555 00162=
201909300600 AAXX 30064 67575 31970 73601 10196 20064 48458 70522 80008
                   333 10330 20105 59027 87278
                   555 00100=
201909271200 AAXX 27124 67575 42680 11203 10253 20080 48/// 81100
                   333 5////=
201909270900 AAXX 27094 67575 42980 01206 10204 20070 48///
                   333 5////=
201909270600 AAXX 27064 67575 32980 01209 10154 20070 48///
                   333 10220 20114 5////
                   555 00107=
201909260900 AAXX 26094 67575 42480 81208 10165 20103 48537 885//
                   333 58041 88618=
201909260600 AAXX 26064 67575 31475 81309 10151 20107 48533 70522 885//
                   333 10290 20139 58032 88615
                   555 00160=
201909251200 AAXX 25124 67575 41765 10905 10283 20102 48/// 70500 81200
                   333 5//// 81850=
201909250900 AAXX 25094 67575 41965 00905 10264 20098 48508 70500
                   333 5////=
201909250600 AAXX 25064 67575 31965 01010 10212 20087 48509 70500
                   333 10327 20168 5////
                   555 00165=
201909241200 AAXX 24124 67575 41965 01305 10312 20045 48474 70500
                   333 5////=
201909240900 AAXX 24094 67575 41965 01209 10292 20090 48/// 70500
                   333 5////=
201909240600 AAXX 24064 67575 31965 00903 10233 2//// 48/// 70500
                   333 10345 20170 5////
                   555 00154=
201909231200 AAXX 23124 67575 41965 01203 10308 20078 48489 70500
                   333 5////=
201909230900 AAXX 23094 67575 41965 01203 10308 20078 48489 70500
                   333 5////=
201909230600 AAXX 23064 67575 31965 00901 10238 20109 48488 70500
                   333 10345 20155 59001
                   555 00144=
201909201200 AAXX 20124 67575 41670 10907 10288 20063 48482 70500 81100
                   333 5//// 81845=
201909200900 AAXX 20094 67575 41670 10908 10270 20075 48/// 70500 81100
                   333 5//// 81832=
201909191200 AAXX 19124 67575 41970 11205 10294 20020 48/// 70500 80001
                   333 5//// 81080=
201909190600 AAXX 19064 67575 31970 10203 10204 20048 48512 70500
                   333 10302 20135 58000
                   555 00132=
201909180900 AAXX 18094 67575 41965 71206 10264 20071 48512 70521 80008
                   333 58004 87280=
201909180600 AAXX 18064 67575 31965 01302 10192 20094 48511 70500
                   333 10303 20125 58005
                   555 00107=
201909171200 AAXX 17124 67575 41665 11106 10292 20098 48484 70500 81100
                   333 58000 81845=
201909161200 AAXX 16124 67575 41660 10906 10292 20083 48660 70500 81100
                   333 5//// 81830=
201909160900 AAXX 16094 67575 NIL=
201909160600 AAXX 16064 67575 31960 01305 10218 20100 48510 70500
                   333 10310 20187 5////
                   555 00183=
201909131200 AAXX 13124 67575 41965 01801 10335 20050 48471 70500
                   333 59005=
201909121200 AAXX 12124 67575 41670 11203 10324 20063 48476 70500 81100
                   333 58002 81838=
201909111200 AAXX 11124 67575 41970 12802 10306 20035 48473 70500 81830
                   333 5//// 81360=
201909110900 AAXX 11094 67575 41970 01203 10284 20001 48499 70500
                   333 5////=
201909101200 AAXX 10124 67575 41975 31203 10270 20032 48/// 70521 83070
                   333 5//// 83363=
201909091200 AAXX 09124 67575 42680 11303 10247 20057 48506 81101
                   333 5//// 81838 81080=
201909090900 AAXX 09094 67575 42980 21207 10210 20060 48536 80001
                   333 5//// 82080=
201909060600 AAXX 06064 67575 31970 01109 10207 20105 48524 70500
                   333 10314 20157 58019
                   555 00137=
201909041200 AAXX 04124 67575 41670 11206 10279 20085 48/// 70500 81100
                   333 5//// 81838=
201909040900 AAXX 04094 67575 41670 21202 10251 20105 48/// 70500 82200
                   333 5//// 82830=
201909031200 AAXX 03124 67575 41665 11209 10275 20117 48509 70500 81100
                   333 58026 81838 555 5////=
201909021200 AAXX 02124 67575 41965 00904 10303 20101 48486 70500
                   333 5////=
201909020900 AAXX 02094 67575 NIL=

################################################################################
#  SYNOPS from 67580, Msekera (Zambia) | 13-39S | 032-34E | 1025 m
################################################################################
201910010600 AAXX 01064 67580 31975 00606 10272 20161 48/// 70500
                   333 10363 20223 59003
                   555 00/// 20000=
201909271200 AAXX 27124 67580 NIL=
201909270900 AAXX 27094 67580 42980 01504 10230 20095 48///
                   333 5////=
201909270600 AAXX 27064 67580 32980 01208 10174 20086 48///
                   333 10247 20132 5////=
201909260900 AAXX 26094 67580 42580 71308 10156 20097 48/// 878//
                   333 5//// 81820 87622=
201909260600 AAXX 26064 67580 32480 81510 10150 20101 48/// 885//
                   333 10314 20095 5//// 88614=
201909251200 AAXX 25124 67580 NIL=
201909250900 AAXX 25094 67580 41665 11609 10275 20147 48/// 70500 81100
                   333 58012 81840=
201909250600 AAXX 25064 67580 31960 01214 10224 20146 48/// 70500
                   333 10340 20170 58016=
201909241200 AAXX 24124 67580 NIL=
201909240900 AAXX 24094 67580 41775 70907 10296 20118 48/// 70521 87100
                   333 5//// 87850=
201909240600 AAXX 24064 67580 31975 00604 10264 20108 48/// 70500
                   333 10354 20194 5////=
201909231200 AAXX 23124 67580 NIL=
201909230600 AAXX 23064 67580 NIL=
201909200900 AAXX 20094 67580 41670 61507 10275 20134 48/// 70510 86100
                   333 58006 86845=
201909200600 AAXX 20064 67580 31670 11508 10216 20012 48/// 70500 81100
                   333 10323 20164 58006 81830
                   555 00///=
201909190600 AAXX 19064 67580 31975 00905 10228 20115 48/// 70500
                   333 10337 20172 5////
                   555 00///=
201909180900 AAXX 18094 67580 41775 11206 10289 20111 48/// 70500 81100
                   333 5//// 81850=
201909180600 AAXX 18064 67580 31975 01206 10226 20132 48/// 70500
                   333 10324 20155 5////=
201909170600 AAXX 17064 67580 31970 11506 10225 20145 48/// 70500 80001
                   333 10315 20178 5//// 81080=
201909161200 AAXX 16124 67580 NIL=
201909160900 AAXX 16094 67580 NIL=
201909160600 AAXX 16064 67580 NIL=
201909120600 AAXX 12064 67580 31975 00902 10264 20182 48/// 70500
                   333 10334 20192 58003=
201909110900 AAXX 11094 67580 41770 13604 10288 20116 48/// 70500 81100
                   333 59018 81856=
201909091200 AAXX 09124 67580 NIL=
201909090900 AAXX 09094 67580 NIL=
201909060600 AAXX 06064 67580 31975 11604 10232 20114 48/// 70500 81030
                   333 10327 20159 58029 81361=
201909040900 AAXX 04094 67580 NIL=
201909040600 AAXX 04064 67580 31975 01206 10220 20121 48/// 70500
                   333 10304 20160 5////
                   555 00///=
201909031200 AAXX 03124 67580 NIL=
201909021200 AAXX 02124 67580 NIL=
201909020900 AAXX 02094 67580 41765 31206 10286 20156 48/// 70500 83100
                   333 58046 83850=
201909020600 AAXX 02064 67580 31960 01605 10214 20161 48/// 70500
                   333 10364 20178 58043=

################################################################################
#  SYNOPS from 67581, Chipata (Zambia) | 13-33S | 032-35E | 1028 m
################################################################################
201910010600 AAXX 01064 67581 31980 00605 10261 20133 48523 70500
                   333 10351 20234 58000
                   555 00/// 91017=
201909300900 AAXX 30094 67581 41970 01503 10321 20132 48522 70500
                   333 59026 91016=
201909300600 AAXX 30064 67581 31970 01604 10262 20146 48523 70500
                   333 10336 20194 59003
                   555 00/// 91017=
201909271200 AAXX 27124 67581 NIL=
201909270900 AAXX 27094 67581 NIL=
201909270600 AAXX 27064 67581 32980 01615 10175 20065 48586
                   333 10242 20138 5//// 91026=
201909260900 AAXX 26094 67581 NIL=
201909260600 AAXX 26064 67581 11570 61908 10152 20100 48/// 69904 70522 86511
                   333 10304 20143 5//// 86620=
201909251200 AAXX 25124 67581 NIL=
201909250600 AAXX 25064 67581 NIL=
201909241200 AAXX 24124 67581 NIL=
201909240600 AAXX 24064 67581 31970 01606 10256 20103 48/// 70500
                   333 10342 20223 5////=
201909231200 AAXX 23124 67581 NIL=
201909230600 AAXX 23064 67581 31970 00715 10260 20088 48/// 70500
                   333 10321 20228 5////=
201909200900 AAXX 20094 67581 41670 21406 10285 20114 48583 70500
                   333 58004 91022=
201909200600 AAXX 20064 67581 31970 01609 10220 20100 48572 70500
                   333 10312 20184 58006
                   555 00/// 91023=
201909191200 AAXX 19124 67581 41970 70608 10303 20096 48548 70522 8703/
                   333 58004 87360 91018=
201909190600 AAXX 19064 67581 31975 00810 10252 20071 48572 70500
                   333 10321 20194 5////
                   555 91022=
201909180900 AAXX 18094 67581 41970 21604 10292 20096 48/// 70500 82100
                   333 5//// 82340=
201909180600 AAXX 18064 67581 31970 01406 10211 20122 48/// 70500
                   333 10314 20178 5////=
201909161200 AAXX 16124 67581 41670 40907 10289 20102 48549 70500 84100
                   333 5//// 84850 91019=
201909160900 AAXX 16094 67581 41670 31405 10291 20086 48572 70500 83100
                   333 5//// 83842 91022=
201909160600 AAXX 16064 67581 31970 01604 10236 20115 48567 70500
                   333 10315 20199 5//// 91022=
201909120600 AAXX 12064 67581 31970 01604 10252 20138 48561 70500
                   333 10325 20221 58004 91021=
201909110900 AAXX 11094 67581 41975 00408 10282 20094 48566 70500
                   333 59018 91020=
201909101200 AAXX 10124 67581 41670 20904 10298 20067 48543 70500 82100
                   333 59029 82845 91018=
201909091200 AAXX 09124 67581 42780 21808 10260 20048 48565 82100
                   333 59029 82856 91022=
201909090900 AAXX 09094 67581 42680 31908 10234 20055 48593 81101
                   333 5//// 81840 83080 91026=
201909060600 AAXX 06064 67581 31970 01206 10236 20088 48588 70500
                   333 10312 20182 58027 58027 91024=
201909050600 AAXX 05064 67581 31970 01603 10249 20086 48566 70500
                   333 10302 20168 59007 91022=
201909040900 AAXX 04094 67581 NIL=
201909031200 AAXX 03124 67581 NIL=
201909021200 AAXX 02124 67581 41670 01406 10300 20136 48551 70500 82100
                   333 58842 91019=
201909020900 AAXX 02094 67581 41970 21403 10286 21403 48582 70500 82100
                   333 58043 82835 91022=
201909020600 AAXX 02064 67581 32970 01604 10226 20150 48561 70500
                   333 10355 20201 58039 91022=

################################################################################
#  SYNOPS from 67583, Lundazi (Zambia) | 12-17S | 033-12E | 1143 m
################################################################################
201910010600 AAXX 01064 67583 31940 10302 10256 20164 48/// 70500 80001
                   333 10356 2//// 5//// 81080
                   555 00///=
201909300600 AAXX 30064 67583 31940 00802 10256 20154 48/// 70500
                   333 10340=
201909271200 AAXX 27124 67583 NIL=
201909270900 AAXX 27094 67583 41940 02204 10243 20096 48/// 70500
                   333 5////=
201909270600 AAXX 27064 67583 31940 31204 10172 20086 48/// 70500 83030
                   333 10238 2//// 5//// 83359=
201909260900 AAXX 26094 67583 41640 81004 10194 20119 48/// 70522 888//
                   333 5//// 83830 86631=
201909260600 AAXX 26064 67583 31540 52704 10188 20114 48/// 70521 85530
                   333 10300 2//// 5//// 85615 81359=
201909251200 AAXX 25124 67583 41640 51204 10282 20124 48/// 70522 85100
                   333 5//// 85840=
201909250900 AAXX 25094 67583 41640 41109 10282 20135 48/// 70500 84100
                   333 5//// 84840=
201909250600 AAXX 25064 67583 31940 01708 10220 20148 48/// 70500
                   333 10318 2//// 5////=
201909241200 AAXX 24124 67583 NIL=
201909240900 AAXX 24094 67583 41640 10904 10292 20117 48/// 70500 81100
                   333 5//// 84840=
201909240600 AAXX 24064 67583 31940 01204 10248 20124 48/// 70500
                   333 10342 2//// 5////=
201909231200 AAXX 23124 67583 NIL=
201909230600 AAXX 23064 67583 31950 00902 10250 20122 48/// 70500
                   333 10342 2//// 5////=
201909200900 AAXX 20094 67583 NIL=
201909200600 AAXX 20064 67583 31940 01204 10218 20142 48/// 70500
                   333 10302 2//// 5////=
201909180900 AAXX 18094 67583 41640 21502 10274 20148 48/// 70500 81101
                   333 5//// 81848 81080=
201909180600 AAXX 18064 67583 31940 11305 10210 20140 48/// 70500 80001
                   333 10300 2//// 5//// 81080=
201909171200 AAXX 17124 67583 41750 21203 10282 20142 48/// 70500 82100
                   333 5//// 82856=
201909161200 AAXX 16124 67583 41650 51008 10294 20127 48/// 70521 85100
                   333 5//// 85840=
201909160900 AAXX 16094 67583 41650 20907 10288 20115 48/// 70500 82100
                   333 5//// 82840=
201909160600 AAXX 16064 67583 31950 01506 10220 20140 48/// 70500
                   333 10314 2//// 5////=
201909101200 AAXX 10124 67583 41850 20000 10292 20112 48/// 70500 81101
                   333 5//// 81857 81080=
201909091200 AAXX 09124 67583 41856 50000 10272 20105 48/// 70521 81105
                   333 5//// 81857 85280=
201909090900 AAXX 09094 67583 NIL=
201909060600 AAXX 06064 67583 31950 11204 10212 20112 48/// 70500 81030
                   333 10312 2//// 5//// 81359=
201909040900 AAXX 04094 67583 NIL=
201909031200 AAXX 03124 67583 NIL=
201909021200 AAXX 02124 67583 NIL=
201909020900 AAXX 02094 67583 41650 10904 10284 20148 48/// 70500 81100
                   333 5//// 81840=
201909020600 AAXX 02064 67583 31950 01802 10216 20151 48/// 70500
                   333 10354 2//// 5////=

################################################################################
#  SYNOPS from 67599, Mfuwe (Zambia) | 13-16S | 031-56E | 568 m
################################################################################
201909271200 AAXX 27124 67599 NIL=
201909270900 AAXX 27094 67599 NIL=
201909270600 AAXX 27064 67599 32980 01508 10210 20071 48594
                   333 10333 20167 59009 91025=
201909260900 AAXX 26094 67599 NIL=
201909260600 AAXX 26064 67599 NIL=
201909251200 AAXX 25124 67599 NIL=
201909250600 AAXX 25064 67599 31957 01505 10259 20129 48567 70500
                   333 10370 20200 58013
                   555 00200 91020=
201909241200 AAXX 24124 67599 NIL=
201909240600 AAXX 24064 67599 31960 00908 10275 20096 48558 70500
                   333 10395 20200 58013
                   555 00182 91019=
201909231200 AAXX 23124 67599 NIL=
201909230600 AAXX 23064 67599 31960 00708 10275 20107 48536 70500
                   333 10386 20180 58000 91017=
201909200900 AAXX 20094 67599 NIL=
201909200600 AAXX 20064 67599 31959 01409 10248 20091 48569 70500
                   333 10360 20210 58006
                   555 00200 91021=
201909180600 AAXX 18064 67599 31958 01508 10246 20112 48560 70500
                   333 10360 20196 58000
                   555 00188 91020=
201909161200 AAXX 16124 67599 NIL=
201909160900 AAXX 16094 67599 NIL=
201909160600 AAXX 16064 67599 31910 01803 10250 20127 48554 70500
                   333 10381 20160 58013
                   555 00168 91020=
201909120600 AAXX 12064 67599 31958 21503 10243 20106 48552 70500 80001
                   333 10365 20172 58005 82080
                   555 00165=
201909091200 AAXX 09124 67599 NIL=
201909090900 AAXX 09094 67599 NIL=
201909060600 AAXX 06064 67599 NIL=
201909040900 AAXX 04094 67599 NIL=
201909031200 AAXX 03124 67599 NIL=
201909021200 AAXX 02124 67599 NIL=
201909020900 AAXX 02094 67599 NIL=

################################################################################
#  SYNOPS from 67625, Kalabo (Zambia) | 14-51S | 022-42E | 1033 m
################################################################################
201909300600 AAXX 30064 67625 41956 73105 10202 20038 48/// 70544 80004
                   333 10350 20119 59022 87075
                   555 00///=
201909271200 AAXX 27124 67625 42982 51017 10300 20042 48/// 80004
                   333 5//// 85075=
201909270900 AAXX 27094 67625 42982 01011 10260 20057 48///
                   333 5////=
201909270600 AAXX 27064 67625 32982 21014 10175 20060 48/// 80001
                   333 10299 20135 58020 82075=
201909260900 AAXX 26094 67625 NIL=
201909260600 AAXX 26064 67625 NIL=
201909251200 AAXX 25124 67625 NIL=
201909250600 AAXX 25064 67625 NIL=
201909241200 AAXX 24124 67625 41980 71208 10360 20056 48/// 70544 80004
                   333 58005 87075=
201909240900 AAXX 24094 67625 41980 71413 10333 20052 48/// 70544 80004
                   333 58010 87075=
201909240600 AAXX 24064 67625 31982 71314 10230 20002 48/// 70542 80004
                   333 10375 20170 58009 87075=
201909231200 AAXX 23124 67625 41980 71508 10370 20079 48/// 70544 81034
                   333 5//// 81360 87075=
201909230600 AAXX 23064 67625 31975 73403 10225 20105 48/// 70542 80004
                   333 10357 20166 87075=
201909201200 AAXX 20124 67625 42982 50908 10340 20045 48/// 80004
                   333 5//// 85075=
201909200900 AAXX 20094 67625 NIL=
201909190600 AAXX 19064 67625 32982 51309 10208 20040 48/// 80004
                   333 10345 20166 85075
                   555 00///=
201909180600 AAXX 18064 67625 NIL=
201909171200 AAXX 17124 67625 41978 71121 10338 20026 48/// 70542 80004
                   333 58006 87075=
201909161200 AAXX 16124 67625 41965 71312 10355 20001 48/// 70544 80004
                   333 87075=
201909160900 AAXX 16094 67625 41960 70916 10325 20010 48/// 70544 80004
                   333 5//// 87075=
201909160600 AAXX 16064 67625 31960 71310 10220 20062 48/// 70542 80004
                   333 10366 20190 58000 87075=
201909131200 AAXX 13124 67625 41/65 91709 10357 21003 48/// 70544 8////
                   333 59001=
201909121200 AAXX 12124 67625 41/75 90903 10340 20026 48/// 70544 8////
                   333 59009=
201909111200 AAXX 11124 67625 42982 72103 10320 20031 48/// 80004
                   333 5//// 87075=
201909110900 AAXX 11094 67625 42982 60910 10271 21006 48/// 80004
                   333 59025 86075=
201909101200 AAXX 10124 67625 42982 63004 10289 20006 48/// 80004
                   333 59023 86075=
201909091200 AAXX 09124 67625 42982 00906 10310 21059 48///
                   333 5////=
201909090900 AAXX 09094 67625 42982 00908 10245 21002 48///=
201909060600 AAXX 06064 67625 32982 00906 10190 20044 48///
                   333 10350 20160 58012=
201909041200 AAXX 04124 67625 42982 70906 10335 20094 48/// 80004
                   333 5//// 87075=
201909040900 AAXX 04094 67625 42982 20616 10289 20083 48/// 80004
                   333 58000 82075=
201909031200 AAXX 03124 67625 42982 51611 10335 20106 48/// 81034
                   333 58007 81360 85075=
201909021200 AAXX 02124 67625 42982 51113 10340 21015 48/// 80004
                   333 85075=
201909020900 AAXX 02094 67625 42982 51209 10286 21050 48/// 82034
                   333 82361 85075=

################################################################################
#  SYNOPS from 67633, Mongu (Zambia) | 15-15S | 023-09E | 1052 m
################################################################################
201910010600 AAXX 01064 67633 31980 01505 10220 20015 48510 70500
                   333 10373 20165 58013 91017=
201909271200 AAXX 27124 67633 NIL=
201909270900 AAXX 27094 67633 NIL=
201909260900 AAXX 26094 67633 41680 50904 10245 20123 48572 70522 83101
                   333 58039 83840 82080 91023=
201909260600 AAXX 26064 67633 31980 20908 10205 20112 48560 70522 80001
                   333 10356 20191 58034 82080
                   555 00180 91023=
201909251200 AAXX 25124 67633 NIL=
201909250600 AAXX 25064 67633 NIL=
201909241200 AAXX 24124 67633 42980 01804 1//// 20053 48489
                   333 59011 91013=
201909240600 AAXX 24064 67633 32980 21805 10235 20013 48519 80001
                   333 10378 20194 58015 82080
                   555 00167 91018=
201909231200 AAXX 23124 67633 41680 21502 10360 20079 48507 70522 82100
                   333 59029 82840 91014=
201909230600 AAXX 23064 67633 31980 01002 10217 20085 48509 70500
                   333 10363 20158 58005
                   555 00126 91017=
201909200900 AAXX 20094 67633 41980 00818 10300 20010 48544 70500
                   333 59009 91019=
201909200600 AAXX 20064 67633 31980 20130 10220 20005 48537 70522 80001
                   333 10349 20160 59011 82080
                   555 00140 20000 91020=
201909190600 AAXX 19064 67633 32980 10904 10228 20062 48575 70200 81001
                   333 10357 20155 58007 81080
                   555 00140 91024=
201909180900 AAXX 18094 67633 42980 00910 10310 20064 48550
                   333 58004 91020=
201909180600 AAXX 18064 67633 32980 00905 10215 20076 48535
                   333 10351 20155 58008
                   555 00128=
201909171200 AAXX 17124 67633 41980 10814 10339 20027 48524 70522 80001
                   333 59006 81080 91016=
201909161200 AAXX 16124 67633 42980 00905 10346 20026 48526
                   333 58012 91017=
201909160900 AAXX 16094 67633 42980 00909 10325 20001 48543
                   333 58009 91019=
201909160600 AAXX 16064 67633 32975 00906 10222 20040 48535
                   333 10371 20196 58022
                   555 00176 91020=
201909131200 AAXX 13124 67633 42980 01804 10355 20021 48516
                   333 59006 91016=
201909120600 AAXX 12064 67633 32980 00905 10195 21014 48522
                   333 10331 20090 58003
                   555 00105 91019=
201909111200 AAXX 11124 67633 42980 03601 10320 20010 48517
                   333 59016 91016=
201909110900 AAXX 11094 67633 42980 00806 10280 20005 48541
                   333 59025 91019=
201909091200 AAXX 09124 67633 42980 00803 10270 20049 48553
                   333 59013 91021=
201909090900 AAXX 09094 67633 NIL=
201909090600 AAXX 09064 67633 32980 00905 10160 20061 48554
                   333 10267 20116 59033
                   555 00099 91023=
201909060600 AAXX 06064 67633 32980 00905 10210 20044 48543
                   333 10358 20180 58021
                   555 00185 91021=
201909050600 AAXX 05064 67633 32980 00910 10232 20063 48522
                   333 10349 20180 59034
                   555 00185 91019=
201909040900 AAXX 04094 67633 NIL=
201909040600 AAXX 04064 67633 32980 00905 10210 20120 48553
                   333 10346 20180 59007
                   555 00184 91022=
201909031200 AAXX 03124 67633 NIL=
201909021200 AAXX 02124 67633 NIL=
201909020900 AAXX 02094 67633 NIL=

################################################################################
#  SYNOPS from 67641, Kaoma (Zambia) | 14-48S | 024-48E | 1213 m
################################################################################
201910010600 AAXX 01064 67641 31975 01902 10217 20042 48536 70500
                   333 10364 20127 58052
                   555 00/// 91020=
201909271200 AAXX 27124 67641 NIL=
201909270900 AAXX 27094 67641 NIL=
201909270600 AAXX 27064 67641 31975 20904 10161 20068 48560 70500 80001
                   333 10270 20114 58002 82080 91023=
201909260900 AAXX 26094 67641 NIL=
201909260600 AAXX 26064 67641 31675 71204 10176 20108 48557 70522 84530
                   333 10340 20176 58037 84640 87360 91023=
201909251200 AAXX 25124 67641 41956 01314 10327 20103 48519 70500
                   333 58015 91016=
201909250900 AAXX 25094 67641 41956 01308 10306 20116 48539 70500
                   333 58012 91018=
201909250600 AAXX 25064 67641 31965 01004 10226 20102 48532 70500
                   333 10367 20163 58016 91020=
201909241200 AAXX 24124 67641 41956 01406 10356 20098 48505 70500
                   333 59003 91015=
201909240900 AAXX 24094 67641 41965 01304 10334 20098 48527 70500
                   333 59001 91017=
201909240600 AAXX 24064 67641 31956 03606 10222 20060 48522 70500
                   333 10365 20168 58009 91018=
201909231200 AAXX 23124 67641 41975 00603 10355 20118 48511 70500
                   333 5//// 91015=
201909230600 AAXX 23064 67641 31956 00000 10189 20114 48509 70500
                   333 10350 20156 58000 91017=
201909201200 AAXX 20124 67641 41960 01207 10326 20077 48521 70500
                   333 59008 91016=
201909200900 AAXX 20094 67641 41960 01213 10273 20101 48523 70500
                   333 59019 91018=
201909200600 AAXX 20064 67641 31960 00000 10189 20045 48539 70500
                   333 10342 20132 59005
                   555 00/// 91021=
201909191200 AAXX 19124 67641 41965 11306 10333 20047 48530 70500 80001
                   333 81080 91017=
201909190900 AAXX 19094 67641 41965 31008 10300 20034 48549 70500 80001
                   333 58003 83080 91021=
201909181200 AAXX 18124 67641 41960 00614 10300 20086 48549 70500
                   333 59002 91020=
201909180600 AAXX 18064 67641 31958 01012 10207 20072 48536 70500
                   333 10340 20153 59004 91020=
201909171200 AAXX 17124 67641 41958 00814 10326 20082 48522 70500
                   333 58004 91016=
201909161200 AAXX 16124 67641 41758 11012 10333 20110 48519 70500 81100
                   333 5//// 81850 91016=
201909160900 AAXX 16094 67641 NIL=
201909160600 AAXX 16064 67641 31958 01002 10211 20084 48534 70500
                   333 10351 20175 58019 91020=
201909121200 AAXX 12124 67641 41960 01406 10336 20070 48518 70500
                   333 59004 91016=
201909120900 AAXX 12094 67641 41958 00907 10306 20054 48537 70500
                   333 59003 91018=
201909091200 AAXX 09124 67641 NIL=
201909090900 AAXX 09094 67641 NIL=
201909061200 AAXX 06124 67641 41960 01209 10330 20110 48537 70500
                   333 58020 91018=
201909060600 AAXX 06064 67641 31960 00000 10180 20069 48545 70500
                   333 10344 20139 58023 91022=
201909050900 AAXX 05094 67641 41960 01206 10297 20091 48541 70500
                   333 91020=
201909040900 AAXX 04094 67641 41975 01003 10291 20084 48554 70500
                   333 59005 91021=
201909031200 AAXX 03124 67641 NIL=
201909021200 AAXX 02124 67641 NIL=
201909020900 AAXX 02094 67641 NIL=
201909020600 AAXX 02064 67641 31975 30901 10179 20026 48509 70521 83030
                   333 10344 20159 58015 83360 91017=

################################################################################
#  SYNOPS from 67655, Mumbwa (Zambia) | 15-04S | 027-11E | 1216 m
################################################################################
201909271200 AAXX 27124 67655 NIL=
201909270900 AAXX 27094 67655 NIL=
201909260900 AAXX 26094 67655 NIL=
201909260600 AAXX 26064 67655 NIL=
201909251200 AAXX 25124 67655 NIL=
201909250600 AAXX 25064 67655 NIL=
201909241200 AAXX 24124 67655 NIL=
201909240600 AAXX 24064 67655 NIL=
201909231200 AAXX 23124 67655 NIL=
201909230600 AAXX 23064 67655 NIL=
201909200900 AAXX 20094 67655 NIL=
201909180600 AAXX 18064 67655 NIL=
201909161200 AAXX 16124 67655 NIL=
201909160900 AAXX 16094 67655 NIL=
201909160600 AAXX 16064 67655 NIL=
201909100600 AAXX 10064 67655 31950 00000 10187 20018 48563 70500
                   333 10259 20023 59029 91023=
201909091200 AAXX 09124 67655 NIL=
201909090900 AAXX 09094 67655 NIL=
201909060600 AAXX 06064 67655 NIL=
201909050600 AAXX 05064 67655 31958 10712 10228 20054 48549 70500 80001
                   333 10305 20076 59018 81080 91021=
201909040900 AAXX 04094 67655 NIL=
201909040600 AAXX 04064 67655 31958 00000 10195 20109 48563 70500
                   333 10331 20091 59003
                   555 00/// 91023=
201909031200 AAXX 03124 67655 NIL=
201909021200 AAXX 02124 67655 NIL=
201909020900 AAXX 02094 67655 NIL=
201909020600 AAXX 02064 67655 31957 10905 10225 20109 48536 70500 81030
                   333 10340 20132 58020 81361 91021=

################################################################################
#  SYNOPS from 67659, Kafue Polder (Zambia) | 15-46S | 027-55E | 978 m
################################################################################
201910010600 AAXX 01064 67659 31975 00904 10236 20113 48/// 70500
                   333 10368 20112 58000
                   555 00/// 20000=
201909271200 AAXX 27124 67659 NIL=
201909270900 AAXX 27094 67659 42980 11307 10220 20092 48/// 81030
                   333 5//// 81360=
201909270600 AAXX 27064 67659 32980 01008 10178 20086 48///
                   333 10281 20156 5////=
201909260900 AAXX 26094 67659 42580 40910 10205 20110 48/// 81530
                   333 5//// 81620 84360=
201909260600 AAXX 26064 67659 32480 71713 10164 20112 48/// 8257/
                   333 10293 20156 5//// 82615 86459=
201909251200 AAXX 25124 67659 42980 11410 10283 20210 48/// 81030
                   333 5//// 81360=
201909250600 AAXX 25064 67659 32980 01009 10237 20100 48///
                   333 10346 20180 58015=
201909241200 AAXX 24124 67659 42980 01310 10340 20142 48///
                   333 58013=
201909240900 AAXX 24094 67659 41975 01011 10214 20132 48/// 70500
                   333 58015=
201909240600 AAXX 24064 67659 31975 00907 10262 20117 48/// 70500
                   333 10364 20180 58015=
201909231200 AAXX 23124 67659 42980 01706 10357 20114 48///
                   333 5////=
201909230600 AAXX 23064 67659 NIL=
201909200900 AAXX 20094 67659 NIL=
201909200600 AAXX 20064 67659 32980 01809 10222 20099 48/// 70222
                   333 10325 20130 59003
                   555 00/// 20000=
201909191200 AAXX 19124 67659 42980 10308 10315 20083 48/// 70222
                   333 59004=
201909190600 AAXX 19064 67659 32980 01216 1//// 20107 48/// 70222
                   333 10324 20116 58004
                   555 00/// 20000=
201909180900 AAXX 18094 67659 42980 01509 10280 20119 48///
                   333 58004=
201909180600 AAXX 18064 67659 31750 00907 10227 20123 48/// 70500
                   333 10326 20161 59002=
201909171200 AAXX 17124 67659 42980 00807 10316 20122 48///
                   333 59002=
201909161200 AAXX 16124 67659 42980 00905 10318 20086 48///
                   333 5////=
201909160900 AAXX 16094 67659 42980 01507 10290 20//0 48///
                   333 5////=
201909160600 AAXX 16064 67659 NIL=
201909131200 AAXX 13124 67659 41975 00905 10350 20100 48/// 70500
                   333 59012=
201909130600 AAXX 13064 67659 31970 03004 10190 20086 48/// 70500
                   333 10342 20118 59002=
201909121200 AAXX 12124 67659 41975 02406 10337 20061 48/// 70500
                   333 58001=
201909120600 AAXX 12064 67659 31975 02504 10190 20042 48/// 70500
                   333 10331 20116 58001=
201909111200 AAXX 11124 67659 42980 22706 10321 20070 48/// 80001
                   333 59015 82080=
201909110900 AAXX 11094 67659 42980 10906 10310 20062 48/// 80001
                   333 59029 81080=
201909101200 AAXX 10124 67659 42980 02505 10294 20049 48///
                   333 59040=
201909091200 AAXX 09124 67659 42680 11503 10248 20087 48/// 81100
                   333 5//// 81845=
201909090900 AAXX 09094 67659 42580 11305 10217 20090 48/// 81100
                   333 5//// 81830=
201909090600 AAXX 09064 67659 32980 01404 10165 20082 48///
                   333 10235 20080 5////=
201909060600 AAXX 06064 67659 31980 01408 10215 20074 48/// 70500
                   333 10315 20100 5////=
201909040900 AAXX 04094 67659 NIL=
201909040600 AAXX 04064 67659 32980 01205 10205 20135 48/// 70222
                   333 10300 20110 58000
                   555 00/// 20000=
201909031200 AAXX 03124 67659 NIL=
201909021200 AAXX 02124 67659 NIL=
201909020900 AAXX 02094 67659 NIL=

################################################################################
#  SYNOPS from 67662, Kabwe Agric (Zambia) | 14-24S | 028-30E | 1165 m
################################################################################
201909300600 AAXX 30064 67662 31975 00000 10233 20055 70500 80001
                   333 10330 20040 555 00///=
201909271200 AAXX 27124 67662 NIL=
201909270900 AAXX 27094 67662 NIL=
201909270600 AAXX 27064 67662 31980 01213 10162 20081 48///
                   333 10232 20076 5////=
201909260900 AAXX 26094 67662 NIL=
201909260600 AAXX 26064 67662 NIL=
201909251200 AAXX 25124 67662 NIL=
201909250600 AAXX 25064 67662 NIL=
201909241200 AAXX 24124 67662 NIL=
201909240600 AAXX 24064 67662 31975 01007 10240 20099 48/// 70500
                   333 10350 20136 5////=
201909231200 AAXX 23124 67662 NIL=
201909230600 AAXX 23064 67662 31975 01007 10240 20064 48/// 70500
                   333 10332 20108 5////=
201909200900 AAXX 20094 67662 NIL=
201909190600 AAXX 19064 67662 31975 01402 10229 20055 70500
                   333 10310 20104 555 00///=
201909180600 AAXX 18064 67662 31975 01102 10207 20119 48/// 70500
                   333 10315 20110 5////=
201909161200 AAXX 16124 67662 NIL=
201909160900 AAXX 16094 67662 NIL=
201909160600 AAXX 16064 67662 31975 20903 10223 20100 48/// 70500 80001
                   333 10345 20094 82080=
201909120600 AAXX 12064 67662 31975 00000 10210 20016 48/// 70500
                   333 10322 20074 5////=
201909100600 AAXX 10064 67662 31975 00000 10180 20035 48/// 70500
                   333 10255 20060 5////=
201909091200 AAXX 09124 67662 NIL=
201909090900 AAXX 09094 67662 NIL=
201909060600 AAXX 06064 67662 31975 01004 10210 20062 48/// 70500
                   333 10312 20102 5////=
201909050900 AAXX 05094 67662 41975 00000 10275 20081 48/// 70500
                   333 5////=
201909050600 AAXX 05064 67662 31975 00000 10195 20075 48/// 70500
                   333 10295 20074 5////=
201909040900 AAXX 04094 67662 NIL=
201909040600 AAXX 04064 67662 31975 01203 10185 20106 48/// 70500
                   333 10300 20090 5////=
201909031200 AAXX 03124 67662 NIL=
201909021200 AAXX 02124 67662 NIL=
201909020900 AAXX 02094 67662 NIL=

################################################################################
#  SYNOPS from 67663, Kabwe (Zambia) | 14-27S | 028-28E | 1206 m
################################################################################
201909271200 AAXX 27124 67663 NIL=
201909270900 AAXX 27094 67663 NIL=
201909260900 AAXX 26094 67663 NIL=
201909260600 AAXX 26064 67663 NIL=
201909251200 AAXX 25124 67663 NIL=
201909250600 AAXX 25064 67663 NIL=
201909241200 AAXX 24124 67663 NIL=
201909240600 AAXX 24064 67663 31970 00605 1//// 20071 48534 70500
                   333 10347 20199 58020=
201909231200 AAXX 23124 67663 41970 01406 10333 20066 48499 70500
                   333 58005=
201909230600 AAXX 23064 67663 31970 00606 10239 20096 48519 70500
                   333 10332 20184 59004=
201909200900 AAXX 20094 67663 41970 01007 10261 20100 48544 70500
                   333 59001=
201909200600 AAXX 20064 67663 31970 01115 10215 20104 48543 70500
                   333 10307 20158 59003
                   555 00280=
201909190600 AAXX 19064 67663 31970 00812 10223 20067 48547 70500
                   333 10308 20155 58004
                   555 00294=
201909180600 AAXX 18064 67663 31970 01014 10207 20104 48542 70500
                   333 10311 20158 59002=
201909170600 AAXX 17064 67663 31970 00917 10213 20144 48544 70500
                   333 10310 20172 58007=
201909161200 AAXX 16124 67663 NIL=
201909160900 AAXX 16094 67663 NIL=
201909160600 AAXX 16064 67663 NIL=
201909131200 AAXX 13124 67663 41970 01304 1//// 20069 48515 70500
                   333 58000=
201909121200 AAXX 12124 67663 41970 01503 10321 20103 48514 70500
                   333 58004=
201909120600 AAXX 12064 67663 31970 00804 10213 20026 48531 70500
                   333 10314 20159 59025=
201909110900 AAXX 11094 67663 41970 10807 10278 20041 48532 70500 80002
                   333 59019 81080=
201909100600 AAXX 10064 67663 31970 00905 10176 20043 48568 70500
                   333 10252 20106 59033=
201909091200 AAXX 09124 67663 NIL=
201909090900 AAXX 09094 67663 NIL=
201909060600 AAXX 06064 67663 31970 00917 10207 20055 48556 70500
                   333 10310 20158 58021=
201909050600 AAXX 05064 67663 31970 00910 10202 20063 48534 70500
                   333 10292 20129 59015=
201909040900 AAXX 04094 67663 41970 00707 10251 20099 48554 70500
                   333 59001=
201909040600 AAXX 04064 67663 31970 00713 10188 20107 48540 70500
                   333 10291 20141 59003
                   555 00245=
201909031200 AAXX 03124 67663 NIL=
201909021200 AAXX 02124 67663 41970 00713 10298 20137 48522 70500
                   333 58029=
201909020900 AAXX 02094 67663 41970 00813 10260 20137 48537 70500
                   333 58032=

################################################################################
#  SYNOPS from 67665, Lusaka Internationalairport (Zambia) | 15-19S | 028-27E | 1152 m
################################################################################
201910010600 AAXX 01064 67665 31959 01404 10257 20042 48509 70500
                   333 10//0 20//0 59002 91017=
201909301200 AAXX 30124 67665 41958 03404 10337 21052 48485 70500
                   333 59023 91013=
201909300900 AAXX 30094 67665 41959 00306 10312 21000 70500
                   333 58009 91017=
201909300600 AAXX 30064 67665 31959 01104 10245 21044 70200
                   333 10//0 20//0 59030 91017=
201909300300 AAXX 30034 67665 42980 01902 10133 20002 48481
                   333 59041=
201909291800 AAXX 29184 67665 42980 01304 10239 21035 48496
                   333 59031=
201909291500 AAXX 29154 67665 42980 02502 10310 21075 48492
                   333 59029=
201909290600 AAXX 29064 67665 31980 01205 10217 20021 48540 70200
                   333 10//0 20//0 59026 91020=
201909281800 AAXX 28184 67665 42980 01303 10211 20021 48523 70200
                   333 59028 91019=
201909280600 AAXX 28064 67665 32980 01106 10188 20005 48557 70200
                   333 10//0 20//0 59037=
201909280300 AAXX 28034 67665 42980 00000 10105 20013 48532 70200
                   333 59036=
201909280000 AAXX 28004 67665 42980 02001 10116 20004 48532 70200
                   333 59035=
201909272100 AAXX 27214 67665 42980 01801 10132 20013 48544 70200
                   333 59037=
201909271200 AAXX 27124 67665 42980 50807 10245 20032 48556 80008
                   333 59025 85280 91022=
201909270900 AAXX 27094 67665 NIL=
201909261500 AAXX 26154 67665 42680 10912 10222 20065 48569 70100 81130
                   333 5//// 81850 81360=
201909261200 AAXX 26124 67665 42680 61113 10213 20076 48575 70222 86830
                   333 5//// 84630 83832 83360=
201909260900 AAXX 26094 67665 NIL=
201909260600 AAXX 26064 67665 32575 61215 10161 20096 48593 70122 865//
                   333 58042 86625 555 00///=
201909260300 AAXX 26034 67665 42580 71013 10159 20104 48576 875//
                   333 58039 87618=
201909260000 AAXX 26004 67665 42980 51213 10177 20108 48571 70522 85030
                   333 58044 85360=
201909252100 AAXX 25214 67665 41959 11215 10209 20104 48575 70500 81030
                   333 58045 81360=
201909251500 AAXX 25154 67665 41758 30915 10261 20099 48550 70500 83500
                   333 58038 83650 555 10/// 91021=
201909251200 AAXX 25124 67665 41659 20912 10284 20086 48552 70500 81500
                   333 58023 82635 81021=
201909250900 AAXX 25094 67665 41959 00918 10258 20095 48568 70500
                   333 58018=
201909250600 AAXX 25064 67665 31960 01019 10216 20104 48560 70500
                   333 1//// 2//// 58014 91023=
201909241200 AAXX 24124 67665 NIL=
201909240900 AAXX 24094 67665 41958 01019 10302 20044 48555 70500
                   333 58022 91021=
201909240600 AAXX 24064 67665 31959 00810 10243 20059 48550 70500
                   333 1//// 2//// 58014 91021=
201909231800 AAXX 23184 67665 41959 01104 10252 20030 48530 70500
                   333 58011=
201909231500 AAXX 23154 67665 41959 11508 10328 21033 48498 70500 81030
                   333 58011 81080=
201909231200 AAXX 23124 67665 NIL=
201909230600 AAXX 23064 67665 31959 01208 10240 20064 48532 70500
                   333 1//// 2//// 59005=
201909221800 AAXX 22184 67665 42960 01304 10247 20045 48521 70200
                   333 59010 91018=
201909221500 AAXX 22154 67665 41959 11410 10307 20035 48510 70500 81030
                   333 59012 81360=
201909220900 AAXX 22094 67665 41958 00913 10286 20065 48538 70500
                   333 59011=
201909220600 AAXX 22064 67665 31959 01204 10206 20067 48538 70500
                   333 10//0 20//0 59015=
201909220300 AAXX 22034 67665 41959 01405 10155 20057 48516 70500
                   333 59016=
201909212100 AAXX 21214 67665 41959 01405 10200 20029 48528 70500
                   333 59008=
201909211200 AAXX 21124 67665 41659 11506 10299 20043 48530 70500 81100
                   333 59014=
201909210600 AAXX 21064 67665 31970 01110 10199 20056 48552 70500
                   333 10//0 20//0 58014
                   555 00/// 91022/7=
201909210000 AAXX 21004 67665 41970 01207 10155 20070 48524 70500
                   333 91020=
201909202100 AAXX 20214 67665 41970 01104 10175 20260 48534 70500
                   333 59015 91021=
201909201800 AAXX 20184 67665 41960 01106 10219 20046 48538 70500
                   333 5////=
201909201500 AAXX 20154 67665 41959 01013 10281 20020 48535 70500
                   333 59008=
201909201200 AAXX 20124 67665 41959 00813 10291 20013 48543 70500
                   333 59003=
201909200900 AAXX 20094 67665 41959 00814 10257 20038 48569 70500
                   333 58025=
201909200600 AAXX 20064 67665 41975 01110 10197 20066 48596 70500
                   333 59001 555 00///=
201909200300 AAXX 20034 67665 42980 01306 10150 20021 48543 70200
                   333 58001=
201909200000 AAXX 20004 67665 42980 01403 10131 21051 48537 70200
                   333 59002=
201909192100 AAXX 19214 67665 42980 01203 10160 21021 48545 70200
                   333 59001=
201909191800 AAXX 19184 67665 42959 01106 10215 21044 48540 70200
                   333 59003 555=
201909191200 AAXX 19124 67665 41959 12014 10297 21048 48540 70500
                   333 58002 555=
201909190900 AAXX 19094 67665 41959 00811 10269 21019 48572 70500
                   333 59001=
201909190600 AAXX 19064 67665 31959 01007 10214 20064 48558 70500
                   333 10/// 20/// 58002=
201909181800 AAXX 18184 67665 41975 01005 10215 21030 48549 70500
                   333 58008=
201909181500 AAXX 18154 67665 41975 01114 10286 21023 48543 70500
                   333 58005=
201909181200 AAXX 18124 67665 42780 11113 10302 21002 48549 70200 81100
                   333 81857=
201909180900 AAXX 18094 67665 41959 01012 10275 20056 48574 70500
                   333 58003 91024=
201909180600 AAXX 18064 67665 31959 00914 10208 20100 48565 70500
                   333 1//// 2//// 59003=
201909171200 AAXX 17124 67665 41959 00812 10314 20038 48541 70500
                   333 58000=
201909170900 AAXX 17094 67665 41659 10712 10261 20086 48569 70500 81500
                   333 58003 81645=
201909170600 AAXX 17064 67665 31959 01109 10206 20112 48567 70500
                   333 10//0 20//0 58007=
201909170300 AAXX 17034 67665 41960 01603 10138 20082 48542 70500
                   333 58006=
201909170000 AAXX 17004 67665 41960 03202 10178 20076 48548 70500
                   333 58005=
201909162100 AAXX 16214 67665 41960 01015 10228 20035 48557 70500
                   333 58009=
201909161800 AAXX 16184 67665 42960 01106 10223 20067 48551 70500
                   333 58006 91022=
201909161200 AAXX 16124 67665 NIL=
201909160900 AAXX 16094 67665 NIL=
201909160600 AAXX 16064 67665 NIL=
201909150600 AAXX 15064 67665 31959 01213 10230 20101 48556 70500
                   333 5////=
201909150300 AAXX 15034 67665 41959 00906 10175 20072 48530 70500
                   333 58015=
201909142100 AAXX 14214 67665 41959 01503 10194 20033 48525 70500
                   333 58002=
201909141800 AAXX 14184 67665 41959 01504 10242 21008 48526 70500
                   333 58005=
201909141500 AAXX 14154 67665 41959 01110 10318 21030 48520 70500
                   333 58002=
201909141200 AAXX 14124 67665 41959 00711 20003 48526 70500
                   333 59001=
201909131800 AAXX 13184 67665 41960 41960 10228 21070 48520 70500
                   333 59011=
201909131500 AAXX 13154 67665 41959 01407 10319 21087 48518 70500
                   333 59007=
201909131200 AAXX 13124 67665 41959 01402 10338 21049 48528 70500
                   333 59008=
201909130900 AAXX 13094 67665 41958 00708 10309 21010 48551 70500
                   333 59003=
201909130600 AAXX 13064 67665 31959 00000 10224 20010 48545 70500
                   333 58000=
201909130300 AAXX 13034 67665 42980 03203 10163 20030 48524 70200
                   333 58007=
201909130000 AAXX 13004 67665 42980 00000 10189 21032 48530 70200
                   333 58001=
201909122100 AAXX 12214 67665 42980 01702 10199 21021 48535 70500
                   333 59005=
201909121200 AAXX 12124 67665 41959 09903 10315 21071 48534 70500
                   333 58001 91018=
201909120900 AAXX 12094 67665 41959 00609 10304 21080 48553 70500
                   333 59005=
201909120600 AAXX 12064 67665 31980 01403 10226 21038 48541 70500
                   333 10//0 20//0 58003=
201909120300 AAXX 12034 67665 42980 01502 10144 21044 48520 70200
                   333 58001=
201909120000 AAXX 12004 67665 42980 00000 10144 21053 48520 70200 58001=
201909111800 AAXX 11184 67665 41980 01504 10225 21088 48535 70500 59003=
201909111500 AAXX 11154 67665 41975 02003 10301 21031 48524 70500
                   333 59008=
201909110900 AAXX 11094 67665 41975 01302 10275 21090 48556 70500
                   333 59020 91021=
201909110600 AAXX 11064 67665 32980 01303 10207 20005 48546 70200
                   333 59023 91021=
201909101800 AAXX 10184 67665 42980 01705 10201 21042 48527
                   333 10//0 20//0 59028=
201909101200 AAXX 10124 67665 42980 03506 10273 21041 48536 70200
                   333 59033=
201909100900 AAXX 10094 67665 42980 00607 10245 21060 48671 70200
                   333 59031=
201909100600 AAXX 10064 67665 32980 00401 10175 20003 48564
                   333 10//0 20//0 59035=
201909100000 AAXX 10004 67665 42980 01704 10109 20007 48543
                   333 59037=
201909091800 AAXX 09184 67665 42980 01704 10176 20005 48559 70200
                   333 59033 91023=
201909091200 AAXX 09124 67665 NIL=
201909090900 AAXX 09094 67665 NIL=
201909090600 AAXX 09064 67665 32980 01008 10146 20057 48591
                   333 10//0 59021=
201909081800 AAXX 08184 67665 42980 01003 10145 20043 48586
                   333 59006=
201909081500 AAXX 08154 67665 42680 11112 10205 20023 48583 81500
                   333 59015 81645=
201909081200 AAXX 08124 67665 42680 20917 10208 20029 48592 82500
                   333 59011 81630=
201909080600 AAXX 08064 67665 32480 40918 10143 20059 48611 84500
                   333 10//0 20//0 58009 84612=
201909080300 AAXX 08034 67665 42980 01005 10108 20080 48590
                   333 58008=
201909072100 AAXX 07214 67665 42980 01109 10151 20098 48597
                   333 58016=
201909071800 AAXX 07184 67665 42980 11212 10175 20073 48596 81030
                   333 58024 81358=
201909071500 AAXX 07154 67665 42980 41016 10207 20080 48597 70122 83530
                   333 58039 83645 81358=
201909071200 AAXX 07124 67665 42680 61218 10224 20081 48603 70200 86500
                   333 58044 86638=
201909070900 AAXX 07094 67665 41560 51124 10199 20082 48623 70500 85500
                   333 58045 85625=
201909070600 AAXX 07064 67665 31970 11022 10178 20076 48609 70500 81500
                   333 58034 81620 555 00/// 91029=
201909070000 AAXX 07004 67665 42980 01111 10171 20042 48586 70200
                   333 58049 91027=
201909062100 AAXX 06214 67665 41975 01305 10168 20006 48585 70500
                   333 58042 91027=
201909061800 AAXX 06184 67665 41959 01009 10206 21009 48577 70500
                   333 58036=
201909061500 AAXX 06154 67665 41959 01213 10274 21015 48568 70500
                   333 58032=
201909061200 AAXX 06124 67665 41959 00713 10282 20025 48569 70500
                   333 58029=
201909060900 AAXX 06094 67665 41959 00715 10262 20021 48587 70500
                   333 58024=
201909060600 AAXX 06064 67665 31959 01209 10191 20030 48578 70500
                   333 1//// 2//// 58025=
201909060300 AAXX 06034 67665 42980 01502 10135 20015 48541 70200
                   333 58007=
201909060000 AAXX 06004 67665 42980 01702 10145 21012 48536 70200
                   333 59001=
201909052100 AAXX 05214 67665 42980 01703 10179 20000 48546 70200
                   333 59006=
201909050600 AAXX 05064 67665 31980 1005 10195 20005 48547 70200
                   333 10//0 20//0 58007=
201909041800 AAXX 04184 67665 42980 01204 10213 20051 48549 70500
                   333 59017=
201909041500 AAXX 04154 67665 41970 01008 10276 20001 48546 70500
                   333 59014=
201909041200 AAXX 04124 67665 41970 01005 10279 20018 48555 70500
                   333 59011=
201909040900 AAXX 04094 67665 41970 00509 10240 20067 48581 70500
                   333 59008 91025=
201909040600 AAXX 04064 67665 32980 01208 10187 20087 48574 70200
                   333 59001=
201909031200 AAXX 03124 67665 NIL=
201909030900 AAXX 03094 67665 41959 30814 10234 20137 48587 70500 83500
                   333 58026 83630=
201909030600 AAXX 03064 67665 31459 10917 10185 20135 48574 70500 81500
                   333 10//0 20//0 58025 81610=
201909030000 AAXX 03004 67665 41960 01106 10172 20129 48553 70500
                   333 58013=
201909022100 AAXX 02214 67665 41960 01107 10186 20127 48559 70500
                   333 58037=
201909021800 AAXX 02184 67665 42960 01111 10226 20123 48552 70200
                   333 58038 91022=
201909021200 AAXX 02124 67665 NIL=
201909020900 AAXX 02094 67665 NIL=
201909020600 AAXX 02064 67665 31958 01108 10201 20135 48552 70500
                   333 10//0 20//0 58031
                   555 00///=
201909010600 AAXX 01064 67665 31959 11607 10230 20021 48525 81030
                   333 10//0 20//0 58005 81360=

################################################################################
#  SYNOPS from 67666, Lusaka City Airport (Zambia) | 15-25-00S | 028-28-00E | 1280 m
################################################################################
201910010600 AAXX 01064 67666 31978 01332 10190 58000
                   555 91016=
201909301200 AAXX 30124 67666 42980 02802 10330 20053 48480
                   333 59017=
201909271200 AAXX 27124 67666 NIL=
201909270900 AAXX 27094 67666 NIL=
201909270600 AAXX 27064 67666 32980 01208 10140 20061 48572
                   333 10218 20112 59007 91026=
201909260900 AAXX 26094 67666 42580 81415 10170 20090 48587 885//
                   333 58037 88625 91027=
201909260600 AAXX 26064 67666 32480 81515 1//// 20095 48586 885//
                   333 10275 20150 58040 88612 91027=
201909251200 AAXX 25124 67666 41775 21012 10260 20110 48539 70500 82100
                   333 58021 82850 91020=
201909250900 AAXX 25094 67666 41575 11015 10250 20117 48558 70500 81100
                   333 58007 81820 91023=
201909250600 AAXX 25064 67666 31975 00915 10205 20110 48554 70500
                   333 10320 20190 58011 91022=
201909241200 AAXX 24124 67666 NIL=
201909240600 AAXX 24064 67666 31970 00915 10230 20075 48545 70500
                   333 10339 20218 58013 91021=
201909231200 AAXX 23124 67666 NIL=
201909230600 AAXX 23064 67666 31975 00910 10233 20064 48532 70500
                   333 10320 20195 59003 91020=
201909200900 AAXX 20094 67666 NIL=
201909200600 AAXX 20064 67666 31975 00910 10192 20078 48558 70500
                   333 10304 20160 59002
                   555 00/// 91023=
201909190600 AAXX 19064 67666 31978 00710 10190 20063 48580 70500
                   333 10300 20152 58004
                   555 91023=
201909180600 AAXX 18064 67666 31970 01412 10182 20117 48576 70500
                   333 10280 20164 59001 91023=
201909161200 AAXX 16124 67666 NIL=
201909160900 AAXX 16094 67666 NIL=
201909160600 AAXX 16064 67666 31978 01012 10210 20060 48550 70500
                   333 10310 20190 58009 91023=
201909120900 AAXX 12094 67666 41975 00910 10286 21062 48544 70400
                   333 59004 91020=
201909120600 AAXX 12064 67666 31970 0//// 10225 21060 48543 70500
                   333 10301 20150 59002 91021=
201909110900 AAXX 11094 67666 42980 00000 10262 21052 48544
                   333 59016 91021=
201909091200 AAXX 09124 67666 NIL=
201909090900 AAXX 09094 67666 NIL=
201909090600 AAXX 09064 67666 32980 00913 10139 20059 48581 70500
                   333 10210 20111 59019 91027=
201909060600 AAXX 06064 67666 32978 00910 10198 20018 48568 70500
                   333 10292 20170 58026 91025=
201909040900 AAXX 04094 67666 NIL=
201909040600 AAXX 04064 67666 32960 00915 10184 20104 48566 70500
                   333 10271 20126 5////
                   555 00/// 91024=
201909031200 AAXX 03124 67666 NIL=
201909021200 AAXX 02124 67666 NIL=
201909020900 AAXX 02094 67666 NIL=
201909020600 AAXX 02064 67666 31960 01012 10194 20134 48546 70500
                   333 10324 20180 58030=

################################################################################
#  SYNOPS from 67667, Mount Makulu (Zambia) | 15-33S | 028-15E | 1213 m
################################################################################
201910010600 AAXX 01064 67667 31960 02701 10264 20071 48560 70500
                   333 10364 20180 58015
                   555 00///=
201909300600 AAXX 30064 67667 31960 03002 10252 20052 48575 70500
                   333 10346 20184 58006
                   555 00///=
201909271200 AAXX 27124 67667 NIL=
201909270900 AAXX 27094 67667 41960 11202 10212 20083 48616 70500 80001
                   333 5//// 81082=
201909270600 AAXX 27064 67667 31960 00905 10158 20070 48/// 70500
                   333 10242 20092 5////=
201909261200 AAXX 26124 67667 41660 31303 10213 20110 48609 70500 83100
                   333 59032 83840=
201909260900 AAXX 26094 67667 41660 71304 10180 20091 48/// 70522 875//
                   333 5//// 87640=
201909260600 AAXX 26064 67667 31660 81204 10152 20100 48/// 70522 855//
                   333 10298 20150 5//// 88630=
201909251200 AAXX 25124 67667 NIL=
201909250600 AAXX 25064 67667 31960 02904 10210 20111 48609 70500
                   333 10356 20190 5////=
201909241200 AAXX 24124 67667 NIL=
201909240600 AAXX 24064 67667 31960 02701 10252 20080 48/// 70500
                   333 10366 20190 5////=
201909231200 AAXX 23124 67667 NIL=
201909230600 AAXX 23064 67667 31960 02301 10252 20102 48587 70500
                   333 10350 20202 59018=
201909200900 AAXX 20094 67667 41959 00814 10257 20038 48569 70500
                   333 58025=
201909200600 AAXX 20064 67667 31960 00904 10210 20092 48904 70500
                   333 10324 20167 58000
                   555 00///=
201909191200 AAXX 19124 67667 41960 00801 10298 20065 48569 70500
                   333 59005=
201909190900 AAXX 19094 67667 00905 10272 10057 48595 70500
                   333 58002=
201909190600 AAXX 19064 67667 31960 00907 10210 20090 48604 70500
                   333 10329 20154 59004
                   555 00///=
201909180900 AAXX 18094 67667 41970 02602 10267 20060 48615 70500
                   333 58001=
201909180600 AAXX 18064 67667 31970 02904 10208 20112 48613 70500
                   333 10328 20172 58002=
201909161200 AAXX 16124 67667 NIL=
201909160900 AAXX 16094 67667 41970 01204 10286 20090 48614 70500
                   333 5////=
201909160600 AAXX 16064 67667 31970 0//// 10222 20086 48/// 70500
                   333 10334 20184 5////=
201909131200 AAXX 13124 67667 41960 02601 10328 20016 48549
                   333 59005=
201909130900 AAXX 13094 67667 41960 03603 10304 20052 48568 70500
                   333 59001=
201909130600 AAXX 13064 67667 31960 00805 10256 20042 48581 70500
                   333 10342 20178 5////=
201909121200 AAXX 12124 67667 41960 01801 10304 20020 48548 70500
                   333 59003=
201909120900 AAXX 12094 67667 41960 00602 10294 20015 48571 70500
                   333 59006=
201909120600 AAXX 12064 67667 31960 00904 10243 20004 48581 70500
                   333 10332 20154 58000=
201909100600 AAXX 10064 67667 31970 01502 10198 20052 48614 70500
                   333 10270 20062 59028=
201909091200 AAXX 09124 67667 NIL=
201909090900 AAXX 09094 67667 NIL=
201909090600 AAXX 09064 67667 31970 00902 10152 20080 48642 70500
                   333 10292 20112 58008=
201909061200 AAXX 06124 67667 41970 01305 10278 20071 48591 70500
                   333 58033=
201909060900 AAXX 06094 67667 41970 00906 10256 20041 48611 70500
                   333 58026=
201909060600 AAXX 06064 67667 31970 00908 10204 20040 48611 70500
                   333 10322 20140 59025=
201909051200 AAXX 05124 67667 41970 00902 10292 20048 48557 70500
                   333 59016=
201909040900 AAXX 04094 67667 NIL=
201909031200 AAXX 03124 67667 NIL=
201909021200 AAXX 02124 67667 NIL=
201909020900 AAXX 02094 67667 NIL=
201909020600 AAXX 02064 67667 31970 01202 10204 20136 48599 70500
                   333 10350 20168 59039=

################################################################################
#  SYNOPS from 67673, Petauke (Zambia) | 14-15S | 031-17E | 1035 m
################################################################################
201909271200 AAXX 27124 67673 NIL=
201909270900 AAXX 27094 67673 NIL=
201909270600 AAXX 27064 67673 31959 00903 10170 20081 48599 70500
                   333 10240 20116 59005=
201909260900 AAXX 26094 67673 NIL=
201909260600 AAXX 26064 67673 32980 80903 10155 20095 48578 8807/
                   333 10300 20125 58003 88460=
201909251200 AAXX 25124 67673 NIL=
201909250600 AAXX 25064 67673 NIL=
201909241200 AAXX 24124 67673 NIL=
201909240600 AAXX 24064 67673 NIL=
201909231200 AAXX 23124 67673 41959 03401 10344 20123 48561 70500
                   333 5////=
201909230600 AAXX 23064 67673 31959 03601 10234 20125 48590
                   333 10340 20170 59001=
201909200900 AAXX 20094 67673 NIL=
201909191200 AAXX 19124 67673 41959 01802 10310 20071 48596
                   333 58023=
201909180600 AAXX 18064 67673 NIL=
201909161200 AAXX 16124 67673 NIL=
201909160900 AAXX 16094 67673 NIL=
201909160600 AAXX 16064 67673 NIL=
201909111200 AAXX 11124 67673 41959 01801 10310 20095 48601 70500
                   333 59003=
201909101200 AAXX 10124 67673 41959 40000 10288 20080 48558 70500 81031
                   333 59024 81360 83080=
201909091200 AAXX 09124 67673 41959 02901 10258 20090 48576 70500
                   333 5////=
201909090900 AAXX 09094 67673 41959 10902 10224 20075 48587 70500 80001
                   333 5//// 81080=
201909090600 AAXX 09064 67673 31959 01802 10160 20074 48583 70500
                   333 10242 20099 59003=
201909060600 AAXX 06064 67673 31958 02004 10204 20135 48585 70500
                   333 10320 20136 58004=
201909051200 AAXX 05124 67673 41959 01801 10304 20102 48537 70500
                   333 59002=
201909050600 AAXX 05064 67673 31959 01202 10230 20115 48584 70500
                   333 10294 20155 59005=
201909040900 AAXX 04094 67673 NIL=
201909031200 AAXX 03124 67673 NIL=
201909021200 AAXX 02124 67673 41959 41701 10294 20151 48544 70522 81031
                   333 59014 81360 83080=
201909020900 AAXX 02094 67673 NIL=

################################################################################
#  SYNOPS from 67731, Senanga (Zambia) | 16-06S | 023-16E | 1027 m
################################################################################
201910010600 AAXX 01064 67731 32980 031// 10219 20031 48/// 70200
                   333 10377 20191 5////
                   555 00103=
201909300600 AAXX 30064 67731 32960 018// 10194 20085 48/// 70500
                   333 10338 20137 5////
                   555 00100=
201909271200 AAXX 27124 67731 NIL=
201909270900 AAXX 27094 67731 NIL=
201909270600 AAXX 27064 67731 32980 011// 10184 20035 48///
                   333 10296 20135 5////
                   555 00087=
201909260900 AAXX 26094 67731 NIL=
201909260600 AAXX 26064 67731 32980 012// 10184 20095 48///
                   333 10341 20171 5////
                   555 00084=
201909251200 AAXX 25124 67731 NIL=
201909250900 AAXX 25094 67731 42980 012// 10295 20080 48///
                   333 5////=
201909250600 AAXX 25064 67731 32980 007// 10246 20067 48///
                   333 10367 20152 5////
                   555 00096=
201909241200 AAXX 24124 67731 NIL=
201909240600 AAXX 24064 67731 32980 010// 10228 20037 48///
                   333 10372 20179 5////
                   555 00086=
201909231200 AAXX 23124 67731 NIL=
201909230600 AAXX 23064 67731 32970 028// 10220 20112 48/// 70500
                   333 10362 20163 5////
                   555 00087=
201909201200 AAXX 20124 67731 42980 009// 10336 20028 48///
                   333 59016=
201909200900 AAXX 20094 67731 42980 015// 10311 20037 48/// 70200
                   333 59007=
201909200600 AAXX 20064 67731 32980 015// 10236 20037 48/// 70200
                   333 10350 20151 555 00106=
201909180900 AAXX 18094 67731 42980 010// 10317 20067 48///
                   333 5////=
201909180600 AAXX 18064 67731 32980 015// 10228 20072 48///
                   333 10347 20165 5////
                   555 00086=
201909171200 AAXX 17124 67731 42970 010// 10340 20059 48/// 70630
                   333 5////=
201909170600 AAXX 17064 67731 32980 032// 10228 20071 48///
                   333 10350 20141 58010
                   555 00104=
201909161200 AAXX 16124 67731 42960 012// 10344 20048 48/// 70633
                   333 5////=
201909160900 AAXX 16094 67731 42980 009// 10332 20068 48///
                   333 5////=
201909160600 AAXX 16064 67731 32980 007// 10250 20068 48///
                   333 10362 20203 59024
                   555 00112=
201909131200 AAXX 13124 67731 42980 029// 10368 20034 48///
                   333 5////=
201909130600 AAXX 13064 67731 32980 013// 10197 20026 48///
                   333 10361 20146 59001
                   555 00095=
201909120600 AAXX 12064 67731 32980 015// 10206 20002 48///
                   333 10340 20147 59011
                   555 00062=
201909111200 AAXX 11124 67731 42980 026// 10326 20039 48///
                   333 59017=
201909110900 AAXX 11094 67731 42980 010// 10306 20006 48///
                   333 5////=
201909101200 AAXX 10124 67731 42980 010// 10310 20022 48///
                   333 5////=
201909100600 AAXX 10064 67731 32980 014// 10195 20040 48///
                   333 10278 20120 5////
                   555 00053=
201909091200 AAXX 09124 67731 42980 011// 10268 20051 48///
                   333 5////=
201909090900 AAXX 09094 67731 42980 008// 10251 20041 48///
                   333 5////=
201909060600 AAXX 06064 67731 32980 007// 10224 20062 48///
                   333 10355 20175 5////
                   555 00098=
201909041200 AAXX 04124 67731 42980 006// 10337 20103 48///
                   333 59005=
201909040900 AAXX 04094 67731 42980 012// 10308 20121 48///
                   333 59005=
201909040600 AAXX 04064 67731 32980 026// 10219 20132 48/// 70200
                   333 10350 20158 59003
                   555 00103=
201909031200 AAXX 03124 67731 NIL=
201909021200 AAXX 02124 67731 NIL=
201909020900 AAXX 02094 67731 NIL=
201909020600 AAXX 02064 67731 32980 013// 10202 20115 48///
                   333 10342 20185 58006
                   555 00095=

################################################################################
#  SYNOPS from 67741, Sesheke (Zambia) | 17-28S | 024-18E | 949 m
################################################################################
201909300600 AAXX 30064 67741 32980 00603 10250 20//0 48///
                   333 10356 20095 5////
                   555 00///=
201909271200 AAXX 27124 67741 NIL=
201909270900 AAXX 27094 67741 NIL=
201909260900 AAXX 26094 67741 42980 00902 10224 20093 48595
                   333 58043=
201909260600 AAXX 26064 67741 32980 00908 10166 20079 48594
                   333 10308 20142 58047=
201909251200 AAXX 25124 67741 42980 11004 10290 2//// 48/// 81030
                   333 5//// 81362=
201909250900 AAXX 25094 67741 42980 00904 10267 2//// 48568
                   333 58027=
201909250600 AAXX 25064 67741 32980 10906 10224 2//// 48557
                   333 10371 20185 58019 81362=
201909241200 AAXX 24124 67741 NIL=
201909240900 AAXX 24094 67741 42980 01301 10314 2//// 48547
                   333 58004=
201909240600 AAXX 24064 67741 32980 01501 10204 2//// 48534
                   333 10371 20124 58004=
201909231200 AAXX 23124 67741 42980 12801 10363 2//// 48526 80001
                   333 5//// 81080=
201909230600 AAXX 23064 67741 32980 11301 10238 2//// 48542 80001
                   333 10371 20118 58017 81080=
201909200900 AAXX 20094 67741 NIL=
201909200600 AAXX 20064 67741 32980 00901 10206 20//0 48565
                   333 10348 20104 58005
                   555 00///=
201909191200 AAXX 19124 67741 42980 00903 10344 20//0 48543
                   333 5////=
201909190600 AAXX 19064 67741 32980 01201 10203 20//0 48553
                   333 10375 20//0 555 00///=
201909180600 AAXX 18064 67741 NIL=
201909161200 AAXX 16124 67741 NIL=
201909160900 AAXX 16094 67741 NIL=
201909160600 AAXX 16064 67741 NIL=
201909091200 AAXX 09124 67741 NIL=
201909090900 AAXX 09094 67741 NIL=
201909060600 AAXX 06064 67741 NIL=
201909040900 AAXX 04094 67741 NIL=
201909031200 AAXX 03124 67741 NIL=
201909021200 AAXX 02124 67741 NIL=
201909020900 AAXX 02094 67741 NIL=

################################################################################
#  SYNOPS from 67743, Livingstone (Zambia) | 17-49S | 025-49E | 985 m
################################################################################
201910010600 AAXX 01064 67743 31959 01508 10205 21062 48504 70500
                   333 10378 20190 58030
                   555 91017=
201909271200 AAXX 27124 67743 NIL=
201909270900 AAXX 27094 67743 NIL=
201909270600 AAXX 27064 67743 41975 01012 10146 21008 48586 70500
                   333 10245 20111 59008 91027=
201909260900 AAXX 26094 67743 41960 00917 10191 20001 48597 70500
                   333 58080 91028=
201909260600 AAXX 26064 67743 31960 01120 10147 20025 48500 70500
                   333 10290 20140 58044 91028=
201909251200 AAXX 25124 67743 41958 50713 10264 20113 48554 70500 81131
                   333 58045 81835 83360 82080 91021=
201909250600 AAXX 25064 67743 31958 11317 10210 20135 48566 70500 81030
                   333 10375 20196 58027 81359 91023=
201909241200 AAXX 24124 67743 NIL=
201909240600 AAXX 24064 67743 NIL=
201909231200 AAXX 23124 67743 NIL=
201909230600 AAXX 23064 67743 31959 03101 10188 20021 48505 70500
                   333 10332 20140 58001 91018=
201909200900 AAXX 20094 67743 NIL=
201909190600 AAXX 19064 67743 31959 00907 10221 20004 48562 70500
                   333 10342 20152 58000
                   555 00/// 91028=
201909181200 AAXX 18124 67743 41959 01109 10311 20051 48554 70500
                   333 58010 91020=
201909180600 AAXX 18064 67743 31958 00904 10212 20086 48560 70500
                   333 10340 20154 58000 91022=
201909170900 AAXX 17094 67743 41959 08013 10295 20124 48570 70500
                   333 58000 91022=
201909161200 AAXX 16124 67743 NIL=
201909160900 AAXX 16094 67743 NIL=
201909160600 AAXX 16064 67743 31959 00906 10215 21009 48558 70500
                   333 10357 20158 58018 91022=
201909130900 AAXX 13094 67743 41959 01106 10314 20056 48550 70500
                   333 59002 91019=
201909110900 AAXX 11094 67743 41959 22104 10294 20030 48543 70500 80001
                   333 59024 82080 91020=
201909100600 AAXX 10064 67743 31959 01004 10182 21067 48557 70500
                   333 10270 20074 59040 91023=
201909091200 AAXX 09124 67743 NIL=
201909090900 AAXX 09094 67743 NIL=
201909090600 AAXX 09064 67743 31959 01108 10140 21038 48590 70500
                   333 10250 20084 59023 91028=
201909060600 AAXX 06064 67743 31959 01007 10198 20004 48564 70500
                   333 10325 20131 58028 91023=
201909040900 AAXX 04094 67743 NIL=
201909040600 AAXX 04064 67743 31959 00905 10196 20102 48559 70500
                   333 10309 20161 59006 91023=
201909031200 AAXX 03124 67743 NIL=
201909021200 AAXX 02124 67743 NIL=
201909020900 AAXX 02094 67743 NIL=

################################################################################
#  SYNOPS from 67751, Magoye (Zambia) | 16-00S | 027-36E | 1018 m
################################################################################
201909300600 AAXX 30064 67751 31975 01701 10220 20110 70500
                   333 10292 20106 555 00///=
201909271200 AAXX 27124 67751 NIL=
201909270900 AAXX 27094 67751 NIL=
201909260900 AAXX 26094 67751 41775 11310 10211 20075 48/// 70500 81100
                   333 5//// 81850=
201909260600 AAXX 26064 67751 31875 71614 10160 20090 48/// 70522 875//
                   333 10300 20153 5//// 87619=
201909251200 AAXX 25124 67751 NIL=
201909250600 AAXX 25064 67751 31975 01113 10246 20090 48/// 70500
                   333 10335 20199 5////=
201909241200 AAXX 24124 67751 NIL=
201909240600 AAXX 24064 67751 31975 00912 10274 20085 48/// 70500
                   333 10363 20157 5////=
201909231200 AAXX 23124 67751 NIL=
201909230600 AAXX 23064 67751 31975 00000 10241 20094 48/// 70500
                   333 10345 20156 5////=
201909200900 AAXX 20094 67751 NIL=
201909200600 AAXX 20064 67751 31975 01205 10230 70500
                   333 10335 20133 5////
                   555 00///=
201909181200 AAXX 18124 67751 41975 00903 10320 20002 48/// 70500
                   333 5////=
201909180600 AAXX 18064 67751 31975 01114 10233 20093 48/// 70500
                   333 10330 20147 5////=
201909170600 AAXX 17064 67751 31975 00913 10232 20114 48/// 70500
                   333 10340 20153 5////=
201909161200 AAXX 16124 67751 41975 00903 10320 20002 48/// 70500
                   333 5////=
201909160900 AAXX 16094 67751 41975 00904 10301 21035 48/// 70500
                   333 5////=
201909160600 AAXX 16064 67751 31975 01012 10245 20080 48/// 70500
                   333 10340 20154 5////=
201909130600 AAXX 13064 67751 31975 00000 10186 20037 48/// 70500
                   333 10340 20117 5////=
201909120900 AAXX 12094 67751 41975 00512 10306 21090 48/// 70500
                   333 5////=
201909120600 AAXX 12064 67751 31975 03603 10235 20030 48/// 70500
                   333 10330 20107 5////=
201909110900 AAXX 11094 67751 41970 01804 10299 21050 70500
                   333 5////=
201909101200 AAXX 10124 67751 41975 01201 10290 20055 48/// 70500
                   333 58038=
201909100900 AAXX 10094 67751 41975 01504 10268 20030 48/// 70500
                   333 5////=
201909100600 AAXX 10064 67751 31975 01702 10183 20075 48/// 70500
                   333 10260 20081 5////=
201909091200 AAXX 09124 67751 41975 01505 10251 20056 48/// 70500
                   333 5////=
201909090900 AAXX 09094 67751 41975 00907 10213 20069 48/// 70500
                   333 5////=
201909090600 AAXX 09064 67751 31975 01008 10169 20060 48/// 70500
                   333 10250 20067 5////=
201909060600 AAXX 06064 67751 31975 00804 10219 20079 48/// 70500
                   333 10324 20117 5////=
201909050600 AAXX 05064 67751 31975 00709 10237 20071 48/// 70500
                   333 10312 20107 5////=
201909040900 AAXX 04094 67751 NIL=
201909031200 AAXX 03124 67751 NIL=
201909021200 AAXX 02124 67751 NIL=
201909020900 AAXX 02094 67751 NIL=
201909020600 AAXX 02064 67751 31975 01003 10225 20147 48/// 70500
                   333 10346 20130 5////=

################################################################################
#  SYNOPS from 67753, Choma (Zambia) | 16-50S | 027-04E | 1213 m
################################################################################
201910010600 AAXX 01064 67753 31980 30103 10200 20049 48500 83030
                   333 10346 20110 58010 83360
                   555 00///=
201909300600 AAXX 30064 67753 31980 11803 10225 20050 48493 70500
                   333 10329 20114 59030
                   555 00///=
201909271200 AAXX 27124 67753 NIL=
201909270900 AAXX 27094 67753 NIL=
201909260900 AAXX 26094 67753 NIL=
201909260600 AAXX 26064 67753 NIL=
201909251200 AAXX 25124 67753 NIL=
201909250600 AAXX 25064 67753 31980 12706 10209 20125 48559 70500 80001
                   333 10326 20190 5//// 81080=
201909241200 AAXX 24124 67753 NIL=
201909240600 AAXX 24064 67753 31980 02706 10246 20110 48/// 70500
                   333 10341 20152 5////=
201909231200 AAXX 23124 67753 NIL=
201909230600 AAXX 23064 67753 31980 00000 10220 20110 48522
                   333 10324 20138 5////=
201909200900 AAXX 20094 67753 NIL=
201909200600 AAXX 20064 67753 31980 00000 10197 20086 48558 70500
                   333 10303 20136 58002
                   555 00///=
201909190600 AAXX 19064 67753 31980 00000 10218 20091 48559 70500
                   333 10295 20134 58001
                   555 00///=
201909180900 AAXX 18094 67753 41980 00711 10215 20091 48564 70500
                   333 58007=
201909180600 AAXX 18064 67753 31980 00000 10219 20112 48559 70500
                   333 10301 20150 58002=
201909161200 AAXX 16124 67753 NIL=
201909160900 AAXX 16094 67753 NIL=
201909160600 AAXX 16064 67753 31980 00000 10211 20100 48/// 70500
                   333 10315 20211 5////=
201909110900 AAXX 11094 67753 41980 10000 10275 20009 48546 70500 80001
                   333 59021 81080=
201909091200 AAXX 09124 67753 41980 02708 10228 20134 48560
                   333 59028=
201909090900 AAXX 09094 67753 NIL=
201909060600 AAXX 06064 67753 31980 02720 10205 20035 48569 70500
                   333 10301 20130 58026=
201909040900 AAXX 04094 67753 NIL=
201909031200 AAXX 03124 67753 NIL=
201909021200 AAXX 02124 67753 NIL=
201909020900 AAXX 02094 67753 NIL=

################################################################################
#  SYNOPS from 67855, Lupaki (Zambia) | 17-03-00S | 024-46-00E | 1000 m
################################################################################
201910010600 AAXX 01064 67855 31970 01801 10202 21020 3//// 48/// 70500
                   333 20115 5////=
201909300600 AAXX 30064 67855 31970 00301 10210 21010 3//// 48/// 70511
                   333 20078 5////=
201909290600 AAXX 29064 67855 32975 00000 10198 21010 3//// 48///
                   333 20064 5////=
201909270600 AAXX 27064 67855 32975 00607 10124 20035 3//// 48///
                   333 20045 5////=
201909261200 AAXX 26124 67855 42975 01607 10220 20040 3//// 48///
                   333 5////=
201909250600 AAXX 25064 67855 11970 70901 10160 20150 3//// 48/// 60034 76062 8707/
                   333 20160 5//// 87459=
201909241200 AAXX 24124 67855 41770 10306 10330 20138 3//// 48/// 70500 81100
                   333 5//// 81856=
201909240600 AAXX 24064 67855 31970 00902 10234 20134 3//// 48/// 70500
                   333 20178 5////=
201909230600 AAXX 23064 67855 31970 01801 10210 20023 3//// 48/// 70500
                   333 20125 5////=
201909221200 AAXX 22124 67855 41970 03604 10340 20038 3//// 48/// 70500
                   333 5////=
201909220600 AAXX 22064 67855 31970 00000 10190 20000 3//// 48/// 70500
                   333 20103 5////=
201909210600 AAXX 21064 67855 31970 00402 10200 20035 3//// 48/// 70500
                   333 20106 5////=
201909201200 AAXX 20124 67855 41970 00508 10324 21030 3//// 48/// 70500
                   333 5////=
201909191200 AAXX 19124 67855 41970 00606 10342 21005 38/// 48/// 70500
                   333 5////=
201909190600 AAXX 19064 67855 0//// 10360=
201909180600 AAXX 18064 67855 31970 01801 10194 20067 3//// 48/// 70500
                   333 20105 5////=
201909171200 AAXX 17124 67855 41970 00709 10346 20035 3//// 48/// 70500
                   333 5////=
201909170600 AAXX 17064 67855 31970 00306 10206 20055 3//// 48/// 70500
                   333 20111 5////=
201909161200 AAXX 16124 67855 41970 00205 10336 20048 3//// 48/// 70500
                   333 5////=
201909150600 AAXX 15064 67855 31970 01002 10204 20095 3//// 48/// 70500
                   333 20132 5////=
201909141200 AAXX 14124 67855 41970 00000 10364 20015 3//// 48///
                   333 5////=
201909131200 AAXX 13124 67855 41970 01802 10352 21050 3//// 48/// 70500
                   333 5////=
201909130600 AAXX 13064 67855 31970 00000 10148 21030 3//// 48/// 70500
                   333 20070 5////=
201909121200 AAXX 12124 67855 41970 01602 10242 21003 3//// 48/// 70500
                   333 5////=
201909120600 AAXX 12064 67855 31970 00901 10202 21018 3//// 48/// 70500
                   333 20072 5////=
201909111200 AAXX 11124 67855 41970 12001 10310 21015 3//// 48/// 70500 80001
                   333 5//// 81080=
201909110600 AAXX 11064 67855 31970 01802 10170 20090 3//// 48/// 70500
                   333 20030 5////=
201909100600 AAXX 10064 67855 31970 00000 10158 21025 3//// 48/// 70500
                   333 20028 5////=
201909090600 AAXX 09064 67855 32975 003605 10132 20015 3//// 48///
                   333 20028 5////=
201909080600 AAXX 08064 67855 32975 00907 10108 20040 3//// 48///
                   333 20035 5////=
201909070600 AAXX 07064 67855 31970 61310 10170 20093 3//// 48/// 70511 86030
                   333 20144 5//// 86360=
201909051200 AAXX 05124 67855 41970 01801 10314 20065 3//// 48/// 70500
                   333 5////=
201909030600 AAXX 03064 67855 31970 00706 10196 20112 3//// 48/// 70500
                   333 20149 5////=
