################################################################################
# Query made at 04/14/2022 03:35:36 UTC
# Country like Zamb*
# Time interval: from 06/01/2016 05:30  to 07/01/2016 06:30  UTC
################################################################################

################################################################################
#  SYNOPS from 67403, Kawambwa (Zambia) | 09-48S | 029-05E | 1323 m
################################################################################
201606280600 AAXX 28064 67403 31980 01207 10156 20099 48550 70500
                   333 10/// 20114 58012=
201606240600 AAXX 24064 67403 32480 10912 10140 20104 48549 81100
                   333 10/// 20099 59012 81813=
201606210600 AAXX 21064 67403 32980 20903 10170 20102 48548 82030
                   333 10/// 20116 58010 82360=
201606200600 AAXX 20064 67403 31980 00902 10148 20098 48537 70500
                   333 10/// 20105 59015=
201606160600 AAXX 16064 67403 32980 00804 10151 20090 48545
                   333 10/// 20134 59017=
201606140600 AAXX 14064 67403 32980 00904 10135 20103 48561
                   333 10/// 20094 59001=
201606140000 AAXX 14004 67403 32980 00904 10135 20103 48561
                   333 10/// 20094 59001=
201606130600 AAXX 13064 67403 32980 00912 10145 20070 48583
                   333 10/// 20104 58006=
201606080600 AAXX 08064 67403 32980 11210 10156 20110 48563 81030
                   333 10/// 20122 58003 81360=
201606060600 AAXX 06064 67403 32980 30905 10167 20109 48538 80001
                   333 10/// 20133 59013 83080=
201606030900 AAXX 03094 67403 NIL=
201606030600 AAXX 03064 67403 32980 00903 10148 20095 48547
                   333 10/// 20109 59006=
201606010600 AAXX 01064 67403 32980 01205 10167 20104 48555
                   333 10/// 20123 58006=

################################################################################
#  SYNOPS from 67413, Mbala (Zambia) | 08-51S | 031-20E | 1673 m
################################################################################
201606240600 AAXX 24064 67413 31380 11425 10140 20084 48534 70500 81500
                   333 10250 20/// 59008 81607 91026=
201606200600 AAXX 20064 67413 32980 11005 10175 20115 48561 81040
                   333 10260 20/// 59008 91027=
201606030900 AAXX 03094 67413 NIL=
201606030600 AAXX 03064 67413 32480 11608 10160 20106 48565 81100
                   333 10260 20/// 59009 81818 91027=
201606020600 AAXX 02064 67413 32980 01003 10160 20116 48574
                   333 10290 20/// 58000 91028=
201606010600 AAXX 01064 67413 31978 01310 10155 20101 48574 70500
                   333 10250 20/// 58006=

################################################################################
#  SYNOPS from 67441, Mwinilunga (Zambia) | 11-45S | 024-26E | 1361 m
################################################################################
201606280600 AAXX 28064 67441 31965 00000 10105 20086 48/// 70500
                   333 10270 20/// 5////=
201606240600 AAXX 24064 67441 31970 015// 10110 20071 48588 70500
                   333 10250 20/// 59013=
201606210600 AAXX 21064 67441 31975 000// 10120 20082 48585 70500
                   333 10275 20/// 58001=
201606200600 AAXX 20064 67441 31965 000// 10085 20075 48584 70500
                   333 10275 20/// 58000=
201606160600 AAXX 16064 67441 31970 012// 10110 20071 48589 70500
                   333 10260 20/// 5////=
201606130600 AAXX 13064 67441 31975 015// 10130 20050 48602 70500
                   333 10260 20/// 58006=
201606080600 AAXX 08064 67441 31975 012// 10150 20095 48598 70500
                   333 10270 20/// 58010=
201606060600 AAXX 06064 67441 32970 100// 10130 20093 48589 70500 80001
                   333 10285 20/// 58003 81080=
201606030900 AAXX 03094 67441 NIL=
201606030600 AAXX 03064 67441 31975 018// 10130 20072 48/// 70500
                   333 10275 20//0 5////=
201606010600 AAXX 01064 67441 31975 000// 10130 20093 48/// 70500
                   333 10265 20//0 5////=

################################################################################
#  SYNOPS from 67461, Mansa (Zambia) | 11-06S | 028-51E | 1382 m
################################################################################
201606280600 AAXX 28064 67461 32980 00904 10138 20117 48558
                   333 10256 20103 59007 91024=
201606030900 AAXX 03094 67461 NIL=

################################################################################
#  SYNOPS from 67475, Kasama (Zambia) | 10-13S | 031-08E | 1382 m
################################################################################
201606280600 AAXX 28064 67475 31960 00908 10172 20119 48568 70500
                   333 10256 20086 59004 91025=
201606270600 AAXX 27064 67475 31960 00908 10161 20111 48570 70500
                   333 10267 20099 59002 91026=
201606240600 AAXX 24064 67475 31560 61411 10122 20093 48562 70522 865//
                   333 10241 20098 59009 86620 91025=
201606210600 AAXX 21064 67475 31960 00307 10152 20101 48558 70500
                   333 10264 20091 58010 91024=
201606200600 AAXX 20064 67475 31960 00304 10148 20124 48548 70500
                   333 10265 20091 59019 91023=
201606140600 AAXX 14064 67475 31960 51106 10146 20099 48579 70522 80008
                   333 10242 20081 59005 85280 91027=
201606140000 AAXX 14004 67475 31960 51106 10146 20099 48579 70522 80008
                   333 10242 20081 59005 85280 91027=
201606130600 AAXX 13064 67475 31960 11216 10142 20086 48582 70500 80001
                   333 1025=
201606090600 AAXX 09064 67475 31960 01215 10133 20069 48757 70500
                   333 10240 20088=
201606080600 AAXX 08064 67475 31960 00910 10159 20100 48582 70500
                   333 10230 20104 58005 91027=
201606060600 AAXX 06064 67475 31960 11012 10183 20127 48572 70500 80001
                   333 10267 20104 58007 81080 97026=
201606030900 AAXX 03094 67475 NIL=
201606030600 AAXX 03064 67475 31960 01013 10178 20073 48565 70522
                   333 10257 20084 59009=
201606020600 AAXX 02064 67475 31960 01410 10167 20085 48571 70522
                   333 10260 20108 58005 91026=
201606010600 AAXX 01064 67475 31960 00606 10161 20109 48566 70522
                   333 10257 20100 58006 91025=

################################################################################
#  SYNOPS from 67476, Misamfu (Zambia) | 10-06S | 031-15E | 1536 m
################################################################################
201606240600 AAXX 24064 67476 32580 71505 10132 20094 48/// 87500
                   333 10232 20105 5//// 87625=
201606210600 AAXX 21064 67476 32980 01401 10153 20116 48///
                   333 10260 20085 58008=
201606200600 AAXX 20064 67476 32980 00000 10155 20121 48///
                   333 10265 20060 5////=
201606080600 AAXX 08064 67476 32980 00704 10150 20100 48///
                   333 10235 20117 5////=
201606060600 AAXX 06064 67476 32980 00406 10182 20132 48///
                   333 10262 20075 5////=
201606030900 AAXX 03094 67476 NIL=
201606020600 AAXX 02064 67476 32980 01403 10183 20135 48///
                   333 10261 20094 59003=

################################################################################
#  SYNOPS from 67477, Mpika (Zambia) | 11-54S | 031-26E | 1400 m
################################################################################
201606240600 AAXX 24064 67477 12480 71205 10122 20/// 48575 69904 87500
                   333 10212 20116 59009 87610=
201606210600 AAXX 21064 67477 31960 01202 10169 20/// 48568 70500
                   333 10244 20094 58007=
201606200600 AAXX 20064 67477 31960 01203 10192 20/// 48560 70500
                   333 10243 20177 5////=
201606160600 AAXX 16064 67477 32980 00000 10156 20/// 48588
                   333 10225 20067 58002=
201606130600 AAXX 13064 67477 32480 80905 10132 20/// 48589 885//
                   333 10249 20132 58010 88610=
201606080600 AAXX 08064 67477 32480 40903 10156 20/// 48594 84100
                   333 10227 20114 58004 84812=
201606030900 AAXX 03094 67477 NIL=

################################################################################
#  SYNOPS from 67481, Isoka (Zambia) | 10-07S | 032-38E | 1360 m
################################################################################
201606280600 AAXX 28064 67481 31478 12001 10169 20126 48/// 70500 81100
                   333 10231 20100 59004 81815=
201606240600 AAXX 24064 67481 31475 63005 10138 20104 48/// 70522 86500
                   333 10235 20113 59006 86613=
201606210600 AAXX 21064 67481 31978 03302 10180 20137 48/// 70500
                   333 10260 20120 58001=
201606200600 AAXX 20064 67481 31577 10303 10178 20126 48/// 70500 81100
                   333 10260 20118 59017 81820=
201606140600 AAXX 14064 67481 31477 10303 10146 20115 48/// 70500 81501
                   333 10235 20100 58001 81610 81080=
201606140000 AAXX 14004 67481 31477 10303 10146 20115 48/// 70500 81501
                   333 10235 20100 58001 81610 81080=
201606130600 AAXX 13064 67481 31978 10303 10152 20090 48/// 70500 80001
                   333 10245 20112 58012 81080=
201606080600 AAXX 08064 67481 31475 60304 10160 20116 48/// 70522 85530
                   333 10225 20117 58000 85618 84361=
201606060600 AAXX 06064 67481 31978 13303 10175 20133 48/// 70500 80031
                   333 10263 20112 58005 81360 81080=
201606030900 AAXX 03094 67481 NIL=
201606030600 AAXX 03064 67481 31977 00902 10160 20104 48/// 70500
                   333 10245 20110 59005=
201606020600 AAXX 02064 67481 31476 30604 10155 20115 48/// 70500 83500
                   333 10250 20113 59003=
201606010600 AAXX 01064 67481 31475 32104 10162 20124 48/// 70500 83500
                   333 10244 20112 58012=

################################################################################
#  SYNOPS from 67531, Zambezi (Zambia) | 13-32S | 023-07E | 1077 m
################################################################################
201606240600 AAXX 24064 67531 31960 00805 10135 20072 48/// 70500
                   333 10256 20025 59008=
201606210600 AAXX 21064 67531 31970 00000 10111 20062 48/// 70500
                   333 10280 20026=
201606200600 AAXX 20064 67531 31970 01002 10099 20062 48/// 70500
                   333 10278 20030=
201606160600 AAXX 16064 67531 32980 00702 10132 20082 48///
                   333 10281 20034 59013=
201606140600 AAXX 14064 67531 31970 01404 10123 20086 48/// 70500
                   333 10265 20070 58013=
201606140000 AAXX 14004 67531 31970 01404 10123 20086 48/// 70500
                   333 10265 20070 58013=
201606130600 AAXX 13064 67531 31975 31003 10106 20064 48/// 70500 80001
                   333 10280 20052 5////=
201606080600 AAXX 08064 67531 32980 00000 10136 20110 48///
                   333 10284 20057 5////=
201606060600 AAXX 06064 67531 32980 00804 10157 20109 48///
                   333 10298 20080=
201606030900 AAXX 03094 67531 NIL=
201606030600 AAXX 03064 67531 32980 01005 10131 20074 48///
                   333 10262 20042 5////=
201606020600 AAXX 02064 67531 32980 01004 10145 20079 48///
                   333 10276 20065 5////=
201606010600 AAXX 01064 67531 32980 00702 10160 20082 48///
                   333 10287 20060 5////=

################################################################################
#  SYNOPS from 67541, Kasempa (Zambia) | 13-32S | 025-51E | 1234 m
################################################################################
201606280600 AAXX 28064 67541 31960 00000 10142 20102 48554 70500
                   333 10/// 20/// 59006=
201606240600 AAXX 24064 67541 31960 00705 10133 20090 48558 70500
                   333 10/// 20/// 59019=
201606210600 AAXX 21064 67541 31960 00000 10110 20079 48545 70500
                   333 10/// 20/// 59007=
201606200600 AAXX 20064 67541 31980 00000 10110 20076 48544 70500
                   333 10/// 20/// 59006=
201606160600 AAXX 16064 67541 32980 00000 10103 20066 48555
                   333 10/// 20/// 59006=
201606130600 AAXX 13064 67541 32480 20803 10144 20103 48571 70222 82500
                   333 10/// 20/// 58014 82610=
201606060600 AAXX 06064 67541 32980 20000 10181 20104 48564 70222 80002
                   333 10/// 20/// 58005 82080=
201606030900 AAXX 03094 67541 NIL=
201606030600 AAXX 03064 67541 32980 10000 10140 20086 48552 70222 80001
                   333 10/// 20/// 59018 81080=
201606020600 AAXX 02064 67541 32980 10903 10154 20089 48570 70222 80001
                   333 10/// 20/// 58006=

################################################################################
#  SYNOPS from 67543, Kabompo (Zambia) | 13-36S | 024-12E | 1075 m
################################################################################
201606280600 AAXX 28064 67543 31970 50000 10123 20098 48/// 70522 85030
                   333 10286 20098 5//// 85361=
201606240600 AAXX 24064 67543 31975 20000 10119 20073 48/// 70500 82030
                   333 10284 20065 5////=
201606210600 AAXX 21064 67543 31975 00000 10100 20072 48/// 70500
                   333 10296 20056=
201606200600 AAXX 20064 67543 31974 0//00 10106 20054 48/// 70500
                   333 10295 20054 5////=
201606130600 AAXX 13064 67543 31975 0//01 10122 20086 48/// 70500
                   333 10285 20078 5////=
201606080600 AAXX 08064 67543 31975 0//00 10146 20118 48/// 70500
                   333 10286 20102 5////=
201606060600 AAXX 06064 67543 31975 0//00 10130 20106 48/// 70500
                   333 10295 20055=
201606030900 AAXX 03094 67543 NIL=

################################################################################
#  SYNOPS from 67551, Solwezi (Zambia) | 12-11S | 026-23E | 1386 m
################################################################################
201606240600 AAXX 24064 67551 31958 01506 10113 20083 48567 70500
                   333 10223 20/// 59011 91024=
201606210600 AAXX 21064 67551 31970 00203 10132 20108 48560 70500
                   333 10258 20/// 58007 91023=
201606200600 AAXX 20064 67551 31970 01305 10128 20083 48548 70500
                   333 10251 20/// 91012=
201606160600 AAXX 16064 67551 32980 01505 10166 20082 48563
                   333 10249 20/// 59016 91024=
201606140600 AAXX 14064 67551 32980 03603 10116 20069 48580
                   333 10250 20/// 91025=
201606140000 AAXX 14004 67551 32980 03603 10116 20069 48580
                   333 10250 20/// 91025=
201606130600 AAXX 13064 67551 32980 01206 10122 20075 48577 80000
                   333 10258 20/// 58004 91025=
201606080600 AAXX 08064 67551 32975 00906 10130 20072 48576
                   333 10261 20/// 58004 91026=
201606060600 AAXX 06064 67551 32980 20905 10104 20081 48551 80001
                   333 10275 20/// 58008 82080 91024=
201606030900 AAXX 03094 67551 NIL=
201606030600 AAXX 03064 67551 32980 01405 10123 20067 48555
                   333 10233 20//0 59014 91023=
201606020600 AAXX 02064 67551 32980 00906 10124 20062 48568
                   333 10248 20//0 59003 91025=
201606010600 AAXX 01064 67551 32980 00905 10135 20091 48572
                   333 10254 20/// 58011 91025=

################################################################################
#  SYNOPS from 67561, Ndola (Zambia) | 13-00S | 028-39E | 1269 m
################################################################################
201606280600 AAXX 28064 67561 31959 10000 10137 20114 48545 70400 81030
                   333 10252 20089 59002 81360 91025=
201606240600 AAXX 24064 67561 31970 01213 10142 20096 48569 70500
                   333 10201 20103 59010 91026=
201606210600 AAXX 21064 67561 31957 00000 10138 20104 48557 70400
                   333 10251 20079 58007 91027=
201606130600 AAXX 13064 67561 31959 61006 10134 20102 48578 70411 86500
                   333 10250 20084 58004 86610 91027=
201606030900 AAXX 03094 67561 NIL=
201606020600 AAXX 02064 67561 31970 00000 10145 20080 48570 70500
                   333 10254 20085 59004=
201606010600 AAXX 01064 67561 31959 00000 10144 20093 48573 70400
                   333 10256 20081 58010=

################################################################################
#  SYNOPS from 67563, Kafironda (Zambia) | 12-36S | 028-07E | 1243 m
################################################################################
201606060600 AAXX 06064 67563 32970 01204 10180 20136 48/// 70100
                   333 10280 20055 58015=
201606030900 AAXX 03094 67563 NIL=
201606030600 AAXX 03064 67563 32970 00000 10130 20080 48/// 70100
                   333 10260 20020 5////=
201606020600 AAXX 02064 67563 32970 00000 10130 20084 48/// 70100
                   333 10260 20045 58002=
201606010600 AAXX 01064 67563 32970 00000 10145 20115 48/// 70100
                   333 10265 20040 58010=

################################################################################
#  SYNOPS from 67571, Serenje (Zambia) | 13-14S | 030-13E | 1384 m
################################################################################
201606280600 AAXX 28064 67571 32980 01506 10158 20122 48559 70500
                   333 10243 20101 58002=
201606210600 AAXX 21064 67571 32980 01205 10172 20080 48560 70500
                   333 10255 20117 58008=
201606200600 AAXX 20064 67571 32980 01505 10169 20089 48550 70500
                   333 10237 20091 59015=
201606160600 AAXX 16064 67571 32980 01205 10155 20080 48559 70500
                   333 10226 20075 59020=
201606140600 AAXX 14064 67571 32482 71210 10126 20092 48577 70222 875//
                   333 10212 20108 58005 87617=
201606140000 AAXX 14004 67571 32482 71210 10126 20092 48577 70222 875//
                   333 10212 20108 58005 87617=
201606130600 AAXX 13064 67571 32480 71210 10139 20105 48577 70222 875//
                   333 10226 20100 58002 87618=
201606080600 AAXX 08064 67571 32480 11508 10135 20099 48587 70500 81500
                   333 10228 20105 58003 81615
                   555 00162=
201606060600 AAXX 06064 67571 32582 41208 10170 20136 48569 70300 84500
                   333 10247 20134 58006 84620=
201606030900 AAXX 03094 67571 NIL=
201606030600 AAXX 03064 67571 32982 01206 10161 20079 48559
                   333 10231 20092 59012
                   555 00190=
201606010600 AAXX 01064 67571 32982 00906 10167 20064 48569
                   333 10225 20125 58008
                   555 00196=

################################################################################
#  SYNOPS from 67575, Mkushi (Zambia) | 13-38-00S | 029-26-00E | 1237 m
################################################################################
201606280600 AAXX 28064 67575 32980 10000 10160 20116 48/// 70200 81070
                   333 10265 20085 5//// 91360=
201606210600 AAXX 21064 67575 32975 00000 10162 20095 48///
                   333 10260 20060 5////=
201606200600 AAXX 20064 67575 32980 00000 10165 20099 48///
                   333 10255 20053 5////=
201606130600 AAXX 13064 67575 32480 81604 10150 20100 48/// 70322 88500
                   333 10260 20075 5//// 88617=
201606060600 AAXX 06064 67575 32480 31404 10168 20134 48/// 70310 83500
                   333 10250 20115 5//// 83612=
201606030900 AAXX 03094 67575 NIL=
201606030600 AAXX 03064 67575 32980 00602 10172 20082 48/// 70200
                   333 10243 20050 5////=
201606020600 AAXX 02064 67575 32980 01202 10155 20057 48/// 70200
                   333 10250 20077 5////=

################################################################################
#  SYNOPS from 67580, Msekera (Zambia) | 13-39S | 032-34E | 1025 m
################################################################################
201606280600 AAXX 28064 67580 32980 01205 10189 20124 48///
                   333 10284 20/// 59010=
201606240600 AAXX 24064 67580 31475 31510 10150 20085 48/// 70500 81530
                   333 10240 20/// 59006 81618 82360=
201606210600 AAXX 21064 67580 31975 00000 10195 20128 48/// 70500
                   333 10286 20/// 5////=
201606160600 AAXX 16064 67580 31975 01203 10189 20089 48/// 70500
                   333 10275 20/// 59026=
201606140600 AAXX 14064 67580 31975 01504 10150 20112 48/// 70500
                   333 10250 20/// 58000=
201606140000 AAXX 14004 67580 31975 01504 10150 20112 48/// 70500
                   333 10250 20/// 58000=
201606130600 AAXX 13064 67580 32580 51204 10182 20129 48/// 85800
                   333 10265 20/// 59001 81820 84622=
201606080900 AAXX 08094 67580 42680 11005 10215 20072 48/// 81100
                   333 58006 81830=
201606080600 AAXX 08064 67580 32480 11509 10160 20116 48/// 81500
                   333 10268 20/// 58005 81616=
201606060600 AAXX 06064 67580 32580 21507 10204 20134 48/// 82500
                   333 10287 20/// 58004 82620=
201606030900 AAXX 03094 67580 42680 21203 10242 20099 48/// 82100
                   333 5//// 82836=
201606030600 AAXX 03064 67580 32980 01505 10185 20104 48///
                   333 10274 20/// 59003=
201606010600 AAXX 01064 67580 32980 01203 10190 20091 48///
                   333 10268 20/// 58007=

################################################################################
#  SYNOPS from 67581, Chipata (Zambia) | 13-33S | 032-35E | 1028 m
################################################################################
201606280600 AAXX 28064 67581 32980 00803 10214 20118 48585
                   333 10276 20169 59006 91025=
201606240600 AAXX 24064 67581 32980 31215 10157 20085 48588 83030
                   333 10250 20084 59006 83360 91027=
201606210600 AAXX 21064 67581 32980 00605 10222 20098 48552
                   333 10243 20073 58012 91024=
201606200600 AAXX 20064 67581 32960 00905 10215 20114 48568 70500
                   333 10269 20109 59021 91023=
201606160600 AAXX 16064 67581 31960 00402 10199 20086 48574 70500
                   333 10266 20045 59025 91024=
201606140600 AAXX 14064 67581 32975 01703 10158 20/// 48592
                   333 10251 20080 59003 91027=
201606140000 AAXX 14004 67581 32975 01703 10158 20/// 48592
                   333 10251 20080 59003 91027=
201606130600 AAXX 13064 67581 32680 31203 10178 20120 48572 83100
                   333 10260 20098 59001 81830 91027=
201606090600 AAXX 09064 67581 32480 21206 10171 20075 48599 82100
                   333 10225 20056 59001 82815 91028=
201606080600 AAXX 08064 67581 32570 11412 10163 20087 48600 81500
                   333 10262 20092 58003 81620
                   555 00120 91028=
201606060600 AAXX 06064 67581 32580 21210 10199 20135 48587 82500
                   333 10255 20134 58002 82610 91027=
201606030900 AAXX 03094 67581 NIL=
201606030600 AAXX 03064 67581 32975 00000 10190 20100 48578
                   333 10265 20100 59011
                   555 00109 91025=
201606020600 AAXX 02064 67581 32975 21604 10197 20074 48591 82030
                   333 10262 20110 58004 82360 91026=
201606010600 AAXX 01064 67581 32980 01705 10201 20069 48587
                   333 10263 20106 5////
                   555 00121 91026=

################################################################################
#  SYNOPS from 67583, Lundazi (Zambia) | 12-17S | 033-12E | 1143 m
################################################################################
201606280600 AAXX 28064 67583 31959 01801 10138 20102 70500
                   333 10/// 20/// 59007=
201606240600 AAXX 24064 67583 31459 21503 10146 20106 70500 81730
                   333 10/// 20/// 59007 81710 82359=
201606200600 AAXX 20064 67583 32980 01501 10166 20116
                   333 10/// 20/// 59014=
201606130600 AAXX 13064 67583 32580 31202 10175 20135 82531
                   333 10/// 20/// 58006 82620 81360 81080=
201606080600 AAXX 08064 67583 32980 01206 10170 20103 48///
                   333 10/// 20/// 58002=
201606030900 AAXX 03094 67583 NIL=
201606030600 AAXX 03064 67583 32980 01501 10174 20115 48///
                   333 10//0 20//0 59006=
201606020600 AAXX 02064 67583 32980 01203 10175 20100 48///
                   333 10//0 20//0 58002=
201606010900 AAXX 01094 67583 42680 11201 10232 20130 48/// 81100
                   333 58004 81830=

################################################################################
#  SYNOPS from 67599, Mfuwe (Zambia) | 13-16S | 031-56E | 568 m
################################################################################
201606240600 AAXX 24064 67599 32580 20000 10176 20106 48588 81130
                   333 10283 20140 81825 81360 91026=
201606210600 AAXX 21064 67599 31970 00000 10180 20122 48563 70500
                   333 10325 20120 58005 91023=
201606200600 AAXX 20064 67599 31970 00000 10190 20114 48560 70500
                   333 10325 20105 59018 91022=
201606130600 AAXX 13064 67599 32480 20000 10173 20139 48591 82100
                   333 10305 20116 58009 82812 91026=
201606080600 AAXX 08064 67599 32980 00000 10190 20131 48594
                   333 10318 20140 58006 91026=
201606070600 AAXX 07064 67599 32980 00000 10198 20144 48594
                   333 10321 20125 58011=
201606060600 AAXX 06064 67599 32980 20000 10210 20164 48588 81030
                   333 10330 20145 58007 81360=
201606030900 AAXX 03094 67599 NIL=
201606030600 AAXX 03064 67599 32980 00000 10165 20113 48563
                   333 10310 20095 59011 91024=
201606020600 AAXX 02064 67599 32980 60000 10180 20100 48581 86030
                   333 10306 20095 58004 86360
                   555 00/// 91025=

################################################################################
#  SYNOPS from 67625, Kalabo (Zambia) | 14-51S | 022-42E | 1033 m
################################################################################
201606280600 AAXX 28064 67625 32982 01205 10143 20082 48///
                   333 10257 20100 59004=
201606240600 AAXX 24064 67625 32982 71607 10114 20067 48/// 87030
                   333 10255 20093 58000 87361=
201606210600 AAXX 21064 67625 32982 00904 10139 20061 48///
                   333 10273 20104 58002=
201606200600 AAXX 20064 67625 32982 00906 10144 20060 48///
                   333 10279 20092 59001=
201606160600 AAXX 16064 67625 32982 00904 10141 20084 48///
                   333 10274 20100 59015=
201606130600 AAXX 13064 67625 32982 81003 10123 20085 48/// 80007
                   333 10274 20090 88275=
201606080600 AAXX 08064 67625 32982 01206 10150 20120 48///
                   333 10279 20121 59004=
201606060600 AAXX 06064 67625 32982 00904 10154 20115 48///
                   333 10279 20122 58002=
201606030900 AAXX 03094 67625 NIL=
201606030600 AAXX 03064 67625 32982 00804 10143 20083 48///
                   333 10256 20104 5////=
201606010600 AAXX 01064 67625 32982 01206 10153 20085 48///
                   333 10276 20113 5////=

################################################################################
#  SYNOPS from 67633, Mongu (Zambia) | 15-15S | 023-09E | 1052 m
################################################################################
201606240600 AAXX 24064 67633 32980 70910 10140 20096 48578 87030
                   333 10277 20119 58003 87360 91027=
201606210600 AAXX 21064 67633 32980 00904 10144 20062 48550
                   333 10296 20144 59001 91023=
201606200600 AAXX 20064 67633 32980 00905 10146 20051 48553
                   333 10295 20096 91023=
201606130600 AAXX 13064 67633 32980 30906 10130 20085 48545 70222 80008
                   333 10287 20100 59018 86280 91023=
201606060600 AAXX 06064 67633 32980 00908 10172 20101 48563
                   333 10295 20130 59004 91024=
201606030900 AAXX 03094 67633 NIL=
201606030600 AAXX 03064 67633 32980 00905 10140 20087 48541 70200
                   333 10275 20105 59030=
201606020600 AAXX 02064 67633 32980 00904 10155 20084 48572 70200
                   333 10274 20099 58008=
201606010600 AAXX 01064 67633 32980 01804 10160 20088 48563 70200
                   333 10293 20124 58023 91025=

################################################################################
#  SYNOPS from 67641, Kaoma (Zambia) | 14-48S | 024-48E | 1213 m
################################################################################
201606280600 AAXX 28064 67641 32980 00000 10107 20085 48515
                   333 10/// 20065 59001 91020=
201606130600 AAXX 13064 67641 32980 00401 10116 20085 48534
                   333 10/// 20090 91022=
201606080600 AAXX 08064 67641 32980 01002 10151 20116 48575
                   333 10/// 20/// 59002=
201606030900 AAXX 03094 67641 NIL=
201606030600 AAXX 03064 67641 32982 00000 10099 20073 48542
                   333 10//0 20067 59014 91023=
201606010600 AAXX 01064 67641 32982 00000 10098 20074 48552
                   333 10//0 20077 58014 91024=

################################################################################
#  SYNOPS from 67655, Mumbwa (Zambia) | 15-04S | 027-11E | 1216 m
################################################################################
201606240600 AAXX 24064 67655 32980 01006 10127 20096 48596
                   333 10230 20/// 59004 91028=
201606030900 AAXX 03094 67655 NIL=

################################################################################
#  SYNOPS from 67659, Kafue Polder (Zambia) | 15-46S | 027-55E | 978 m
################################################################################
201606030900 AAXX 03094 67659 NIL=

################################################################################
#  SYNOPS from 67662, Kabwe Agric (Zambia) | 14-24S | 028-30E | 1165 m
################################################################################
201606030900 AAXX 03094 67662 NIL=

################################################################################
#  SYNOPS from 67663, Kabwe (Zambia) | 14-27S | 028-28E | 1206 m
################################################################################
201606240600 AAXX 24064 67663 32480 40913 10140 20091 48591 83530
                   333 10222 20111 59010 83617 81360=
201606210600 AAXX 21064 67663 32980 00905 10170 20079 48559
                   333 10259 20093 59006=
201606200600 AAXX 20064 67663 32980 00803 10155 20078 48601
                   333 10252 20101 58023=
201606130600 AAXX 13064 67663 32480 70913 10138 20115 48603 85530
                   333 10240 20121 58006=
201606080600 AAXX 08064 67663 32980 00903 10140 20105 48609 70200
                   333 10238 20108 58001=
201606030900 AAXX 03094 67663 NIL=
201606030600 AAXX 03064 67663 32980 00903 10157 20093 48594
                   333 10240 20079 59013=
201606020600 AAXX 02064 67663 32980 00903 10160 20079 48598 70200
                   333 10234 20080 58002=
201606010600 AAXX 01064 67663 32980 01807 10154 20094 48595
                   333 10244 20102 58016=

################################################################################
#  SYNOPS from 67665, Lusaka Internationalairport (Zambia) | 15-19S | 028-27E | 1152 m
################################################################################
201607010600 AAXX 01064 67665 32980 01402 10115 20043 48574 70300
                   333 10275 58000 555 00///=
201607010300 AAXX 01034 67665 42980 00902 10094 20021 48555
                   333 59006 91024=
201607010000 AAXX 01004 67665 42980 00602 10086 20021 48561
                   333 58000=
201606302100 AAXX 30214 67665 42980 00903 10116 20045 48575
                   333 58003 91026=
201606301800 AAXX 30184 67665 42980 01806 10160 20086 48575
                   333 10275 58001=
201606301500 AAXX 30154 67665 42980 01109 10237 20131 48577
                   333 58004=
201606301200 AAXX 30124 67665 42980 00908 10235 20128 48581
                   333 58007=
201606300900 AAXX 30094 67665 42980 00909 10212 20125 48603 70200
                   333 58033=
201606300600 AAXX 30064 67665 32980 01004 10129 20081 48584 70200
                   333 10266 20//0 58012=
201606291800 AAXX 29184 67665 42980 00905 10164 20090 48574 70200
                   333 10266 58004=
201606291200 AAXX 29124 67665 42980 00910 10257 20136 48578 70200
                   333 58007 91024=
201606290900 AAXX 29094 67665 42980 01015 10224 20152 48595
                   333 58008=
201606290600 AAXX 29064 67665 42980 01003 10144 20099 48576
                   333 10256 58000=
201606280900 AAXX 28094 67665 42680 20610 10212 20128 48586=
201606280600 AAXX 28064 67665 42980 01202 10138 20098 48576 70200
                   333 59006=
201606280000 AAXX 28004 67665 42980 00803 10110 20077 48559 70200
                   333 59014=
201606272100 AAXX 27214 67665 42980 00903 10123 20086 48572 70200
                   333 59008=
201606270600 AAXX 27064 67665 42980 01203 10130 20093 48581 70200
                   333 10230 20//0 59006=
201606270300 AAXX 27034 67665 42980 01603 10100 20070 48561 70200
                   333 59008=
201606261800 AAXX 26184 67665 42980 00803 10134 20090 48579 70200
                   333 59001=
201606261200 AAXX 26124 67665 42680 40710 10212 20129 38578 70210 84100
                   333 59005 84830=
201606251800 AAXX 25184 67665 42980 21003 10128 20080 48580 70122 82030
                   333 10218 58004 82360=
201606241200 AAXX 24124 67665 42680 40711 10198 20122 48586 84500
                   333 59015 84632=
201606240900 AAXX 24094 67665 42580 61014 10183 20108 48607 70222 86500
                   333 59011 86620=
201606231800 AAXX 23184 67665 42980 20505 10158 20060 48602 82030
                   333 10234 58011 82360=
201606231500 AAXX 23154 67665 42980 31014 10200 20086 48598 83030
                   333 58014 83360=
201606231200 AAXX 23124 67665 42680 30816 10209 20124 48602 70200 83100
                   333 58015 83840=
201606230600 AAXX 23064 67665 32980 01106 10106 20084 48599
                   333 10256 58017=
201606220600 AAXX 22064 67665 42980 01107 10014 20094 48588 70200
                   333 58021=
201606210600 AAXX 21064 67665 32980 01302 10138 20088 48566 70200
                   333 10260 20//0 58002=
201606210300 AAXX 21034 67665 42980 00000 10091 20071 48546 70200
                   333 58004=
201606202100 AAXX 20214 67665 42980 01002 10125 20081 48561 70200
                   333 59004=
201606201800 AAXX 20184 67665 42980 00803 10152 20113 48562 70200
                   333 59006=
201606201200 AAXX 20124 67665 42980 01006 10249 20162 48559 70200
                   333 59013=
201606200900 AAXX 20094 67665 42980 00705 10220 20139 48582
                   333 59014=
201606200600 AAXX 20064 67665 42980 01304 10138 20070 48566
                   333 59015=
201606200000 AAXX 20004 67665 42980 02005 10079 20021 48546
                   333 59012=
201606192100 AAXX 19214 67665 42980 01802 10105 20055 48562
                   333 59006=
201606191800 AAXX 19184 67665 42980 01502 10151 20087 48568 70200
                   333 10255 58002=
201606191500 AAXX 19154 67665 42980 01204 10232 20148 48562 70200
                   333 59001=
201606191200 AAXX 19124 67665 42980 01005 10244 20159 48571 70200
                   333 59003=
201606190600 AAXX 19064 67665 32980 01404 10130 20071 48579 70200
                   333 10279 20//0 58001
                   555 00///=
201606190300 AAXX 19034 67665 42980 01102 10067 20010 48556
                   333 58011 91024=
201606190000 AAXX 19004 67665 42980 00403 10065 20015 48556
                   333 58004=
201606181800 AAXX 18184 67665 42980 01102 10151 20098 48566
                   333 10279 58007=
201606181500 AAXX 18154 67665 42980 01010 10231 20124 48563 59013=
201606181200 AAXX 18124 67665 42980 00910 10241 20126 48574
                   333 58015=
201606180900 AAXX 18094 67665 42980 00912 10210 20106 48591 70200
                   333 58015=
201606180600 AAXX 18064 67665 32980 01106 10135 20048 48576 70200
                   333 10270 20//0 58016=
201606171800 AAXX 17184 67665 42980 00904 10160 20105 48560
                   333 59002=
201606171500 AAXX 17154 67665 42980 00908 10245 20148 48553
                   333 59006=
201606171200 AAXX 17124 67665 42980 01210 10225 20151 48563
                   333 59004=
201606170600 AAXX 17064 67665 32980 01104 20084 48562
                   333 59005=
201606161500 AAXX 16154 67665 42980 01108 10243 20139 48552 70200
                   333 59019=
201606160900 AAXX 16094 67665 42980 01007 10221 20166 48583 70200
                   333 59018=
201606160600 AAXX 16064 67665 42980 01703 10128 20099 48567 70200
                   333 59020=
201606160000 AAXX 16004 67665 42980 00000 10083 20065 48548 70200
                   333 59029=
201606152100 AAXX 15214 67665 42980 01003 10114 20092 48567 70200
                   333 59020=
201606150000 AAXX 15004 67665 42980 01001 10068 20050 48573 70200
                   333 59007=
201606142100 AAXX 14214 67665 42980 01002 10107 20074 48585 70200
                   333 59001=
201606141800 AAXX 14184 67665 42980 01003 10141 20105 48585 70200
                   333 58009=
201606141500 AAXX 14154 67665 42680 10904 10207 20137=
201606140600 AAXX 14064 67665 32980 01304 10097 20086 48589
                   333 10165 58002=
201606140300 AAXX 14034 67665 42980 01106 10082 20062 48575
                   333 58003=
201606132100 AAXX 13214 67665 42980 01704 10090 20070
                   333 59005=
201606131800 AAXX 13184 67665 42980 41203 10126 20090 48592 70222 84030
                   333 10182 58003 84360=
201606131500 AAXX 13154 67665 42680 61205 10169 20116 48584 70122 86100
                   333 59001 86840=
201606131200 AAXX 13124 67665 42580 80706 10172 20117 48583 70222 885//
                   333 58000 88628=
201606130900 AAXX 13094 67665 42580 80716 10162 20113=
201606130600 AAXX 13064 67665 32360 80913 10140 20104 48594 887//
                   333 10259 20//0 58017 88707
                   555 00///=
201606130300 AAXX 13034 67665 24908 01612 10134 20104 48627 70200
                   333 58009 91027=
201606130000 AAXX 13004 67665 42980 01416 10134 20094 48584
                   333 58019 91027=
201606122100 AAXX 12214 67665 42980 01207 10117 20069 48592 70200
                   333 58020 91028=
201606121800 AAXX 12184 67665 42980 01909 10145 20090 48592
                   333 58019=
201606121500 AAXX 12154 67665 42980 00913 10215 20101 48592
                   333 58024=
201606121200 AAXX 12124 67665 42680 28020 10224 48590 82100
                   333 58009 82080=
201606120900 AAXX 12094 67665 42980 00819 10216 20115 48607 70200
                   333 58016=
201606111800 AAXX 11184 67665 42980 00803 10146 20080 48574
                   333 10250 58008=
201606111500 AAXX 11154 67665 42980 11107 10234 20076 48560 80001=
201606111200 AAXX 11124 67665 42980 10708 10238 20124 48575 80001
                   333 58010 81080=
201606110600 AAXX 11064 67665 42980 11402 10101 20082 48571 80002
                   333 58000 81080=
201606110300 AAXX 11034 67665 42980 02004 10063 20050 48549
                   333 59008=
201606102100 AAXX 10214 67665 42980 01104 10118 20056 48564
                   333 59008=
201606100900 AAXX 10094 67665 42580 10810 10196 20110 48585 70100 81500
                   333 48585 81620=
201606100300 AAXX 10034 67665 42980 01103 10070 20045 48558 70200
                   333 59011=
201606092100 AAXX 09214 67665 42980 00906 10089 20059 48569 70200
                   333 59017=
201606091800 AAXX 09184 67665 42980 00904 10131 20074 48572
                   333 59018=
201606090900 AAXX 09094 67665 42980 00713 10191 20114 48600 70200
                   333 59011=
201606090600 AAXX 09064 67665 32980 00805 10111 20070 48583 70200
                   333 10228 20//0 59014=
201606090300 AAXX 09034 67665 42980 01502 10063 20051 48566 70200
                   333 59007=
201606082100 AAXX 08214 67665 42980 01205 10120 20077 48589 70200
                   333 58008=
201606081800 AAXX 08184 67665 42980 01204 10125 20090 48589 70200
                   333 58004=
201606081200 AAXX 08124 67665 42680 30912 10217 20118=
201606080600 AAXX 08064 67665 32980 01006 10125 20113 48600
                   333 10225 59001=
201606080300 AAXX 08034 67665 42980 21702 10092 20073 48578 58002 82360=
201606072100 AAXX 07214 67665 42980 50000 10140 20103 48599 70222 85030
                   333 58007 85360=
201606071800 AAXX 07184 67665 42980 10166 10124 48598 83030
                   333 58005 83360=
201606071500 AAXX 07154 67665 42680 50909 10204 20139 48591 70222 85500
                   333 58008 85645=
201606071200 AAXX 07124 67665 42680 61009 10207 20133 48599 70222 86500
                   333 58010 86630=
201606070900 AAXX 07094 67665 42580 70814 10181 20131 48615 70222 876//
                   333 58014 87515=
201606070600 AAXX 07064 67665 32480 70815 10155 20125 48604 70322 8563/
                   333 10231 20//0 58016 85510 83360
                   555 00///=
201606070300 AAXX 07034 67665 42980 11105 10124 20094 48591=
201606061200 AAXX 06124 67665 42680 71111 10204 20119 48588 875//
                   333 58021 87635=
201606060900 AAXX 06094 67665 42680 60915 10201 20101 48604 70222 87500
                   333 58014 86628=
201606051800 AAXX 05184 67665 42980 01303 10159 20084 48571 70100
                   333 10260 58016=
201606051200 AAXX 05124 67665 42680 40708 10232 20146 48576 84100
                   333 58020 84835=
201606050600 AAXX 05064 67665 32980 01305 10148 20107 48576
                   333 58012=
201606040900 AAXX 04094 67665 42580 10813 10216 20144 48579 70300 81100
                   333 59006 81825 91025=
201606040600 AAXX 04064 67665 42980 00906 10139 20102 48563 70200
                   333 59012=
201606032100 AAXX 03214 67665 42980 01601 10124 20089 48554 70200
                   333 59014=
201606031800 AAXX 03184 67665 42980 01204 10143 20105 48555
                   333 59015=
201606031500 AAXX 03154 67665 42680 30910 10231 20143 48561 70200
                   333 59010 83838 91022=
201606031200 AAXX 03124 67665 42680 30910 10231 20143 48561 70200 83100
                   333 59010 83838=
201606030900 AAXX 03094 67665 NIL=
201606030600 AAXX 03064 67665 32980 11002 10136 20095 48575 70200 81030
                   333 10243 20//0 59009 81360=
201606030300 AAXX 03034 67665 42980 01502 10085 20065 48554 70200
                   333 59009=
201606030000 AAXX 03004 67665 42980 01602 10084 20064 48553
                   333 59016=
201606022100 AAXX 02214 67665 42980 01602 10115 20086 48567 70200
                   333 59010=
201606021800 AAXX 02184 67665 42980 01305 10147 20110 48571 70200
                   333 59007=
201606021500 AAXX 02154 67665 42980 00709 10221 20158 48559 70200
                   333 59005=
201606021200 AAXX 02124 67665 11010 10233 20172=
201606020600 AAXX 02064 67665 42980 01303 10115 20080 48580
                   333 10240 20//0 59004=
201606020300 AAXX 02034 67665 42980 01802 10070 20046 48559
                   333 58005=
201606012100 AAXX 01214 67665 42980 01803 10115 20075 48576
                   333 58006=
201606011800 AAXX 01184 67665 34298 01303 10140 20095 48576 70200
                   333 58004=
201606011500 AAXX 01154 67665 42980 00906 10218 20117 48569 70200
                   333 58007=
201606011200 AAXX 01124 67665 42680 21105 10226 20137 48576 70200 82100
                   333 58007 82845=
201606010600 AAXX 01064 67665 32980 11102 10118 20084 48584 70200 81030
                   333 10280 20//0 58011 81360
                   555 00///=

################################################################################
#  SYNOPS from 67666, Lusaka City Airport (Zambia) | 15-25-00S | 028-28-00E | 1280 m
################################################################################
201606280600 AAXX 28064 67666 32980 00904 10150 20111 48569
                   333 10229 20119 59007 91025=
201606240600 AAXX 24064 67666 32380 70908 10111 20091 48578 875//
                   333 10216 20093 58013 87708 91027=
201606210600 AAXX 21064 67666 32980 00905 10170 20025 48565
                   333 10246 20110 58005 91025=
201606200600 AAXX 20064 67666 32980 01106 10157 20060 48564
                   333 10242 20108 59022 91024=
201606160600 AAXX 16064 67666 32980 00905 10160 20084 48563
                   333 10231 20085 59014 91025=
201606140600 AAXX 14064 67666 32980 01206 10126 20092 48591
                   333 10181 20/// 58003 91028=
201606140000 AAXX 14004 67666 32980 01206 10126 20092 48591
                   333 10181 20/// 58003 91028=
201606130600 AAXX 13064 67666 32480 80911 10131 20102 48581 70222 885//
                   333 10225 20///=
201606080600 AAXX 08064 67666 32980 00910 10140 20107 48589
                   333 10227 20/// 58003 91028=
201606060600 AAXX 06064 67666 32980 00909 10157 20125 48584
                   333 10251 20/// 58010 91027=
201606030900 AAXX 03094 67666 NIL=
201606030600 AAXX 03064 67666 32980 01511 10165 20125 48574
                   333 10232 20//0 59012 91025=
201606010600 AAXX 01064 67666 32980 00905 10167 20085 48584
                   333 10235 20/// 58002 91026=

################################################################################
#  SYNOPS from 67667, Mount Makulu (Zambia) | 15-33S | 028-15E | 1213 m
################################################################################
201606280600 AAXX 28064 67667 32980 00901 10172 20121
                   333 10246 20086 59003=
201606240600 AAXX 24064 67667 32580 50000 10128 20095 85500
                   333 10220 20080 59008 85625=
201606210600 AAXX 21064 67667 32980 00901 10168 20065
                   333 10253 20080 58000=
201606200600 AAXX 20064 67667 32980 00000 10170 20080
                   333 10246 20053 59013=
201606160600 AAXX 16064 67667 32980 00000 10149 20101 48///
                   333 10250 20060 59013=
201606130600 AAXX 13064 67667 32580 80915 10140 20102 885//
                   333 10230 20114 58006 88625=
201606080600 AAXX 08064 67667 32680 10906 10150 20100 48/// 81100
                   333 10219 20087 58001 81834=
201606060600 AAXX 06064 67667 32680 10906 10170 20122 81100
                   333 10250 20125 58011 81830=
201606030900 AAXX 03094 67667 NIL=
201606030600 AAXX 03064 67667 32980 10906 10180 20098 48/// 80001
                   333 10235 20/// 59012=
201606020600 AAXX 02064 67667 32980 00905 10178 20069 48///
                   333 10227 20053 59002=
201606010600 AAXX 01064 67667 32980 00901 10175 20074 48///
                   333 10235 20074 58012=

################################################################################
#  SYNOPS from 67673, Petauke (Zambia) | 14-15S | 031-17E | 1035 m
################################################################################
201606280600 AAXX 28064 67673 32984 00000 10180 20141 48590
                   333 10/// 20130 59001=
201606230600 AAXX 23064 67673 32584 20902 10170 20096 48609 82100
                   333 10//0 20115 58005 82825=
201606210600 AAXX 21064 67673 32980 00000 10185 20085 48553
                   333 10/// 20145 59014=
201606200600 AAXX 20064 67673 32980 01202 10210 20080 48587
                   333 10/// 20134 59006=
201606140600 AAXX 14064 67673 32580 60902 10155 20112 48600 83130
                   333 10/// 20110 58006 83820 86360=
201606140000 AAXX 14004 67673 32580 60902 10155 20112 48600 83130
                   333 10/// 20110 58006 83820 86360=
201606130600 AAXX 13064 67673 32580 41206 10160 20144 48594 82530
                   333 10/// 20120 58007 82625 82360=
201606080600 AAXX 08064 67673 32680 11008 10160 20122 48604 81100
                   333 10/// 20131 58001 81830=
201606030900 AAXX 03094 67673 42584 30803 10245 20080 48596 83100
                   333 59014 83830=
201606030600 AAXX 03064 67673 32984 00802 10210 20095 48596
                   333 10/// 20130 59011=
201606020600 AAXX 02064 67673 32984 00802 10205 20085 48607
                   333 10//0 20130 58018=
201606010600 AAXX 01064 67673 32980 01302 10200 20094 48588
                   333 10//0 20120 58004=

################################################################################
#  SYNOPS from 67731, Senanga (Zambia) | 16-06S | 023-16E | 1027 m
################################################################################
201606280600 AAXX 28064 67731 32980 014// 10139 20090 48///
                   333 10248 20085 59016=
201606240600 AAXX 24064 67731 32680 707// 10143 20063 48///
                   333 10228 20097 58001 84650=
201606210600 AAXX 21064 67731 32980 019// 10171 20089 48///
                   333 10299 20/// 58004=
201606200600 AAXX 20064 67731 32980 009// 10160 20063 48///
                   333 10287 20104 59014=
201606160600 AAXX 16064 67731 32980 016// 10168 20096 48///
                   333 10280 20109 59017=
201606140600 AAXX 14064 67731 32980 021// 10141 20105 48///
                   333 10261 20109 58009=
201606140000 AAXX 14004 67731 32980 021// 10141 20105 48///
                   333 10261 20109 58009=
201606130600 AAXX 13064 67731 32980 410// 10169 20105 48/// 70322 80002
                   333 10281 20099 5//// 84080=
201606090600 AAXX 09064 67731 32980 020// 10149 20085 48///
                   333 10278 20097 59005=
201606080600 AAXX 08064 67731 32980 028// 10188 20094 48///
                   333 10288 20103 58000=
201606030900 AAXX 03094 67731 NIL=
201606030600 AAXX 03064 67731 32980 009// 10139 20073 48///
                   333 10296 20094 59017=
201606020600 AAXX 02064 67731 32980 010// 10148 20080 48///
                   333 10267 20104 59002=
201606010600 AAXX 01064 67731 32980 007// 10163 20080 48///
                   333 10256 20101 58018=

################################################################################
#  SYNOPS from 67741, Sesheke (Zambia) | 17-28S | 024-18E | 949 m
################################################################################
201606280600 AAXX 28064 67741 32980 00000 10107 20098 48562
                   333 10246 20040 59008=
201606240600 AAXX 24064 67741 32980 60801 10125 20097 48591 86040
                   333 10271 20043 59004 86362=
201606030900 AAXX 03094 67741 NIL=

################################################################################
#  SYNOPS from 67743, Livingstone (Zambia) | 17-49S | 025-49E | 985 m
################################################################################
201606030900 AAXX 03094 67743 NIL=

################################################################################
#  SYNOPS from 67751, Magoye (Zambia) | 16-00S | 027-36E | 1018 m
################################################################################
201606280600 AAXX 28064 67751 32980 01702 10151 20100
                   333 10/// 20056 58008=
201606240600 AAXX 24064 67751 32980 01302 10146 20099
                   333 10/// 20080 58006=
201606210600 AAXX 21064 67751 32980 01502 10161 20127
                   333 10/// 20049 59003=
201606200600 AAXX 20064 67751 32980 01302 10144 20094
                   333 10/// 20054 58014=
201606130600 AAXX 13064 67751 32580 84505 10166 20105 70222 887//
                   333 10//0 20096 5//// 88725=
201606060600 AAXX 06064 67751 32980 014// 10157 20115 48///
                   333 10283 20125 58027=
201606030900 AAXX 03094 67751 NIL=
201606030600 AAXX 03064 67751 32980 00902 10170 20105 48///
                   333 10//0 20080 58012=
201606020600 AAXX 02064 67751 32980 00802 10137 20078 48///
                   333 10//0 20057 5////=
201606010600 AAXX 01064 67751 32980 01501 10151 20088 48///
                   333 10/// 20072 5////=

################################################################################
#  SYNOPS from 67753, Choma (Zambia) | 16-50S | 027-04E | 1213 m
################################################################################
201606280600 AAXX 28064 67753 31960 00000 10103 20092 48558 70500
                   333 10226 20047 5////=
201606240600 AAXX 24064 67753 31960 21108 10124 20091 48589 70500 82030
                   333 10210 20077 5////=
201606210600 AAXX 21064 67753 31960 00000 10139 20064 48562 70500
                   333 10251 20049=
201606200600 AAXX 20064 67753 31960 00000 10122 20062 48/// 70500
                   333 10245 20044 5////=
201606160600 AAXX 16064 67753 31960 00902 10136 20074 48/// 70500
                   333 10235 20049 5////=
201606140600 AAXX 14064 67753 31960 80000 10103 20094 48586 70500
                   333 10202 20055 5////=
201606140000 AAXX 14004 67753 31960 80000 10103 20094 48586 70500
                   333 10202 20055 5////=
201606130600 AAXX 13064 67753 31560 30000 10128 20112 48/// 70500 83500
                   333 10229 20102 5////=
201606090600 AAXX 09064 67753 31960 10000 10130 20017 48/// 70500 80001
                   333 10222 20035 5////=
201606080600 AAXX 08064 67753 31960 00712 10//0 20114 48584 70500
                   333 10229 20094 59002=
201606060600 AAXX 06064 67753 32560 10914 10165 20138 48584 81100
                   333 10248 20063 58013 81825=
201606030900 AAXX 03094 67753 NIL=
201606030600 AAXX 03064 67753 31960 00000 10135 20088 48562 70500
                   333 10234 20054 5////=
201606020600 AAXX 02064 67753 31960 00000 10124 20075 48/// 70500
                   333 10230 20041 5////=
201606010600 AAXX 01064 67753 31960 00000 10145 20090 48582 70500
                   333 10236 20064 58010=

################################################################################
#  SYNOPS from 67855, Lupaki (Zambia) | 17-03-00S | 024-46-00E | 1000 m
################################################################################
201607010600 AAXX 01064 67855 31970 00000 10074 20048 3//// 48/// 70500
                   333 20051 5////=
201606301800 AAXX 30184 67855 NIL=
201606301200 AAXX 30124 67855 41970 01601 10270 20099 3//// 48/// 70500
                   333 5////=
201606300600 AAXX 30064 67855 NIL=
201606291800 AAXX 29184 67855 NIL=
201606291200 AAXX 29124 67855 42975 03602 10278 20086 3//// 48///
                   333 5////=
201606290600 AAXX 29064 67855 31970 00000 10082 20044 3//// 48/// 70500
                   333 20048 5////=
201606281200 AAXX 28124 67855 42975 01901 10260 20078 3//// 48///
                   333 5////=
201606280600 AAXX 28064 67855 31970 00000 10092 20045 3//// 48/// 70500
                   333 20054 5////=
201606271200 AAXX 27124 67855 42675 23002 10248 20078 3//// 48/// 82100
                   333 5//// 82830=
201606270600 AAXX 27064 67855 31970 11801 10060 20023 3//// 48/// 70500 81030
                   333 20022 5////=
201606261800 AAXX 26184 67855 NIL=
201606261200 AAXX 26124 67855 NIL=
201606260600 AAXX 26064 67855 31970 01601 10076 20035 3//// 48/// 70500
                   333 20028 5////=
201606251800 AAXX 25184 67855 NIL=
201606251200 AAXX 25124 67855 42675 53602 10218 20117 3//// 48/// 81130
                   333 5//// 81830 85360=
201606250600 AAXX 25064 67855 31970 00000 10058 20040 3//// 48/// 70511
                   333 20040 5////=
201606241800 AAXX 24184 67855 NIL=
201606241200 AAXX 24124 67855 42675 70000 10218 20061 3//// 48/// 8317/
                   333 5//// 83830 87360=
201606240600 AAXX 24064 67855 32975 70000 71801 8707/
                   333 20068 5//// 87360=
201606231800 AAXX 23184 67855 NIL=
201606231200 AAXX 23124 67855 42675 60605 10244 20070 3//// 48/// 82270
                   333 5//// 82835 86360=
201606230600 AAXX 23064 67855 31970 40000 10076 20063 3//// 48/// 70511 84030
                   333 20055 5//// 84360=
201606221800 AAXX 22184 67855 NIL=
201606221200 AAXX 22124 67855 42675 40602 10258 20051 3//// 48/// 84100
                   333 5//// 84840=
201606220600 AAXX 22064 67855 31970 00605 10130 20063 3//// 48/// 70500
                   333 20045 5////=
201606211800 AAXX 21184 67855 NIL=
201606211200 AAXX 21124 67855 42975 01801 10272 20005 3//// 48///
                   333 5////=
201606210600 AAXX 21064 67855 31970 00000 10070 21005 3//// 48/// 70500
                   333 20035 5////=
201606201800 AAXX 20184 67855 NIL=
201606201200 AAXX 20124 67855 41970 00000 10264 20003 3//// 48/// 70500
                   333 5////=
201606200600 AAXX 20064 67855 31970 00000 10064 20000 3//// 48/// 70500
                   333 20028 5////=
201606191800 AAXX 19184 67855 NIL=
201606191200 AAXX 19124 67855 41970 02003 10262 20015 3//// 48/// 70500
                   333 5////=
201606190600 AAXX 19064 67855 31970 00000 10074 20029 3//// 48/// 70500
                   333 20044 5////=
201606181800 AAXX 18184 67855 NIL=
201606181200 AAXX 18124 67855 42675 10602 10266 20073 3//// 48/// 81100
                   333 5//// 81840=
201606180600 AAXX 18064 67855 NIL=
201606171800 AAXX 17184 67855 NIL=
201606171200 AAXX 17124 67855 42975 01802 10288 20070 3//// 48///
                   333 5////=
201606170600 AAXX 17064 67855 31970 01801 10116 20040 3//// 48/// 70500
                   333 20047 5////=
201606161800 AAXX 16184 67855 NIL=
201606161200 AAXX 16124 67855 42975 02001 10288 20078 3//// 48///
                   333 5////=
201606160600 AAXX 16064 67855 31970 00000 10074 20030 3//// 48/// 70500
                   333 20040 5////=
201606151200 AAXX 15124 67855 42975 00000 10264 20080 3//// 48///
                   333 5////=
201606150600 AAXX 15064 67855 31970 00000 10076 20053 3//// 48/// 70500
                   333 20049 5////=
201606141800 AAXX 14184 67855 NIL=
201606141200 AAXX 14124 67855 42675 40000 10250 20088 3//// 48/// 84100
                   333 5//// 84840=
201606140600 AAXX 14064 67855 31970 00000 10084 20063 3//// 48/// 70500
                   333 20045 5////=
201606131800 AAXX 13184 67855 NIL=
201606131200 AAXX 13124 67855 42675 60507 10218 20100 3//// 48/// 86500
                   333 5//// 86630=
201606130600 AAXX 13064 67855 31970 10302 10116 20080 3//// 48/// 70500 81030
                   333 20086 5//// 81360=
201606121800 AAXX 12184 67855 NIL=
201606121200 AAXX 12124 67855 42675 50607 10248 20078 3//// 48/// 85100
                   333 5//// 85840=
201606120600 AAXX 12064 67855 31970 01803 10134 20085 3//// 48/// 70500
                   333 20081 5////=
201606111800 AAXX 11184 67855 NIL=
201606111200 AAXX 11124 67855 42975 02002 10272 20053 3//// 48///
                   333 5////=
201606110600 AAXX 11064 67855 31970 00000 10078 20028 3//// 48/// 70500
                   333 20028 5////=
201606101800 AAXX 10184 67855 NIL=
201606101200 AAXX 10124 67855 42975 01603 10254 20043 3//// 48///
                   333 5////=
201606100600 AAXX 10064 67855 31970 01801 10066 20034 3//// 48/// 70500
                   333 20023 5////=
201606091800 AAXX 09184 67855 NIL=
201606091200 AAXX 09124 67855 42975 60604 10248 20066 3//// 48/// 80001
                   333 5//// 86080=
201606090600 AAXX 09064 67855 31970 61601 10088 20044 3//// 48/// 70500 81031
                   333 20048 5//// 81360 86080=
201606081800 AAXX 08184 67855 NIL=
201606081200 AAXX 08124 67855 42975 03101 10256 20079 3//// 48///
                   333 5////=
201606080600 AAXX 08064 67855 31970 01601 10104 20092 3//// 48/// 70500
                   333 20068 5////=
201606071800 AAXX 07184 67855 NIL=
201606071200 AAXX 07124 67855 42675 40602 10258 20088 3//// 48/// 84132
                   333 5//// 84840=
201606070600 AAXX 07064 67855 31970 51801 10118 20096 3//// 48/// 70522 85030
                   333 20086 5//// 85360=
201606061200 AAXX 06124 67855 42675 60104 10260 20118 3//// 48/// 86530
                   333 5//// 86640=
201606051200 AAXX 05124 67855 NIL=
201606050600 AAXX 05064 67855 31970 01801 10096 20079 3//// 48/// 70500
                   333 20070 5////=
201606041800 AAXX 04184 67855 NIL=
201606041200 AAXX 04124 67855 42675 32001 10254 20100 3//// 48/// 83100
                   333 5//// 83835=
201606040600 AAXX 04064 67855 31970 00000 10090 20078 3//// 48/// 70500
                   333 20064 5////=
201606031800 AAXX 03184 67855 NIL=
201606031200 AAXX 03124 67855 42675 21003 10264 20068 3//// 48/// 82100
                   333 5//// 82835=
201606021800 AAXX 02184 67855 NIL=
201606021200 AAXX 02124 67855 42675 11602 10254 20086 3//// 48/// 81100
                   333 5//// 81835=
201606020600 AAXX 02064 67855 31970 00302 10108 20086 3//// 48/// 70500
                   333 20046 5////=
201606011800 AAXX 01184 67855 NIL=
201606011200 AAXX 01124 67855 42975 00902 10246 20035 3//// 48///
                   333 5////=
201606010600 AAXX 01064 67855 31970 01601 10096 20063 3//// 48/// 70500
                   333 20044 5////=
