################################################################################
# Query made at 04/10/2022 06:46:26 UTC
# Country like Zamb*
# Time interval: from 12/01/2020 05:30  to 12/31/2020 06:30  UTC
################################################################################

################################################################################
#  SYNOPS from 67403, Kawambwa (Zambia) | 09-48S | 029-05E | 1323 m
################################################################################
202012230600 AAXX 23064 67403 12980 70901 10156 20166 48515 60034 87030
                   333 10295 20170 59001 87360=
202012180900 AAXX 18094 67403 NIL=
202012150600 AAXX 15064 67403 32980 70901 10206 20186 48511 8703/
                   333 10260 20179 59011 87360=
202012140600 AAXX 14064 67403 11980 73601 10185 20178 48521 60294 72166 8703/
                   333 10286 20170 58010 87360=
202012080600 AAXX 08064 67403 11680 72701 10187 20178 49526 60184 72996 81931
                   333 10284 20170 58006 81930 87360 81080=
202012040600 AAXX 04064 67403 11480 82701 10189 20184 48534 60244 75066 8657/
                   333 10266 20173 59019 86615 87460=
202012010600 AAXX 01064 67403 31975 63601 10210 20197 48512 70522 85031
                   333 10276 20176 59015 85360 82080=

################################################################################
#  SYNOPS from 67413, Mbala (Zambia) | 08-51S | 031-20E | 1673 m
################################################################################
202012180900 AAXX 18094 67413 NIL=
202012150600 AAXX 15064 67413 12880 70502 10175 20158 48528 60064 8707/
                   333 10202 20152 59020 87458 91023=
202012140600 AAXX 14064 67413 11375 83005 10149 20147 48550 61254 78188 887//
                   333 10240 20148 5//// 88708=
202012080600 AAXX 08064 67413 12980 31006 10203 20181 48550 60084 70200 83030
                   333 10274 20092 5//// 83359=

################################################################################
#  SYNOPS from 67441, Mwinilunga (Zambia) | 11-45S | 024-26E | 1361 m
################################################################################
202012230900 AAXX 23094 67441 42680 43103 10245 20168 48548 83130
                   333 59002 83850 84360=
202012230600 AAXX 23064 67441 32380 70000 10195 20178 48541 8273/
                   333 10290 20//0 59010 82709 87360=
202012180900 AAXX 18094 67441 NIL=
202012170900 AAXX 17094 67441 42980 70000 10220 20176 48536 8703/
                   333 5//// 87360=
202012150600 AAXX 15064 67441 12380 63103 10185 20177 48534 60064 81730
                   333 10256 20//0 59004 81709 86360=
202012070600 AAXX 07064 67441 32980 60000 10190 20173 48555 86030
                   333 10268 20//0 5//// 86360=
202012010600 AAXX 01064 67441 32680 30000 10205 20179 48546 82230
                   333 10280 20//0 59017 82840 83360=

################################################################################
#  SYNOPS from 67461, Mansa (Zambia) | 11-06S | 028-51E | 1382 m
################################################################################
202012230600 AAXX 23064 67461 12380 60102 10194 20175 48517 60534 83530
                   333 10291 20162 59001 83610 85360 91019=
202012180900 AAXX 18094 67461 42980 80113 10207 20185 48518 8557/
                   333 58006 85610 87460 91019=
202012150600 AAXX 15064 67461 32980 71608 10213 20186 48512 8703/
                   333 10268 20169 59013 87360=
202012140600 AAXX 14064 67461 11475 73102 10182 20175 48522 60494 76166 8257/
                   333 10240 20168 58014 82610 87460=
202012080600 AAXX 08064 67461 32580 72005 10228 20204 48535 875//
                   333 10278 20185 59003 87620=
202012070600 AAXX 07064 67461 12580 71203 10208 20191 48538 60164 8153/
                   333 10229 20174 58010 81620 87360=
202012040600 AAXX 04064 67461 12480 73102 10194 20180 48535 60104 8557/
                   333 10256 20180 58015 85610 87460=
202012010600 AAXX 01064 67461 32980 73103 10216 20185 48511 8703/
                   333 10296 20177 59020 87360=

################################################################################
#  SYNOPS from 67469, Samfya (Zambia) | 11-22S | 029-54E | 1171 m
################################################################################
202012230900 AAXX 23094 67469 42480 41204 10248 20190 48/// 82830
                   333 5//// 82617 83820 82360=
202012230600 AAXX 23064 67469 12480 41004 10225 20190 48/// 60364 84830
                   333 10277 20170 5//// 84613 82817 82360=
202012180900 AAXX 18094 67469 41480 73007 10223 20180 48/// 8484/
                   333 5//// 83816 87480=
202012150600 AAXX 15064 67469 NIL=
202012080600 AAXX 08064 67469 12480 61305 10238 20200 48/// 69904 81108
                   333 10280 20198 5//// 81814 86280=
202012040600 AAXX 04064 67469 12380 73405 10201 20180 48/// 60134 83638
                   333 10247 20181 5//// 83706 86360 86280=
202012010600 AAXX 01064 67469 11480 71601 10222 20190 48/// 60094 71799 81938
                   333 10283 20193 5//// 81915 86360 86280=

################################################################################
#  SYNOPS from 67475, Kasama (Zambia) | 10-13S | 031-08E | 1382 m
################################################################################
202012230900 AAXX 23094 67475 42560 50705 10254 20174 48512 85201
                   333 59006 81925 85825 82080 91019=
202012230600 AAXX 23064 67475 12460 41204 10208 20171 48518 60434 82631
                   333 10//0 20159 59008 82710 83360 82080 91020=
202012180900 AAXX 18094 67475 NIL=
202012170900 AAXX 17094 67475 42980 81703 10222 20191 48514 84078
                   333 58001 84460 87280=
202012150600 AAXX 15064 67475 NIL=
202012140600 AAXX 14064 67475 12560 83109 10196 20180 48531 69974 82520
                   333 10282 20169 58008 82620 83460 88280=
202012080600 AAXX 08064 67475 12460 61008 10228 20191 48540 60124 70322 83508
                   333 10301 20162 59001 83612 85280=
202012040600 AAXX 04064 67475 12960 73003 10200 20171 48542 69904 85078
                   333 10268 20161 58015 85460 87280=
202012010600 AAXX 01064 67475 11350 81304 10191 20191 48524 60034 76362 877//
                   333 10288 20176 59011 87709=

################################################################################
#  SYNOPS from 67476, Misamfu (Zambia) | 10-06S | 031-15E | 1536 m
################################################################################
202012180900 AAXX 18094 67476 NIL=
202012171200 AAXX 17124 67476 41680 40702 10252 20201 48/// 72998 81908
                   333 5//// 81940 82840 84280=
202012170900 AAXX 17094 67476 41580 71302 10228 20183 48/// 71422 8127/
                   333 5//// 81825 87360=
202012150600 AAXX 15064 67476 NIL=
202012140600 AAXX 14064 67476 12480 70303 10194 20169 48/// 60094 8116/
                   333 10270 20120 5//// 81817 87359=
202012080600 AAXX 08064 67476 12580 20903 10220 20196 48/// 60104 82101
                   333 10289 20110 59001 82820 81080=
202012070600 AAXX 07064 67476 12580 20000 10210 20195 48/// 60204 70242 81252
                   333 10305 20119 58005 81820 81360 81080=
202012040600 AAXX 04064 67476 12480 72702 10196 20176 48/// 69944 81178
                   333 10252 20116 58013 81815 85360 87280=
202012010600 AAXX 01064 67476 11478 70701 10210 20184 48/// 69974 72992 8347/
                   333 10278 20127 59009 83615 81950 81850 87360=

################################################################################
#  SYNOPS from 67477, Mpika (Zambia) | 11-54S | 031-26E | 1400 m
################################################################################
202012230900 AAXX 23094 67477 42580 41201 10266 20160 48/// 83201
                   333 5//// 83812 82080=
202012230600 AAXX 23064 67477 12480 20901 10202 20180 48/// 69904 81131
                   333 10289 20169 5//// 81812 81359 83080=
202012180900 AAXX 18094 67477 NIL=
202012171200 AAXX 17124 67477 42680 63001 10256 20160 48/// 71799 83231
                   333 5//// 81940 83840 83364 83080=
202012170900 AAXX 17094 67477 41680 62201 10236 20170 48/// 71799 84231
                   333 5//// 81925 84825 83362 82080=
202012150600 AAXX 15064 67477 NIL=
202012140600 AAXX 14064 67477 11480 83301 10186 20180 48/// 60034 72162 8257/
                   333 10273 20163 5//// 82612 88459=
202012080600 AAXX 08064 67477 32480 30909 10232 20170 48/// 81101
                   333 10275 20189 5//// 81814 83080=
202012070600 AAXX 07064 67477 12480 51502 10208 20170 48/// 69904 82131
                   333 10300 20178 5//// 82812 84359=
202012040600 AAXX 04064 67477 12480 83001 10199 20180 48/// 60024 8457/
                   333 10235 20164 5//// 84610 88459=
202012010600 AAXX 01064 67477 12480 70000 10203 20170 48/// 69904 8257/
                   333 10293 20178 5//// 82610 87459=

################################################################################
#  SYNOPS from 67481, Isoka (Zambia) | 10-07S | 032-38E | 1360 m
################################################################################
202012230600 AAXX 23064 67481 12480 30000 10212 20180 48/// 60024 81101
                   333 10316 20171 59010 81810 83080=
202012180900 AAXX 18094 67481 NIL=
202012150600 AAXX 15064 67481 12480 53002 10198 20175 48/// 60234 81530
                   333 10260 20165 5//// 81810 85360=
202012140600 AAXX 14064 67481 12480 83002 10210 20180 48/// 69974 8657/
                   333 10255 20171 58009 88704=
202012080600 AAXX 08064 67481 32480 62001 10216 20184 48/// 81102
                   333 10302 20175 59005 81810 86080=
202012070600 AAXX 07064 67481 11980 10902 10220 20180 48/// 69904 72842 80001
                   333 10320 20172 5//// 81080=
202012040600 AAXX 04064 67481 12480 63002 10220 20176 48/// 69904 83230
                   333 10248 20180 5//// 83810 86360=
202012010600 AAXX 01064 67481 12480 71002 10212 20178 48/// 60244 8157/
                   333 10301 20180 5//// 81610 87360=

################################################################################
#  SYNOPS from 67531, Zambezi (Zambia) | 13-32S | 023-07E | 1077 m
################################################################################
202012230900 AAXX 23094 67531 42680 72705 10264 20203 48/// 8427/
                   333 59006 84830 86362=
202012180900 AAXX 18094 67531 NIL=
202012170900 AAXX 17094 67531 42480 40105 10247 20203 48/// 83132
                   333 59002 83818 81361 81081=
202012150600 AAXX 15064 67531 12380 73003 10198 20188 48/// 60294 83632
                   333 10256 20181 5//// 83708 84362 83080=
202012140600 AAXX 14064 67531 11375 73603 10191 20182 48/// 60094 76066 8477/
                   333 10257 20186 5//// 84707 87361=
202012070600 AAXX 07064 67531 12480 30000 10220 20203 48/// 60174 81132
                   333 10285 20180 58004 81810 82360 81080=
202012040600 AAXX 04064 67531 11380 70000 10200 20190 48/// 60204 72166 8567/
                   333 10247 20182 58006 85707 87460=
202012010600 AAXX 01064 67531 12380 53303 10210 20197 48/// 69924 83632
                   333 10273 20165 59023 83709 82362 83080=

################################################################################
#  SYNOPS from 67541, Kasempa (Zambia) | 13-32S | 025-51E | 1234 m
################################################################################
202012230600 AAXX 23064 67541 32980 20000 10220 20188 48/// 81031
                   333 10300 20152 5//// 81360 81080=
202012180900 AAXX 18094 67541 NIL=
202012170900 AAXX 17094 67541 42980 70000 10263 20200 48/// 70222 83034
                   333 5//// 83360 84080=
202012150600 AAXX 15064 67541 NIL=
202012080600 AAXX 08064 67541 12980 70000 10193 20181 48/// 60514 70222 80007
                   333 10300 20152 5//// 87080=
202012040600 AAXX 04064 67541 12380 80506 10195 20187 48/// 60114 70222 8353/
                   333 10264 20160 5//// 83606 87360=
202012010600 AAXX 01064 67541 32980 20000 10225 20188 48/// 70222 80002
                   333 10272 20154 5//// 82080=

################################################################################
#  SYNOPS from 67543, Kabompo (Zambia) | 13-36S | 024-12E | 1075 m
################################################################################
202012230600 AAXX 23064 67543 12480 70000 10220 20193 48/// 69904 8253/
                   333 10306 20194 5//// 82615 87360=
202012180900 AAXX 18094 67543 NIL=
202012150600 AAXX 15064 67543 NIL=
202012080600 AAXX 08064 67543 12378 70000 10210 20188 48/// 60074 81637
                   333 10318 20194 5//// 81707 83360=
202012070600 AAXX 07064 67543 12380 60000 10220 20198 48/// 69964 82637
                   333 10312 20194 5//// 82707 82360=
202012040600 AAXX 04064 67543 12380 73602 10212 20192 48/// 60014 8563/
                   333 10292 20196 5//// 85707 87360=
202012010600 AAXX 01064 67543 32480 70000 10224 20188 48/// 81135
                   333 10304 20172 5//// 81815 84360 84280=

################################################################################
#  SYNOPS from 67551, Solwezi (Zambia) | 12-11S | 026-23E | 1386 m
################################################################################
202012230900 AAXX 23094 67551 42580 43405 10247 20188 48515 84100
                   333 59008 84830 91018=
202012230600 AAXX 23064 67551 12380 50505 10189 20176 48517 60334 83530
                   333 10282 20169 59011 83610 84362 91019=
202012180900 AAXX 18094 67551 NIL=
202012150600 AAXX 15064 67551 12980 70000 10193 20174 48507 69964 8707/
                   333 10230 20173 59007 87362=
202012140600 AAXX 14064 67551 12370 70000 10185 20174 48519 60244 8367/
                   333 10230 20174 58010 83707 87362=
202012080600 AAXX 08064 67551 12375 72006 10200 20185 48538 60014 81630
                   333 10270 20180 58006 81706 83830 87362=
202012070600 AAXX 07064 67551 32980 60503 10210 20181 48533 80006
                   333 10260 20170 58009 86280=
202012040600 AAXX 04064 67551 11380 83605 10184 20174 48533 60174 76166 8377/
                   333 10262 20//0 58013 83706 88362=
202012010600 AAXX 01064 67551 42980 43005 10204 20183 48511 60074 84031
                   333 10276 20159 59020 84362 82080=

################################################################################
#  SYNOPS from 67561, Ndola (Zambia) | 13-00S | 028-39E | 1269 m
################################################################################
202012230900 AAXX 23094 67561 41570 51005 10268 20176 48517 70522 85208
                   333 59008 85825 85280 91018=
202012230600 AAXX 23064 67561 11359 49903 10208 20181 48520 60024 70522 84632
                   333 10283 20182 59007 84709 81360 91019=
202012180900 AAXX 18094 67561 41359 80000 10203 20189 48522 76166 8677/
                   333 58014 86708 88459 91019=
202012150600 AAXX 15064 67561 NIL=
202012140600 AAXX 14064 67561 11240 89903 10183 20180 48527 60214 76166 8677/
                   333 10250 20176 58014 86703 81920 88459=
202012080600 AAXX 08064 67561 11957 60000 10214 20201 48536 69904 70422 86030
                   333 10288 20183 59004 86360=
202012070600 AAXX 07064 67561 11954 60000 10203 20192 48538 60134 74244 86032
                   333 10233 20180 58010 86360 81080=
202012040600 AAXX 04064 67561 11360 70105 10195 20174 48535 60104 70522 85638
                   333 10246 20184 58014 85707 85360 87280=
202012010600 AAXX 01064 67561 11979 60904 10215 20185 48517 69914 70422 81938
                   333 10287 20190 5//// 819// 84360 86280=

################################################################################
#  SYNOPS from 67563, Kafironda (Zambia) | 12-36S | 028-07E | 1243 m
################################################################################
202012180900 AAXX 18094 67563 NIL=
202012150600 AAXX 15064 67563 NIL=

################################################################################
#  SYNOPS from 67571, Serenje (Zambia) | 13-14S | 030-13E | 1384 m
################################################################################
202012230900 AAXX 23094 67571 42582 73602 10247 20177 48463 86231
                   333 59007 81924 86824 81360 83080=
202012180900 AAXX 18094 67571 NIL=
202012171200 AAXX 17124 67571 41582 70902 10242 20190 48442 72998 83238
                   333 59003 81925 83825 83360 87280=
202012170900 AAXX 17094 67571 42582 73602 10241 20177 48463 82938
                   333 59002 81920 82820 84360 87280=
202012150600 AAXX 15064 67571 NIL=
202012140600 AAXX 14064 67571 11257 83602 10181 20175 48481 60054 76166 887//
                   333 10255 20171 58009 88705=
202012080600 AAXX 08064 67571 12580 50902 10224 20181 48492 60014 81508
                   333 10262 20174 59011 81620 85280=
202012070600 AAXX 07064 67571 11960 80000 10176 20171 48501 60274 76366 8807/
                   333 10271 20157 58021 88459=
202012040600 AAXX 04064 67571 12378 83303 10189 20173 48491 60144 70222 886//
                   333 10223 20171 58014 88708=
202012010600 AAXX 01064 67571 12982 70000 10203 20177 48472 60134 8703/
                   333 10296 20169 59012 87360=

################################################################################
#  SYNOPS from 67575, Mkushi (Zambia) | 13-38-00S | 029-26-00E | 1237 m
################################################################################
202012180900 AAXX 18094 67575 NIL=
202012150600 AAXX 15064 67575 NIL=

################################################################################
#  SYNOPS from 67580, Msekera (Zambia) | 13-39S | 032-34E | 1025 m
################################################################################
202012230900 AAXX 23094 67580 42680 70502 10272 20185 48/// 86301
                   333 5//// 86836 84080=
202012180900 AAXX 18094 67580 NIL=
202012170900 AAXX 17094 67580 41680 71204 10246 20206 48/// 71722 82938
                   333 5//// 82930 86830 83360 85280=
202012150600 AAXX 15064 67580 NIL=
202012080600 AAXX 08064 67580 12580 71207 10249 20189 48/// 60024 81838
                   333 10292 20202 5//// 81824 81626 82360 86280=
202012070600 AAXX 07064 67580 12580 71504 10244 20208 48/// 69904 81137
                   333 10335 20206 5//// 81820 81360 87280=
202012040600 AAXX 04064 67580 12580 72702 10236 20204 48/// 60014 83238
                   333 10258 20205 5//// 83826 84360 84280=
202012010600 AAXX 01064 67580 12980 70000 10254 20188 48/// 69904 8707/
                   333 10364 20209 5//// 87360=

################################################################################
#  SYNOPS from 67581, Chipata (Zambia) | 13-33S | 032-35E | 1028 m
################################################################################
202012230900 AAXX 23094 67581 42680 60904 10280 20180 48540 84202
                   333 5//// 84830 86080 91017=
202012180900 AAXX 18094 67581 42680 51806 10285 20203 48534 84232
                   333 59015 84840 83360 82080 91018=
202012170900 AAXX 17094 67581 41480 70910 10250 20197 48533 71722 819//
                   333 5//// 81912 87815 91018=
202012150600 AAXX 15064 67581 NIL=
202012140600 AAXX 14064 67581 12680 62706 10229 20191 48541 69904 82132
                   333 10//0 20188 5//// 82835 82360 84080=
202012080600 AAXX 08064 67581 32680 40905 10255 20184 48552 81102
                   333 10//0 20208 5//// 81830 84080=
202012070600 AAXX 07064 67581 12980 70000 10240 20196 48/// 60014 80002
                   333 10//0 20208 5//// 87080=
202012040600 AAXX 04064 67581 12580 71406 10247 20188 48/// 60014 70222 8457/
                   333 10//0 20202 5//// 84620 87460=
202012010600 AAXX 01064 67581 12580 72004 10242 20167 48/// 69904 70200 8117/
                   333 10//0 20208 5//// 81820 87460=

################################################################################
#  SYNOPS from 67583, Lundazi (Zambia) | 12-17S | 033-12E | 1143 m
################################################################################
202012230600 AAXX 23064 67583 12980 70901 10226 20192 48/// 60104 81037
                   333 10278 2//// 5//// 81360 87280=
202012180900 AAXX 18094 67583 NIL=
202012150600 AAXX 15064 67583 NIL=
202012040600 AAXX 04064 67583 12980 73501 10228 20186 48/// 60044 87030
                   333 10270 2//// 5//// 87360=
202012010600 AAXX 01064 67583 12980 70901 10250 20188 48/// 69904 87030
                   333 10332 2//// 5////=

################################################################################
#  SYNOPS from 67599, Mfuwe (Zambia) | 13-16S | 031-56E | 568 m
################################################################################
202012180900 AAXX 18094 67599 42680 50603 10300 20231 48522 84230
                   333 59023 81930 83835 85360 91013=
202012170900 AAXX 17094 67599 41580 72902 10250 20198 48522 71222 8327/
                   333 59006 83825 87459 91016=
202012150600 AAXX 15064 67599 12380 70000 10250 20222 48525 69904 81730
                   333 10//0 20//0 59013 81608 96359=
202012140600 AAXX 14064 67599 32480 72706 10240 20212 48534 8513/
                   333 10328 20215 58014 85812 87359=
202012040600 AAXX 04064 67599 12680 70000 10244 20208 48533 60544 8217/
                   333 10292 20202 58014 82822 87459=
202012010600 AAXX 01064 67599 12380 70000 10240 20224 48524 60064 82730
                   333 10400 20210 58010 82607 86358=

################################################################################
#  SYNOPS from 67625, Kalabo (Zambia) | 14-51S | 022-42E | 1033 m
################################################################################
202012230900 AAXX 23094 67625 42682 33215 10275 20202 48/// 81143
                   333 59003 82830 82360 83075=
202012230600 AAXX 23064 67625 32982 72004 10225 20203 48/// 8708/
                   333 10320 20206 59008 87360=
202012180900 AAXX 18094 67625 42482 73119 10235 20198 48/// 8357/
                   333 58013 83617 87460=
202012171200 AAXX 17124 67625 42682 72608 10270 20194 48/// 81108
                   333 59011 81832 87079=
202012170900 AAXX 17094 67625 42482 72716 10240 20198 48/// 82133
                   333 58002 82817 83360 87075=
202012150600 AAXX 15064 67625 11482 73312 10193 20193 48/// 60504 76266 8572/
                   333 10260 20190 58004 85710 87460=
202012080600 AAXX 08064 67625 12982 70602 10217 20192 48/// 69914 85073
                   333 10316 20192 59009 85360 87075=
202012070600 AAXX 07064 67625 12482 73609 10220 20205 48/// 69904 876//
                   333 10300 20193 58010 87710=

################################################################################
#  SYNOPS from 67633, Mongu (Zambia) | 15-15S | 023-09E | 1052 m
################################################################################
202012180900 AAXX 18094 67633 NIL=
202012150600 AAXX 15064 67633 NIL=
202012080600 AAXX 08064 67633 32980 70904 10214 20189 48521 70222 84038
                   333 10313 20189 58005 84360 87280=
202012070600 AAXX 07064 67633 12980 73603 10232 20202 48520 69954 70222 84032
                   333 10305 20202 58005 83360 87080=
202012040600 AAXX 04064 67633 12480 50902 10220 20203 48515 60214 70222 83530
                   333 10275 20189 58007 83615 84360=

################################################################################
#  SYNOPS from 67641, Kaoma (Zambia) | 14-48S | 024-48E | 1213 m
################################################################################
202012180900 AAXX 18094 67641 NIL=
202012150600 AAXX 15064 67641 NIL=
202012140600 AAXX 14064 67641 12580 70403 10206 20193 48491 60024 875//
                   333 10300 20195 58002 87624=
202012080600 AAXX 08064 67641 12980 71402 10185 20183 48512 60544 8707/
                   333 10280 20173 58005 87460=
202012070600 AAXX 07064 67641 12580 70000 10202 20201 48516 60424 8657/
                   333 10276 20183 58019 86620 87361=
202012010600 AAXX 01064 67641 12680 70000 10237 20209 48504 69934 70222 81530
                   333 10308 20212 59010 81630 87360=

################################################################################
#  SYNOPS from 67655, Mumbwa (Zambia) | 15-04S | 027-11E | 1216 m
################################################################################
202012180900 AAXX 18094 67655 NIL=
202012150600 AAXX 15064 67655 NIL=
202012140600 AAXX 14064 67655 11559 80000 10192 20194 48527 60424 75052 8247/
                   333 10256 20156 58003 82620 87458=
202012080600 AAXX 08064 67655 12580 80000 10206 20197 48551 60144 8357/
                   333 10267 20128 58004 83620 86360=
202012070600 AAXX 07064 67655 12380 83610 10210 20203 48542 60094 8467/
                   333 10250 20102 58021 84708 86360=
202012040600 AAXX 04064 67655 12380 73505 10206 20176 48526 60484 8374/
                   333 10310 20188 58001 83709 96459=

################################################################################
#  SYNOPS from 67659, Kafue Polder (Zambia) | 15-46S | 027-55E | 978 m
################################################################################
202012180900 AAXX 18094 67659 NIL=
202012150600 AAXX 15064 67659 NIL=
202012080600 AAXX 08064 67659 12470 81803 10200 20193 48/// 60224 70226 8157/
                   333 10242 20192 5//// 81620 88360=

################################################################################
#  SYNOPS from 67662, Kabwe Agric (Zambia) | 14-24S | 028-30E | 1165 m
################################################################################
202012230900 AAXX 23094 67662 42680 30810 10270 20180 48519 83100
                   333 59013 83830 91018=
202012230600 AAXX 23064 67662 32980 20602 10225 20187 48/// 81072
                   333 10285 20140 5//// 81360 81080=
202012180900 AAXX 18094 67662 41480 73604 10230 20198 48/// 72126 85570
                   333 5//// 85618 82360=
202012170900 AAXX 17094 67662 41980 70602 10210 20179 48/// 84072
                   333 5//// 84758 83080=
202012150600 AAXX 15064 67662 NIL=
202012140600 AAXX 14064 67662 11480 83602 10202 20184 48/// 60044 70222 8267/
                   333 10270 20142 5//// 82708 86360=
202012080600 AAXX 08064 67662 11480 80000 10222 20212 48/// 60304 70226 885//
                   333 10292 20142 88610=
202012070600 AAXX 07064 67662 11480 80000 10205 20198 48/// 60034 70222 885//
                   333 10270 20140 5//// 88610=
202012040600 AAXX 04064 67662 11375 80000 10195 30187 48/// 60414 75066 887//
                   333 10250 20143 5//// 88706=
202012010600 AAXX 01064 67662 31980 50000 10240 20195 48/// 70222 82072
                   333 10290 20160 5//// 82360 84080=

################################################################################
#  SYNOPS from 67663, Kabwe (Zambia) | 14-27S | 028-28E | 1206 m
################################################################################
202012230600 AAXX 23064 67663 12980 23612 10225 20212 48510 69904 81032
                   333 10298 20187 59011 81360 81080
                   555 00280=
202012180900 AAXX 18094 67663 41580 73307 10223 20192 48501 72162 8557/
                   333 59001 85620 87460=
202012150600 AAXX 15064 67663 12980 80108 10213 20191 48505 60054 8808/
                   333 10250 20100 59013 88460=
202012140600 AAXX 14064 67663 12480 83609 10200 20181 48517 60094 8473/
                   333 10//0 20176 58009 82616 88460=
202012080600 AAXX 08064 67663 12380 81803 10209 20203 48524 60134 72166 886//
                   333 10290 20192 59009 88709=
202012040600 AAXX 04064 67663 11480 80304 10189 20184 48518 60424 76162 885//
                   333 10253 20177 58003 88620=
202012010600 AAXX 01064 67663 32980 70504 10242 20186 48504 85032
                   333 10307 20198 59013 85360 83080=

################################################################################
#  SYNOPS from 67665, Lusaka Internationalairport (Zambia) | 15-19S | 028-27E | 1152 m
################################################################################
202012301800 AAXX 30184 67665 41/59 83005 10205 20183 48487 79599 8197/
                   333 10305 20//0 59009 819// 85458 83360=
202012301500 AAXX 30154 67665 41657 72308 10199 20187 48469 79592 81963
                   333 59011 81940 83840 84360 85080=
202012301200 AAXX 30124 67665 42680 50306 10293 20182 48478 81902
                   333 59034 81930 84830 84080=
202012300600 AAXX 30064 67665 11459 79902 10240 20212 48510 60044 70542 86538
                   333 10273 20//0 59014 86610 84360 87280
                   555 00/// 20009 BB/// CC/// DD/// Q1017/2=
202012291800 AAXX 29184 67665 42680 41602 10200 20188 48497 70222 81932
                   333 58005 81950 82360 84080 91016=
202012290900 AAXX 29094 67665 42580 70913 10239 20180 48523 8197/
                   333 58005 81920 83820 83460 84360=
202012290600 AAXX 29064 67665 11359 70000 10192 20186 48516 60094 76196 8172/
                   333 10302 20/// 59003 81707 87459=
202012290300 AAXX 29034 67665 41/80 52902 10201 20194 48497 71322 85030
                   333 59007 819// 85360=
202012290000 AAXX 29004 67665 42980 21903 10205 20190 48499 82030
                   333 58001 82360=
202012282100 AAXX 28214 67665 42780 30000 10216 20194 48510 83032
                   333 59002 81957 83360 81080=
202012281800 AAXX 28184 67665 41780 79902 10238 20185 48494 71352 81938
                   333 59005 81956 82360 86280 91015=
202012280300 AAXX 28034 67665 42980 31403 10195 20188 48502 83030
                   333 58006 83360 91017=
202012280000 AAXX 28004 67665 42980 31602 10206 20191 48498 83030
                   333 58000 83360 91016=
202012272100 AAXX 27214 67665 42780 41602 10214 20192 48510 81932
                   333 59006 81956 84360 82080 91017=
202012271800 AAXX 27184 67665 41780 51104 10235 20198 48499 71322 81932
                   333 10275 59005 81950 84360 82080=
202012271500 AAXX 27154 67665 42680 51008 10274 20159 48481 81332
                   333 59015 81945 83848 85360 81080=
202012271200 AAXX 27124 67665 42680 60507 10270 20187 48503 86200
                   333 59007 86832=
202012261800 AAXX 26184 67665 42780 41005 10227 20198 48503 81902
                   333 10272 58003 81956 85080 91016=
202012261500 AAXX 26154 67665 42680 50604 10269 20171 48496 83232
                   333 58015 83850 83360 85080 91015=
202012261200 AAXX 26124 67665 42580 61803 10249 20174 48506 85230
                   333 58021 81930 84832 84360 10168=
202012260900 AAXX 26094 67665 42480 62412 10224 20178 48530 82532
                   333 58024 82615 83360 84080=
202012260600 AAXX 26064 67665 12380 81303 10201 20193 48522 60044 72162 8177/
                   333 10//0 20//0 58014 81707 84480 84360=
202012260300 AAXX 26034 67665 42980 60501 10193 20186 48502 8603/
                   333 58005 86360=
202012260000 AAXX 26004 67665 42980 71404 10202 20194 48495 8703/
                   333 59001 87360=
202012252100 AAXX 25214 67665 42980 81305 10219 20204 48511 70262 8807/
                   333 59004 84460 84360=
202012251800 AAXX 25184 67665 41/80 79902 10227 20196 48500 71392 81963
                   333 10//0 20//0 58001 819// 83360 87080=
202012250900 AAXX 25094 67665 42480 60403 10279 20191 48514 84230
                   333 59008 84828 86360
                   555 91017=
202012250600 AAXX 25064 67665 30802 10241 20802 48513 70300 81132
                   333 10//0 20//0 59008 81830 81360 83080 91017=
202012241800 AAXX 24184 67665 42/80 11804 10247 20187 48498 81300
                   333 10300 20//0 59004 819//=
202012241500 AAXX 24154 67665 42680 41508 10252 20182 48485 72992 81902
                   333 58000 81945 83845 83080=
202012241200 AAXX 24124 67665 42680 52210 10295 20167 48503 81902
                   333 59007 81930 84830 83080=
202012240900 AAXX 24094 67665 42380 63105 10275 20169 48522 70300 83200
                   333 83830 91018=
202012240600 AAXX 24064 67665 31975 19901 10256 20197 48523 70500 81031
                   333 10300 20/// 59006 81360 81080
                   555 00/// 91018=
202012240000 AAXX 24004 67665 32980 09901 10208 20184 48500 70200
                   333 59009 91016=
202012232100 AAXX 23214 67665 42980 19901 10211 20188 48510 70100 81030
                   333 59006 81360 91017=
202012231800 AAXX 23184 67665 42780 31203 10244 20184 48504 81930
                   333 59014 81956 83360
                   555 91016=
202012231500 AAXX 23154 67665 42680 40606 10295 20150 48491 83232
                   333 59014 83845 83360 83080
                   555 91014=
202012231200 AAXX 23124 67665 42680 50305 10294 20156 48509 84230
                   333 59007 84830 82360 91016=
202012230900 AAXX 23094 67665 42580 40505 10276 20178 48529 84230
                   333 59014 84820 81360=
202012230600 AAXX 23064 67665 32480 10407 10235 20191 48527 81130
                   333 10281 20//0 59016 81810 81360 91019=
202012230300 AAXX 23034 67665 42380 60000 10204 20188 48512 81630
                   333 59012 81706 86359=
202012230000 AAXX 23004 67665 42980 01802 10200 20176 48506 83030
                   333 59014 83360=
202012222100 AAXX 22214 67665 42980 40000 10208 20184 48515 84031
                   333 59018 84360 81080=
202012221800 AAXX 22184 67665 42980 21203 10236 20192 48518 70102 81032
                   333 10281 59007 81360 82080 91018=
202012221500 AAXX 22154 67665 42680 41605 10271 20181 48503 70221 83202
                   333 59030 81940 83245 84280
                   555 10281 91016=
202012221200 AAXX 22124 67665 42580 60604 10258 20184 48512 70321 85208
                   333 59006 81925 85830 86280 91017=
202012220900 AAXX 22094 67665 42480 40403 10259 20177 48540 81330
                   333 59006 81915 84815 81360=
202012220600 AAXX 22064 67665 12380 41202 10228 20199 48541 60294 81630
                   333 10280 20//0 59007 81706 84360=
202012220300 AAXX 22034 67665 42980 41302 10177 20169 48521 84030
                   333 58010 84360 555 91019=
202012212100 AAXX 21214 67665 42980 41503 10192 20184 48533 70200 81930
                   333 58002 81956 84360 91020=
202012211800 AAXX 21184 67665 41760 52503 10192 20184 48518 72996 81932
                   333 10287 58002 81950 85359 82080=
202012211500 AAXX 21154 67665 41605 82813 10192 20192 48521 79596 8197/
                   333 58034 81945 86848 88459
                   555 10278=
202012211200 AAXX 21124 67665 42580 63606 10275 20177 48521 84202
                   333 58001 81930 84832 83080=
202012210900 AAXX 21094 67665 42580 60806 10260 20177 48547 70122 86532
                   333 59004 86720 81360 83080 91021=
202012201800 AAXX 20184 67665 41780 70804 10220 20194 48520 71322 81932
                   333 58014 81956 85360 84080 91018=
202012201200 AAXX 20124 67665 42580 50604 10249 20190 48516 70222 83232
                   333 58017 83825 84360 85080=
202012200900 AAXX 20094 67665 41458 80607 10209 20187 48543 79522 8197/
                   333 58026 81910 85612 88459=
202012200300 AAXX 20034 67665 42980 50402 10199 20190 48515 84032
                   333 58007 84360 84080=
202012192100 AAXX 19214 67665 41/80 10904 10212 20197 48523 71399 81300
                   333 58005 819//=
202012190900 AAXX 19094 67665 42580 60408 10253 20169 48523 70122 84530
                   333 58000 84620 83360 91018=
202012190600 AAXX 19064 67665 32480 70804 10208 20202 48526 70210 8467/
                   333 58003 84710 87360 91019=
202012181800 AAXX 18184 67665 42/80 10505 10213 20198 48504 81900
                   333 10260 20//0 58009 819//=
202012181500 AAXX 18154 67665 42680 70203 10243 20184 48493 81903
                   333 58008 81945 82845 86080=
202012181200 AAXX 18124 67665 42680 72407 10255 20172 49506 81903
                   333 58010 81935 84835 85080=
202012180900 AAXX 18094 67665 42480 63507 10245 20188 48523 70200 83232
                   333 59002 83815 83360 82080=
202012180600 AAXX 18064 67665 12380 73208 10208 20184 48523 60654 70296 8577/
                   333 10268 20//0 59009 85708 87459
                   555 00/// 20018 91019=
202012170900 AAXX 17094 67665 42480 70609 10223 20188 48521 8687/
                   333 58000 83815 83615 84360 83460=
202012170600 AAXX 17064 67665 12380 80707 10188 20181 48528 60184 70262 8577/
                   333 10270 20//0 58015 85707 84460 84360=
202012170300 AAXX 17034 67665 41359 80702 10185 20176 48509 76166 8577/
                   333 58008 85707 88459=
202012170000 AAXX 17004 67665 41759 83304 10186 20186 48513 79596 8197/
                   333 58018 81956 88459=
202012162100 AAXX 16214 67665 41756 82804 10212 20212 48528 79582 8197/
                   333 58009 81950 88459=
202012161800 AAXX 16184 67665 41/80 40705 10223 20193 48509 71311 81032
                   333 58000 819// 82360 84080 91017=
202012160600 AAXX 16064 67665 12470 70203 10210 20188 48516 60334 72052 8357/
                   333 10284 20//0 59004 83610 87459
                   555 00/// 91018=
202012160300 AAXX 16034 67665 42970 73503 10193 20184 48501 70222 8194/
                   333 58000 819// 87459 91017=
202012160000 AAXX 16004 67665 41759 83304 10186 20186 48513 79596 8197/
                   333 58018 81956 88459=
202012151800 AAXX 15184 67665 41759 70803 10198 20198 48505 79596 8297/
                   333 10284 59002 82950 87459=
202012151500 AAXX 15154 67665 41659 72806 10188 20188 48482 79596 8297/
                   333 59005 82940 87459
                   555 10284=
202012151200 AAXX 15124 67665 42580 72704 10279 20183 48497 85232
                   333 59018 81925 85830 84360 81080=
202012150900 AAXX 15094 67665 42480 73206 10236 20184 48522 84538
                   333 59012 84615 86360 87280 91018=
202012150600 AAXX 15064 67665 NIL=
202012141800 AAXX 14184 67665 42760 60703 10201 20186 48507 70222 81930
                   333 10250 59004 81956 85360 91017=
202012141500 AAXX 14154 67665 42680 60504 10230 20185 48491 70222 84230
                   333 58007 84840 85360 91015=
202012141200 AAXX 14124 67665 41559 70207 10225 20187 48509 76022 8553/
                   333 58014 85628 87459 91017=
202012140900 AAXX 14094 67665 42460 73408 10235 20190 48532 85532
                   333 58011 84518 86360 82080=
202012140600 AAXX 14064 67665 12380 80702 10193 20188 48527 60144 72166 8477/
                   333 10266 20/// 58005 84706 84460 84360=
202012140300 AAXX 14034 67665 42380 60502 10191 20189 48514 72166 81730
                   333 58003 81707 86360=
202012140000 AAXX 14004 67665 41360 80000 10193 20191 48505 76166 8377/
                   333 58001 83707 85459 83359=
202012132100 AAXX 13214 67665 41359 89901 10193 20188 48521 76196 8272/
                   333 58016 83707 88459=
202012130900 AAXX 13094 67665 42480 73408 10243 20182 48522 70222 85830
                   333 59005 83615 85818 85360 91018=
202012130600 AAXX 13064 67665 32480 70205 10219 20191 48526 70322 84538
                   333 10//0 20//0 58003 84610 83360 87280 91019=
202012121800 AAXX 12184 67665 42/80 71303 10226 20197 48508 81933
                   333 10270 20/// 59012 819// 83360 86080=
202012121500 AAXX 12154 67665 42680 72202 10250 20182 48491 81963
                   333 59005 81945 82358 86080=
202012121200 AAXX 12124 67665 41659 73502 10262 20162 48505 71522 81963
                   333 59009 81935 83835 83358 86080=
202012120600 AAXX 12064 67665 32380 70304 10228 20190 48524 70322 83538
                   333 10240 20//0 59013 83610 86360 87280
                   555 91019=
202012120300 AAXX 12034 67665 42980 79902 10195 20187 48515 70222 85038
                   333 59005 85359 87280 91018=
202012112100 AAXX 11214 67665 42/75 73103 10211 20203 48531 71322 81938
                   333 58006 819// 83359 85280 91020=
202012110900 AAXX 11094 67665 42580 70407 10237 20189 48524 70322 84571
                   333 58003 84620 87359 91018=
202012110600 AAXX 11064 67665 32480 60405 10208 20186 48535 8553/
                   333 10274 20//0 59004 85610 86360=
202012110300 AAXX 11034 67665 42360 81102 10200 20193 48516 8573/
                   333 59001 85707 88359=
202012102100 AAXX 10214 67665 42780 51302 10207 20193 48524 84032
                   333 58001 81957 84360 81080=
202012101800 AAXX 10184 67665 41780 70905 10221 20198 48520 71322 83438
                   333 58004 81956 83656 86360 87280 91018=
202012101500 AAXX 10154 67665 42780 62603 10254 20178 48503 70222 84238
                   333 58004 84850 83360 86280
                   555 10274 91016=
202012101200 AAXX 10124 67665 42680 73203 10262 20164 48512 70322 85232
                   333 58002 85838 86360 83080 91017=
202012100600 AAXX 10064 67665 12360 82908 10200 20189 48537 69904 8567/
                   333 10252 20//0 58002 85709 88459=
202012091800 AAXX 09184 67665 41780 71005 10215 20185 48514 71799 8193/
                   333 10279 59002 81950 87360=
202012091500 AAXX 09154 67665 42680 61704 10264 20174 48499 85032
                   333 59027 81945 85360 82080
                   555 10279=
202012091200 AAXX 09124 67665 42680 60405 10276 20186 48510 84231
                   333 59039 84835 83360 81080=
202012090900 AAXX 09094 67665 42580 70506 10243 20193 48527 70322 86230
                   333 59020 86825 86360 91020=
202012081800 AAXX 08184 67665 41759 70000 10190 20183 48532 71322 8193/
                   333 10215 59008 81950 86359 91020=
202012081500 AAXX 08154 67665 41659 70904 10187 20187 48516 76199 8197/
                   333 58005 81930 85835 87459 91018=
202012081200 AAXX 08124 67665 41558 83303 10197 20197 48539 79599 8197/
                   333 58019 81920 85625 88458
                   555 91021=
202012080900 AAXX 08094 67665 41459 81803 10200 20200 48550 79596 8197/
                   333 58008 81915 85618 88458=
202012080600 AAXX 08064 67665 31359 81506 10220 20197 48552 71522 8267/
                   333 10/// 20/// 58000 82706 85458 83358=
202012080300 AAXX 08034 67665 42980 71903 10201 20191 48539 8703/
                   333 5//// 87358=
202012080000 AAXX 08004 67665 42980 61602 10204 20195 48533 8603/
                   333 5//// 86360=
202012072100 AAXX 07214 67665 42980 71701 10213 20198 48549 8703/
                   333 58016 87360=
202012070900 AAXX 07094 67665 42580 60605 10258 20199 48550 70222 84532
                   333 59008 84620 84360 82080 91021=
202012070600 AAXX 07064 67665 12480 70805 10205 20190 48551 60114 8457/
                   333 10250 20//0 58010 84612 86359=
202012061800 AAXX 06184 67665 41/80 52610 10214 20177 48529 71322 81932
                   333 10244 20//0 58010 81707 819// 84358 84080=
202012061500 AAXX 06154 67665 42680 60305 10241 20188 48507 81232
                   333 58004 81840 81360 86080=
202012061200 AAXX 06124 67665 42480 73604 10217 20187 48515 70262 8357/
                   333 58007 83615 84360 83460=
202012060900 AAXX 06094 67665 41358 80602 10176 20176 48533 76162 8572/
                   333 58003 85708 88459=
202012060600 AAXX 06064 67665 11358 83603 10176 20176 48537 76162 8572/
                   333 10270 20/// 58003 85705 88459
                   555 00/// 20025 91021=
202012050300 AAXX 05034 67665 41356 83407 10183 20183 48521 76162 8577/
                   333 59003 85706 88459=
202012050000 AAXX 05004 67665 42360 80903 10191 20191 48518 70122 8477/
                   333 58000 84707 88459=
202012042100 AAXX 04214 67665 41659 81202 10190 20186 48531 79596 8557/
                   333 58000 81945 85648 88759=
202012041500 AAXX 04154 67665 42680 70705 10251 20184 48509 70122
                   333 58010 81935 86840 87280
                   555 10258 91017=
202012041200 AAXX 04124 67665 42580 70803 10238 20185 48519 70362 86238
                   333 58005 81920 86825 84359 87280 91018=
202012040600 AAXX 04064 67665 11959 80203 10187 20183 48537 60114 76166 8802/
                   333 10262 20/// 58005 88459=
202012040300 AAXX 04034 67665 41959 80304 10177 20176 48523 76122 8802/
                   333 58014 88459=
202012040000 AAXX 04004 67665 42980 70000 10205 20197 48521 8703/
                   333 58007 87360=
202012032100 AAXX 03214 67665 42980 70205 10210 20187 48534 8703/
                   333 58020 87360=
202012031800 AAXX 03184 67665 42780 70304 10223 20186 48521 85032
                   333 10262 58021 81950 85360 81080=
202012031200 AAXX 03124 67665 42580 70507 10251 20176 48515 86232
                   333 58029 81925 86830 82360 81080=
202012020900 AAXX 02094 67665 42580 63006 10260 20186 48520 85502
                   333 59014 85625 83280=
202012020600 AAXX 02064 67665 12380 63107 10221 20191 48513 60304 8163/
                   555 10/// 20/// 59013 81707 86359=
202012020300 AAXX 02034 67665 42980 73203 10206 20199 48497 8703/
                   333 59018 87360=
202012020000 AAXX 02004 67665 42980 71802 10203 20198 48493 8703/
                   333 59019 87359=
202012012100 AAXX 01214 67665 41980 72502 10207 20199 48507 72166 8707/
                   333 59023 84358 83460=
202012010900 AAXX 01094 67665 42580 61005 10257 20190 48522 83232
                   333 58017 83825 84360 81080=
202012010600 AAXX 01064 67665 12980 62002 10209 20188 48525 69994 70222 82572
                   333 10//0 20//0 5//// 82629 85359 84080=

################################################################################
#  SYNOPS from 67666, Lusaka City Airport (Zambia) | 15-25-00S | 028-28-00E | 1280 m
################################################################################
202012180900 AAXX 18094 67666 NIL=
202012150600 AAXX 15064 67666 12480 80402 10200 20174 48512 60014 8357/
                   333 10259 20190 59009 83612 88458
                   555 00/// 91018=
202012140600 AAXX 14064 67666 11480 70907 10191 20177 48519 60404 70222 84530
                   333 10245 20181 58005 84610 83359=
202012080600 AAXX 08064 67666 11380 80000 10207 20192 48539 69954 76221 887//
                   333 10270 20189 58004 88709=
202012070600 AAXX 07064 67666 12580 80903 10207 20184 48540 60014 8354/
                   333 10234 20183 5//// 83620 87459=
202012040600 AAXX 04064 67666 11270 80802 10180 20173 48527 60064 76662 8577/
                   333 10250 20175 58003 85706 88457=
202012010600 AAXX 01064 67666 12480 71602 10205 20182 48517 60454 70222 82572
                   333 10288 20170 58016 82610 85359 84080=

################################################################################
#  SYNOPS from 67667, Mount Makulu (Zambia) | 15-33S | 028-15E | 1213 m
################################################################################
202012180900 AAXX 18094 67667 NIL=
202012171200 AAXX 17124 67667 42580 73307 10256 20197 48486 82270
                   333 58002 82825 87460=
202012150600 AAXX 15064 67667 12980 83601 10202 20188 48/// 60064 80008
                   333 10286 20178 5//// 88280=
202012140600 AAXX 14064 67667 12580 80602 10190 20190 48570 60184 82508
                   333 10260 20179 59002 82625 88280=
202012080600 AAXX 08064 67667 12580 81802 10192 20190 48/// 60284 88500
                   333 10306 20182 5//// 88625=
202012070600 AAXX 07064 67667 12580 70000 10210 20199 48/// 60044 87500
                   333 10270 20176 5//// 87625=
202012010600 AAXX 01064 67667 12580 70000 10222 20192 48573 60084 87500
                   333 10332 20172 58016 87625=

################################################################################
#  SYNOPS from 67673, Petauke (Zambia) | 14-15S | 031-17E | 1035 m
################################################################################
202012180900 AAXX 18094 67673 NIL=
202012171200 AAXX 17124 67673 42680 72701 10210 20102 48/// 84235
                   333 5//// 84840 82360 85280=
202012150600 AAXX 15064 67673 NIL=
202012080600 AAXX 08064 67673 32680 52701 10242 20202 48/// 82131
                   333 10304 20//0 5//// 81825 82360 81080=
202012040600 AAXX 04064 67673 11960 81801 10210 20202 48/// 60404 72662 887//
                   333 10284 20//0 5//// 88459=
202012010600 AAXX 01064 67673 31960 71601 10230 20195 48/// 70522 8707/
                   333 10351 20//0 87360=

################################################################################
#  SYNOPS from 67731, Senanga (Zambia) | 16-06S | 023-16E | 1027 m
################################################################################
202012180900 AAXX 18094 67731 NIL=
202012150600 AAXX 15064 67731 NIL=
202012070600 AAXX 07064 67731 11470 809// 10229 20200 48/// 69924 76166 83518
                   333 10329 20175 5//// 83614 85460 88280=

################################################################################
#  SYNOPS from 67741, Sesheke (Zambia) | 17-28S | 024-18E | 949 m
################################################################################
202012230900 AAXX 23094 67741 42680 20000 10304 20211 48515 81130
                   333 59010 81850 82362=
202012180900 AAXX 18094 67741 42680 73601 10229 20200 48493 875//
                   333 58014 87630=
202012171200 AAXX 17124 67741 42680 73501 10292 20210 48467 8657/
                   333 58002 86630 82362=
202012170900 AAXX 17094 67741 42680 73601 10240 20215 48475 875//
                   333 59005 87630=
202012150600 AAXX 15064 67741 NIL=
202012080600 AAXX 08064 67741 12980 70000 10225 20193 48538 69914 8703/
                   333 10312 20185 58011 87362=
202012070600 AAXX 07064 67741 12680 50000 10252 20210 48525 60084 81530
                   333 10322 20199 5//// 81645 85362=
202012010600 AAXX 01064 67741 12680 70000 10233 20213 48512 60024 8157/
                   333 10315 20205 59023 81645 87362=

################################################################################
#  SYNOPS from 67743, Livingstone (Zambia) | 17-49S | 025-49E | 985 m
################################################################################
202012180900 AAXX 18094 67743 NIL=
202012150600 AAXX 15064 67743 NIL=
202012080600 AAXX 08064 67743 11359 81010 10214 20198 48543 60024 75022 8577/
                   333 10295 20188 58016 85706 88359=
202012010600 AAXX 01064 67743 12480 52904 10238 20204 48510 60054 81670
                   333 10315 20185 59033 81715 85359=

################################################################################
#  SYNOPS from 67751, Magoye (Zambia) | 16-00S | 027-36E | 1018 m
################################################################################
202012180900 AAXX 18094 67751 NIL=
202012150600 AAXX 15064 67751 NIL=
202012140600 AAXX 14064 67751 12380 80102 10212 20195 48/// 60344 8551/
                   333 10//0 20185 59004 85607 84460=

################################################################################
#  SYNOPS from 67753, Choma (Zambia) | 16-50S | 027-04E | 1213 m
################################################################################
202012180900 AAXX 18094 67753 NIL=
202012150600 AAXX 15064 67753 NIL=
202012080600 AAXX 08064 67753 11359 81010 10214 20198 48543 60024 75022 8577/
                   333 10295 20188 58016 85706 88359=
202012070600 AAXX 07064 67753 11375 80000 10194 20170 48/// 69934 75052 8463/
                   333 10261 20180 5//// 84706 84360=
202012010600 AAXX 01064 67753 11580 70000 10210 20195 48/// 70222 8115/
                   333 10300 20184 5//// 81820 87360=
