################################################################################
# Query made at 04/18/2022 00:46:27 UTC
# Country like Zamb*
# Time interval: from 10/01/2006 05:30  to 10/31/2006 05:30  UTC
################################################################################

################################################################################
#  SYNOPS from 67403, Kawambwa (Zambia) | 09-48S | 029-05E | 1323 m
################################################################################
200610110600 AAXX 11064 67403 31980 61204 10239 20146 48563 70522 86031
                   333 10336 20171 58000 86361 81080=

################################################################################
#  SYNOPS from 67413, Mbala (Zambia) | 08-51S | 031-20E | 1673 m
################################################################################
200610240600 AAXX 24064 67413 32980 40000 10225 20168 48540 84080
                   333 10285 20138 58004 84360=
200610231200 AAXX 23124 67413 42680 70000 10260 20220 48504 85248
                   333 59002 85840 87380=
200610190600 AAXX 19064 67413 31975 10610 10215 20103 48540 70500 80001
                   333 10290 20150 58009 81080=
200610160600 AAXX 16064 67413 32980 70915 10225 20126 48530 87030
                   333 10307 20170 59010 87359=

################################################################################
#  SYNOPS from 67441, Mwinilunga (Zambia) | 11-45S | 024-26E | 1361 m
################################################################################
200610280600 AAXX 28064 67441 NIL=
200610271500 AAXX 27154 67441 NIL=
200610240600 AAXX 24064 67441 11470 83503 10185 20161 48553 60124 72844 886//
                   333 10300 20158 59005 88710=
200610150600 AAXX 15064 67441 11970 70000 10191 20178 48548 60044 70522 8703/
                   333 10315 20115 59006 87360=
200610091200 AAXX 09124 67441 NIL=
200610040600 AAXX 04064 67441 11980 00000 10185 20169 48555 69904 72844
                   333 10300 20145 58002=

################################################################################
#  SYNOPS from 67461, Mansa (Zambia) | 11-06S | 028-51E | 1382 m
################################################################################
200610280600 AAXX 28064 67461 NIL=
200610271500 AAXX 27154 67461 NIL=
200610250600 AAXX 25064 67461 31965 62002 10240 20149 48509 70522 81038
                   333 10335 20172 59006 81362 86280=
200610190600 AAXX 19064 67461 31965 61208 10258 20100 48524 70522 80008
                   333 10344 20179 58004 86280=
200610110600 AAXX 11064 67461 31970 51313 10216 20130 48532 70522 80001
                   333 10322 20180 59003 85080=
200610091200 AAXX 09124 67461 NIL=

################################################################################
#  SYNOPS from 67475, Kasama (Zambia) | 10-13S | 031-08E | 1382 m
################################################################################
200610280600 AAXX 28064 67475 NIL=
200610271500 AAXX 27154 67475 NIL=
200610190600 AAXX 19064 67475 31970 20920 10240 20112 48537 70500 80001
                   333 10345 555 10168 58013 82080=
200610120600 AAXX 12064 67475 31670 30815 10216 20142 48536 70521 83101
                   333 10322 20165 59005 83830 81080=
200610111200 AAXX 11124 67475 41870 51215 10298 20113 48502 70522 85100
                   333 58000 85857=
200610110600 AAXX 11064 67475 31670 31205 10222 20142 48541 70500 83101
                   333 10332 20168 59001 83840 84080=
200610091200 AAXX 09124 67475 NIL=
200610040600 AAXX 04064 67475 31960 51203 10248 20535 48/// 70500 80001
                   333 10335 20160 59001 82080=

################################################################################
#  SYNOPS from 67476, Misamfu (Zambia) | 10-06S | 031-15E | 1536 m
################################################################################
200610190600 AAXX 19064 67476 31970 01214 10246 20111 48/// 70500
                   333 10342 20156 58008=
200610111200 AAXX 11124 67476 41870 51206 10296 20105 48/// 70522 85101
                   333 58000 85858 81080=
200610110600 AAXX 11064 67476 31670 11314 10215 20145 48/// 70500 81102
                   333 10330 20168 59013 81832 81080=

################################################################################
#  SYNOPS from 67477, Mpika (Zambia) | 11-54S | 031-26E | 1400 m
################################################################################
200610280600 AAXX 28064 67477 NIL=
200610271500 AAXX 27154 67477 NIL=
200610241200 AAXX 24124 67477 41870 51503 10317 20118 48491 70522 83201
                   333 58002 83858 82080=
200610231200 AAXX 23124 67477 42880 71309 10320 20099 48489 81107
                   333 58006 81858 87280=
200610190600 AAXX 19064 67477 31965 70910 10235 20099 48535 70522 80007
                   333 10320 20177 58015 87280=
200610150600 AAXX 15064 67477 31975 61013 10223 20104 48531 70522 80008
                   333 10295 20177 59008 86280=
200610120600 AAXX 12064 67477 31575 30910 10200 20142 48531 70500 83100
                   333 10279 20165 59005 83821=
200610110600 AAXX 11064 67477 11475 31016 10194 20145 48535 69904 72051 83130
                   333 10285 20165 59008 83818 81362=
200610091200 AAXX 09124 67477 NIL=

################################################################################
#  SYNOPS from 67481, Isoka (Zambia) | 10-07S | 032-38E | 1360 m
################################################################################
200610241200 AAXX 24124 67481 41775 61204 10325 20089 48/// 70522 86202
                   333 58003 86756 83080=
200610190600 AAXX 19064 67481 31975 00901 10230 20131 48/// 70500
                   333 10341 20158 58003=
200610160600 AAXX 16064 67481 31975 40302 10250 20143 48/// 70521 80002
                   333 10334 20161 5//// 84080=
200610120600 AAXX 12064 67481 31675 10602 10230 20132 48/// 70500 81100
                   333 10313 20151 58000 81840=
200610111200 AAXX 11124 67481 41775 50605 10305 20114 48/// 70522 84201
                   333 58001 81956 84856 83080=
200610110600 AAXX 11064 67481 31675 51506 10222 20144 48/// 70522 83202
                   333 10330 20154 59002 83832 83080=

################################################################################
#  SYNOPS from 67531, Zambezi (Zambia) | 13-32S | 023-07E | 1077 m
################################################################################
200610280600 AAXX 28064 67531 NIL=
200610271500 AAXX 27154 67531 NIL=
200610251200 AAXX 25124 67531 42880 53605 10340 20157 85200
                   333 5//// 85857=
200610240600 AAXX 24064 67531 32980 70000 10233 20173 48/// 80008
                   333 10338 20173 58003 87280=
200610190600 AAXX 19064 67531 11380 83004 10183 20177 48/// 60394 79196 8172/
                   333 10345 20181 5//// 87707 88460=
200610120600 AAXX 12064 67531 31978 71312 10241 20134 48/// 70522 81078
                   333 10345 20174 59003 81361 87281=
200610111200 AAXX 11124 67531 41978 70906 10332 20121 48/// 70522 83108
                   333 59001 83858 87281=
200610110600 AAXX 11064 67531 31978 11211 10245 20110 48/// 70500 80002
                   333 10366 20190 59005 81081=
200610091200 AAXX 09124 67531 NIL=
200610040600 AAXX 04064 67531 31978 53105 10258 20178 48/// 70511 85030
                   333 10333 20206 59004 85361=

################################################################################
#  SYNOPS from 67541, Kasempa (Zambia) | 13-32S | 025-51E | 1234 m
################################################################################
200610280600 AAXX 28064 67541 NIL=
200610271500 AAXX 27154 67541 NIL=
200610091200 AAXX 09124 67541 NIL=

################################################################################
#  SYNOPS from 67551, Solwezi (Zambia) | 12-11S | 026-23E | 1386 m
################################################################################
200610150600 AAXX 15064 67551 31978 63402 10220 20176 48/// 70521 86030
                   333 10340 20189 59007 86362=
200610110600 AAXX 11064 67551 31960 11214 10203 20126 48534 70500 80001
                   333 10326 20177 59003 81080=

################################################################################
#  SYNOPS from 67561, Ndola (Zambia) | 13-00S | 028-39E | 1269 m
################################################################################
200610280600 AAXX 28064 67561 NIL=
200610271500 AAXX 27154 67561 NIL=
200610241200 AAXX 24124 67561 41865 71703 10324 20114 48491 70522 87200
                   333 58001 87857=
200610240600 AAXX 24064 67561 31965 41006 10256 20127 48527 70511 81032
                   333 10345 20190 58006 81361 84080=
200610190600 AAXX 19064 67561 11965 70806 10241 20114 48543 69904 70522 82038
                   333 10341 20195 58014 82361 86280=
200610150600 AAXX 15064 67561 31965 10912 10233 20109 48535 70500 81031
                   333 10321 20183 59012 81361 81080=
200610120600 AAXX 12064 67561 31475 70712 10214 20134 48545 70522 82538
                   333 10311 20148 59003 82615 85362 85280=
200610091200 AAXX 09124 67561 NIL=
200610040600 AAXX 04064 67561 31960 21905 10227 20156 48536 70511 82030
                   333 10297 20161 58008 82361=

################################################################################
#  SYNOPS from 67580, Msekera (Zambia) | 13-39S | 032-34E | 1025 m
################################################################################
200610150000 AAXX 15003 67580 40000 10157 20148 39487 48642 84200
                   333 59037=

################################################################################
#  SYNOPS from 67581, Chipata (Zambia) | 13-33S | 032-35E | 1028 m
################################################################################
200610280600 AAXX 28064 67581 NIL=
200610271500 AAXX 27154 67581 NIL=
200610231200 AAXX 23124 67581 41775 50607 10342 20114 48512 70521 85100
                   333 58006 85856=
200610190600 AAXX 19064 67581 31775 11210 10262 20150 48558 70500 81100
                   333 10342 20124 58018 81856=
200610111200 AAXX 11124 67581 41675 70810 10259 20146 48538 70522 81230
                   333 58016 81845 87360=
200610091200 AAXX 09124 67581 NIL=

################################################################################
#  SYNOPS from 67599, Mfuwe (Zambia) | 13-16S | 031-56E | 568 m
################################################################################
200610261200 AAXX 26124 67599 41958 70403 10375 20168 48534 70522 81107
                   333 58008 81859 87280=
200610240600 AAXX 24064 67599 31958 51307 10300 20172 48551 70522 85030
                   333 10370 20//0 58004 85362=
200610231200 AAXX 23124 67599 41958 31506 10385 20150 48526 70500 83100
                   333 5//// 83859=
200610190600 AAXX 19064 67599 31980 41508 10296 20174 48574 70521 80001
                   333 10374 20/// 58020 84080=
200610161500 AAXX 16154 67599 41875 60706 10355 20169 48507 70522 83232
                   333 5//// 83360 82080=
200610161200 AAXX 16124 67599 41875 40805 10371 20160 48521 70510 84202
                   333 5//// 84858 81080=
200610160600 AAXX 16064 67599 31975 41005 10295 20157 48561 70511 80002
                   333 10380 20/// 59046 84080=
200610120600 AAXX 12064 67599 31675 71302 10260 20177 48570 70522 81107
                   333 10302 20/// 59008 81840 87280=
200610110600 AAXX 11064 67599 11975 61413 10250 20165 48575 69954 70522 86030
                   333 10348 20//0 58007 86361=
200610030600 AAXX 03064 67599 31975 51209 10290 20140 48543 70522 85030
                   333 10375 20/// 58004 85362=

################################################################################
#  SYNOPS from 67633, Mongu (Zambia) | 15-15S | 023-09E | 1052 m
################################################################################
200610280600 AAXX 28064 67633 NIL=
200610271500 AAXX 27154 67633 NIL=
200610190600 AAXX 19064 67633 11465 83205 10194 20186 48549 60014 71966 8197/
                   333 10332 20192 58028 83610 81957 87360=
200610091200 AAXX 09124 67633 NIL=
200610040600 AAXX 04064 67633 31960 12801 10238 20165 48520 70500 80002
                   333 10343 20176 59004 81080=

################################################################################
#  SYNOPS from 67641, Kaoma (Zambia) | 14-48S | 024-48E | 1213 m
################################################################################
200610280600 AAXX 28064 67641 NIL=
200610271500 AAXX 27154 67641 NIL=
200610091200 AAXX 09124 67641 NIL=

################################################################################
#  SYNOPS from 67659, Kafue Polder (Zambia) | 15-46S | 027-55E | 978 m
################################################################################
200610240600 AAXX 24064 67659 31965 00904 10266 20100 70500
                   333 10357 20176 5////=
200610231200 AAXX 23124 67659 41960 60904 10344 20102 70522 80008
                   333 86280=
200610190600 AAXX 19064 67659 31960 50910 10240 20157 48/// 70522 80006
                   333 10340 20212 85280=
200610161200 AAXX 16124 67659 41865 63306 10328 20142 70532 84138
                   333 84857 83362 86280=
200610160600 AAXX 16064 67659 31965 70904 10246 20135 48/// 70522 8703/
                   333 10336 20177 87362=
200610150600 AAXX 15064 67659 31965 30906 10244 20145 48/// 70522 80001
                   333 5//// 83080=
200610120600 AAXX 12064 67659 31965 60906 10228 20119 48/// 70522 85052
                   333 10311 20178 5//// 85460 81080=
200610111200 AAXX 11124 67659 41670 60908 10302 20123 48/// 70522 81207
                   333 5//// 81840 86280=
200610110600 AAXX 11064 67659 31660 10908 10225 20119 48/// 70500 81100
                   333 10320 20195 81830=

################################################################################
#  SYNOPS from 67662, Kabwe Agric (Zambia) | 14-24S | 028-30E | 1165 m
################################################################################
200610190600 AAXX 19064 67662 11970 71007 10225 20168 60014 72162 8707/
                   333 10/// 20/// 87363=
200610160600 AAXX 16064 67662 31970 60907 10547 20129 48/// 70522 86030
                   333 10/// 20/// 5//// 86363=
200610110600 AAXX 11064 67662 31570 50910 10215 20149 48/// 70521 85500
                   333 10//0 20//0 85620=

################################################################################
#  SYNOPS from 67663, Kabwe (Zambia) | 14-27S | 028-28E | 1206 m
################################################################################
200610280600 AAXX 28064 67663 NIL=
200610271500 AAXX 27154 67663 NIL=
200610230600 AAXX 23064 67663 31970 30905 10256 20109 48521 70511 81032
                   333 10334 20222 59004 81360 83080=
200610190600 AAXX 19064 67663 11570 60906 10220 20166 48543 69904 70522 82532
                   333 10296 20200 58018 82625 85360 82080=
200610091200 AAXX 09124 67663 NIL=

################################################################################
#  SYNOPS from 67665, Lusaka Internationalairport (Zambia) | 15-19S | 028-27E | 1152 m
################################################################################
200610301200 AAXX 30124 67665 41780 50000 10331 20155 48483 70522 85200
                   333 59016 85850=
200610300600 AAXX 30064 67665 31975 10000 10261 20160 48522 70500 81030
                   333 10341 20184 59018 81360 91018=
200610290900 AAXX 29094 67665 41680 10209 10293 20171 48527 70500 81101
                   333 59034 81848 81080=
200610290600 AAXX 29064 67665 43975 21014 10227 20166 48533 70500 80001
                   333 10350 20172 59026 82080=
200610281500 AAXX 28154 67665 41759 31110 10295 20167 48514 70521 83200
                   333 58005 83858 555 10350=
200610281200 AAXX 28124 67665 41675 50609 10288 20176 48530 70522 85800
                   333 58003 85845=
200610280900 AAXX 28094 67665 41575 60810 10256 20194 48557 70522 86800
                   333 58004 85825 82625=
200610280600 AAXX 28064 67665 41459 61015 10224 20191 48557 70500 86500
                   333 10346 20197 58004 86618=
200610280400 AAXX 28044 67665 41970 11010 10196 20184 48543 70500 81030
                   333 58003 81360=
200610272100 AAXX 27214 67665 41970 10916 10251 20167 48542 81030
                   333 58017 81360=
200610271800 AAXX 27184 67665 41959 11204 10260 20185 48529 70500 81030
                   333 58009 81080=
200610271500 AAXX 27154 67665 41770 21012 10321 20120 48523 70500 82200
                   333 58015 82856 91017=
200610271200 AAXX 27124 67665 42780 51011 10334 20143 48534 85200
                   333 58020 85850 91018=
200610270900 AAXX 27094 67665 41770 10610 10317 20147 48561 70500 81100
                   333 58022 81850 91021=
200610270600 AAXX 27064 67665 31975 01105 10256 20135 48557 70500
                   333 10353 20124 58017=
200610261800 AAXX 26184 67665 41975 01204 10258 20115 48520 70500
                   333 10353 58023=
200610261500 AAXX 26154 67665 41875 41408 10311 20117 48506 70522 81931
                   333 58018 81958 85359 81080=
200610261200 AAXX 26124 67665 41775 31509 10343 20120 48514 70500 83100
                   333 58009 83856=
200610260900 AAXX 26094 67665 41975 00613 10320 20150 48539 70500
                   333 58011=
200610260600 AAXX 26064 67665 31970 00304 10256 20138 48535 70500
                   333 10370 20179 58009 91020=
200610260400 AAXX 26044 67665 41970 01102 10204 20129 48525 70500
                   333 59006 91019=
200610260300 AAXX 26034 67665 41970 01505 10198 20153 48518 70500
                   333 59008 91018=
200610251200 AAXX 25124 67665 41870 30807 10345 20111 48505 70500 83100
                   333 59013 83856=
200610250900 AAXX 25094 67665 41970 00707 10319 20127 48528 70500
                   333 59014=
200610250600 AAXX 25064 67665 42975 00705 10278 20105 48534
                   333 10370 20180 59012=
200610241200 AAXX 24124 67665 42770 21308 10333 20106 48517 70500 82100
                   333 59006 82850 91016=
200610240900 AAXX 24094 67665 42970 01012 10317 20090 48540
                   333 59004=
200610240600 AAXX 24064 67665 32970 01110 10255 20126 48542
                   333 10338 20165 58003=
200610231200 AAXX 23124 67665 42770 51110 10322 20132 48514 81203
                   333 58016 81856 85080=
200610230300 AAXX 23034 67665 41970 11204 10186 20126 48516 70500 80001
                   333 59002 81080=
200610222100 AAXX 22214 67665 41970 11502 10226 20178 48524 70500 80001
                   333 58000 81080=
200610221800 AAXX 22184 67665 41980 11206 10254 20173 48516 70500 80002
                   333 58003 81080=
200610220900 AAXX 22094 67665 41958 00811 10310 20147 48538 70500
                   333 59004=
200610220400 AAXX 22044 67665 41980 11205 10199 20139 48525 70500 80002
                   333 59005 81080=
200610220300 AAXX 22034 67665 41980 11305 10190 20141 48516 70500 80001
                   333 59006 81080=
200610211800 AAXX 21184 67665 41975 11105 10250 20137 48504 70522 81102
                   333 59011 81957 81080=
200610211500 AAXX 21154 67665 41775 41111 10318 20148 48504 70500 83232
                   333 59012 83856 81360 81080
                   555 10339 91015=
200610211200 AAXX 21124 67665 41770 40810 10330 20144 48517 70500 84200
                   333 59010 84850=
200610210900 AAXX 21094 67665 41980 10609 10305 20142 48542 70500 80002
                   333 59007 81080 91020=
200610210600 AAXX 21064 67665 31980 01011 10243 20147 48544 70500
                   333 59012=
200610200900 AAXX 20094 67665 41675 30711 10281 20176 48581 70522 81102
                   333 81835 82080 91020=
200610191500 AAXX 19154 67665 41870 71113 10254 20180 48521 70522 8113/
                   333 58013 81857 87360 91018=
200610190600 AAXX 19064 67665 11560 41018 10225 20187 48561 69904 70500 83532
                   333 10287 20198 58020 83620 82360 81080 91023=
200610181200 AAXX 18124 67665 41770 30905 10325 20157 48520 70500 83201
                   333 59008 83856 81080=
200610180900 AAXX 18094 67665 41959 00611 10299 20161 48547 70500
                   333 59005 91020=
200610180600 AAXX 18064 67665 11960 11010 10234 20182 48542 69904 70500 81032
                   333 10352 20182 59012 81360 81080 91021=
200610171200 AAXX 17124 67665 41658 71105 10235 20243 48525 76062 8171/
                   333 58025 81840 87359=
200610170900 AAXX 17094 67665 41960 70704 10251 20166 48546 70522 8707/
                   333 58012 87360=
200610170600 AAXX 17064 67665 31980 10214 20194 48551 70522 8807/
                   333 10352 20204 58015 88360=
200610161800 AAXX 16184 67665 42980 01403 10258 20131 48509
                   333 10336 59012=
200610161500 AAXX 16154 67665 41775 41509 10317 20156 48499 70500 81232
                   333 59014 81850 83360 81080=
200610161200 AAXX 16124 67665 41675 50607 10314 20153 48508 70500 84202
                   333 59012 84850 82080=
200610151200 AAXX 15124 67665 41770 41107 10312 20138 48520 70500 84101
                   333 59017 84850 81080 91017=
200610150600 AAXX 15064 67665 31970 20813 10224 20172 48552 70500 81031
                   333 10319 20165 59024 81360 81080=
200610150400 AAXX 15044 67665 41970 21104 10168 20160 48533 70522
                   333 59012=
200610150300 AAXX 15034 67665 41970 21106 10172 20156 48529 70522
                   333 59011=
200610141800 AAXX 14184 67665 41970 11205 20151 48536 70522
                   333 59015=
200610140900 AAXX 14094 67665 41680 50613 10269 20170 48562 70522 85102
                   333 59004 85838 83080=
200610140300 AAXX 14034 67665 42980 21106 10167 20158 48538 81031
                   333 59003 81360 81080 91021=
200610131800 AAXX 13184 67665 42975 41109 10236 20150 48548 70500 83032
                   333 58011 84360 81080 91021=
200610131200 AAXX 13124 67665 41775 60710 10288 20148 48544 70522 86202
                   333 58012 86858 82080 91020=
200610130600 AAXX 13064 67665 32980 50814 10220 20157 48567 82032
                   333 10306 20160 58011 82360 83080=
200610130400 AAXX 13044 67665 42980 51205 10163 20146 48547 84032
                   333 58005 84360 82080=
200610130300 AAXX 13034 67665 41970 21104 10160 20144 48541 70500 81032
                   333 58018 81360 81080=
200610122100 AAXX 12214 67665 41970 20904 10178 20156 48546 70500 80002
                   333 58002 82080=
200610121800 AAXX 12184 67665 41970 21111 10231 20152 48527 70500 81032
                   333 10295 81360 82080=
200610121500 AAXX 12154 67665 41775 51111 10278 20144 48526 70500 81132
                   333 59003 81850 83360 82080
                   555 10295 91018=
200610121200 AAXX 12124 67665 41675 30709 10278 20143 48532 70500 83101
                   333 59004 82840 83080=
200610120600 AAXX 12064 67665 31959 40913 10207 20151 48554 70500 80002
                   333 10299 20158 59010 84080=
200610120400 AAXX 12044 67665 41958 31204 10158 20142 48531 70500 83032
                   333 59017 81360 83080=
200610112100 AAXX 11214 67665 42980 41106 10177 20144 48533 84032
                   333 59017 84360 81080=
200610111200 AAXX 11124 67665 41975 20614 10284 20153 48536 70500 82101
                   333 58004 82850 81080=
200610110900 AAXX 11094 67665 41670 20914 10244 20168 48562 70500 82100
                   333 59002 82835 Q1023.2=
200610110600 AAXX 11064 67665 31470 40918 10204 20147 48563 70511 84130
                   333 10309 20167 59002 84818 81360=
200610101500 AAXX 10154 67665 41970 11013 10284 20110 48533 70500 81030
                   333 58001 81360=
200610101200 AAXX 10124 67665 41760 11110 10299 20120 48542 70500 81100
                   333 59001 81850=
200610100900 AAXX 10094 67665 42980 01014 10271 20136 48568 70500
                   333 58003 91023=
200610100600 AAXX 10064 67665 32980 00818 10219 20129 48568
                   333 10334 20176 59002 91024=
200610091500 AAXX 09154 67665 41870 31111 10309 20136 48537 70522 83200
                   333 59010 83858 555 10323 91019=
200610091200 AAXX 09124 67665 41770 40907 10318 20147 48546 70522 84200
                   333 59011 84850=
200610090900 AAXX 09094 67665 42970 00711 10292 20162 48568 70500
                   333 59015=
200610081200 AAXX 08124 67665 41760 11011 10312 20160 48555 70500 81100
                   333 58008 81850=
200610080900 AAXX 08094 67665 41659 10713 10283 20177 48581 70500 81100
                   333 58000 81830=
200610080600 AAXX 08064 67665 32980 00911 10219 20182 48578
                   333 10324 20152 58000 91025=
200610071200 AAXX 07124 67665 41660 40814 10302 20161 48542 70521 84200
                   333 59007 84845=
200610070900 AAXX 07094 67665 41659 50607 10270 20180 70500 85500
                   333 58003 85630=
200610061500 AAXX 06154 67665 41959 11017 10289 20178 48546 70500 80002
                   333 58032 81080 555 10369 91020=
200610061200 AAXX 06124 67665 41759 21217 10309 20184 48554 70500 81202
                   333 58035 81856 81080=
200610051500 AAXX 05154 67665 41759 11011 10330 20154 48519 70500 81200
                   333 58000 81855 91017=
200610051200 AAXX 05124 67665 41659 41016 10346 20146 48534 70500 81101
                   333 58011 81840 81080 91018=
200610050600 AAXX 05064 67665 31959 01109 10238 20194 48549 70500
                   333 10374 20196 58011 Q1021=
200610050400 AAXX 05044 67665 41959 31303 10208 20177 48531 70500 81032
                   333 58003 81360 83080 91020=
200610041200 AAXX 04124 67665 41759 41104 10346 20156 48523 70522 84200
                   333 58010 84850 91017=
200610040600 AAXX 04064 67665 11960 10903 10238 20194 48539 69904 70500 81031
                   333 10330 20198 58009 81360 81080=
200610031500 AAXX 03154 67665 41970 72304 10280 20188 48504 75022 82037
                   333 89012 82362 86080=
200610031200 AAXX 03124 67665 11670 73305 10309 20173 48507 78022 8193/
                   333 59001 81940 87845 82360 91016=
200610030900 AAXX 03094 67665 41960 23007 10303 20185 48534 70500 83032
                   333 59001 81835 81080=
200610030600 AAXX 03064 67665 11960 43011 10242 20180 48531 69904 70500 84032
                   333 10308 20160 59012 84460 81080=
200610021500 AAXX 02154 67665 41970 53007 10147 48493 70500 85030
                   333 58012 85360 91014=
200610021200 AAXX 02124 67665 41659 72910 10275 20186 48505 70500 8123/
                   333 58010 81835 87360=
200610020900 AAXX 02094 67665 41960 73100 10256 20182 48529 70522 8703/
                   333 58002 87360=
200610020600 AAXX 02064 67665 31959 70105 10205 20205 48531 70522 8703/
                   333 10340 20176 58001 87360=
200610020400 AAXX 02044 67665 62505 10196 20185 48511 70500
                   333 59008 86360=
200610020300 AAXX 02034 67665 41975 02608 10199 20189 48503 70500
                   333 59013=
200610012100 AAXX 01214 67665 41975 11103 10210 20164 48496 70500
                   333 59028 81080=
200610011800 AAXX 01184 67665 41775 31503 10252 20157 48496 71300 81932
                   333 10334 59023 81950 83360 81080=
200610010900 AAXX 01094 67665 41675 39311 10291 20174 48532 70500 81130
                   333 59021 81840 83361=

################################################################################
#  SYNOPS from 67666, Lusaka City Airport (Zambia) | 15-25S | 028-19E | 1280 m
################################################################################
200610251200 AAXX 25124 67666 42880 20000 10330 20134 48491 81300
                   333 59017 81858=
200610241200 AAXX 24124 67666 42780 21205 10331 20156 48507 82200
                   333 59009 82856=
200610190600 AAXX 19064 67666 11475 51112 10215 20168 48548 60014 70500 83530
                   333 10/// 20190 58019 83616 85360=
200610160600 AAXX 16064 67666 31975 70916 10240 20153 48529 70522 85038
                   333 10/// 20200 59008 85360 84080=
200610150600 AAXX 15064 67666 31975 20620 10230 20151 48536 70500 80001
                   333 10/// 20/// 59013 82080=
200610120600 AAXX 12064 67666 32980 10916 10205 20131 48540 80001
                   333 10/// 20/// 59013 81080=
200610110600 AAXX 11064 67666 32480 20918 10205 20130 48553 70500 82100
                   333 10//0 20155 58002 82810=

################################################################################
#  SYNOPS from 67673, Petauke (Zambia) | 14-15S | 031-17E | 1035 m
################################################################################
200610251200 AAXX 25124 67673 41880 60906 10354 20103 48502 70521 86200
                   333 59017 86857=
200610240600 AAXX 24064 67673 31980 40908 10278 20126 48543 70510 81081
                   333 10362 20225 58004 81360 83080=
200610231200 AAXX 23124 67673 41880 70914 10350 20071 48519 70522 83207
                   333 58007 83857 87280=
200610190600 AAXX 19064 67673 31965 11107 10240 20165 48567 70500 80001
                   333 10350 20203 58021 81080=
200610161200 AAXX 16124 67673 41775 41207 10332 20111 48511 70500 84130
                   333 59006 84856 81365=
200610160600 AAXX 16064 67673 31975 10609 10270 20124 48546 70500 80001
                   333 10337 20207 59015 81080=
200610150600 AAXX 15064 67673 31980 70908 10242 20131 48556 70522 80008
                   333 10316 20174 59014 87280=
200610120600 AAXX 12064 67673 31980 70614 10231 20129 48563 70522 81038
                   333 10287 20187 59011 81360 87280=

################################################################################
#  SYNOPS from 67731, Senanga (Zambia) | 16-06S | 023-16E | 1027 m
################################################################################
200610251200 AAXX 25124 67731 41675 70801 10358 20104 70522 85232
                   333 58/// 81935 84835 82361 83080=
200610160600 AAXX 16064 67731 11975 71403 10240 20124 48/// 69904 70522 87078
                   333 10/// 20/// 58003 87360 87280=

################################################################################
#  SYNOPS from 67741, Sesheke (Zambia) | 17-28S | 024-18E | 949 m
################################################################################
200610240600 AAXX 24064 67741 32980 13603 10262 20157 48533 81030
                   333 10364 20192 59010 81362=
200610190600 AAXX 19064 67741 11670 73007 10205 20186 48553 60014 79596 8197/
                   333 10355 20185 58023 81946 87460=
200610160600 AAXX 16064 67741 31970 71604 10238 20145 48541 70522 8707/
                   333 10375 20176 59004 87363=

################################################################################
#  SYNOPS from 67743, Livingstone (Zambia) | 17-49S | 025-49E | 985 m
################################################################################
200610280600 AAXX 28064 67743 NIL=
200610271500 AAXX 27154 67743 NIL=
200610261200 AAXX 26124 67743 41770 41907 10382 20104 48509 70500 84100
                   333 58010 84856=
200610250900 AAXX 25094 67743 41970 21006 10355 20090 48526 70500 82030
                   333 59016 82360=
200610250600 AAXX 25064 67743 31970 41503 10256 20125 48515 70500 84030
                   333 10365 20212 59015 84360=
200610241200 AAXX 24124 67743 41970 41412 10370 20065 48519 70522 84100
                   333 59006 84858=
200610240900 AAXX 24094 67743 41970 00807 10340 20092 48540 70500
                   333 59013=
200610240600 AAXX 24064 67743 31770 10807 10272 20118 48533 6///4 70500 81100
                   333 10365 20217 59008 81856=
200610190600 AAXX 19064 67743 11770 70910 10254 20159 48547 69904 72920 81302
                   333 10350 20230 58012 81940 86080=
200610120600 AAXX 12064 67743 32970 60809 10225 20090 48543 83031
                   333 10325 20182 59008 83360 83080=
200610111200 AAXX 11124 67743 41770 60806 10316 20136 48531 70522 82102
                   333 59012 82856 84080=
200610110600 AAXX 11064 67743 31970 30915 10228 20123 48553 70500 80002
                   333 10335 20201 59008 83080=
200610091200 AAXX 09124 67743 NIL=
200610040600 AAXX 04064 67743 31970 10505 10248 20000 48533 70500
                   333 10360 20205 58018=
200610020900 AAXX 02094 67743 41960 63214 10300 20124 48511 70522 83038
                   333 59004 83360 87280=

################################################################################
#  SYNOPS from 67751, Magoye (Zambia) | 16-00S | 027-36E | 1018 m
################################################################################
200610110600 AAXX 11064 67751 31975 30903 10252 20105 48/// 70521 80002
                   333 10350 20194 59004 83080=

################################################################################
#  SYNOPS from 67753, Choma (Zambia) | 16-50S | 027-04E | 1213 m
################################################################################
200610280600 AAXX 28064 67753 NIL=
200610271500 AAXX 27154 67753 NIL=
200610251200 AAXX 25124 67753 41860 20607 10335 20069 70500 82100
                   333 82857=
200610241200 AAXX 24124 67753 41860 13605 10330 20099 48/// 70500 81100
                   333 5//// 81857=
200610240600 AAXX 24064 67753 31960 00907 10270 20068 48/// 70500
                   333 10340 20178 5////=
200610150600 AAXX 15064 67753 31960 50810 10225 20132 48/// 70522 80002
                   333 10309 20162 5//// 85080=
200610120600 AAXX 12064 67753 31960 73612 10212 20112 48/// 70522 80008
                   333 10290 20175 5//// 87280=
200610111200 AAXX 11124 67753 41860 60809 10268 20114 48/// 70500 84102
                   333 5//// 84857 86080=
200610110600 AAXX 11064 67753 31560 30910 10208 20167 48/// 70500 83500
                   333 10310 20160 83620=
200610091200 AAXX 09124 67753 NIL=
200610040600 AAXX 04064 67753 11960 71004 10211 20173 48/// 60064 70522 8707/
                   333 10341 20106 87460=

################################################################################
#  SYNOPS from 67855, Lupaki (Zambia) | 17-03-00S | 024-46-00E | 1000 m
################################################################################
200610310000 AAXX 31004 67855 NIL=
200610301800 AAXX 30184 67855 NIL=
200610301200 AAXX 30124 67855 NIL=
200610300600 AAXX 30064 67855 31970 03601 10267 20136 3//// 48/// 70500
                   333 20160 5////=
200610300000 AAXX 30004 67855 NIL=
200610291800 AAXX 29184 67855 NIL=
200610291200 AAXX 29124 67855 NIL=
200610290600 AAXX 29064 67855 NIL=
200610290000 AAXX 29004 67855 NIL=
200610281800 AAXX 28184 67855 NIL=
200610281200 AAXX 28124 67855 NIL=
200610280600 AAXX 28064 67855 NIL=
200610280000 AAXX 28004 67855 NIL=
200610271800 AAXX 27184 67855 NIL=
200610271200 AAXX 27124 67855 NIL=
200610270600 AAXX 27064 67855 NIL=
200610270000 AAXX 27004 67855 NIL=
200610261800 AAXX 26184 67855 NIL=
200610261200 AAXX 26124 67855 NIL=
200610260600 AAXX 26064 67855 11970 00601 10258 20104 3//// 48/// 69904 70500
                   333 20202 5////=
200610260000 AAXX 26004 67855 NIL=
200610251800 AAXX 25184 67855 NIL=
200610251200 AAXX 25124 67855 NIL=
200610250600 AAXX 25064 67855 31970 03401 10268 20091 3//// 48/// 70500
                   333 20177 5////=
200610250000 AAXX 25004 67855 NIL=
200610241800 AAXX 24184 67855 NIL=
200610241200 AAXX 24124 67855 NIL=
200610240600 AAXX 24064 67855 31970 00000 10253 20137 3//// 48/// 70500
                   333 20194 5////=
200610240000 AAXX 24004 67855 NIL=
200610231800 AAXX 23184 67855 NIL=
200610231200 AAXX 23124 67855 NIL=
200610230600 AAXX 23064 67855 11970 40000 10250 20139 3//// 48/// 60024 70511 80002
                   333 20187 5//// 84080=
200610230000 AAXX 23004 67855 NIL=
200610221800 AAXX 22184 67855 NIL=
200610221200 AAXX 22124 67855 NIL=
200610220600 AAXX 22064 67855 NIL=
200610220000 AAXX 22004 67855 NIL=
200610211800 AAXX 21184 67855 NIL=
200610211200 AAXX 21124 67855 NIL=
200610210600 AAXX 21064 67855 NIL=
200610210000 AAXX 21004 67855 NIL=
200610201800 AAXX 20184 67855 NIL=
200610201200 AAXX 20124 67855 NIL=
200610200600 AAXX 20064 67855 11970 70000 10202 20187 3//// 48/// 60124 70522 87072
                   333 20184 5//// 87460=
200610200000 AAXX 20004 67855 NIL=
200610191800 AAXX 19184 67855 NIL=
200610191200 AAXX 19124 67855 NIL=
200610190600 AAXX 19064 67855 31970 71001 10235 20164 3//// 48/// 70522 87032
                   333 20204 5//// 87360=
200610190000 AAXX 19004 67855 NIL=
200610181800 AAXX 18184 67855 NIL=
200610181200 AAXX 18124 67855 NIL=
200610180600 AAXX 18064 67855 11970 80000 10206 20153 3//// 48/// 69924 70522 8807/
                   333 20170 5//// 88460=
200610180000 AAXX 18004 67855 NIL=
200610171800 AAXX 17184 67855 NIL=
200610171200 AAXX 17124 67855 NIL=
200610170600 AAXX 17064 67855 11970 80000 10200 20156 3//// 48/// 69904 76062 8807/
                   333 20196 5//// 88460=
200610170000 AAXX 17004 67855 NIL=
200610161800 AAXX 16184 67855 NIL=
200610161200 AAXX 16124 67855 NIL=
200610160600 AAXX 16064 67855 12980 70000 10206 20126 3//// 48/// 60014 87072
                   333 20183 5//// 87460=
200610160000 AAXX 16004 67855 NIL=
200610151800 AAXX 15184 67855 NIL=
200610151200 AAXX 15124 67855 NIL=
200610150600 AAXX 15064 67855 NIL=
200610150000 AAXX 15004 67855 NIL=
200610141800 AAXX 14184 67855 NIL=
200610141200 AAXX 14124 67855 NIL=
200610140600 AAXX 14064 67855 NIL=
200610140000 AAXX 14004 67855 NIL=
200610131800 AAXX 13184 67855 NIL=
200610131200 AAXX 13124 67855 NIL=
200610130600 AAXX 13064 67855 32980 70501 10215 20087 3//// 48/// 80002
                   333 20158 5//// 87080=
200610130000 AAXX 13004 67855 NIL=
200610121800 AAXX 12184 67855 NIL=
200610121200 AAXX 12124 67855 NIL=
200610120600 AAXX 12064 67855 32980 70701 10208 20071 3//// 48/// 81032
                   333 20155 5//// 81360 87080=
200610120000 AAXX 12004 67855 NIL=
200610111800 AAXX 11184 67855 NIL=
200610111200 AAXX 11124 67855 NIL=
200610110600 AAXX 11064 67855 32980 01203 10202 20091 3//// 48///
                   333 20155 5////=
200610110000 AAXX 11004 67855 NIL=
200610101800 AAXX 10184 67855 NIL=
200610101200 AAXX 10124 67855 NIL=
200610100600 AAXX 10064 67855 32980 00901 10217 20111 3//// 48///
                   333 20155 5////=
200610100000 AAXX 10004 67855 NIL=
200610091800 AAXX 09184 67855 NIL=
200610091200 AAXX 09124 67855 NIL=
200610090600 AAXX 09064 67855 32980 10902 10230 20145 3//// 48/// 81030
                   333 20155 5//// 81362=
200610090000 AAXX 09004 67855 NIL=
200610081800 AAXX 08184 67855 NIL=
200610081200 AAXX 08124 67855 NIL=
200610080600 AAXX 08064 67855 NIL=
200610080000 AAXX 08004 67855 NIL=
200610071800 AAXX 07184 67855 NIL=
200610071200 AAXX 07124 67855 NIL=
200610070600 AAXX 07064 67855 NIL=
200610070000 AAXX 07004 67855 NIL=
200610061800 AAXX 06184 67855 NIL=
200610061200 AAXX 06124 67855 NIL=
200610060600 AAXX 06064 67855 11970 60903 10240 20174 3//// 48/// 69904 70511 8307/
                   333 20210 5//// 83362 83080=
200610060000 AAXX 06004 67855 NIL=
200610051800 AAXX 05184 67855 NIL=
200610051200 AAXX 05124 67855 NIL=
200610050600 AAXX 05064 67855 31970 50000 10259 20165 3//// 48/// 70522 85070
                   333 20190 5//// 85362=
200610050000 AAXX 05004 67855 NIL=
200610041800 AAXX 04184 67855 NIL=
200610040600 AAXX 04064 67855 31970 10000 10189 20045 3//// 48/// 70500 80001
                   333 20131 5//// 81080=
200610040000 AAXX 04004 67855 NIL=
200610031800 AAXX 03184 67855 NIL=
200610031200 AAXX 03124 67855 NIL=
200610030600 AAXX 03064 67855 31970 33302 10262 20157 3//// 48/// 70511 83070
                   333 20195 5//// 83362=
200610030000 AAXX 03004 67855 NIL=
200610021800 AAXX 02184 67855 NIL=
200610021200 AAXX 02124 67855 NIL=
200610020600 AAXX 02064 67855 32975 50000 10217 20096 3//// 48/// 85030
                   333 20150 5//// 85362=
200610020000 AAXX 02004 67855 NIL=
200610011800 AAXX 01184 67855 NIL=
200610011200 AAXX 01124 67855 NIL=
200610010600 AAXX 01064 67855 NIL=
