################################################################################
# Query made at 04/10/2022 06:16:20 UTC
# Country like Zamb*
# Time interval: from 08/31/2021 23:30  to 10/01/2021 23:30  UTC
################################################################################

################################################################################
#  SYNOPS from 67403, Kawambwa (Zambia) | 09-48S | 029-05E | 1323 m
################################################################################
202109301200 AAXX 30124 67403 NIL=
202109300900 AAXX 30094 67403 NIL=
202109300600 AAXX 30064 67403 31975 70901 10225 20154 48510 70522 87031
                   333 10331 20181 59002 87360 81080=
202109290600 AAXX 29064 67403 31975 62801 10237 20164 48510 70522 86031
                   333 10330 20204 59066 86360 82080
                   555 00///=
202109281200 AAXX 28124 67403 41740 51201 10312 20124 48485 70542 84231
                   333 59016 84850 82360 82080=
202109271200 AAXX 27124 67403 NIL=
202109270900 AAXX 27094 67403 41975 80902 10224 20120 48523 70522 8803/
                   333 5//// 88360=
202109241200 AAXX 24124 67403 NIL=
202109231200 AAXX 23124 67403 41760 32702 10322 20080 48494 70542 83201
                   333 5//// 83850 82080=
202109230900 AAXX 23094 67403 NIL=
202109230600 AAXX 23064 67403 31975 20908 10212 20108 48519 70500 80001
                   333 10336 20179 59005 82080
                   555 00///=
202109220600 AAXX 22064 67403 31975 00903 10224 20099 48525
                   333 10342 20187 59004
                   555 00///=
202109211200 AAXX 21124 67403 41770 50902 10322 20096 48492 70520 85201
                   333 59004 85356 82080=
202109200900 AAXX 20094 67403 NIL=
202109171200 AAXX 17124 67403 NIL=
202109170600 AAXX 17064 67403 31460 23001 10214 20197 48516 70340 82500
                   333 10339 20184 59007 82615
                   555 00///=
202109161200 AAXX 16124 67403 41760 52501 10323 20146 48480 70542 84201
                   333 58001 84850 82080=
202109160900 AAXX 16094 67403 NIL=
202109160600 AAXX 16064 67403 31975 12701 10212 20172 48523 70500 80001
                   333 10338 20172 58010 81080
                   555 00///=
202109150900 AAXX 15094 67403 41975 20901 10300 20132 48514 70500 80001
                   333 5//// 82080=
202109150600 AAXX 15064 67403 11975 20905 10207 20123 48512 69904 70500 80001
                   333 10334 20184 59006 82080
                   555 00///=
202109141200 AAXX 14124 67403 41860 53301 10314 20123 48487 70542 85201
                   333 59004 85856 81080=
202109140600 AAXX 14064 67403 31975 00901 10213 20127 48519 70500
                   333 10336 20176 59002
                   555 00///=
202109131200 AAXX 13124 67403 NIL=
202109120900 AAXX 12094 67403 NIL=
202109120600 AAXX 12064 67403 31975 00912 10190 20093 48531 70500
                   333 10293 20151 59015
                   555 00///=
202109101200 AAXX 10124 67403 NIL=
202109091200 AAXX 09124 67403 41756 41803 10325 20106 48515 70542 84201
                   333 58001 84850 81080=
202109061200 AAXX 06124 67403 NIL=
202109060900 AAXX 06094 67403 NIL=
202109060600 AAXX 06064 67403 31975 00901 10189 20088 48526 70300
                   333 10264 20162 5////
                   555 00///=
202109031200 AAXX 03124 67403 NIL=
202109021200 AAXX 02124 67403 41740 42701 10295 20113 48491 70542 84201
                   333 58001 84850 81080=
202109020900 AAXX 02094 67403 NIL=
202109011200 AAXX 01124 67403 41910 01502 10301 20062 48490 70440
                   333 58000=
202109010900 AAXX 01094 67403 NIL=
202109010600 AAXX 01064 67403 31970 01203 10192 20070 48519 70500
                   333 10305 20156 58006
                   555 00///=

################################################################################
#  SYNOPS from 67413, Mbala (Zambia) | 08-51S | 031-20E | 1673 m
################################################################################
202109301200 AAXX 30124 67413 NIL=
202109300900 AAXX 30094 67413 NIL=
202109300600 AAXX 30064 67413 32780 00510 10215 20114 48527
                   333 10294 20172 59005
                   555 00260 91023=
202109290600 AAXX 29064 67413 12980 70806 10195 20130 48528 69904 70222 80001
                   333 10298 20150 5//// 87075
                   555 00206 910231=
202109271200 AAXX 27124 67413 NIL=
202109270900 AAXX 27094 67413 NIL=
202109241200 AAXX 24124 67413 NIL=
202109231200 AAXX 23124 67413 NIL=
202109230900 AAXX 23094 67413 NIL=
202109230600 AAXX 23064 67413 32975 00914 10190 20122 48528 70500
                   333 10296 20158 59007
                   555 00220 910234=
202109220600 AAXX 22064 67413 NIL=
202109211200 AAXX 21124 67413 NIL=
202109200900 AAXX 20094 67413 NIL=
202109171200 AAXX 17124 67413 NIL=
202109170900 AAXX 17094 67413 42675 42507 10250 20148 48515 70522 85200
                   333 59008 85835 555 91022=
202109170600 AAXX 17064 67413 32975 02805 10205 20150 48527 70500
                   333 10290 20160 59002
                   555 00240 91023=
202109161200 AAXX 16124 67413 NIL=
202109160900 AAXX 16094 67413 NIL=
202109160600 AAXX 16064 67413 NIL=
202109131200 AAXX 13124 67413 NIL=
202109120900 AAXX 12094 67413 NIL=
202109101200 AAXX 10124 67413 NIL=
202109091200 AAXX 09124 67413 NIL=
202109070900 AAXX 07094 67413 42980 00912 10265 20098 48534 70500
                   333 58004 91023=
202109061200 AAXX 06124 67413 NIL=
202109060900 AAXX 06094 67413 NIL=
202109060600 AAXX 06064 67413 32980 00909 10170 20087 48539 70500
                   333 10275 20130 59005
                   555 00125 91024=
202109031200 AAXX 03124 67413 NIL=
202109021200 AAXX 02124 67413 NIL=
202109020900 AAXX 02094 67413 NIL=
202109010900 AAXX 01094 67413 NIL=

################################################################################
#  SYNOPS from 67441, Mwinilunga (Zambia) | 11-45S | 024-26E | 1361 m
################################################################################
202110010900 AAXX 01094 67441 41980 02605 10290 20126 48/// 70500
                   333 58001=
202109301200 AAXX 30124 67441 NIL=
202109300900 AAXX 30094 67441 41980 42104 10293 20153 48/// 70511 80008
                   333 5//// 84270=
202109300600 AAXX 30064 67441 31975 70000 10205 20182 48/// 69914 8703/
                   333 10335 20160 5//// 87360=
202109271200 AAXX 27124 67441 NIL=
202109270900 AAXX 27094 67441 NIL=
202109270600 AAXX 27064 67441 31775 70000 10200 20185 48554 877//
                   333 10310 20106 5//// 87708
                   555 00///=
202109241200 AAXX 24124 67441 NIL=
202109231200 AAXX 23124 67441 NIL=
202109230900 AAXX 23094 67441 41980 40704 10280 20094 48564 70511 80008
                   333 58000 84270=
202109230600 AAXX 23064 67441 31975 70000 10200 20154 48559 70500 8703/
                   333 10340 20140 58013 87360
                   555 00///=
202109221200 AAXX 22124 67441 41980 00909 10294 20143 48552 70500
                   333 58007=
202109220600 AAXX 22064 67441 NIL=
202109211200 AAXX 21124 67441 NIL=
202109200900 AAXX 20094 67441 NIL=
202109200600 AAXX 20064 67441 31975 01204 10185 20153 48557 70500
                   333 10335 20130 5////
                   555 00///=
202109171200 AAXX 17124 67441 41980 50906 10330 20143 48556 70500 85100
                   333 59008 85840=
202109170600 AAXX 17064 67441 NIL=
202109161200 AAXX 16124 67441 NIL=
202109160900 AAXX 16094 67441 NIL=
202109160600 AAXX 16064 67441 NIL=
202109150600 AAXX 15064 67441 31970 30000 10173 20134 70500 83030
                   333 10335 20130 58002 83360
                   555 00///=
202109140600 AAXX 14064 67441 31975 00000 10161 20120 48547 70500
                   333 10324 20120 59007
                   555 00///=
202109131200 AAXX 13124 67441 NIL=
202109130900 AAXX 13094 67441 41975 00905 10275 20010 48/// 70500
                   333 5////=
202109130600 AAXX 13064 67441 31970 21203 10170 20085 48554 70533 82030
                   333 10264 20120 58018 82360
                   555 00///=
202109120900 AAXX 12094 67441 NIL=
202109101200 AAXX 10124 67441 NIL=
202109091200 AAXX 09124 67441 NIL=
202109061200 AAXX 06124 67441 NIL=
202109060900 AAXX 06094 67441 NIL=
202109031200 AAXX 03124 67441 NIL=
202109021200 AAXX 02124 67441 NIL=
202109020900 AAXX 02094 67441 NIL=
202109010900 AAXX 01094 67441 NIL=
202109010600 AAXX 01064 67441 31980 00000 10151 20074 48554 70500
                   333 10311 20078 58028=

################################################################################
#  SYNOPS from 67461, Mansa (Zambia) | 11-06S | 028-51E | 1382 m
################################################################################
202110011200 AAXX 01124 67461 41757 21904 10314 20108 48485 70500 81201
                   333 58009 81857 82080 91013=
202110010900 AAXX 01094 67461 41958 31509 10289 20125 48504 70500 80001
                   333 58010 83080 91016=
202109301200 AAXX 30124 67461 NIL=
202109300900 AAXX 30094 67461 41957 41726 10307 20099 48488 70500 80001
                   333 59019 91015=
202109300600 AAXX 30064 67461 31950 71407 10220 20134 48516 70522 80008
                   333 10335 20160 58002 87280 91018=
202109291200 AAXX 29124 67461 41756 30810 10328 20124 48484 70500 83200
                   333 59010 83857 91013=
202109290900 AAXX 29094 67461 41958 01208 10308 20110 48516 70500
                   333 59005 91017=
202109290600 AAXX 29064 67461 31957 01302 10232 20143 48515 70500
                   333 10318 20148 59007
                   555 00/// 91017=
202109271200 AAXX 27124 67461 NIL=
202109270900 AAXX 27094 67461 41975 31015 10285 20100 48509 70512 83031
                   333 59008 83360 81080 91017=
202109270600 AAXX 27064 67461 31975 71211 10210 20116 48510 70530 86031
                   333 10308 20148 59007 86360 81080
                   555 00/// 91017=
202109241200 AAXX 24124 67461 NIL=
202109240900 AAXX 24094 67461 41970 41216 10260 20120 48528 70530 80001
                   333 58011 84080 91020=
202109231200 AAXX 23124 67461 41970 30916 10285 20093 48497 70500 80001
                   333 59007 83080 91016=
202109230900 AAXX 23094 67461 41970 10819 10260 20109 48517 70500 80001
                   333 59021 81080 91018=
202109230600 AAXX 23064 67461 31970 11319 10194 20109 48528 70500 80001
                   333 10314 20138 59006 81080
                   555 00/// 91020=
202109220900 AAXX 22094 67461 41965 31432 10274 20090 48545 70500
                   333 58017 83080 91021=
202109220600 AAXX 22064 67461 31965 41023 10208 20104 48534 70500 80001
                   333 10334 20138 58003 84080
                   555 00/// 91020=
202109211200 AAXX 21124 67461 41975 00408 10322 20075 48507 70500
                   333 59002 91016=
202109200900 AAXX 20094 67461 41975 00726 10272 20119 48534 70500
                   333 59009 91020=
202109171200 AAXX 17124 67461 41970 01611 10330 20080 48475 70500
                   333 58000 91012=
202109170600 AAXX 17064 67461 31968 01206 10217 20139 48510 70500
                   333 10340 20130 59018
                   555 00/// 91016=
202109161200 AAXX 16124 67461 NIL=
202109160900 AAXX 16094 67461 41970 11308 10295 20106 48497 70500 80001
                   333 59012 81080 91016=
202109160600 AAXX 16064 67461 31970 03609 10225 20115 48518 70500
                   333 10320 20138 58006
                   555 00/// 91019=
202109151200 AAXX 15124 67461 41970 11210 10315 20102 48485 70500 80001
                   333 59002 81080 91014=
202109150900 AAXX 15094 67461 41970 01314 10280 20109 48509 70500
                   333 58000 91017=
202109141200 AAXX 14124 67461 41870 11412 10305 20118 48487 70500 81100
                   333 59001 81870 91014=
202109140900 AAXX 14094 67461 41970 00611 10282 20114 48509 70500
                   333 59008 91017=
202109140600 AAXX 14064 67461 31968 01015 10210 20127 48518 70500
                   333 10305 20140 59003
                   555 00/// 91019=
202109131200 AAXX 13124 67461 NIL=
202109130900 AAXX 13094 67461 41970 01212 10265 20116 48517 70500
                   333 59026 91018=
202109120900 AAXX 12094 67461 NIL=
202109120600 AAXX 12064 67461 31975 01221 10185 20080 48554 70500
                   333 10264 20102 59008
                   555 00/// 91023=
202109101200 AAXX 10124 67461 NIL=
202109091200 AAXX 09124 67461 NIL=
202109090900 AAXX 09094 67461 41905 01328 10267 20108 48553 70500
                   333 58011 91022=
202109070900 AAXX 07094 67461 41965 01510 10268 20114 48511 70500
                   333 58000 91017=
202109061200 AAXX 06124 67461 41950 01510 10290 20065 48482 70500
                   333 59018 91014=
202109060900 AAXX 06094 67461 41950 01214 10270 20075 48511 70500
                   333 59007 91017=
202109060600 AAXX 06064 67461 31950 01411 10170 20109 48520 70500
                   333 10294 20105 59010 91019=
202109031200 AAXX 03124 67461 41975 01716 10285 20074 48482 70500
                   333 59015 91014=
202109030900 AAXX 03094 67461 41975 00819 10255 20113 48511 70500
                   333 59015 91017=
202109021200 AAXX 02124 67461 NIL=
202109020900 AAXX 02094 67461 41975 21221 10249 20101 48531 70500 80001
                   333 59002 82080 91019=
202109020600 AAXX 02064 67461 31975 21407 10185 20109 48527 70500 80001
                   333 10297 20118 58001 82080
                   555 00/// 91020=
202109010900 AAXX 01094 67461 41875 51215 10268 20071 48534 70522 80008
                   333 58004 85280 91020=
202109010600 AAXX 01064 67461 41965 50813 10188 20085 48526 70522 80008
                   333 10302 20109 58003 85280
                   555 00/// 91020=

################################################################################
#  SYNOPS from 67469, Samfya (Zambia) | 11-22S | 029-54E | 1171 m
################################################################################
202110011200 AAXX 01124 67469 40901 4//// 10284 20180 48/// 70522 80008
                   333 5//// 84280=
202110010900 AAXX 01094 67469 41970 50905 10256 20180 48/// 70522 80008
                   333 5//// 85280=
202109301200 AAXX 30124 67469 41970 40502 10300 20170 48/// 70522 80008
                   333 5//// 84280=
202109300900 AAXX 30094 67469 41970 40901 10260 20180 48/// 70522 80008
                   333 5//// 84280=
202109300600 AAXX 30064 67469 31970 40902 10230 20190 48/// 70522 80008
                   333 10305 20221 5//// 84280=
202109291200 AAXX 29124 67469 41975 00000 10291 20170 48/// 70500
                   333 5////=
202109290900 AAXX 29094 67469 41975 00901 10272 20180 48/// 70500
                   333 5////=
202109290600 AAXX 29064 67469 31975 00902 10237 20180 48/// 70500
                   333 10280 20206 5////
                   555 00///=
202109271200 AAXX 27124 67469 NIL=
202109270900 AAXX 27094 67469 41975 50902 10251 20160 48/// 70522 80008
                   333 5//// 85280=
202109241200 AAXX 24124 67469 NIL=
202109240900 AAXX 24094 67469 41975 50903 10241 20160 48/// 70522 80008
                   333 5//// 85280=
202109231200 AAXX 23124 67469 41975 00907 10266 20160 48/// 70500
                   333 5////=
202109230900 AAXX 23094 67469 41975 00910 10248 20160 48/// 70500
                   333 5////=
202109230600 AAXX 23064 67469 31975 00915 10200 20160 48/// 70500
                   333 10283 20176 5////
                   555 00///=
202109221200 AAXX 22124 67469 41975 20910 10277 20190 48/// 70500 80001
                   333 5//// 82080=
202109220900 AAXX 22094 67469 40920 4//// 10255 20180 48/// 70522 80008
                   333 5//// 84280=
202109220600 AAXX 22064 67469 31975 40915 10220 20180 48/// 70522 80008
                   333 10282 20199 5//// 84280
                   555 00///=
202109211200 AAXX 21124 67469 41975 00903 10274 20180 48/// 70500
                   333 5////=
202109201200 AAXX 20124 67469 41675 20901 10262 20120 48/// 70500 82100
                   333 5//// 82830=
202109200900 AAXX 20094 67469 41975 10231 10130 48/// 70500
                   333 5////=
202109171200 AAXX 17124 67469 NIL=
202109170600 AAXX 17064 67469 31975 00902 10216 20190 48/// 70500
                   333 10287 20162 5////
                   555 00///=
202109161200 AAXX 16124 67469 41975 00000 10271 20180 48/// 70500
                   333 5////=
202109160900 AAXX 16094 67469 41975 00902 10256 20180 48/// 70500
                   333 5////=
202109160600 AAXX 16064 67469 31975 00902 10221 20180 48///
                   333 10283 20201 5////
                   555 00///=
202109150900 AAXX 15094 67469 41975 00902 10245 20170 48/// 70500
                   333 5////=
202109150600 AAXX 15064 67469 31975 00903 10225 20180 48/// 70500
                   333 10279 20209 5////
                   555 00///=
202109131200 AAXX 13124 67469 41975 00902 10262 20130 48///
                   333 5////=
202109130900 AAXX 13094 67469 41975 00905 10232 20140 48/// 70500
                   333 5////=
202109120900 AAXX 12094 67469 NIL=
202109101200 AAXX 10124 67469 NIL=
202109100900 AAXX 10094 67469 41975 30925 10235 20180 48/// 70500 80001
                   333 5//// 83080=
202109091200 AAXX 09124 67469 41775 30902 10271 20180 48/// 70500 81101
                   333 5//// 81856 82080=
202109090900 AAXX 09094 67469 41975 00905 10244 20180 48/// 70500
                   333 5////=
202109070900 AAXX 07094 67469 41975 00903 10233 20140 48/// 70500
                   333 5////=
202109061200 AAXX 06124 67469 42980 00905 10257 20170 48///
                   555 5////=
202109060900 AAXX 06094 67469 NIL=
202109060600 AAXX 06064 67469 32980 00910 10200 20180 48///
                   333 10272 20180 5////
                   555 00///=
202109040600 AAXX 04064 67469 32980 01207 10205 20130 48///
                   333 10270 20170 5////
                   555 00///=
202109031200 AAXX 03124 67469 42980 00504 10259 20150 48///
                   333 5////=
202109030900 AAXX 03094 67469 42980 01106 10231 20150 48///
                   333 5////=
202109030600 AAXX 03064 67469 32980 01209 10201 20150 48///
                   333 10264 20178 5////
                   555 00///=
202109021200 AAXX 02124 67469 42980 00504 10251 20160 48///
                   333 5////=
202109020900 AAXX 02094 67469 42980 01108 10231 20150 48///
                   333 5////=
202109020600 AAXX 02064 67469 32980 01308 10191 20140 48///
                   333 10279 20179 5////
                   555 00///=
202109011200 AAXX 01124 67469 42680 21109 10266 20160 48/// 81231
                   333 5//// 81843 82360 81080=
202109010900 AAXX 01094 67469 42580 21108 10246 20180 48/// 81231
                   333 5//// 81824 82360 81080=
202109010600 AAXX 01064 67469 32980 11204 10189 20130 48/// 80001
                   333 10268 20163 5//// 81080
                   555 00///=

################################################################################
#  SYNOPS from 67475, Kasama (Zambia) | 10-13S | 031-08E | 1382 m
################################################################################
202110010900 AAXX 01094 67475 41760 41006 10285 20106 48517 70522 81108
                   333 58002 81856 84280 91019=
202110010600 AAXX 01064 67475 31960 20310 10236 20125 48529 70500 80001
                   333 1//// 20169 58006 82080 91021=
202109301200 AAXX 30124 67475 41860 61409 10318 20086 48485 70522 82108
                   333 59003 82857 85280 91015=
202109300900 AAXX 30094 67475 41960 31408 10289 20099 48517 70521 80001
                   333 59002 83080 91019=
202109300600 AAXX 30064 67475 11960 50306 10226 20121 48522 69904 70522 80008
                   333 1//// 20158 58002 85280 91020=
202109291200 AAXX 29124 67475 41860 63006 10312 20105 48488 70522 8427/
                   333 58003 84857 85360 91016=
202109290900 AAXX 29094 67475 41960 70506 10292 20108 48520 70522 8707/
                   333 58004 87360 91020=
202109290600 AAXX 29064 67475 11960 60509 10218 20124 48519 60024 70522 8507/
                   333 1//// 20188 59006 85360 91020=
202109271200 AAXX 27124 67475 42680 80202 10296 20096 48530 82231
                   333 59016 83830 84360 82080 91020=
202109270900 AAXX 27094 67475 41780 80905 10275 20101 48530 86031
                   333 59020 86360 82080 91021=
202109270600 AAXX 27064 67475 31780 80603 10201 20095 48527 8803/
                   333 10//0 20134 5//// 80360
                   555 91021=
202109241200 AAXX 24124 67475 41960 31011 10302 20049 48520 70500 83201
                   333 58007 83857 83080 91019=
202109240900 AAXX 24094 67475 41760 20911 10273 20089 48544 70500 82100
                   333 58008 82856 91022=
202109231200 AAXX 23124 67475 41860 21013 10286 20081 48512 70500 82100
                   333 58001 82857 91018=
202109230900 AAXX 23094 67475 41760 11017 10268 20095 48536 70500 81100
                   333 59006 81856 91021=
202109230600 AAXX 23064 67475 31960 01011 10201 20118 48539 70500
                   333 10//0 20159 59002
                   555 00/// 91022=
202109221200 AAXX 22124 67475 41960 01010 10302 20046 48512 70500
                   333 58006 91018=
202109220900 AAXX 22094 67475 41980 41203 10265 20080 48541
                   333 58002 82080 91022=
202109220600 AAXX 22064 67475 31980 01003 10215 20113 48542
                   333 10/// 20135 58005
                   555 00135 91022=
202109211200 AAXX 21124 67475 41680 50702 10314 20070 48506
                   333 59002 83830 83080 91018=
202109201200 AAXX 20124 67475 41860 31407 10291 20065 48507 70500 83200
                   333 59013 83857 91018=
202109200900 AAXX 20094 67475 41760 21008 10269 20121 48532 70500 82100
                   333 59010 82856 91021=
202109171200 AAXX 17124 67475 41960 22005 10318 20093 48487 70500 82030
                   333 58002 82359 91016=
202109170600 AAXX 17064 67475 31960 00503 10218 20143 48523 70500
                   333 10//0 20146 59007
                   555 00/// 91020=
202109161200 AAXX 16124 67475 41680 41802 10320 20073 48485
                   333 59007 82230 82080 91015=
202109160900 AAXX 16094 67475 41980 00502 10294 20115 48515
                   333 59010 91019=
202109160600 AAXX 16064 67475 31980 00402 10200 20124 48528
                   333 10//0 20133 58000
                   555 00069 91021=
202109150900 AAXX 15094 67475 41980 01203 10275 20101 48525
                   333 59006 91020=
202109140900 AAXX 14094 67475 41980 00902 10280 20121 48531
                   333 59001 91021=
202109140600 AAXX 14064 67475 31980 00903 10206 20122 48534
                   333 10//0 20150 59003 91021=
202109131200 AAXX 13124 67475 41680 60403 10305 20106 48505
                   333 59015 83830 84080 91018=
202109130900 AAXX 13094 67475 41980 00503 10260 20109 48533
                   333 59018 91021=
202109130600 AAXX 13064 67475 31980 00803 10193 20118 48536
                   333 10//0 20135 59019
                   555 00135 91022=
202109120900 AAXX 12094 67475 41960 01215 10251 20073 48549 70500
                   333 59019 91023=
202109120600 AAXX 12064 67475 31960 01217 10187 20079 48554 70500
                   333 10//0 20138 59014
                   555 00/// 91024=
202109110600 AAXX 11064 67475 31960 01311 10179 20099 48568 70500
                   333 10/// 20139 58006
                   555 00/// 91026=
202109101200 AAXX 10124 67475 41760 41325 10256 20099 48547 70522 84200
                   333 58019 84856 91023=
202109100900 AAXX 10094 67475 41760 41319 10237 20112 48567 70510 84200
                   333 58019 84850 91025=
202109091200 AAXX 09124 67475 41660 10903 10292 20088 48530 70500
                   333 58010 81845 91023=
202109070900 AAXX 07094 67475 41960 00208 10257 20107 48529 70500
                   333 59009 91021=
202109061200 AAXX 06124 67475 41660 12707 10294 20038 48508 70500 81500
                   333 59007 81640 91018=
202109060900 AAXX 06094 67475 41960 01204 10251 20099 48538 70500
                   333 59003 91022=
202109060600 AAXX 06064 67475 31960 00702 10176 20099 48538 70500
                   333 1//// 20112 58006 91022=
202109031200 AAXX 03124 67475 41980 01107 10286 20074 48500
                   333 59007 91017=
202109030900 AAXX 03094 67475 41980 01207 10259 20091 48532
                   333 59001 91021=
202109021200 AAXX 02124 67475 41960 01803 10278 20091 48507 70500
                   333 5//// 91018=
202109020900 AAXX 02094 67475 NIL=
202109020600 AAXX 02064 67475 31960 01406 10190 20122 48532 70500
                   333 1//// 20142 58002 91021=
202109010900 AAXX 01094 67475 41960 01506 1//// 20052 48526 70500
                   333 58000 91020=
202109010600 AAXX 01064 67475 31960 01405 10192 20120 48530 70500
                   333 1//// 20141 58001
                   555 00/// 91021=

################################################################################
#  SYNOPS from 67476, Misamfu (Zambia) | 10-06S | 031-15E | 1536 m
################################################################################
202109301200 AAXX 30124 67476 41775 11305 10324 20063 48/// 70500 81100
                   333 5//// 81856=
202109300900 AAXX 30094 67476 NIL=
202109300600 AAXX 30064 67476 11970 40907 10229 20125 48/// 69904 70511 80001
                   333 10330 20151 5//// 84080=
202109291200 AAXX 29124 67476 41773 52203 10219 20097 48/// 70522 85230
                   333 5//// 85856 81360=
202109290900 AAXX 29094 67476 41970 62902 10300 20115 48/// 70522 8603/
                   333 5//// 86360=
202109290600 AAXX 29064 67476 11968 60904 10257 20110 48/// 69904 70522 8603/
                   333 10337 20181 5////=
202109280900 AAXX 28094 67476 41672 21803 10300 20110 48/// 70500 81101
                   333 59012 81845 82080=
202109271200 AAXX 27124 67476 41975 80000 10287 20108 48/// 70522 8807/
                   333 5//// 88359=
202109270900 AAXX 27094 67476 NIL=
202109270600 AAXX 27064 67476 31970 70905 10206 20104 48/// 70522 8707/
                   333 10304 20129 5//// 87360
                   555 00///=
202109241200 AAXX 24124 67476 NIL=
202109231200 AAXX 23124 67476 NIL=
202109230900 AAXX 23094 67476 NIL=
202109220600 AAXX 22064 67476 NIL=
202109211200 AAXX 21124 67476 NIL=
202109200900 AAXX 20094 67476 NIL=
202109171200 AAXX 17124 67476 41775 11205 10323 20104 48/// 70500 81200
                   333 5//// 81856=
202109170600 AAXX 17064 67476 31968 01302 10216 20145 48/// 70500
                   333 10335 20119 59006
                   555 00///=
202109161200 AAXX 16124 67476 NIL=
202109160900 AAXX 16094 67476 41973 00903 10295 20124 48/// 70500
                   333 59012=
202109160600 AAXX 16064 67476 31970 00804 10204 20127 48/// 70500
                   333 10324 20106 59001
                   555 00///=
202109150900 AAXX 15094 67476 41975 01405 10289 20117 48/// 70500
                   333 5////=
202109150600 AAXX 15064 67476 31972 01205 10210 20119 48/// 70500
                   333 10315 20118 5////
                   555 00///=
202109141200 AAXX 14124 67476 41776 22502 10305 20104 48/// 70500 82200
                   333 5//// 82850=
202109140900 AAXX 14094 67476 41974 00905 10281 20117 48/// 70500
                   333 59004=
202109140600 AAXX 14064 67476 31970 00904 10206 20130 48/// 70510
                   333 10313 20115 58009
                   555 00///=
202109131200 AAXX 13124 67476 41776 30000 10296 20087 48/// 70500 83200
                   333 5//// 83850=
202109130900 AAXX 13094 67476 41974 00905 10263 20114 48/// 70500
                   333 5////=
202109120900 AAXX 12094 67476 NIL=
202109101200 AAXX 10124 67476 NIL=
202109091200 AAXX 09124 67476 NIL=
202109061200 AAXX 06124 67476 NIL=
202109060900 AAXX 06094 67476 NIL=
202109031200 AAXX 03124 67476 NIL=
202109021200 AAXX 02124 67476 NIL=
202109020900 AAXX 02094 67476 NIL=
202109010900 AAXX 01094 67476 NIL=

################################################################################
#  SYNOPS from 67477, Mpika (Zambia) | 11-54S | 031-26E | 1400 m
################################################################################
202110011200 AAXX 01124 67477 41775 31207 19308 20//0 48496 70500 83200
                   333 5//// 83857=
202110010900 AAXX 01094 67477 41975 20911 10274 20//0 48522 70500 80001
                   333 5//// 82080=
202109301200 AAXX 30124 67477 NIL=
202109300900 AAXX 30094 67477 NIL=
202109300600 AAXX 30064 67477 31975 00913 10230 2//// 48524 70500
                   333 10325 20195 59003=
202109291200 AAXX 29124 67477 41775 11207 10315 2//// 48496 70500 81100
                   333 59009 81856=
202109290900 AAXX 29094 67477 41975 00906 10297 20//0 48523 70510
                   333 58000=
202109290600 AAXX 29064 67477 31975 40908 10233 20//0 48529 70522 84030
                   333 10300 20197 59002 84360
                   555 00///=
202109271200 AAXX 27124 67477 41775 30907 10300 20//0 48506 70521 83200
                   333 5//// 83856=
202109270900 AAXX 27094 67477 41975 40910 10272 20//0 48531 70522 80002
                   333 5//// 84080=
202109241200 AAXX 24124 67477 42680 20908 10272 20104 48509 81101
                   333 59017 81830 82080=
202109240900 AAXX 24094 67477 41578 21208 10228 20136 48555 70500 82100
                   333 58003 82824=
202109231200 AAXX 23124 67477 41678 31207 10243 20121 48530 70500 82101
                   333 58002 82830 82080=
202109230900 AAXX 23094 67477 41578 40610 10223 20131 48552 70500 84101
                   333 58017 84125 82080=
202109230600 AAXX 23064 67477 31478 11207 10182 20134 48565 70500 81101
                   333 10282 20138 58015 81814 81080
                   555 00///=
202109221200 AAXX 22124 67477 41678 11209 10272 20089 48528 70500 81100
                   333 58017 81830=
202109220900 AAXX 22094 67477 41578 21208 10264 20112 48549 70500 82100
                   333 58014 82823=
202109220600 AAXX 22064 67477 31978 00910 10216 20123 48550 70500
                   333 10312 20148 58006
                   555 00///=
202109211200 AAXX 21124 67477 41978 00906 10312 20084 48509 70500
                   333 59005=
202109210600 AAXX 21064 67477 31978 01204 10224 20113 48544 70500
                   333 10283 20141 58004
                   555 00///=
202109201200 AAXX 20124 67477 41678 11203 10271 20113 48514 70500 81100
                   333 5//// 81836=
202109200900 AAXX 20094 67477 41578 10905 10248 20114 48535 70500 81100
                   333 5//// 81820=
202109171200 AAXX 17124 67477 NIL=
202109170600 AAXX 17064 67477 31975 01206 10212 20130 48527 70500
                   333 10322 20160 59008
                   555 00///=
202109161200 AAXX 16124 67477 41975 01805 10310 20050 48495 70500
                   333 59010=
202109160900 AAXX 16094 67477 NIL=
202109160600 AAXX 16064 67477 31975 00906 10218 20110 48535 70500
                   333 10295 20155 59003
                   555 00///=
202109150900 AAXX 15094 67477 41975 00909 10268 20105 48530 70500
                   333 59008=
202109150600 AAXX 15064 67477 31975 01209 10210 20090 48536 70500
                   333 10298 20140 58000
                   555 00///=
202109141200 AAXX 14124 67477 41975 01209 10290 20110 48512 70500
                   333 59007=
202109140900 AAXX 14094 67477 41975 01210 10262 20100 48538 70500
                   333 59002=
202109140600 AAXX 14064 67477 31975 00912 10205 20120 48535 70500
                   333 10278 20162 59004
                   555 00///=
202109131200 AAXX 13124 67477 41775 10907 10270 20105 48519 70500 81100
                   333 5//// 81850=
202109130900 AAXX 13094 67477 41975 00609 10245 20105 48539 70500
                   333 5////=
202109120900 AAXX 12094 67477 NIL=
202109120600 AAXX 12064 67477 31975 00910 10178 20131 48565 70500
                   333 10238 20119 5////=
202109101200 AAXX 10124 67477 NIL=
202109100900 AAXX 10094 67477 41578 41210 10218 20113 48569 70500 84100
                   333 58023 84822=
202109091200 AAXX 09124 67477 NIL=
202109090900 AAXX 09094 67477 41978 00908 10243 20112 48536 70500
                   333 59009=
202109070900 AAXX 07094 67477 41978 01206 10246 20117 48533 70500
                   333 59012=
202109061200 AAXX 06124 67477 41978 00905 10268 20056 48517 70500
                   333 5////=
202109060900 AAXX 06094 67477 41978 01203 10249 20091 48554 70500
                   333 5////=
202109060600 AAXX 06064 67477 31978 00902 10188 20088 48547 70500
                   333 10276 20117 59007
                   555 00///=
202109031200 AAXX 03124 67477 NIL=
202109021200 AAXX 02124 67477 41675 21211 10269 20112 48517 70500 82100
                   333 59002 82850=
202109020900 AAXX 02094 67477 41975 00912 10249 20085 48536 70500
                   333 59005=
202109011200 AAXX 01124 67477 41675 21210 10260 20070 48519 70500 82100
                   333 58002 82849=
202109010900 AAXX 01094 67477 41675 21210 10245 20085 48541 70500 81101
                   333 58001 81830 82080=

################################################################################
#  SYNOPS from 67481, Isoka (Zambia) | 10-07S | 032-38E | 1360 m
################################################################################
202110010600 AAXX 01064 67481 31970 03002 10221 20144 48/// 70500
                   333 10360 20140 5////
                   555 00///=
202109301200 AAXX 30124 67481 41770 31602 10325 20100 48/// 70500 83100
                   333 5//// 83856=
202109300900 AAXX 30094 67481 NIL=
202109300600 AAXX 30064 67481 31970 03002 10228 20133 48/// 70500
                   333 10338 20140 59001=
202109290900 AAXX 29094 67481 41970 03002 10288 20121 48/// 70500
                   333 5////=
202109290600 AAXX 29064 67481 31970 03002 10227 20124 48/// 70500
                   333 10320 20171 58003
                   555 00///=
202109271200 AAXX 27124 67481 41670 72002 10298 20101 48/// 70500 8227/
                   333 5//// 82848 87460=
202109270900 AAXX 27094 67481 41670 10000 10282 20102 48/// 70500 81100
                   333 5//// 81830=
202109241200 AAXX 24124 67481 NIL=
202109240900 AAXX 24094 67481 41670 12003 10260 20114 48/// 70500 81100
                   333 58000 81830=
202109231200 AAXX 23124 67481 NIL=
202109230900 AAXX 23094 67481 NIL=
202109230600 AAXX 23064 67481 31970 01002 10210 20115 48/// 70500
                   333 10304 20138 58001
                   555 00///=
202109220900 AAXX 22094 67481 41670 11002 10266 20092 48/// 70500 81100
                   333 5//// 81840=
202109220600 AAXX 22064 67481 31970 02002 10220 20120 48/// 70500
                   333 10315 20140 5////
                   555 00///=
202109211200 AAXX 21124 67481 NIL=
202109201200 AAXX 20124 67481 41660 23002 10288 20102 48/// 70500 82100
                   333 5//// 82840=
202109200900 AAXX 20094 67481 41670 10902 10260 20131 48/// 70500 81100
                   333 5//// 81830=
202109200600 AAXX 20064 67481 31970 13002 10198 20147 48/// 70500 81100
                   333 10330 20118 5//// 81810
                   555 00///=
202109171200 AAXX 17124 67481 41765 32002 10318 20130 48/// 70500 83100
                   333 5//// 83850=
202109170600 AAXX 17064 67481 31970 03002 10200 20128 48/// 70500
                   333 10302 20145 5////
                   555 00///=
202109161200 AAXX 16124 67481 NIL=
202109160900 AAXX 16094 67481 41970 03002 10280 20110 48/// 70500
                   333 59005=
202109160600 AAXX 16064 67481 31970 03002 10208 20135 48/// 70500
                   333 10318 20150 59001
                   555 00///=
202109150900 AAXX 15094 67481 41970 02002 10270 20100 48/// 70500
                   333 59012=
202109150600 AAXX 15064 67481 31970 00302 10210 20126 48/// 70500
                   333 10308 20140 59001
                   555 00///=
202109140900 AAXX 14094 67481 41965 01002 10268 20120 48/// 70500
                   333 58005=
202109140600 AAXX 14064 67481 31965 02602 10225 20118 48/// 70500
                   333 10300 20140 58000
                   555 00///=
202109131200 AAXX 13124 67481 41770 40302 10285 20102 48/// 70500 84100
                   333 5//// 84850=
202109120900 AAXX 12094 67481 NIL=
202109101200 AAXX 10124 67481 NIL=
202109100900 AAXX 10094 67481 41570 62602 10212 20135 48/// 72052 82570
                   333 58020 82620 86360=
202109100600 AAXX 10064 67481 31470 62602 10199 20124 48/// 70522 86500
                   333 10300 20142 5//// 86610
                   555 00///=
202109091200 AAXX 09124 67481 NIL=
202109090900 AAXX 09094 67481 41670 12002 10261 20107 48/// 70500 81100
                   333 5//// 81830=
202109070900 AAXX 07094 67481 41965 02002 10251 20116 48/// 70500
                   333 59002=
202109070600 AAXX 07064 67481 31965 03002 10198 20115 48/// 70500
                   333 10300 20127 59006
                   555 00///=
202109061200 AAXX 06124 67481 NIL=
202109060900 AAXX 06094 67481 NIL=
202109060600 AAXX 06064 67481 31970 03002 10200 20107 48/// 70500
                   333 10299 20121 59011
                   555 00///=
202109031200 AAXX 03124 67481 NIL=
202109030600 AAXX 03064 67481 31970 01002 10214 20119 48/// 70500
                   333 10290 20150 5////
                   555 00///=
202109021200 AAXX 02124 67481 NIL=
202109020900 AAXX 02094 67481 41670 10602 10248 20118 48/// 70500 81100
                   333 58006 81830=
202109020600 AAXX 02064 67481 31970 00302 10210 20126 48/// 70500
                   333 10290 20147 58001
                   555 00///=
202109010900 AAXX 01094 67481 41670 11002 10250 20106 48/// 70500 81100
                   333 58004 81830=
202109010600 AAXX 01064 67481 31970 00903 10215 20113 48/// 70500
                   333 10290 20138 5////
                   555 00///=

################################################################################
#  SYNOPS from 67531, Zambezi (Zambia) | 13-32S | 023-07E | 1077 m
################################################################################
202110011200 AAXX 01124 67531 41875 42704 10332 20143 48/// 70500 84200
                   333 58018 84857=
202110010900 AAXX 01094 67531 41975 01804 10300 20154 48/// 70500
                   333 58006=
202109301200 AAXX 30124 67531 41875 43603 10345 20146 48/// 70500 84200
                   333 58003 84857=
202109300900 AAXX 30094 67531 41975 03103 10295 20155 48/// 70500
                   333 59003=
202109300600 AAXX 30064 67531 11975 43002 10223 20166 48/// 69914 70500 84030
                   333 10366 20192 59003 84362=
202109291200 AAXX 29124 67531 41870 43604 10345 20155 48/// 70510 84200
                   333 59014 84857=
202109290900 AAXX 29094 67531 41970 00906 10310 20165 48/// 70500
                   333 59008=
202109290600 AAXX 29064 67531 31965 03303 10237 20137 48/// 70500
                   333 10352 20183 59011
                   555 00///=
202109271200 AAXX 27124 67531 41770 53308 10320 20142 48/// 70522 85200
                   333 58001 85856=
202109270900 AAXX 27094 67531 41970 03009 10285 20151 48/// 70500
                   333 59005=
202109241200 AAXX 24124 67531 NIL=
202109240900 AAXX 24094 67531 41970 00909 10310 20128 48/// 70500
                   333 59001=
202109231200 AAXX 23124 67531 41675 11807 10342 20091 48/// 70500 81100
                   333 58015 81859=
202109230900 AAXX 23094 67531 41970 00909 10299 20123 48/// 70500
                   333 58007=
202109230600 AAXX 23064 67531 31970 00911 10222 20113 48/// 70500
                   333 10370 20190 58004
                   555 00///=
202109221200 AAXX 22124 67531 41970 00907 10357 20079 48/// 70500
                   333 59003=
202109220900 AAXX 22094 67531 41970 00911 10326 20079 48/// 70500
                   333 58000=
202109220600 AAXX 22064 67531 31965 00904 10210 20054 48/// 70500
                   333 10375 20140 59003
                   555 00/// 31354=
202109211200 AAXX 21124 67531 41975 01808 10359 20066 48/// 70500
                   333 59003=
202109201200 AAXX 20124 67531 41970 01304 10345 20073 48/// 70500
                   333 59009=
202109200900 AAXX 20094 67531 41970 01010 10310 20113 48/// 70500
                   333 59014=
202109200600 AAXX 20064 67531 31970 01303 10231 20172 48/// 70500
                   333 10334 20152 59002
                   555 00///=
202109171200 AAXX 17124 67531 41775 31802 10337 20175 48/// 70500 83100
                   333 58002 83856=
202109170600 AAXX 17064 67531 31970 23602 10237 20177 48/// 70500 82030
                   333 10346 20203 59008 82362
                   555 00///=
202109161200 AAXX 16124 67531 NIL=
202109160900 AAXX 16094 67531 NIL=
202109160600 AAXX 16064 67531 31965 13602 10212 20165 48/// 70500 81030
                   333 10362 20172 58007 81365=
202109150900 AAXX 15094 67531 41970 00909 10315 20131 48/// 70500
                   333 59007=
202109150600 AAXX 15064 67531 31960 00903 10195 20105 48/// 70500
                   333 10354 20123 59007
                   555 00///=
202109141200 AAXX 14124 67531 41775 21806 10335 20129 48/// 70500 82100
                   333 59004 82857=
202109140900 AAXX 14094 67531 41970 01707 10301 20122 48/// 70500
                   333 59005=
202109140600 AAXX 14064 67531 31970 00903 10219 20109 48/// 70500
                   333 10333 20148 59011
                   555 00///=
202109131200 AAXX 13124 67531 41975 03004 10320 20097 48/// 70500
                   333 59026=
202109130900 AAXX 13094 67531 41975 00908 10281 20114 48/// 70500
                   333 59026=
202109120900 AAXX 12094 67531 41975 71008 10260 20095 48/// 70522 8703/
                   333 59010 87361=
202109120600 AAXX 12064 67531 31975 71303 10180 20094 48/// 70522 8703/
                   333 10311 20155 59010 87361
                   555 00///=
202109101200 AAXX 10124 67531 NIL=
202109091200 AAXX 09124 67531 41975 00602 10330 20110 48/// 70500
                   333 58018=
202109090900 AAXX 09094 67531 41965 00807 10287 20103 48/// 70500
                   333 58005=
202109070900 AAXX 07094 67531 41965 00908 10295 20078 48/// 70500
                   333 59005=
202109061200 AAXX 06124 67531 41970 01608 10343 20075 48/// 70500
                   333 59008=
202109060900 AAXX 06094 67531 41970 00909 10315 20098 48/// 70500
                   333 58000=
202109060600 AAXX 06064 67531 31970 00804 10202 20089 48/// 70500
                   333 10347 20141 59001
                   555 00///=
202109040600 AAXX 04064 67531 31975 00809 10220 20116 48/// 70500
                   333 10322 20185 58002=
202109031200 AAXX 03124 67531 41975 30000 10307 20111 48/// 70500 83100
                   333 59004 83858=
202109030900 AAXX 03094 67531 41975 10910 10288 20130 48/// 70500 80001
                   333 59010 81082=
202109021200 AAXX 02124 67531 41975 01302 10316 20088 48/// 70500
                   333 59001=
202109020900 AAXX 02094 67531 41970 00910 10290 20087 48/// 70500
                   333 58006=
202109011200 AAXX 01124 67531 41970 00907 10327 20047 48/// 70500
                   333 58002=
202109010900 AAXX 01094 67531 41970 00909 10294 20066 48/// 70500
                   333 58008=
202109010600 AAXX 01064 67531 31970 01009 10182 20048 48/// 70500
                   333 10337 20146 58011
                   555 00///=

################################################################################
#  SYNOPS from 67541, Kasempa (Zambia) | 13-32S | 025-51E | 1234 m
################################################################################
202110011200 AAXX 01124 67541 41775 10000 10325 20186 48455 70522 81100
                   333 58008 81856=
202110010900 AAXX 01094 67541 41975 305// 10305 20188 48482 70522 80003
                   333 5//// 83080=
202109301200 AAXX 30124 67541 41975 705// 10330 20184 48446 70522 80007
                   333 5//// 87080=
202109300900 AAXX 30094 67541 NIL=
202109300600 AAXX 30064 67541 31970 70000 10210 20126 48473 70522 80007
                   333 10340 20124 59009 87080=
202109290900 AAXX 29094 67541 41975 305// 10310 20194 48/// 70522 80003
                   333 5//// 83082=
202109290600 AAXX 29064 67541 31975 30000 10200 20144 48482 70522 80003
                   333 10350 20116 59008 83080
                   555 00///=
202109271200 AAXX 27124 67541 41975 705// 10300 20172 48473 70522 87030
                   333 5//// 87360=
202109270900 AAXX 27094 67541 41975 705// 10275 20177 48499 70522 87030
                   333 5//// 87360=
202109241200 AAXX 24124 67541 41975 10000 10315 20154 48482 70522 81030
                   333 58000 81360=
202109240900 AAXX 24094 67541 41975 005// 10295 20166 48508 70500
                   333 58000=
202109231200 AAXX 23124 67541 41975 005// 10315 20154 48482 70500
                   333 58009=
202109230900 AAXX 23094 67541 41975 005// 10280 20156 48508 70500
                   333 58009=
202109230600 AAXX 23064 67541 31975 005// 10210 20136 48508 70500
                   333 10346 20146 58000
                   555 00///=
202109221200 AAXX 22124 67541 41975 005// 10340 20178 48473 70500
                   333 58000=
202109220900 AAXX 22094 67541 41975 005// 10300 20172 48499 70500
                   333 58000=
202109220600 AAXX 22064 67541 31975 00000 10220 20120 48508 70500
                   333 10354 20078 58009
                   555 00///=
202109211200 AAXX 21124 67541 41975 00000 10340 20178 48473 70500
                   333 58000=
202109201200 AAXX 20124 67541 41975 00000 10333 20172 48473 70500
                   333 5////=
202109200900 AAXX 20094 67541 41975 00000 10290 20150 48499 70500
                   333 5////=
202109171200 AAXX 17124 67541 41875 10000 10350 20163 48455 70522 81100
                   333 58000 81858=
202109170600 AAXX 17064 67541 31975 70000 10200 20114 48490 70522 87030
                   333 10350 20120 58000 87360
                   555 00///=
202109161200 AAXX 16124 67541 41775 10000 10335 20180 48455 70522 81100
                   333 58000 81856=
202109160900 AAXX 16094 67541 41975 405// 10300 20172 48490 70522 80004
                   333 58000 84080=
202109160600 AAXX 16064 67541 31975 00000 10200 20134 48490 70500
                   333 10350 20152 58000
                   555 00///=
202109150900 AAXX 15094 67541 41975 005// 10300 20172 48490 70500
                   333 58000=
202109150600 AAXX 15064 67541 31975 00000 10225 20154 48490 70500
                   333 10340 20122 59009
                   555 00///=
202109141200 AAXX 14124 67541 41975 00000 10330 20193 48464 70500
                   333 59009=
202109140900 AAXX 14094 67541 41975 005// 10285 20181 48490 70500
                   333 59009=
202109140600 AAXX 14064 67541 31975 00000 10215 20142 48499 70500
                   333 10320 20122 58000
                   555 00///=
202109131200 AAXX 13124 67541 41975 00000 10300 20198 48473 70500
                   333 5////=
202109130900 AAXX 13094 67541 41975 005// 10270 20197 48499 70500
                   333 5////=
202109120900 AAXX 12094 67541 NIL=
202109120600 AAXX 12064 67541 31975 705// 10185 20125 48525 70522 87030
                   333 10306 20102 59018 87360
                   555 00///=
202109101200 AAXX 10124 67541 NIL=
202109091200 AAXX 09124 67541 41975 00000 10325 20186 48490 70500
                   333 58017=
202109090900 AAXX 09094 67541 41975 005// 10290 20195 48508 70500
                   333 58000=
202109070900 AAXX 07094 67541 41975 20000 10290 20169 48490 70522 80002
                   333 59009 82080=
202109061200 AAXX 06124 67541 41975 00000 10310 20173 48473 70500
                   333 5////=
202109060900 AAXX 06094 67541 NIL=
202109060600 AAXX 06064 67541 31975 00000 10190 20122 48499 70500
                   333 10330 20140 58000
                   555 00///=
202109040600 AAXX 04064 67541 31975 00000 10180 20164 48499 70500
                   333 10320 20130 58000
                   555 00///=
202109031200 AAXX 03124 67541 41975 70000 10300 20163 48473 70522 87030
                   333 5//// 87360=
202109030900 AAXX 03094 67541 41975 70000 10250 20147 48499 70522 87030
                   333 5//// 87360=
202109021200 AAXX 02124 67541 41975 40000 10280 20165 48/// 70522 84030
                   333 5//// 84360=
202109020900 AAXX 02094 67541 NIL=
202109011200 AAXX 01124 67541 41975 00000 10315 2//// 48473 70500
                   333 58000=
202109010900 AAXX 01094 67541 41975 005// 10280 20165 48499 70500
                   333 58000=
202109010600 AAXX 01064 67541 31975 00000 10140 20104 48499 70500
                   333 10318 20054 58000
                   555 00///=

################################################################################
#  SYNOPS from 67543, Kabompo (Zambia) | 13-36S | 024-12E | 1075 m
################################################################################
202110011200 AAXX 01124 67543 41870 43602 10348 20135 48/// 70510 84200
                   333 5//// 84857=
202110010900 AAXX 01094 67543 41965 01801 10300 20143 48/// 70500
                   333 5////=
202109301200 AAXX 30124 67543 41675 71204 10350 20135 48/// 70522 82137
                   333 5//// 83840 82361 85280=
202109300900 AAXX 30094 67543 41970 60901 10310 20159 48/// 70522 80007
                   333 5//// 86280=
202109300600 AAXX 30064 67543 11970 60901 10210 20183 48/// 60034 70522 83035
                   333 10380 20194 5//// 83360 84280=
202109290600 AAXX 29064 67543 31960 00000 10208 20129 48/// 70500
                   333 10360 20142 5////
                   555 00///=
202109271200 AAXX 27124 67543 41970 73602 10328 20126 48/// 70522 87030
                   333 5//// 87361=
202109270900 AAXX 27094 67543 41970 60302 10292 20106 48/// 70522 86030
                   333 5//// 86360=
202109270600 AAXX 27064 67543 31970 70000 10208 20108 48/// 70522 8703/
                   333 10366 20150 5//// 87360
                   555 00///=
202109241200 AAXX 24124 67543 NIL=
202109231200 AAXX 23124 67543 NIL=
202109230900 AAXX 23094 67543 NIL=
202109220600 AAXX 22064 67543 NIL=
202109211200 AAXX 21124 67543 NIL=
202109200900 AAXX 20094 67543 NIL=
202109171200 AAXX 17124 67543 NIL=
202109170600 AAXX 17064 67543 NIL=
202109161200 AAXX 16124 67543 NIL=
202109160900 AAXX 16094 67543 NIL=
202109160600 AAXX 16064 67543 NIL=
202109140600 AAXX 14064 67543 31960 00000 10180 20091 48/// 70500
                   333 10338 20130 5////
                   555 00///=
202109131200 AAXX 13124 67543 NIL=
202109120900 AAXX 12094 67543 NIL=
202109101200 AAXX 10124 67543 NIL=
202109091200 AAXX 09124 67543 NIL=
202109090900 AAXX 09094 67543 00902 10290 10093 48/// 70500
                   333 5////=
202109070900 AAXX 07094 67543 41970 00901 10294 20079 48/// 70500
                   333 5////=
202109061200 AAXX 06124 67543 NIL=
202109060900 AAXX 06094 67543 41970 01103 10308 20084 48/// 70500
                   333 5////=
202109060600 AAXX 06064 67543 31965 00000 10188 20096 48/// 70500
                   333 10350 20162 5////
                   555 00///=
202109040600 AAXX 04064 67543 31975 70000 10204 20120 48/// 70522 8703/
                   333 10338 20172 5//// 87360
                   555 00///=
202109031200 AAXX 03124 67543 NIL=
202109021200 AAXX 02124 67543 NIL=
202109020900 AAXX 02094 67543 41670 11201 10300 20091 48/// 70500 81100
                   333 5//// 81830=
202109011200 AAXX 01124 67543 41970 01205 10334 20010 48/// 70500
                   333 5////=
202109010900 AAXX 01094 67543 41970 01205 10310 20020 48/// 70500
                   333 5////=
202109010600 AAXX 01064 67543 31970 00901 10184 20055 48/// 70500
                   333 10340 20138 5////
                   555 00///=

################################################################################
#  SYNOPS from 67551, Solwezi (Zambia) | 12-11S | 026-23E | 1386 m
################################################################################
202110011200 AAXX 01124 67551 41965 30906 10309 20105 48485 70522 82108
                   333 58007 83280 82858=
202110010900 AAXX 01094 67551 41960 70806 10289 20109 48508 70522 80007
                   333 59001 87280=
202109301200 AAXX 30124 67551 NIL=
202109300900 AAXX 30094 67551 41970 00505 10270 20153 48510 70500
                   333 58001 91018=
202109300600 AAXX 30064 67551 31970 00000 10221 20153 48511 70500
                   333 10320 20170 59001 91019=
202109291200 AAXX 29124 67551 41870 41505 10323 20119 48499 70522 84200
                   333 59011 84857 91014=
202109290600 AAXX 29064 67551 31970 13305 10208 20133 48505 70500 81030
                   333 10301 20156 59003 81362
                   555 00/// 91019=
202109281200 AAXX 28124 67551 41965 62705 10305 20127 48485 70522 86200
                   333 59024 86858=
202109271200 AAXX 27124 67551 42970 70000 10238 20107 48505 8707/
                   333 58007 555 91018=
202109270900 AAXX 27094 67551 41970 70904 10231 20100 48527 70500 87070
                   333 59004 87367 555 91020=
202109241200 AAXX 24124 67551 41970 21506 10302 20056 48508 70500 82100
                   333 58005 82858 555 91018=
202109240900 AAXX 24094 67551 41970 00907 10257 20102 48543 70500
                   333 58009 555 91022=
202109231200 AAXX 23124 67551 NIL=
202109230900 AAXX 23094 67551 NIL=
202109230600 AAXX 23064 67551 31970 01206 10186 20096 48527 70500
                   333 10316 20163 59004
                   555 00/// 91021=
202109220900 AAXX 22094 67551 41970 41506 10290 20076 48532 70500 84030
                   333 58008 84362 555 91021=
202109220600 AAXX 22064 67551 31960 21506 10196 20054 48536 70500 82030
                   333 10325 20121 58008 82362
                   555 00/// 91021=
202109211200 AAXX 21124 67551 41970 00907 10321 20040 48490 70500
                   333 59003 555 91017=
202109200900 AAXX 20094 67551 41970 01205 10268 20046 48534 70500
                   333 58013 555 91020=
202109171200 AAXX 17124 67551 NIL=
202109170600 AAXX 17064 67551 31960 03003 10182 20148 48525 70500
                   333 10330 20150 59006
                   555 00/// 91019=
202109161200 AAXX 16124 67551 41965 31505 10301 20086 48489 70522 83100
                   333 58001 83858=
202109160900 AAXX 16094 67551 NIL=
202109160600 AAXX 16064 67551 31960 00505 10210 20106 48524 70500
                   333 10325 20163 58004 91020=
202109150900 AAXX 15094 67551 41960 00907 10290 20106 48514 70500
                   333 59008=
202109150600 AAXX 15064 67551 41960 00906 10201 20114 48519 70500
                   333 10316 20175 59006
                   555 00/// 91019=
202109141200 AAXX 14124 67551 41860 31205 10301 20138 48523 70522 83100
                   333 59005 83857=
202109140900 AAXX 14094 67551 41960 00907 10269 20125 48521 70500
                   333 59001=
202109140600 AAXX 14064 67551 31960 00905 10200 20114 48525 70500
                   333 10303 20155 59004
                   555 00/// 91020=
202109131200 AAXX 13124 67551 41760 11805 10290 20098 48495 70500 81100
                   333 59020 81857=
202109130900 AAXX 13094 67551 41960 00907 10258 20116 48521 70500
                   333 59024=
202109120900 AAXX 12094 67551 NIL=
202109120600 AAXX 12064 67551 41770 11206 10165 20092 48560 70522 81100
                   333 10260 20112 59011 81820
                   555 00/// 91024=
202109101200 AAXX 10124 67551 NIL=
202109100900 AAXX 10094 67551 41965 51212 10257 20083 48564 70522 85006
                   333 58012 85280=
202109091200 AAXX 09124 67551 NIL=
202109090900 AAXX 09094 67551 41970 00912 10268 20046 48529 70500
                   333 58006 555 91022=
202109070900 AAXX 07094 67551 41970 01005 10270 20089 48520 70500
                   333 59007=
202109061200 AAXX 06124 67551 NIL=
202109060900 AAXX 06094 67551 41970 01005 10269 20065 48527 70500
                   333 59006=
202109060600 AAXX 06064 67551 31965 00905 10180 20069 48536 70500
                   333 10293 20163 59002
                   555 00/// 91021=
202109040600 AAXX 04064 67551 31970 00905 10220 20079 48529 70500
                   333 10297 20166 58002
                   555 00/// 91020=
202109031200 AAXX 03124 67551 41970 40705 10294 20089 48487 70522 84100
                   333 59006 84857 555 91016=
202109030900 AAXX 03094 67551 41970 20906 10261 20104 48524 70500 80001
                   333 59005 82080 555 11020=
202109021200 AAXX 02124 67551 NIL=
202109020900 AAXX 02094 67551 41870 10912 10256 20084 48533 70500 81100
                   333 58003 81857 555 91020=
202109011200 AAXX 01124 67551 41970 01307 10294 20001 48488 70500
                   333 58003 91017=
202109010900 AAXX 01094 67551 NIL=
202109010600 AAXX 01064 67551 31960 00903 10162 20061 48531 70500
                   333 10290 20110 58005
                   555 00/// 91021=

################################################################################
#  SYNOPS from 67561, Ndola (Zambia) | 13-00S | 028-39E | 1269 m
################################################################################
202110011200 AAXX 01124 67561 41660 53604 10318 20113 48490 70522 85201
                   333 58004 85845 81080 91015=
202110010900 AAXX 01094 67561 41959 60709 10286 20141 48518 70422 80008
                   333 59002 86280 91018=
202109301200 AAXX 30124 67561 41759 51112 10328 20102 48492 70411 83202
                   333 58003 84850 84080
                   555 91014=
202109300900 AAXX 30094 67561 41957 00907 10290 20119 48520 70400
                   333 58003 555 91018=
202109300600 AAXX 30064 67561 31956 07006 10215 20113 48524 70400
                   333 10340 20135 59005
                   555 00/// 91018=
202109291200 AAXX 29124 67561 41760 50000 10327 20096 48483 70511 85200
                   333 59015 85856 91014=
202109290900 AAXX 29094 67561 41959 00501 10305 20108 48519 70400
                   333 59008 555 91018=
202109290600 AAXX 29064 67561 31959 30906 1//// 20119 48519 70411 83030
                   333 10320 20160 59002 83360
                   555 00/// 91019=
202109271200 AAXX 27124 67561 NIL=
202109270900 AAXX 27094 67561 NIL=
202109241200 AAXX 24124 67561 41770 51608 10303 20067 48526 85200
                   333 58006 84856 555 91019=
202109240900 AAXX 24094 67561 41659 11309 10284 20094 48551 70400 81100
                   333 58003 81840 555 91022=
202109231200 AAXX 23124 67561 NIL=
202109230900 AAXX 23094 67561 NIL=
202109230600 AAXX 23064 67561 41957 01110 10200 20113 48544 70400
                   333 10330 20146 59006
                   555 00/// 91022=
202109220600 AAXX 22064 67561 NIL=
202109211200 AAXX 21124 67561 41960 01605 10332 20071 48508 70500
                   333 59002 91017=
202109201200 AAXX 20124 67561 41960 01507 10316 20043 48508 70500
                   333 59013 555 91017=
202109200900 AAXX 20094 67561 NIL=
202109171200 AAXX 17124 67561 NIL=
202109170600 AAXX 17064 67561 31956 09903 10194 20095 48522 70400
                   333 10345 20138 59010
                   555 00/// 91019=
202109161200 AAXX 16124 67561 41960 11908 10341 20054 48494 70500 80002
                   333 59001 81080 91015=
202109160900 AAXX 16094 67561 41959 10707 10297 20086 48527 70400 80002
                   333 59002 81080 91019=
202109160600 AAXX 16064 67561 31956 10805 10206 20097 48529 70400 80002
                   333 10335 20141 58000 81080
                   555 00/// 91020=
202109150900 AAXX 15094 67561 41959 00910 10283 20088 48528 70400
                   333 59007 555 91019=
202109150600 AAXX 15064 67561 31957 00811 10220 20120 48530 70400
                   333 10325 20160 59006
                   555 00///=
202109141200 AAXX 14124 67561 41959 23504 10310 20104 48504 70400 82200
                   333 59007 82856 555 91016=
202109140900 AAXX 14094 67561 41959 01011 10280 20111 48536 70400
                   333 59002 555 91020=
202109140600 AAXX 14064 67561 31957 00908 10203 20114 48535 70400
                   333 10307 20151 59003
                   555 00/// 91021=
202109131200 AAXX 13124 67561 NIL=
202109120900 AAXX 12094 67561 NIL=
202109101200 AAXX 10124 67561 NIL=
202109100900 AAXX 10094 67561 41559 51016 10260 20093 48574 70422 83208
                   333 58022 83830 85280
                   555 91025=
202109091200 AAXX 09124 67561 41959 01209 10311 20044 48535 70400
                   333 58016 555 910203=
202109090900 AAXX 09094 67561 41959 00710 10227 20086 48558 70400
                   333 58008 555 91023=
202109061200 AAXX 06124 67561 41860 11608 10307 20068 48517 70500 81100
                   333 59003 81857 91018=
202109060900 AAXX 06094 67561 41959 00908 10266 20075 48546 70400
                   333 58002 91021=
202109060600 AAXX 06064 67561 31956 00906 10180 20080 48538 70400
                   333 10316 20112 58001
                   555 00/// 91022=
202109040600 AAXX 04064 67561 31940 10707 10199 20124 48536 70400 81030
                   333 10313 20150 58004 81360
                   555 91021=
202109031200 AAXX 03124 67561 41770 30805 10300 20073 48504 70500 83200
                   333 59009 83856 555 91016=
202109021200 AAXX 02124 67561 NIL=
202109020900 AAXX 02094 67561 NIL=
202109010900 AAXX 01094 67561 NIL=
202109010600 AAXX 01064 67561 31959 01008 10210 20075 48537 70400
                   333 10305 20100 58002
                   555 00/// 91021=

################################################################################
#  SYNOPS from 67563, Kafironda (Zambia) | 12-36S | 028-07E | 1243 m
################################################################################
202109301200 AAXX 30124 67563 NIL=
202109300900 AAXX 30094 67563 NIL=
202109300600 AAXX 30064 67563 NIL=
202109271200 AAXX 27124 67563 NIL=
202109270900 AAXX 27094 67563 NIL=
202109270600 AAXX 27064 67563 31970 61303 10200 20110 48/// 70500 86070
                   333 10324 20113 59009 86360
                   555 00102=
202109241200 AAXX 24124 67563 NIL=
202109231200 AAXX 23124 67563 NIL=
202109230900 AAXX 23094 67563 NIL=
202109220600 AAXX 22064 67563 NIL=
202109211200 AAXX 21124 67563 NIL=
202109200900 AAXX 20094 67563 NIL=
202109200600 AAXX 20064 67563 31970 01503 10196 20130 48/// 70500
                   333 10322 20077 59010
                   555 00063=
202109171200 AAXX 17124 67563 NIL=
202109170600 AAXX 17064 67563 NIL=
202109161200 AAXX 16124 67563 NIL=
202109160900 AAXX 16094 67563 NIL=
202109160600 AAXX 16064 67563 NIL=
202109131200 AAXX 13124 67563 NIL=
202109120900 AAXX 12094 67563 NIL=
202109120600 AAXX 12064 67563 31975 11003 10182 20110 48/// 70500 81030
                   333 10270 20074 59012 81360
                   555 00058=
202109101200 AAXX 10124 67563 NIL=
202109091200 AAXX 09124 67563 NIL=
202109061200 AAXX 06124 67563 NIL=
202109060900 AAXX 06094 67563 NIL=
202109031200 AAXX 03124 67563 NIL=
202109021200 AAXX 02124 67563 NIL=
202109020900 AAXX 02094 67563 NIL=
202109010900 AAXX 01094 67563 NIL=

################################################################################
#  SYNOPS from 67571, Serenje (Zambia) | 13-14S | 030-13E | 1384 m
################################################################################
202110011200 AAXX 01124 67571 42665 71203 10282 20118 48443 70522 85108
                   333 59002 85842 87280=
202110010900 AAXX 01094 67571 42665 71206 10270 20142 48464 70522 83108
                   333 59006 83831 87280=
202110010600 AAXX 01064 67571 32570 70903 10220 20143 48482 70522 81108
                   333 10319 20178 58002 81821 87280=
202109301200 AAXX 30124 67571 42975 11208 10300 20072 48444 70500 81030
                   333 58008 81361=
202109300900 AAXX 30094 67571 42975 10906 1//// 20084 48474 70500 81030
                   333 58008 81360=
202109300600 AAXX 30064 67571 32970 00903 10246 20112 48473 70500
                   333 10328 20195 58003=
202109291200 AAXX 29124 67571 42675 21202 10316 20055 48444 70500 82200
                   333 59009 82848=
202109290900 AAXX 29094 67571 42670 11806 10310 20102 48465 70500
                   333 59006 81837=
202109290600 AAXX 29064 67571 32970 01202 10246 20101 48473 70500
                   333 10319 20175 555 00///=
202109281200 AAXX 28124 67571 42975 73603 10290 20090 48443 70522 8703/
                   333 59003 87361=
202109280600 AAXX 28064 67571 12978 70902 10239 20100 48473 69904 8703/
                   333 10307 20196 58010 87360
                   555 00///=
202109271200 AAXX 27124 67571 NIL=
202109270900 AAXX 27094 67571 NIL=
202109241200 AAXX 24124 67571 NIL=
202109240900 AAXX 24094 67571 42676 20902 10257 20095 48504 82200
                   333 59004 82835=
202109231200 AAXX 23124 67571 42682 20903 10247 20109 48483 70500 82200
                   333 59004 82845=
202109230900 AAXX 23094 67571 42678 61206 10218 20115 48583 70511 86200
                   333 58003 86832=
202109230600 AAXX 23064 67571 32978 01506 10176 20109 48501 70500
                   333 10305 20137 59002
                   555 00///=
202109221200 AAXX 22124 67571 42968 01206 10268 20056 48474 70500
                   333 58016=
202109220600 AAXX 22064 67571 32968 01206 10203 20082 48512 70500
                   333 10334 20151 58022
                   555 00///=
202109211200 AAXX 21124 67571 42978 01206 10312 20009 48465 70500
                   333 59003=
202109201200 AAXX 20124 67571 42977 01205 10275 20046 48464 70500
                   333 59019=
202109200900 AAXX 20094 67571 42977 01205 10240 20094 48493 70500
                   333 59021=
202109171200 AAXX 17124 67571 42970 00605 10307 20069 48444 70500
                   333 59003=
202109170600 AAXX 17064 67571 32970 00902 10231 20121 48473 70500
                   333 10315 20184 59012
                   555 00///=
202109161200 AAXX 16124 67571 42970 01208 10297 20075 48444
                   333 59009=
202109160900 AAXX 16094 67571 42970 01505 10273 20054 48474
                   333 58000=
202109160600 AAXX 16064 67571 32970 01204 10215 20102 48482 70500
                   333 10306 20141 58019
                   555 00///=
202109150900 AAXX 15094 67571 32970 01203 10213 20062 48462 70500
                   333 10294 20131 59007
                   555 00///=
202109131200 AAXX 13124 67571 42668 70904 10277 20106 48464 70522 82108
                   333 59024 82843 87280=
202109120900 AAXX 12094 67571 NIL=
202109101200 AAXX 10124 67571 NIL=
202109091200 AAXX 09124 67571 NIL=
202109080900 AAXX 08094 67571 42965 01207 10143 20099 48503 70500
                   333 58019=
202109070900 AAXX 07094 67571 42970 01204 10254 20086 48483 70500
                   333 59008=
202109061200 AAXX 06124 67571 NIL=
202109060900 AAXX 06094 67571 NIL=
202109031200 AAXX 03124 67571 42678 60903 10261 20116 48463 70511 82108
                   333 59008 82836 85280=
202109021200 AAXX 02124 67571 NIL=
202109020900 AAXX 02094 67571 NIL=
202109011200 AAXX 01124 67571 42775 41204 10263 20062 48474 70511 84100
                   333 59004 84850=
202109010900 AAXX 01094 67571 42677 21205 10249 20066 48483 70500 82100
                   333 59003 82836=

################################################################################
#  SYNOPS from 67575, Mkushi (Zambia) | 13-38-00S | 029-26-00E | 1237 m
################################################################################
202110010900 AAXX 01094 67575 41665 71204 10284 20144 48/// 70522 81108
                   333 5//// 81830 87280=
202110010600 AAXX 01064 67575 31465 60903 10230 20165 48/// 70522 81108
                   333 10331 20185 5//// 81815 86280
                   555 00170=
202109301200 AAXX 30124 67575 41965 11206 10321 20093 48/// 70500 80001
                   333 5//// 81080=
202109300900 AAXX 30094 67575 NIL=
202109300600 AAXX 30064 67575 31965 00906 10254 20116 48/// 70500
                   333 10347 20186 5////
                   555 00158=
202109290600 AAXX 29064 67575 31965 03201 10229 20113 48/// 70500
                   333 10327 20154 5////
                   555 00135=
202109271200 AAXX 27124 67575 NIL=
202109270900 AAXX 27094 67575 NIL=
202109270600 AAXX 27064 67575 31970 10907 10231 20096 48/// 70500 80001
                   333 10315 20166 5//// 81080
                   555 00141=
202109241200 AAXX 24124 67575 NIL=
202109240900 AAXX 24094 67575 41675 11002 10283 20045 48/// 70500 81100
                   333 5//// 81832=
202109231200 AAXX 23124 67575 NIL=
202109230900 AAXX 23094 67575 41675 10907 10250 20115 48/// 70500 81100
                   333 5//// 81830=
202109230600 AAXX 23064 67575 31975 01104 10194 20107 48/// 70500
                   333 10305 20153 5////
                   555 00123=
202109220900 AAXX 22094 67575 41970 00909 10274 20081 48/// 70500
                   333 5////=
202109220600 AAXX 22064 67575 31970 00902 10210 20087 48/// 70500
                   333 10340 20130 67475
                   555 31980 01003=
202109211200 AAXX 21124 67575 41975 01203 10333 21010 48/// 70500
                   333 5////=
202109201200 AAXX 20124 67575 41975 01206 10300 20027 48/// 70500
                   333 5////=
202109200900 AAXX 20094 67575 41975 01205 10271 20080 48///
                   333 5////=
202109171200 AAXX 17124 67575 41970 01203 10335 20044 48/// 70500
                   333 5////=
202109170600 AAXX 17064 67575 31970 03601 10230 20103 48/// 70500
                   333 10327 20123 5////
                   555 00107=
202109161200 AAXX 16124 67575 41970 61203 10317 20039 48/// 70521 80008
                   333 5//// 86280=
202109160900 AAXX 16094 67575 41970 51603 10292 20075 48/// 70500 80008
                   333 5//// 85280 5////=
202109160600 AAXX 16064 67575 31970 13601 10198 20102 48/// 70500 80001
                   333 10325 20112 5//// 81080
                   555 00097=
202109150900 AAXX 15094 67575 41970 01003 10284 20090 48/// 70500
                   333 5////=
202109140900 AAXX 14094 67575 41975 01003 10281 20113 48/// 70500
                   333 5////=
202109140600 AAXX 14064 67575 31975 01108 10111 48/// 70500
                   333 10318 20165 5////
                   555 00141=
202109131200 AAXX 13124 67575 41675 22402 10299 20187 48/// 70521 82100
                   333 5//// 82838=
202109130900 AAXX 13094 67575 41675 71205 10261 20106 48/// 70522 81108
                   333 5//// 81483 87280=
202109120900 AAXX 12094 67575 NIL=
202109101200 AAXX 10124 67575 NIL=
202109100900 AAXX 10094 67575 41670 61003 10228 20113 48/// 70522 82208
                   333 5//// 82832 85280=
202109100600 AAXX 10064 67575 31470 61203 10188 20114 48/// 70522 81508
                   333 10295 20147 5//// 81615 86280
                   555 00112=
202109091200 AAXX 09124 67575 NIL=
202109090900 AAXX 09094 67575 41970 00908 10260 20085 48/// 70500
                   333 5////=
202109070900 AAXX 07094 67575 41975 00903 10263 20085 48/// 70500
                   333 5////=
202109061200 AAXX 06124 67575 NIL=
202109060900 AAXX 06094 67575 NIL=
202109060600 AAXX 06064 67575 31975 00903 10208 20070 48///
                   333 10305 20139 5////
                   555 00113=
202109031200 AAXX 03124 67575 NIL=
202109021200 AAXX 02124 67575 NIL=
202109020900 AAXX 02094 67575 NIL=
202109011200 AAXX 01124 67575 41675 10905 10286 20062 48/// 81100
                   333 5////=
202109010900 AAXX 01094 67575 NIL=
202109010600 AAXX 01064 67575 31975 01003 10180 20097 48/// 70500
                   333 10201 20117 5////
                   555 00090=

################################################################################
#  SYNOPS from 67580, Msekera (Zambia) | 13-39S | 032-34E | 1025 m
################################################################################
202110011200 AAXX 01124 67580 41770 70903 10315 20144 48/// 70522 87200
                   333 59002 87856=
202110010900 AAXX 01094 67580 41670 60903 10302 20150 48/// 70511 86100
                   333 58008 86844=
202109301200 AAXX 30124 67580 NIL=
202109300900 AAXX 30094 67580 41670 10903 10328 2//// 48/// 70500 81100
                   333 58004 81844=
202109300600 AAXX 30064 67580 31970 00904 10277 20141 48/// 70500
                   333 10360 20219 58012=
202109291200 AAXX 29124 67580 41770 30604 10352 20125 48/// 70500 83100
                   333 59007 83856=
202109290900 AAXX 29094 67580 41970 00608 10325 20120 48/// 70500
                   333 59005=
202109290600 AAXX 29064 67580 31965 00610 10283 20128 48/// 70500
                   333 10338 20228 59003=
202109271200 AAXX 27124 67580 41775 70603 10318 20129 48/// 70500 85101
                   333 59016 85856 84080=
202109270900 AAXX 27094 67580 41975 51105 10302 20121 48/// 70522 80001
                   333 59010 85080=
202109241200 AAXX 24124 67580 41775 50000 10308 20097 48/// 70521 85200
                   333 59005 85856=
202109240900 AAXX 24094 67580 41675 63606 10274 20123 48/// 70521 86200
                   333 59004 86840=
202109231200 AAXX 23124 67580 41675 70607 10280 20125 48/// 70522 872//
                   333 58008 87845=
202109230900 AAXX 23094 67580 41675 71206 10252 20140 48/// 70521 872//
                   333 58001 87840=
202109230600 AAXX 23064 67580 41575 21205 10204 20139 48/// 70500 82100
                   333 10326 20160 59003 82825
                   555 00///=
202109220900 AAXX 22094 67580 41960 00905 10288 20131 48/// 70500
                   333 59019=
202109220600 AAXX 22064 67580 31965 01205 10233 20103 48/// 70500
                   333 10346 20176 58026
                   555 00///=
202109211200 AAXX 21124 67580 NIL=
202109201200 AAXX 20124 67580 41775 10000 10302 20114 48/// 70500 81100
                   333 59030 81856=
202109200900 AAXX 20094 67580 41675 40000 10255 20130 48/// 70510 84100
                   333 59033 84840=
202109171200 AAXX 17124 67580 41970 01202 10356 20088 48/// 70500
                   333 59003=
202109170600 AAXX 17064 67580 31970 01202 10262 20149 48/// 70500
                   333 10355 20193 59009
                   555 00///=
202109161200 AAXX 16124 67580 41975 00303 10336 20115 48/// 70500
                   333 59015=
202109160900 AAXX 16094 67580 41975 00000 10298 20126 48/// 70500
                   333 59006=
202109160600 AAXX 16064 67580 31975 00902 10259 20135 48/// 70500
                   333 10328 20177 59008
                   555 00///=
202109150900 AAXX 15094 67580 41970 01206 10304 20104 48/// 70500
                   333 59013=
202109150600 AAXX 15064 67580 31970 01208 10254 20102 48/// 70500
                   333 10320 20178 59003
                   555 00///=
202109141200 AAXX 14124 67580 41770 41206 10296 20116 48/// 70510 84100
                   333 59007 84856=
202109140900 AAXX 14094 67580 41670 31209 10296 20112 48/// 70500 83100
                   333 59002 83845=
202109140600 AAXX 14064 67580 31970 01206 10246 20127 48/// 70500
                   333 10314 20178 59003
                   555 00///=
202109131200 AAXX 13124 67580 41775 71003 10283 20132 48/// 70522 87100
                   333 59018 87850=
202109130900 AAXX 13094 67580 41675 20904 10288 20132 48/// 70500 82100
                   333 59020 82840=
202109120900 AAXX 12094 67580 NIL=
202109101200 AAXX 10124 67580 NIL=
202109091200 AAXX 09124 67580 41765 61509 10303 20118 48/// 70521 86200
                   333 58025 86856=
202109090900 AAXX 09094 67580 41665 61209 10284 20121 48/// 70521 86100
                   333 58015 86845=
202109070900 AAXX 07094 67580 41670 10103 10295 20169 48/// 70500 81100
                   333 59012 82842=
202109061200 AAXX 06124 67580 41770 71207 10296 20116 48/// 70522 87100
                   333 58001 87856=
202109060900 AAXX 06094 67580 41670 61207 10285 20108 48/// 70521 86100
                   333 59008 86845=
202109060600 AAXX 06064 67580 41970 00905 10246 20105 48/// 70500
                   333 10323 20159 59007
                   555 00///=
202109040600 AAXX 04064 67580 31970 00604 10233 20111 48/// 70500
                   333 10316 20164 58002
                   555 00///=
202109031200 AAXX 03124 67580 41675 70905 10275 20126 48/// 70522 86130
                   333 59004 86846 83360=
202109030900 AAXX 03094 67580 41675 70904 10274 20139 48/// 70522 87200
                   333 59007 87844=
202109030600 AAXX 03064 67580 31575 11306 10208 20154 48/// 70500 81100
                   333 10305 20165 59004 81822
                   555 00///=
202109021200 AAXX 02124 67580 41770 71206 10291 20147 48/// 70522 86230
                   333 58006 86850 82360=
202109020900 AAXX 02094 67580 41670 71207 10266 20154 48/// 70522
                   333 58016 87838=
202109011200 AAXX 01124 67580 41775 61206 10305 20140 48/// 70521 86200
                   333 58003 86856=
202109010900 AAXX 01094 67580 41675 31206 10286 20136 48/// 70500 83230
                   333 59002 83845 81360=
202109010600 AAXX 01064 67580 31975 60908 10224 20116 48/// 70521 86080
                   333 10325 20170 59004 86358
                   555 00///=

################################################################################
#  SYNOPS from 67581, Chipata (Zambia) | 13-33S | 032-35E | 1028 m
################################################################################
202110010900 AAXX 01094 67581 41680 50708 10293 20153 48549 70522 85200
                   333 58006 85840 91019=
202110010600 AAXX 01064 67581 31980 21206 10246 20158 48548 70500 82030
                   333 10//0 20202 58004 82360
                   555 00/// 91020=
202109301200 AAXX 30124 67581 41680 50910 10331 20138 48523 70500 85200
                   333 58008 85845 91015=
202109300900 AAXX 30094 67581 41980 00606 10300 20144 48545 70500
                   333 58006 91018=
202109300600 AAXX 30064 67581 31980 00610 10263 20143 48548 70500
                   333 1//// 20239 58010 91019=
202109291200 AAXX 29124 67581 41680 20605 10349 20108 48528 70500 82100
                   333 59006 82840 91015=
202109290900 AAXX 29094 67581 41980 00604 10311 20120 48541 70500
                   333 59001 91018=
202109290600 AAXX 29064 67581 31980 00608 10270 20123 48541 70500
                   333 10//0 20240 59003
                   555 00/// 91018=
202109271200 AAXX 27124 67581 NIL=
202109270900 AAXX 27094 67581 41875 60612 10290 20121 48553 70500 81101
                   333 59011 81857 86080 91019=
202109241200 AAXX 24124 67581 NIL=
202109240900 AAXX 24094 67581 41980 30602 10287 20141 48578 70500 83200
                   333 59002 83840 91022=
202109231200 AAXX 23124 67581 NIL=
202109230900 AAXX 23094 67581 31680 70608 10245 20142 48572 70522 872//
                   333 58002 87832 91023=
202109221200 AAXX 22124 67581 41680 30907 10311 20132 48555 70500
                   333 58003 91019=
202109220900 AAXX 22094 67581 41980 00905 10290 20124 48578 70500
                   333 58018 91022=
202109220600 AAXX 22064 67581 31980 01205 10229 20106 48574 70500
                   333 10/// 20198 58020
                   555 00/// 91023=
202109211200 AAXX 21124 67581 41980 00903 10325 20105 48536 70500
                   333 59002 91017=
202109200900 AAXX 20094 67581 NIL=
202109171200 AAXX 17124 67581 41980 02703 10347 20085 48523 70500
                   333 59002 91014=
202109170600 AAXX 17064 67581 31980 00607 10271 20143 48542 70500
                   333 10//0 20210 59008
                   555 00/// 91018=
202109161200 AAXX 16124 67581 NIL=
202109160900 AAXX 16094 67581 NIL=
202109160600 AAXX 16064 67581 32980 00606 10250 20133 48545
                   333 10//0 20205 59009
                   555 00/// 91019=
202109150900 AAXX 15094 67581 42980 00608 10286 20095 48559
                   333 59014 91019=
202109150600 AAXX 15064 67581 32980 00610 10248 20108 48554
                   333 10//0 20182 58000
                   555 00/// 91021=
202109140600 AAXX 14064 67581 32980 00612 10250 20120 48554
                   333 10//0 20205 59005
                   555 00/// 91021=
202109131200 AAXX 13124 67581 NIL=
202109130900 AAXX 13094 67581 31980 00912 10246 20112 48557 70500
                   333 10/// 20112 59031
                   555 00/// 91021=
202109120900 AAXX 12094 67581 42680 40906 10256 20120 48583 84200
                   333 59018 84840 91012=
202109120600 AAXX 12064 67581 32980 11808 10198 20120 48579 81030
                   333 10//0 20162 59026 81360
                   555 00/// 91024=
202109101200 AAXX 10124 67581 NIL=
202109091200 AAXX 09124 67581 NIL=
202109070900 AAXX 07094 67581 41780 20909 10285 20117 48566 70522 82100
                   333 59015 82856 91020=
202109061200 AAXX 06124 67581 NIL=
202109060900 AAXX 06094 67581 41780 70713 10268 20104 48569 70522 872//
                   333 59001 87850 91022=
202109060600 AAXX 06064 67581 31980 00705 10240 20110 48565 70500
                   333 10//0 20175 59007
                   555 00/// 91022=
202109031200 AAXX 03124 67581 NIL=
202109030600 AAXX 03064 67581 32680 11218 10240 20144 48564 70200 81100
                   333 10//0 20195 59009 81830
                   555 00/// 91022=
202109021200 AAXX 02124 67581 NIL=
202109020900 AAXX 02094 67581 NIL=
202109010900 AAXX 01094 67581 NIL=

################################################################################
#  SYNOPS from 67583, Lundazi (Zambia) | 12-17S | 033-12E | 1143 m
################################################################################
202110010600 AAXX 01064 67583 31960 00000 10250 20162 48/// 70500
                   333 10284 20//0 5////
                   555 00///=
202109301200 AAXX 30124 67583 NIL=
202109300900 AAXX 30094 67583 NIL=
202109300600 AAXX 30064 67583 NIL=
202109290900 AAXX 29094 67583 41958 00000 10322 20139 48/// 70500
                   333 5////=
202109290600 AAXX 29064 67583 31958 00903 10260 20136 48/// 70500
                   333 10354 20//0 5////
                   555 00///=
202109271200 AAXX 27124 67583 NIL=
202109270900 AAXX 27094 67583 NIL=
202109241200 AAXX 24124 67583 NIL=
202109231200 AAXX 23124 67583 NIL=
202109230900 AAXX 23094 67583 41659 61702 10242 20126 48/// 70522 86800
                   333 5//// 82835 84637=
202109220600 AAXX 22064 67583 31959 11001 10228 20137 48/// 70500 81500
                   333 10342 2//// 5//// 81630=
202109211200 AAXX 21124 67583 41859 12102 10330 20061 48/// 70500 81100
                   333 5//// 81857=
202109200900 AAXX 20094 67583 41758 40000 10268 20131 48/// 70500 84100
                   333 5//// 84850=
202109171200 AAXX 17124 67583 NIL=
202109170600 AAXX 17064 67583 31958 00000 10224 20158 48/// 70500
                   333 10344 2//// 5////
                   555 00///=
202109161200 AAXX 16124 67583 41858 12702 10338 20121 48/// 70500 81031
                   333 5//// 81358 81080=
202109160900 AAXX 16094 67583 41958 10000 10296 20130 48/// 70500 80001
                   333 5//// 81080=
202109160600 AAXX 16064 67583 31958 10000 10224 20132 48/// 80001
                   333 10330 20//0 5//// 81080
                   555 00///=
202109150900 AAXX 15094 67583 41759 21801 10292 20114 48/// 70500 82101
                   333 5//// 82856 81080=
202109150600 AAXX 15064 67583 31959 10000 10205 20122 48/// 70500 80001
                   333 10310 20/// 5//// 81080
                   555 00///=
202109131200 AAXX 13124 67583 NIL=
202109130600 AAXX 13064 67583 31960 01203 10214 20133 48/// 70500
                   333 10292 20/// 5////
                   555 00///=
202109120900 AAXX 12094 67583 NIL=
202109101200 AAXX 10124 67583 NIL=
202109100600 AAXX 10064 67583 31558 11206 10210 20126 48/// 70500 81500
                   333 10330 20//0 5//// 81620
                   555 00///=
202109091200 AAXX 09124 67583 NIL=
202109061200 AAXX 06124 67583 NIL=
202109060900 AAXX 06094 67583 41650 50904 10280 20107 48/// 70521 85100
                   333 5//// 85835=
202109060600 AAXX 06064 67583 31950 00000 10198 20116 48/// 70500
                   333 10309 2//// 5////=
202109031200 AAXX 03124 67583 NIL=
202109021200 AAXX 02124 67583 NIL=
202109020900 AAXX 02094 67583 41658 50905 10262 20148 48/// 70522 85100
                   333 5//// 85835=
202109010900 AAXX 01094 67583 41658 31203 10270 20135 48/// 70500 83100
                   333 5//// 83830=
202109010600 AAXX 01064 67583 31958 10000 10204 20110 48/// 70510 81030
                   333 10310 2//// 5//// 81359
                   555 00///=

################################################################################
#  SYNOPS from 67599, Mfuwe (Zambia) | 13-16S | 031-56E | 568 m
################################################################################
202110010600 AAXX 01064 67599 31958 01006 10275 20177 48541 70500
                   333 10395 20205 58000
                   555 00/// 91017=
202109301200 AAXX 30124 67599 NIL=
202109300900 AAXX 30094 67599 NIL=
202109300600 AAXX 30064 67599 31959 11005 10292 20158 48547 70500 80001
                   333 10395 20228 58011 81080 91017=
202109290600 AAXX 29064 67599 31959 00603 10293 20148 48537 70500
                   333 10390 20218 59006
                   555 00/// 91015=
202109271200 AAXX 27124 67599 NIL=
202109270900 AAXX 27094 67599 NIL=
202109241200 AAXX 24124 67599 NIL=
202109240600 AAXX 24064 67599 32980 11604 10238 20172 48565 81030
                   333 10344 20171 58005 81359
                   555 00/// 91022=
202109231200 AAXX 23124 67599 NIL=
202109230900 AAXX 23094 67599 NIL=
202109230600 AAXX 23064 67599 32980 01505 10240 20154 48565
                   333 10370 20198 555 00/// 91021=
202109220600 AAXX 22064 67599 31975 01209 10262 20111 48575 70500
                   333 10385 20175 58020
                   555 00/// 91021=
202109211200 AAXX 21124 67599 NIL=
202109200900 AAXX 20094 67599 NIL=
202109171200 AAXX 17124 67599 NIL=
202109170600 AAXX 17064 67599 NIL=
202109161200 AAXX 16124 67599 NIL=
202109160900 AAXX 16094 67599 NIL=
202109160600 AAXX 16064 67599 NIL=
202109131200 AAXX 13124 67599 NIL=
202109130900 AAXX 13094 67599 41960 10507 10299 20153 48538 70500 80001
                   333 59035 81080 555 91018=
202109120900 AAXX 12094 67599 NIL=
202109101200 AAXX 10124 67599 NIL=
202109091200 AAXX 09124 67599 NIL=
202109061200 AAXX 06124 67599 NIL=
202109060900 AAXX 06094 67599 NIL=
202109031200 AAXX 03124 67599 NIL=
202109021200 AAXX 02124 67599 NIL=
202109020900 AAXX 02094 67599 NIL=
202109020600 AAXX 02064 67599 41957 01005 10232 20158 48550 70500
                   333 10356 20166 58010
                   555 00172 91019=
202109010900 AAXX 01094 67599 NIL=

################################################################################
#  SYNOPS from 67625, Kalabo (Zambia) | 14-51S | 022-42E | 1033 m
################################################################################
202109301200 AAXX 30124 67625 NIL=
202109300900 AAXX 30094 67625 NIL=
202109300600 AAXX 30064 67625 NIL=
202109271200 AAXX 27124 67625 NIL=
202109270900 AAXX 27094 67625 NIL=
202109241200 AAXX 24124 67625 NIL=
202109231200 AAXX 23124 67625 NIL=
202109230900 AAXX 23094 67625 NIL=
202109220600 AAXX 22064 67625 NIL=
202109211200 AAXX 21124 67625 NIL=
202109200900 AAXX 20094 67625 NIL=
202109171200 AAXX 17124 67625 NIL=
202109170600 AAXX 17064 67625 NIL=
202109161200 AAXX 16124 67625 NIL=
202109160900 AAXX 16094 67625 NIL=
202109160600 AAXX 16064 67625 NIL=
202109131200 AAXX 13124 67625 NIL=
202109120900 AAXX 12094 67625 NIL=
202109101200 AAXX 10124 67625 NIL=
202109091200 AAXX 09124 67625 NIL=
202109061200 AAXX 06124 67625 NIL=
202109060900 AAXX 06094 67625 NIL=
202109031200 AAXX 03124 67625 NIL=
202109021200 AAXX 02124 67625 NIL=
202109020900 AAXX 02094 67625 NIL=
202109010900 AAXX 01094 67625 NIL=

################################################################################
#  SYNOPS from 67633, Mongu (Zambia) | 15-15S | 023-09E | 1052 m
################################################################################
202109301200 AAXX 30124 67633 42680 30905 10376 20124 48487 70500 83100
                   333 59001 91012=
202109300900 AAXX 30094 67633 42980 00502 10335 20149 48515 70500
                   333 59005 91015=
202109300600 AAXX 30064 67633 32980 20601 10240 20135 48500 70500 82030
                   333 10377 20173 58003 82360
                   555 00145 91016=
202109291200 AAXX 29124 67633 41870 20405 10363 20135 48485 70500 82100
                   333 59012 82857 91012=
202109290900 AAXX 29094 67633 41970 03606 10316 20129 48515 70500
                   333 59008 91016=
202109290600 AAXX 29064 67633 31970 00603 10233 20101 48500 70500
                   333 10366 20191 59013
                   555 00152 91015=
202109271200 AAXX 27124 67633 42680 33601 10344 20060 48503 83200
                   333 59007 91014=
202109270900 AAXX 27094 67633 42980 00712 10305 20092 48532
                   333 59004 91018=
202109241200 AAXX 24124 67633 41975 02403 10350 20088 48522 70500
                   333 58001 91016=
202109240900 AAXX 24094 67633 41975 00804 10315 20121 48543 70500
                   333 58003 91019=
202109231200 AAXX 23124 67633 NIL=
202109230900 AAXX 23094 67633 NIL=
202109220900 AAXX 22094 67633 42980 00906 10330 20065 48543 70500
                   333 59006 91019=
202109220600 AAXX 22064 67633 32980 20906 10240 20077 48529 70500 82030
                   333 10376 20201 59004 82360
                   555 00165 910190=
202109211200 AAXX 21124 67633 41980 01503 10365 20077 48526 70500
                   333 58000 91016=
202109210900 AAXX 21094 67633 41975 00901 10323 20066 48548
                   333 58004 91019=
202109200900 AAXX 20094 67633 NIL=
202109171200 AAXX 17124 67633 41775 30908 10360 20123 48493 70500 83100
                   333 59007 83856 555 91012=
202109170600 AAXX 17064 67633 31975 00603 10232 20129 48501 70500
                   333 10365 20190 59014
                   555 00145 91016=
202109161200 AAXX 16124 67633 41775 13603 10355 20146 48499 70500
                   333 59001 81850 555 91013=
202109160900 AAXX 16094 67633 41975 03610 10292 20155 48519 70500
                   333 59004 555 91016=
202109160600 AAXX 16064 67633 31975 60903 10238 20112 48515 70522 80008
                   333 10366 20186 59001 86280
                   555 00150 91017=
202109150900 AAXX 15094 67633 41970 00506 10333 20130 48524 70500
                   333 59007 91017=
202109150600 AAXX 15064 67633 31975 01004 10238 20112 48516 70500
                   333 10360 20173 59006
                   555 00114 91017=
202109141200 AAXX 14124 67633 41875 13403 10347 20054 48506 70500 81100
                   333 58008 81857 91014=
202109140900 AAXX 14094 67633 41975 00708 10313 20116 48533 70500
                   333 58000 91018=
202109140600 AAXX 14064 67633 31975 00906 10210 20100 48518 70500
                   333 10335 20160 59005
                   555 00124 91018=
202109131200 AAXX 13124 67633 41775 12706 10320 20082 48508 70500 81100
                   333 59028 81850 555 91015=
202109130900 AAXX 13094 67633 41975 20912 10290 20106 48527 70511 82030
                   333 59031 82360 91018=
202109130600 AAXX 13064 67633 31975 60903 10200 20089 48522 70522 86030
                   333 10314 20167 59028 86360
                   555 00139 91018=
202109120900 AAXX 12094 67633 41975 50806 10275 20095 48557 70522 85030
                   333 59020 85360 555 91021=
202109120600 AAXX 12064 67633 31975 60912 10200 20084 48549 70522 86030
                   333 10310 20151 59022 86360
                   555 00133 91022=
202109101200 AAXX 10124 67633 NIL=
202109100900 AAXX 10094 67633 32980 00915 10225 20090 48555 70500
                   333 10356 20205 58012
                   555 91022=
202109091200 AAXX 09124 67633 NIL=
202109061200 AAXX 06124 67633 42980 01825 10345 20062 48513
                   333 59006 91015=
202109060900 AAXX 06094 67633 42980 01005 10324 20098 48543
                   333 59004 91019=
202109060600 AAXX 06064 67633 32980 00912 10225 20090 48520
                   333 10357 20187 59011
                   555 00162 91018=
202109031200 AAXX 03124 67633 NIL=
202109021200 AAXX 02124 67633 NIL=
202109020900 AAXX 02094 67633 NIL=
202109010900 AAXX 01094 67633 42980 00815 10314 20082 48540
                   333 59005 555 91018=
202109010600 AAXX 01064 67633 32980 00905 10210 20078 48524
                   333 10350 20172 58003
                   555 00135 91019=

################################################################################
#  SYNOPS from 67641, Kaoma (Zambia) | 14-48S | 024-48E | 1213 m
################################################################################
202110011200 AAXX 01124 67641 41858 10704 10338 20146 48485 70500 81100
                   333 58004 81857 555 91013=
202110010900 AAXX 01094 67641 41958 00406 10305 20140 48516 70500
                   333 58006 91016=
202109301200 AAXX 30124 67641 41760 10802 10356 20117 48484 70510 81100
                   333 59003 81856 555 91013=
202109300900 AAXX 30094 67641 41960 00807 10324 20114 48511 70510
                   333 58008 555 91016=
202109300600 AAXX 30064 67641 31960 60000 10193 20138 48492 70522 80008
                   333 10361 20178 58003 86280 91015=
202109271200 AAXX 27124 67641 NIL=
202109270900 AAXX 27094 67641 NIL=
202109241200 AAXX 24124 67641 41970 01606 10336 20070 48521 70500
                   333 58002 91017=
202109240900 AAXX 24094 67641 41970 00903 10301 20130 48543 70500
                   333 58000 91020=
202109231200 AAXX 23124 67641 NIL=
202109230900 AAXX 23094 67641 NIL=
202109220600 AAXX 22064 67641 NIL=
202109211200 AAXX 21124 67641 NIL=
202109200900 AAXX 20094 67641 NIL=
202109171200 AAXX 17124 67641 NIL=
202109170600 AAXX 17064 67641 31960 30000 10190 20118 48495 70500 83030
                   333 10351 20170 59009 83360
                   555 00/// 91015=
202109161200 AAXX 16124 67641 NIL=
202109160900 AAXX 16094 67641 NIL=
202109160600 AAXX 16064 67641 NIL=
202109141200 AAXX 14124 67641 41770 60206 10330 20126 48501 70510 86200
                   333 59006 86856 91015=
202109140900 AAXX 14094 67641 41960 00405 10298 20132 48526 70500
                   333 59007 91018=
202109140600 AAXX 14064 67641 31960 00000 10175 20117 48513 70500
                   333 10334 20148 59011 91018=
202109131200 AAXX 13124 67641 NIL=
202109120900 AAXX 12094 67641 NIL=
202109101200 AAXX 10124 67641 NIL=
202109100900 AAXX 10094 67641 41960 01411 10277 20115 48573 70500
                   333 58022 91024=
202109091200 AAXX 09124 67641 NIL=
202109070900 AAXX 07094 67641 41103 0//// 10308 20103 48529 70500
                   333 59010 91018=
202109061200 AAXX 06124 67641 NIL=
202109060900 AAXX 06094 67641 NIL=
202109060600 AAXX 06064 67641 31960 00000 10174 20109 48522 70500
                   333 10342 20152 58000
                   555 00/// 91019=
202109031200 AAXX 03124 67641 NIL=
202109021200 AAXX 02124 67641 41660 71505 10299 20097 48510 70522 81260
                   333 58003 81840 86358 91016=
202109020900 AAXX 02094 67641 41660 10904 10293 20112 48532 70500 81100
                   333 58010 91020=
202109020600 AAXX 02064 67641 31960 00000 10159 20072 48527 70500
                   333 10340 20116 58014
                   555 00/// 91021=
202109011200 AAXX 01124 67641 41970 01406 10332 20045 48513 70500
                   333 58001 91016=
202109010900 AAXX 01094 67641 41965 01203 10304 20053 48533 70500
                   333 58002 91018=
202109010600 AAXX 01064 67641 31960 00000 10172 20080 48515 70500
                   333 10334 20114 58000
                   555 00/// 91018=

################################################################################
#  SYNOPS from 67655, Mumbwa (Zambia) | 15-04S | 027-11E | 1216 m
################################################################################
202109301200 AAXX 30124 67655 NIL=
202109300900 AAXX 30094 67655 NIL=
202109300600 AAXX 30064 67655 NIL=
202109290900 AAXX 29094 67655 41958 00610 10322 20094 48518 70500
                   333 59006 91017=
202109271200 AAXX 27124 67655 NIL=
202109270900 AAXX 27094 67655 NIL=
202109270600 AAXX 27064 67655 31980 41007 10236 20093 48528 70500 84030
                   333 10301 20182 59019 84360
                   555 00/// 91019=
202109241200 AAXX 24124 67655 NIL=
202109231200 AAXX 23124 67655 NIL=
202109230900 AAXX 23094 67655 NIL=
202109230600 AAXX 23064 67655 31980 00910 10189 20093 48551 70500
                   333 10302 20140 58013
                   555 00/// 91022=
202109220600 AAXX 22064 67655 31980 01010 10221 20088 48556 70500
                   333 10328 20161 58014 91022=
202109211200 AAXX 21124 67655 NIL=
202109200900 AAXX 20094 67655 NIL=
202109171200 AAXX 17124 67655 NIL=
202109170600 AAXX 17064 67655 NIL=
202109161200 AAXX 16124 67655 NIL=
202109160900 AAXX 16094 67655 NIL=
202109160600 AAXX 16064 67655 31958 00421 10258 20133 48526 70500
                   333 10338 20160 59007
                   555 00/// 91018=
202109150600 AAXX 15064 67655 31958 00420 10240 20136 48531 70500
                   333 10311 20150 59007
                   555 00/// 91019=
202109140900 AAXX 14094 67655 41980 09012 10251 20124 48534 70500
                   333 59016 91019=
202109140600 AAXX 14064 67655 31980 01005 10213 20131 48535 70500
                   333 10295 20167 59009
                   555 00/// 91020=
202109131200 AAXX 13124 67655 NIL=
202109120900 AAXX 12094 67655 NIL=
202109101200 AAXX 10124 67655 NIL=
202109091200 AAXX 09124 67655 NIL=
202109061200 AAXX 06124 67655 NIL=
202109060900 AAXX 06094 67655 NIL=
202109060600 AAXX 06064 67655 31958 00714 10220 20083 48541 70500
                   333 10320 20121 59006
                   555 00/// 91020=
202109040600 AAXX 04064 67655 31980 51010 10216 20142 70500 85030
                   333 10301 20161 58001 85360
                   555 00/// 91020=
202109031200 AAXX 03124 67655 41680 51006 10268 20121 48518 70500 85200
                   333 59003 85840 91017=
202109030600 AAXX 03064 67655 31980 70910 10205 20136 48540 70500 87030
                   333 10//0 20162 59007 87360
                   555 91020=
202109021200 AAXX 02124 67655 NIL=
202109020900 AAXX 02094 67655 31958 00410 10225 20095 48553 70500
                   333 10290 20068 58004
                   555 00/// 91021=
202109010900 AAXX 01094 67655 NIL=
202109010600 AAXX 01064 67655 31958 00000 10205 20078 48541 70500
                   333 10295 20070 58007
                   555 00/// 91020=

################################################################################
#  SYNOPS from 67659, Kafue Polder (Zambia) | 15-46S | 027-55E | 978 m
################################################################################
202109301200 AAXX 30124 67659 NIL=
202109300900 AAXX 30094 67659 NIL=
202109300600 AAXX 30064 67659 NIL=
202109271200 AAXX 27124 67659 NIL=
202109270900 AAXX 27094 67659 NIL=
202109241200 AAXX 24124 67659 NIL=
202109231200 AAXX 23124 67659 NIL=
202109230900 AAXX 23094 67659 NIL=
202109220600 AAXX 22064 67659 NIL=
202109211200 AAXX 21124 67659 NIL=
202109200900 AAXX 20094 67659 NIL=
202109171200 AAXX 17124 67659 NIL=
202109170600 AAXX 17064 67659 NIL=
202109161200 AAXX 16124 67659 NIL=
202109160900 AAXX 16094 67659 NIL=
202109160600 AAXX 16064 67659 NIL=
202109131200 AAXX 13124 67659 NIL=
202109120900 AAXX 12094 67659 NIL=
202109101200 AAXX 10124 67659 NIL=
202109091200 AAXX 09124 67659 NIL=
202109061200 AAXX 06124 67659 NIL=
202109060900 AAXX 06094 67659 NIL=
202109031200 AAXX 03124 67659 NIL=
202109021200 AAXX 02124 67659 NIL=
202109020900 AAXX 02094 67659 NIL=
202109010900 AAXX 01094 67659 NIL=

################################################################################
#  SYNOPS from 67662, Kabwe Agric (Zambia) | 14-24S | 028-30E | 1165 m
################################################################################
202109301200 AAXX 30124 67662 NIL=
202109300900 AAXX 30094 67662 NIL=
202109300600 AAXX 30064 67662 NIL=
202109271200 AAXX 27124 67662 NIL=
202109270900 AAXX 27094 67662 NIL=
202109241200 AAXX 24124 67662 NIL=
202109231200 AAXX 23124 67662 NIL=
202109230900 AAXX 23094 67662 NIL=
202109220600 AAXX 22064 67662 NIL=
202109211200 AAXX 21124 67662 NIL=
202109200900 AAXX 20094 67662 NIL=
202109171200 AAXX 17124 67662 NIL=
202109170600 AAXX 17064 67662 NIL=
202109161200 AAXX 16124 67662 NIL=
202109160900 AAXX 16094 67662 NIL=
202109160600 AAXX 16064 67662 NIL=
202109131200 AAXX 13124 67662 NIL=
202109120900 AAXX 12094 67662 NIL=
202109101200 AAXX 10124 67662 NIL=
202109091200 AAXX 09124 67662 NIL=
202109061200 AAXX 06124 67662 NIL=
202109060900 AAXX 06094 67662 NIL=
202109031200 AAXX 03124 67662 NIL=
202109021200 AAXX 02124 67662 NIL=
202109020900 AAXX 02094 67662 NIL=
202109010900 AAXX 01094 67662 NIL=

################################################################################
#  SYNOPS from 67663, Kabwe (Zambia) | 14-27S | 028-28E | 1206 m
################################################################################
202110010900 AAXX 01094 67663 41570 10813 10282 20155 48525 70500 81102
                   333 58012 81828 81080=
202110010600 AAXX 01064 67663 31970 10611 10228 20157 48508 70500 80002
                   333 10333 20184 58003 81080
                   555 00272=
202109301200 AAXX 30124 67663 41970 11010 10327 20136 48488 70500 81030
                   333 59018=
202109300900 AAXX 30094 67663 41970 60617 10306 20126 48525 70522 86030
                   333 58065 86360=
202109300600 AAXX 30064 67663 31970 20608 10226 20110 48505 70500 82030
                   333 10353 20201 59011 83360
                   555 00259=
202109291200 AAXX 29124 67663 41670 20810 10340 20105 48507 70500 82100
                   333 58000 82830=
202109290900 AAXX 29094 67663 41970 00907 10300 20122 48529 70500
                   333 58008=
202109290600 AAXX 29064 67663 31970 00605 10250 20111 48518 70500
                   333 10342 20180 59008
                   555 00268=
202109280600 AAXX 28064 67663 11975 50903 10237 20123 48567 69904 70522 85030
                   333 10322 20172 59013 85360
                   555 00///=
202109271200 AAXX 27124 67663 NIL=
202109270900 AAXX 27094 67663 NIL=
202109270600 AAXX 27064 67663 31975 70905 10235 20098 48576 70522 87030
                   333 10320 20188 59001 87260
                   555 00///=
202109241200 AAXX 24124 67663 NIL=
202109240600 AAXX 24064 67663 31980 00910 10190 20131 48546 70500
                   333 10300 20140 59001
                   555 00274=
202109231200 AAXX 23124 67663 NIL=
202109230900 AAXX 23094 67663 NIL=
202109230600 AAXX 23064 67663 31975 01010 10194 20113 48547 70500
                   333 10300 20146 59003
                   555 00252=
202109221200 AAXX 22124 67663 41975 00915 10283 20120 48529 70500
                   333 59001=
202109220900 AAXX 22094 67663 41975 00913 10273 20089 48557
                   333 58002=
202109220600 AAXX 22064 67663 31975 00809 10222 20076 48557 70500
                   333 10318 20169 59001
                   555 00268=
202109211200 AAXX 21124 67663 41975 00806 10040 48534 70500
                   333 59021=
202109210600 AAXX 21064 67663 31975 01707 10202 20076 48553 70500
                   333 10306 20133 59004
                   555 00282=
202109200900 AAXX 20094 67663 NIL=
202109171200 AAXX 17124 67663 NIL=
202109170600 AAXX 17064 67663 31975 00805 10238 20096 48565 70500
                   333 10344 20184 59004
                   555 00///=
202109161200 AAXX 16124 67663 NIL=
202109160900 AAXX 16094 67663 NIL=
202109160600 AAXX 16064 67663 31975 00704 10222 20104 48525 70500
                   333 10330 20169 59004
                   555 00///=
202109150600 AAXX 15064 67663 31975 00708 10222 20102 48563 70500
                   333 10320 20184 59006
                   555 00///=
202109140600 AAXX 14064 67663 31975 01005 10208 20128 48571 70500
                   333 10306 20170 59016
                   555 00///=
202109131200 AAXX 13124 67663 NIL=
202109130900 AAXX 13094 67663 31975 40904 10196 20116 48577 70500 84030
                   333 10268 20149 59018 84360
                   555 00///=
202109130600 AAXX 13064 67663 31975 40904 10196 20116 48577 70500 84030
                   333 10268 20149 59018 84300
                   555 00///=
202109120900 AAXX 12094 67663 NIL=
202109101200 AAXX 10124 67663 NIL=
202109100600 AAXX 10064 67663 31975 11017 10191 20109 48568 70500 80002
                   333 10302 20150 58019 81080
                   555 00223=
202109091200 AAXX 09124 67663 NIL=
202109061200 AAXX 06124 67663 NIL=
202109060900 AAXX 06094 67663 NIL=
202109060600 AAXX 06064 67663 31975 00517 10210 20080 48533 70500
                   333 10311 20161 59007
                   555 00258=
202109031200 AAXX 03124 67663 NIL=
202109030900 AAXX 03094 67663 41575 10615 10256 20136 48519 70500 81100
                   333 59003 81826=
202109030600 AAXX 03064 67663 31975 30613 10198 20150 48518 70500 83030
                   333 10288 20158 58005 83360
                   555 00250=
202109021200 AAXX 02124 67663 NIL=
202109020900 AAXX 02094 67663 41575 20709 1//// 20102 48521 70500 82100
                   333 59004 82825=
202109011200 AAXX 01124 67663 41975 01315 10292 20071 48515 70500
                   333 58009=
202109010900 AAXX 01094 67663 41975 00907 10262 20092 48526 70500
                   333 58008=
202109010600 AAXX 01064 67663 31975 00809 10201 20086 48513 70500
                   333 10292 20144 58004
                   555 00251=

################################################################################
#  SYNOPS from 67665, Lusaka Internationalairport (Zambia) | 15-19S | 028-27E | 1152 m
################################################################################
202110011200 AAXX 01124 67665 41659 40611 10310 20091 48504 70500 84100
                   333 59003 84840 91015=
202110010900 AAXX 01094 67665 41559 10813 10283 20110 48529 70500 81100
                   333 59005 81825 555 91018=
202110010600 AAXX 01064 67665 31959 00813 10227 20137 48539 70500
                   333 10328 20//0 58007=
202110010300 AAXX 01034 67665 41960 01303 10167 20124 48513 70500
                   333 58010=
202110010000 AAXX 01004 67665 41960 10911 10211 20128 48510 70500 81030
                   333 58005 81360=
202109302100 AAXX 30214 67665 41959 10406 10232 20093 48529 70500 81030
                   333 58020 81360=
202109301200 AAXX 30124 67665 41958 30510 10325 20075 48530 70500 84030
                   333 58007 83360=
202109300900 AAXX 30094 67665 41958 60612 10298 20098 48536 70522 86030
                   333 58009 86360 91019=
202109300600 AAXX 30064 67665 31959 81108 10232 20078 48532 70521 88030
                   333 58003 88360 91020=
202109291800 AAXX 29184 67665 42960 61303 10279 20016 48507 70222 86030
                   333 10356 59006 86030=
202109291500 AAXX 29154 67665 41960 51409 10318 20040 48496 70500 85030
                   333 59004 85360 555 10356=
202109291200 AAXX 29124 67665 41770 20805 10347 20005 48504 70500 82100
                   333 59006 82850=
202109290600 AAXX 29064 67665 31959 01206 10247 20086 48532 70500
                   333 10335 20//0 59002 91019=
202109281800 AAXX 28184 67665 41959 09901 10253 20061 48509 70500
                   333 10334 20//0 59019
                   555 91017=
202109281200 AAXX 28124 67665 41680 31005 10334 20049 48509 70500 83100
                   333 59015 83842 555 91016=
202109280900 AAXX 28094 67665 41959 10205 10297 20079 48534 70500 81030
                   333 59004 81360=
202109280300 AAXX 28034 67665 42980 09902 10197 20106 48508
                   333 59014 555 91017=
202109280000 AAXX 28004 67665 42980 21603 10202 20107 48507 82030
                   333 59014 82360 555 91017=
202109272100 AAXX 27214 67665 42970 31002 10223 20096 48524 83030
                   333 59008 83360 555 91019=
202109271200 AAXX 27124 67665 41659 00505 10298 20071 48520 70500 82100
                   333 59009 91017=
202109270900 AAXX 27094 67665 41959 00511 10281 20080 48543 70500
                   333 59014 91020=
202109270600 AAXX 27064 67665 31959 01108 10232 20078 48538 70500
                   333 10316 20//0 59016=
202109262100 AAXX 26214 67665 41970 01204 10200 20058 48529 70500
                   333 59017=
202109261800 AAXX 26184 67665 41960 21205 10234 20045 48524 70500 82030
                   333 59022 82360 555 91019=
202109261500 AAXX 26154 67665 41759 20911 10294 20030 48522 70500 82100
                   333 59015 82850 555 91018=
202109261200 AAXX 26124 67665 41659 20707 10304 20016 48529 70500 81200
                   333 59013 82835 555 91018=
202109251800 AAXX 25184 67665 42980 01203 10224 20043 48545
                   333 10303 59005=
202109251500 AAXX 25154 67665 41960 10712 10286 20030 48537 70500 81030
                   333 59004 81360=
202109251200 AAXX 25124 67665 41660 40813 10295 20010 48542 70500 84100
                   333 59005 84840=
202109250900 AAXX 25094 67665 41559 20910 10276 20056 48568 70500 82500
                   333 59004 82620 555 91023=
202109250300 AAXX 25034 67665 42980 01403 10151 20075 48542
                   333 58001=
202109242100 AAXX 24214 67665 42980 29902 10178 20087 58550
                   333 58001=
202109241200 AAXX 24124 67665 41675 51307 10295 20049 48547 70500 85200
                   333 59001 85835 91020=
202109240900 AAXX 24094 67665 42980 00811 10256 20114 48560
                   333 58002 555 91023=
202109240600 AAXX 24064 67665 32980 01007 10181 20130 48563
                   333 10278 20//0 58001=
202109240300 AAXX 24034 67665 42980 01005 10134 20124 48538 70200
                   333 59002=
202109240000 AAXX 24004 67665 42980 00000 10149 20113 48536 70200
                   333 58000=
202109232100 AAXX 23214 67665 42980 01404 10176 20106 48551
                   333 59003=
202109231200 AAXX 23124 67665 41675 10910 10265 20080 48544 70500 81100
                   333 59001 81840 91020=
202109230900 AAXX 23094 67665 41975 01113 10233 20106 48565 70500
                   333 59005 91023=
202109230600 AAXX 23064 67665 32980 00815 10184 20115 48554 70200
                   333 10296 20//0 59002
                   555 910241=
202109230000 AAXX 23004 67665 42980 00000 10149 20113 48536 70200
                   333 58000=
202109221800 AAXX 22184 67665 41970 01008 10211 20098 48548 70500
                   333 10296 58020=
202109221200 AAXX 22124 67665 41970 00813 10287 20090 48548 70500
                   333 58020=
202109220900 AAXX 22094 67665 41959 00916 10264 20078 48573 70500
                   333 58019 91024=
202109220600 AAXX 22064 67665 31959 01207 10212 20064 48567 70500
                   333 10328 20/// 58018 91024=
202109211200 AAXX 21124 67665 41975 01007 10328 21005 48533 70500
                   333 59007 91018=
202109210900 AAXX 21094 67665 41975 00807 10270 21034 48555 70500
                   333 58000=
202109210600 AAXX 21064 67665 31959 01007 10207 20015 48550 70500
                   333 10320 20//0 59005
                   555 00/// 91022=
202109210300 AAXX 21034 67665 42980 01303 10136 20032 48519
                   333 59014 555 91019=
202109210000 AAXX 21004 67665 42970 01405 10162 21001 48520
                   333 59018 555 91019=
202109202100 AAXX 20214 67665 41960 09902 10177 20036 48535 70500
                   333 59022 555 91021=
202109201200 AAXX 20124 67665 41959 00809 10298 20040 48536 70500
                   333 59015 91019=
202109200900 AAXX 20094 67665 41980 00807 10263 20102 48554 70500
                   333 59021 91022=
202109200600 AAXX 20064 67665 31959 01206 10171 20121 48550 70500
                   333 10294 20//0 59018=
202109192100 AAXX 19214 67665 41960 01603 10164 20117 48554 70500
                   333 58000=
202109191800 AAXX 19184 67665 41959 01106 10211 20119 48551 70500
                   333 58003 555 10294 91022=
202109191500 AAXX 19154 67665 41959 00810 10275 20075 48536 70500
                   333 59002 555 91019=
202109191200 AAXX 19124 67665 41957 00709 10269 20111 48547 70500
                   333 58005 555 91021=
202109181800 AAXX 18184 67665 41965 01110 10210 20136 48548 70500
                   333 10281 58045=
202109181500 AAXX 18154 67665 41958 00915 10257 20115 48535 70500
                   333 58025=
202109181200 AAXX 18124 67665 41657 41015 10275 20130 48541 70500 84100
                   333 58040 84840=
202109180900 AAXX 18094 67665 41557 40716 10254 20143 48563 70520 84500
                   333 58039 84620 555 91023=
202109171200 AAXX 17124 67665 41958 01207 10336 20034 48511 70500
                   333 59004 91016=
202109170900 AAXX 17094 67665 41957 00610 10306 20055 48532 70500
                   333 59008=
202109170600 AAXX 17064 67665 31956 01106 10242 20069 48535 70500
                   333 10339 20//0 59011
                   555 00/// 91019=
202109170300 AAXX 17034 67665 41959 01603 10157 20071 48497 70500
                   333 59012=
202109162100 AAXX 16214 67665 41959 01402 10191 20044 48515 70500
                   333 58001=
202109161200 AAXX 16124 67665 41959 01208 10333 20045 48515 70500
                   333 59005 91016=
202109160900 AAXX 16094 67665 41959 00507 10295 20064 48539 70500
                   333 59003 91019=
202109160600 AAXX 16064 67665 31959 01303 10225 20083 48525 70500
                   333 10336 20//0 59009 91020=
202109151800 AAXX 15184 67665 41975 01403 10240 20054 48515 70500
                   333 10336 59014=
202109151500 AAXX 15154 67665 41975 00807 10322 20040 48505 70500
                   333 59016 555 10336=
202109151200 AAXX 15124 67665 41975 00809 10314 20041 48516 70500
                   333 59005=
202109150600 AAXX 15064 67665 32980 01304 10221 20083 48543
                   333 10306 20/// 59003 91021=
202109141200 AAXX 14124 67665 41975 09906 10305 20083 48521 70500
                   333 59013 91017=
202109140900 AAXX 14094 67665 41975 00610 10275 20070 48553 70500
                   333 59002=
202109140600 AAXX 14064 67665 31970 01106 10205 20089 48544 70500
                   333 10297 20/// 59009
                   555 00/// 91021=
202109140300 AAXX 14034 67665 42980 01404 10161 20091 48521
                   333 59002 555 91019=
202109140000 AAXX 14004 67665 42980 01303 10165 20086 48523
                   333 59012 555 91019=
202109132100 AAXX 13214 67665 42980 01404 10189 20086 48535
                   333 59017 555 91020=
202109131200 AAXX 13124 67665 NIL=
202109130900 AAXX 13094 67665 41975 40609 10255 20091 48552 70522 84030
                   333 59040 84360=
202109130600 AAXX 13064 67665 32980 61208 10189 20096 48550 86030
                   333 10262 20//0 59036 86360=
202109122100 AAXX 12214 67665 42980 51403 10165 20081 48549 85030
                   333 59032 85360=
202109121800 AAXX 12184 67665 42970 31106 10203 20086 48549 82032
                   333 59028 82360 83080
                   555 91022=
202109121500 AAXX 12154 67665 41760 31007 10253 20047 48547 70500 81102
                   333 59024 81850 83080
                   555 91021=
202109121200 AAXX 12124 67665 41659 40609 10246 20050 48555 70500 82102
                   333 59023 82835 84080
                   555 91022=
202109120900 AAXX 12094 67665 41959 51109 10214 20091 48584 70522 83038
                   333 58021 83360 85280 91026=
202109120600 AAXX 12064 67665 31975 71011 10158 20085 48580 70521 84038
                   333 10250 20//0 59016 84360 86280
                   555 00/// 91026=
202109111800 AAXX 11184 67665 42980 01206 10171 20055 48571
                   333 10250 59011=
202109111500 AAXX 11154 67665 42680 11008 10237 20033 48568 81500
                   333 59018 81645=
202109111200 AAXX 11124 67665 42680 50813 10237 20033 48577 85500
                   333 59008 85635=
202109110900 AAXX 11094 67665 42560 70812 10198 20090 48603 87500
                   333 58004 87620 555 91028=
202109102100 AAXX 10214 67665 42980 01009 10178 20108 48588 70200
                   333 59017=
202109101200 AAXX 10124 67665 NIL=
202109100900 AAXX 10094 67665 41665 11019 10235 20085 48605 70500 81100
                   333 58027 81830 555 91028=
202109100600 AAXX 10064 67665 31965 00915 10192 20104 48593 70500
                   333 10291 20//0 58022=
202109100300 AAXX 10034 67665 41975 01006 10151 20086 48572 70500
                   333 58030=
202109100000 AAXX 10004 67665 41970 01105 10170 20075 48571 70500
                   333 58028=
202109092100 AAXX 09214 67665 41980 01107 10184 20056 48572 70500
                   333 58030=
202109091200 AAXX 09124 67665 41958 00917 10288 20054 48560 70500
                   333 58019 91022=
202109090900 AAXX 09094 67665 14957 00612 10256 20079 48583 70500
                   333 58020 91025=
202109090600 AAXX 09064 67665 31970 00908 10194 20086 48572 70500
                   333 10309 20//0 58016 91025=
202109090000 AAXX 09004 67665 41970 01105 10170 20075 48571 70500
                   333 58028=
202109081800 AAXX 08184 67665 41970 01106 10211 20050 48538 70500
                   333 10316 5////=
202109081500 AAXX 08154 67665 41970 01110 10293 20010 48532 70500
                   333 58014 555 10316=
202109081200 AAXX 08124 67665 41970 01014 10289 20024 48542 70500
                   333 58007=
202109071500 AAXX 07154 67665 41970 00811 10290 20021 48518 70500
                   333 59012=
202109071200 AAXX 07124 67665 41980 00907 10298 20040 48525 70500
                   333 59015 555 91018=
202109070900 AAXX 07094 67665 41970 00308 10275 20055 48553 70500
                   333 59004=
202109070600 AAXX 07064 67665 31970 01303 10196 20065 48542 70500
                   333 10312 20//0 59003
                   555 00/// 91021=
202109070300 AAXX 07034 67665 42980 01403 10155 20058 48522
                   333 59005 555 91019=
202109070000 AAXX 07004 67665 42980 01803 10149 20061 48522
                   333 59002 555 91020=
202109062100 AAXX 06214 67665 42980 01303 10155 20056 48535
                   333 58001 555 91021=
202109061200 AAXX 06124 67665 NIL=
202109060900 AAXX 06094 67665 NIL=
202109060600 AAXX 06064 67665 31959 01205 10207 20079 48546 70500
                   333 10312 20/// 59007=
202109051800 AAXX 05184 67665 42970 01205 10227 20045 48539
                   333 58005 555 91020=
202109051500 AAXX 05154 67665 41759 11210 10294 20033 48530 70500 81100
                   333 58008 81850 555 91018=
202109051200 AAXX 05124 67665 41659 20712 10304 20040 48538 70500 82100
                   333 58005 82835 555 91019=
202109041800 AAXX 04184 67665 42980 11205 10085 48533 81030
                   333 10300 59003 81360=
202109041500 AAXX 04154 67665 42680 21112 10285 20062 48524 82200
                   333 59007 82848=
202109041200 AAXX 04124 67665 42680 51009 10290 20096 48532 85200
                   333 58000 85845=
202109040900 AAXX 04094 67665 42680 30713 10265 20105 46561 83100
                   333 59004 83835=
202109040600 AAXX 04064 67665 32980 11006 10201 20135 48550 70200 81030
                   333 10297 20//0 59001 81360
                   555 00/// 91022=
202109031200 AAXX 03124 67665 NIL=
202109030900 AAXX 03094 67665 42580 60711 10250 20117 48558 84230
                   333 59005 84822 86360
                   555 91022=
202109030600 AAXX 03064 67665 32980 71010 10195 20147 48551 87030
                   333 10292 20//0 58000 87360=
202109030300 AAXX 03034 67665 42980 61012 10191 20134 48530 86030
                   333 59014 86360=
202109022100 AAXX 02214 67665 41970 11204 10187 20126 48543 70500 81030
                   333 58000 81360=
202109021200 AAXX 02124 67665 41759 50513 10292 20099 48541 70522 85500
                   333 58010 85650 91020=
202109020900 AAXX 02094 67665 NIL=
202109020600 AAXX 02064 67665 31970 01010 10209 20110 48552 70500
                   333 10300 20/// 58000=
202109011800 AAXX 01184 67665 41970 01205 10220 20050 48534 70500
                   333 10311 59006=
202109011500 AAXX 01154 67665 41970 01014 10289 20011 48525 70500
                   333 59003 555 10311=
202109011200 AAXX 01124 67665 41670 11213 10301 20017 48532 70500 81100
                   333 59002 81845=
202109010900 AAXX 01094 67665 41959 00807 10264 20036 48556 70500
                   333 59002 91022=
202109010600 AAXX 01064 67665 31959 01503 10195 20053 48551 70500
                   333 10294 20//0 58003 91022=

################################################################################
#  SYNOPS from 67666, Lusaka City Airport (Zambia) | 15-25-00S | 028-28-00E | 1280 m
################################################################################
202110010900 AAXX 01094 67666 41778 11013 10270 20140 48525 70522 81100
                   333 59003 81850 91018=
202109301200 AAXX 30124 67666 41975 60908 10315 20085 48505 70522 81137
                   333 58012 81850 83360 85280 91016=
202109300900 AAXX 30094 67666 41975 70916 10280 20091 48528 70522 8703/
                   333 58009 87360 91019=
202109300600 AAXX 30064 67666 31975 70912 10240 20080 48525 70500 87360
                   333 10338 20218 58003 87360 91019=
202109290900 AAXX 29094 67666 41970 00907 10306 20100 48525 70500
                   333 59005 91018=
202109290600 AAXX 29064 67666 31965 01008 10251 20088 48523 70500
                   333 10328 20191 59005
                   555 00/// 91018=
202109271200 AAXX 27124 67666 41675 60903 10300 20084 48511 70522 83136
                   333 59012 83130 82360 86280 91016=
202109270900 AAXX 27094 67666 41975 60909 10280 20092 48533 70521 83036
                   333 59014 83360 86280 91019=
202109241200 AAXX 24124 67666 NIL=
202109231200 AAXX 23124 67666 NIL=
202109230900 AAXX 23094 67666 42980 01110 10230 20111 48556
                   333 59012 91023=
202109230600 AAXX 23064 67666 32480 10912 10170 20109 48553 81500
                   333 10290 20155 59001 81610
                   555 00/// 91023=
202109221200 AAXX 22124 67666 42980 01418 10280 20090 48539
                   333 58018 91020=
202109220600 AAXX 22064 67666 31978 01113 10210 20060 48558 70522
                   333 10320 20190 58013
                   555 00/// 91023=
202109211200 AAXX 21124 67666 42980 01012 10310 20035 48525
                   333 59001 91018=
202109200900 AAXX 20094 67666 NIL=
202109171200 AAXX 17124 67666 NIL=
202109170600 AAXX 17064 67666 31975 01008 10242 20102 48519 70522
                   333 10332 20192 59013
                   555 91018=
202109161200 AAXX 16124 67666 NIL=
202109160900 AAXX 16094 67666 NIL=
202109160600 AAXX 16064 67666 31975 00810 10238 20092 48532 70522
                   333 10329 20162 59003
                   555 91020=
202109150600 AAXX 15064 67666 31975 00908 10229 20095 48532 70522
                   333 10310 20199 59006
                   555 00/// 91020=
202109141200 AAXX 14124 67666 42980 11113 10298 20104 48515 81030
                   333 59007 81360 91017=
202109140900 AAXX 14094 67666 42980 00912 10270 20104 48540
                   333 59005 91020=
202109140600 AAXX 14064 67666 31978 00913 10210 20105 48588 70522
                   333 10285 20180 59008
                   555 00/// 91021=
202109131200 AAXX 13124 67666 42680 40701 10280 20115 48521 82130
                   333 59029 82850 84360 91018=
202109130900 AAXX 13094 67666 41978 20909 10245 20121 48543 82030
                   333 59033 82360 91021=
202109120900 AAXX 12094 67666 42680 61010 10218 20105 48573 81138
                   333 59031 81830 83360 86280 91025=
202109120600 AAXX 12064 67666 31975 71012 10165 20104 48574 70500 85038
                   333 10250 20140 59021 85359 87280
                   555 00/// 91026=
202109101200 AAXX 10124 67666 NIL=
202109091200 AAXX 09124 67666 NIL=
202109061200 AAXX 06124 67666 NIL=
202109060900 AAXX 06094 67666 NIL=
202109060600 AAXX 06064 67666 31978 00908 10205 20061 48540 70522
                   333 10300 20179 59008
                   555 00/// 91021=
202109040600 AAXX 04064 67666 31978 21012 10200 20132 48543 82030
                   333 10290 20172 58002 82360 91021=
202109031200 AAXX 03124 67666 42580 61114 10269 20100 48523 84230
                   333 59006 84840 82360 91018=
202109030900 AAXX 03094 67666 42580 71315 10232 20130 48539 83230
                   333 59007 83828 84360 91022=
202109021200 AAXX 02124 67666 42780 61012 10263 20105 48528 86200
                   333 58010 86852 91019=
202109020900 AAXX 02094 67666 42680 50812 10250 20115 48526 85200
                   333 58011 85845 91022=
202109010900 AAXX 01094 67666 42980 00909 10240 20050 48532
                   333 58006 91021=

################################################################################
#  SYNOPS from 67667, Mount Makulu (Zambia) | 15-33S | 028-15E | 1213 m
################################################################################
202109301200 AAXX 30124 67667 NIL=
202109300900 AAXX 30094 67667 NIL=
202109300600 AAXX 30064 67667 31970 51204 10248 20122 48580 70500 85030
                   333 10353 20186 58002 85360=
202109290600 AAXX 29064 67667 31970 00902 10268 20126 48578 70500
                   333 10345 20198 58001
                   555 00///=
202109271200 AAXX 27124 67667 NIL=
202109270900 AAXX 27094 67667 NIL=
202109241200 AAXX 24124 67667 NIL=
202109231200 AAXX 23124 67667 NIL=
202109230900 AAXX 23094 67667 NIL=
202109220600 AAXX 22064 67667 31970 00904 10221 20102 48614 70500
                   333 10324 20180 58013
                   555 00///=
202109211200 AAXX 21124 67667 NIL=
202109200900 AAXX 20094 67667 NIL=
202109171200 AAXX 17124 67667 NIL=
202109170600 AAXX 17064 67667 31970 01208 10260 20099 48575 70500
                   333 10326 20170 5////
                   555 00///=
202109161200 AAXX 16124 67667 NIL=
202109160900 AAXX 16094 67667 NIL=
202109160600 AAXX 16064 67667 NIL=
202109150600 AAXX 15064 67667 31970 00904 10240 20112 48588 70500
                   333 10312 20154 58001
                   555 00///=
202109140600 AAXX 14064 67667 31970 00904 10226 20121 48585 70500
                   333 10308 20178 58014
                   555 00///=
202109131200 AAXX 13124 67667 NIL=
202109130600 AAXX 13064 67667 31970 40901 10190 20124 48599 70500 84030
                   333 10300 20128 5//// 84360
                   555 00///=
202109120900 AAXX 12094 67667 NIL=
202109101200 AAXX 10124 67667 NIL=
202109091200 AAXX 09124 67667 NIL=
202109061200 AAXX 06124 67667 NIL=
202109060900 AAXX 06094 67667 NIL=
202109031200 AAXX 03124 67667 NIL=
202109021200 AAXX 02124 67667 NIL=
202109020900 AAXX 02094 67667 NIL=
202109010900 AAXX 01094 67667 NIL=
202109010600 AAXX 01064 67667 31970 00906 10208 20132 48596 70500
                   333 10312 20110 58010
                   555 00///=

################################################################################
#  SYNOPS from 67673, Petauke (Zambia) | 14-15S | 031-17E | 1035 m
################################################################################
202110010900 AAXX 01094 67673 41975 00903 10290 20150 48/// 70500 84100
                   333 5//// 84836=
202110010600 AAXX 01064 67673 31975 0//// 10250 20160 48/// 70500
                   333 10350 2//// 5////=
202109301200 AAXX 30124 67673 NIL=
202109300900 AAXX 30094 67673 NIL=
202109300600 AAXX 30064 67673 31970 01202 10268 20135 48/// 70500
                   333 10364 2//// 5////=
202109290600 AAXX 29064 67673 31970 01802 10252 20121 48/// 70500
                   333 10340 20//0 5////
                   555 00///=
202109281200 AAXX 28124 67673 41670 63601 10330 20175 48/// 70522 81130
                   333 5//// 81838 86360=
202109271200 AAXX 27124 67673 NIL=
202109270900 AAXX 27094 67673 41970 10294 10110 48/// 70500
                   333 5////=
202109270600 AAXX 27064 67673 31975 10250 10100 48/// 70500
                   333 10320 20//0 5////
                   555 00///=
202109241200 AAXX 24124 67673 NIL=
202109240900 AAXX 24094 67673 41670 12701 10267 20130 48/// 70500 81100
                   333 5//// 81835=
202109231200 AAXX 23124 67673 41970 63601 10260 20135 48/// 70500 86030
                   333 5//// 86360=
202109230900 AAXX 23094 67673 NIL=
202109230600 AAXX 23064 67673 31970 10802 10198 20138 48/// 70500 81030
                   333 10288 2//// 5//// 81360
                   555 00///=
202109220600 AAXX 22064 67673 31960 00807 10216 20112 48/// 70500
                   333 10344 2//// 5////
                   555 00///=
202109211200 AAXX 21124 67673 41975 01001 10330 20070 48///
                   333 5////=
202109210600 AAXX 21064 67673 31975 00902 10236 20090 48/// 70500
                   333 10312 20/// 5////
                   555 00///=
202109200900 AAXX 20094 67673 NIL=
202109171200 AAXX 17124 67673 NIL=
202109170600 AAXX 17064 67673 31970 01802 10250 20139 48611 70500
                   333 10341 20//0 5////
                   555 00///=
202109161200 AAXX 16124 67673 41970 01203 10334 20101 48/// 70500
                   333 5////=
202109160900 AAXX 16094 67673 41965 01301 10298 20105 48/// 70500
                   333 5////=
202109160600 AAXX 16064 67673 31960 03001 10241 20108 48/// 70500
                   333 10334 20//0 5////
                   555 00///=
202109151200 AAXX 15124 67673 41975 00501 10324 20090 48///
                   333 5////=
202109150900 AAXX 15094 67673 41975 00903 10294 20090 48/// 70500
                   333 5////=
202109140600 AAXX 14064 67673 31970 03602 10238 20128 48/// 70500
                   333 10313 20//0 555 00///=
202109131200 AAXX 13124 67673 NIL=
202109130900 AAXX 13094 67673 41675 43603 10270 20100 48/// 70500 84101
                   333 5//// 84835 83080=
202109120900 AAXX 12094 67673 NIL=
202109120600 AAXX 12064 67673 31970 71802 10198 20118 48/// 70522 83035
                   333 10270 20//0 5//// 83360 85280=
202109101200 AAXX 10124 67673 NIL=
202109100900 AAXX 10094 67673 41270 11705 10235 20131 48/// 70500 80001
                   333 5//// 81080=
202109091200 AAXX 09124 67673 NIL=
202109070600 AAXX 07064 67673 31975 00502 10244 20110 48/// 70500
                   333 10310 2//// 5////=
202109061200 AAXX 06124 67673 NIL=
202109060900 AAXX 06094 67673 NIL=
202109031200 AAXX 03124 67673 NIL=
202109021200 AAXX 02124 67673 NIL=
202109020900 AAXX 02094 67673 41675 23905 10270 20144 48/// 70500 83100
                   333 5//// 83835=
202109020600 AAXX 02064 67673 31575 10902 10220 20155 48/// 70500 81100
                   333 10314 2//// 5//// 81828=
202109011200 AAXX 01124 67673 41675 40903 10294 20090 48/// 70500
                   333 5//// 84835=
202109010900 AAXX 01094 67673 41675 21002 10294 20090 48/// 70500 82100
                   333 5//// 82835=
202109010600 AAXX 01064 67673 31975 00502 10230 20110 48/// 70500
                   333 10310 2//// 5////=

################################################################################
#  SYNOPS from 67731, Senanga (Zambia) | 16-06S | 023-16E | 1027 m
################################################################################
202110011200 AAXX 01124 67731 41678 409// 10346 20145 48/// 70500 84100
                   333 5//// 84840=
202110010600 AAXX 01064 67731 31970 018// 10227 20103 48/// 70500
                   333 10385 20192 5////
                   555 00061=
202109301200 AAXX 30124 67731 NIL=
202109300900 AAXX 30094 67731 41975 028// 10344 20109 48/// 70500
                   333 5////=
202109300600 AAXX 30064 67731 31975 018// 10258 20128 48/// 70500
                   333 10381 20195 5////
                   555 00034=
202109291200 AAXX 29124 67731 41675 410// 10358 20121 48/// 70522 84100
                   333 5//// 84840=
202109290900 AAXX 29094 67731 41575 135// 10339 20076 48/// 70500 81100
                   333 5//// 81829=
202109290600 AAXX 29064 67731 31970 010// 10223 20087 48/// 70500
                   333 10370 20165 5////
                   555 00053=
202109280600 AAXX 28064 67731 31975 021// 10221 20142 48/// 70500
                   333 10381 20169 5////
                   555 00058=
202109271200 AAXX 27124 67731 42680 409// 10369 20123 48/// 84100
                   333 5//// 84840=
202109270900 AAXX 27094 67731 41975 028// 10300 20112 48/// 70500
                   333 5////=
202109241200 AAXX 24124 67731 42980 010// 10350 20082 48///
                   333 5////=
202109240900 AAXX 24094 67731 42980 003// 10322 20118 48///
                   333 5////=
202109231200 AAXX 23124 67731 41978 012// 10349 20113 48/// 70500
                   333 5////=
202109230900 AAXX 23094 67731 41975 009// 10291 20069 48/// 70500
                   333 5////=
202109230600 AAXX 23064 67731 31970 009// 10230 20066 48/// 70500
                   333 10372 20162 5////
                   555 00042=
202109221200 AAXX 22124 67731 42980 009// 10363 20074 48///
                   333 5////=
202109220900 AAXX 22094 67731 41975 008// 10327 20065 48/// 70500
                   333 5////=
202109220600 AAXX 22064 67731 31975 007// 10238 20059 48/// 70500
                   333 10377 20166 5////
                   555 00036=
202109211200 AAXX 21124 67731 42980 009// 10364 20092 48///
                   333 5////=
202109201200 AAXX 20124 67731 41975 023// 10360 20092 48/// 70500
                   333 5////=
202109200900 AAXX 20094 67731 42980 027// 10330 20086 48///
                   333 5////=
202109171200 AAXX 17124 67731 41975 033// 10354 20121 48/// 70500
                   333 5////=
202109170600 AAXX 17064 67731 31975 012// 10226 20100 48/// 70500
                   333 10370 20167 5////
                   555 00056=
202109161200 AAXX 16124 67731 41575 127// 10367 20121 48/// 70500 81100
                   333 5//// 81825=
202109160900 AAXX 16094 67731 NIL=
202109160600 AAXX 16064 67731 31975 010// 10213 20099 48/// 70500
                   333 10367 20171 5////
                   555 00052=
202109150900 AAXX 15094 67731 41978 009// 10324 20112 48/// 70500
                   333 5////=
202109150600 AAXX 15064 67731 31975 031// 10233 20106 48/// 70500
                   333 10352 20156 555 00050=
202109140900 AAXX 14094 67731 42980 027// 10323 20120 48///
                   333 5////=
202109140600 AAXX 14064 67731 31975 027// 10222 20105 48/// 70500
                   333 10334 20152 5////
                   555 00048=
202109131200 AAXX 13124 67731 NIL=
202109130900 AAXX 13094 67731 41975 418// 10267 20117 48/// 70500 84030
                   333 5//// 84362=
202109130600 AAXX 13064 67731 31975 403// 10211 20093 48/// 70500 84030
                   333 10305 20150 5//// 84360
                   555 00053=
202109120900 AAXX 12094 67731 NIL=
202109120600 AAXX 12064 67731 32980 001// 10204 20096 48///
                   333 10311 20149 5////
                   555 00055=
202109101200 AAXX 10124 67731 NIL=
202109091200 AAXX 09124 67731 41978 009// 10357 20107 48/// 70500
                   333 5////=
202109090900 AAXX 09094 67731 41975 001// 10309 20096 48/// 70500
                   333 5////=
202109070900 AAXX 07094 67731 41975 002// 10301 20102 48/// 70500
                   333 5////=
202109070600 AAXX 07064 67731 31970 009// 10231 20076 48/// 70500
                   333 10360 20171 5////
                   555 00051=
202109061200 AAXX 06124 67731 NIL=
202109060900 AAXX 06094 67731 42980 009// 10332 20094 48///
                   333 5////=
202109060600 AAXX 06064 67731 32980 010// 10250 20076 48///
                   333 10356 20175 5////
                   555 00042=
202109040600 AAXX 04064 67731 32980 011// 10231 20124 48///
                   333 10339 20187 5////
                   555 00051=
202109031200 AAXX 03124 67731 42680 421// 10320 20106 48/// 70322 84102
                   333 5//// 84835 82080=
202109030600 AAXX 03064 67731 31975 017// 10220 20075 48/// 70500
                   333 10337 20158 5////
                   555 00054=
202109021200 AAXX 02124 67731 42578 111// 10323 20061 48/// 70500 81100
                   333 5//// 81827=
202109020900 AAXX 02094 67731 42980 010// 10312 20048 48///
                   333 5////=
202109011200 AAXX 01124 67731 42980 014// 10300 20107 48///
                   333 5////=
202109010900 AAXX 01094 67731 42975 028// 10271 20081 48/// 70500
                   333 5////=
202109010600 AAXX 01064 67731 31975 017// 10219 20082 48/// 70500
                   333 10349 20171 5////
                   555 00061=

################################################################################
#  SYNOPS from 67741, Sesheke (Zambia) | 17-28S | 024-18E | 949 m
################################################################################
202109301200 AAXX 30124 67741 NIL=
202109300900 AAXX 30094 67741 NIL=
202109300600 AAXX 30064 67741 NIL=
202109271200 AAXX 27124 67741 NIL=
202109270900 AAXX 27094 67741 NIL=
202109241200 AAXX 24124 67741 NIL=
202109231200 AAXX 23124 67741 NIL=
202109230900 AAXX 23094 67741 NIL=
202109220600 AAXX 22064 67741 NIL=
202109211200 AAXX 21124 67741 NIL=
202109200900 AAXX 20094 67741 NIL=
202109171200 AAXX 17124 67741 NIL=
202109170600 AAXX 17064 67741 NIL=
202109161200 AAXX 16124 67741 NIL=
202109160900 AAXX 16094 67741 NIL=
202109160600 AAXX 16064 67741 NIL=
202109131200 AAXX 13124 67741 NIL=
202109120900 AAXX 12094 67741 NIL=
202109101200 AAXX 10124 67741 NIL=
202109091200 AAXX 09124 67741 NIL=
202109061200 AAXX 06124 67741 NIL=
202109060900 AAXX 06094 67741 NIL=
202109031200 AAXX 03124 67741 NIL=
202109021200 AAXX 02124 67741 NIL=
202109020900 AAXX 02094 67741 NIL=
202109010900 AAXX 01094 67741 NIL=

################################################################################
#  SYNOPS from 67743, Livingstone (Zambia) | 17-49S | 025-49E | 985 m
################################################################################
202110011200 AAXX 01124 67743 41775 10510 10355 20115 48490 70500 81100
                   333 59004 81856 91012=
202110010900 AAXX 01094 67743 41975 10112 10325 20126 48516 70500 81030
                   333 59004 81360 91015=
202110010600 AAXX 01064 67743 31975 00613 10255 20134 48508 70500
                   333 10376 20210 58000
                   555 00/// 91017=
202109301200 AAXX 30124 67743 NIL=
202109300900 AAXX 30094 67743 NIL=
202109300600 AAXX 30064 67743 31975 01006 10261 20065 48515 70500
                   333 10372 20194 58006 91017=
202109290600 AAXX 29064 67743 31959 03207 10252 20065 48503 70500
                   333 10366 20177 59007 91016=
202109271200 AAXX 27124 67743 NIL=
202109270900 AAXX 27094 67743 41875 22705 10305 20119 48529 70500 82100
                   333 59024 91017=
202109270600 AAXX 27064 67743 31975 01204 10230 20075 48523 70500
                   333 10349 20155 59022
                   555 00/// 91018=
202109241200 AAXX 24124 67743 NIL=
202109240600 AAXX 24064 67743 31975 01107 10214 20110 48554 70500
                   333 10330 20153 58000
                   555 00/// 91022=
202109231200 AAXX 23124 67743 NIL=
202109230900 AAXX 23094 67743 NIL=
202109230600 AAXX 23064 67743 31975 01011 10207 20121 48556 70500
                   333 10360 20169 58000
                   555 00/// 91022=
202109221200 AAXX 22124 67743 41960 00813 10335 20080 48540 70500
                   333 58013 91018=
202109220900 AAXX 22094 67743 41960 00805 10298 20083 48566 70500
                   333 58011 91021=
202109220600 AAXX 22064 67743 NIL=
202109211200 AAXX 21124 67743 41975 02602 10345 20099 48531 70500
                   333 58002 91016=
202109200900 AAXX 20094 67743 41975 01706 10270 20112 48539 70500
                   333 59018 555 91019=
202109200600 AAXX 20064 67743 31975 01304 10201 20116 48535 70500
                   333 10349 20139 59020
                   555 00/// 91020=
202109171200 AAXX 17124 67743 NIL=
202109170900 AAXX 17094 67743 41975 01604 10323 20064 48530 70500
                   333 58006 91017=
202109170600 AAXX 17064 67743 31975 01201 10251 20076 48522 70500
                   333 10373 20171 58001
                   555 00/// 91017=
202109161200 AAXX 16124 67743 NIL=
202109160900 AAXX 16094 67743 NIL=
202109160600 AAXX 16064 67743 NIL=
202109140600 AAXX 14064 67743 31958 01004 10212 20070 48531
                   333 10319 20142 59011 91019=
202109131200 AAXX 13124 67743 42980 53009 10303 20054 48521 70222 86030
                   333 59030 86360 91016=
202109130900 AAXX 13094 67743 42980 40514 10284 20078 48543 70222 84030
                   333 84360 555 91019=
202109130600 AAXX 13064 67743 32980 61306 10192 20075 48536 70222 82130
                   333 10305 20142 58044 82850 84360
                   555 91020=
202109120900 AAXX 12094 67743 42980 10215 10255 20065 48580 70300 81030
                   333 59020 81360 91024=
202109120600 AAXX 12064 67743 32980 00907 10185 20096 48575
                   333 10305 20130 59018
                   555 00/// 91025=
202109101200 AAXX 10124 67743 NIL=
202109091200 AAXX 09124 67743 NIL=
202109070600 AAXX 07064 67743 31975 01005 10206 20084 48530 70500
                   333 10350 20159 59006
                   555 00/// 91019=
202109061200 AAXX 06124 67743 NIL=
202109060900 AAXX 06094 67743 NIL=
202109060600 AAXX 06064 67743 31975 00706 10250 20074 48543 70500
                   333 10345 20155 59005
                   555 00/// 91020=
202109031200 AAXX 03124 67743 NIL=
202109021200 AAXX 02124 67743 NIL=
202109020900 AAXX 02094 67743 NIL=
202109020600 AAXX 02064 67743 31970 01106 10240 20080 48551 70500
                   333 10339 20160 58006
                   555 00/// 91021=
202109010900 AAXX 01094 67743 NIL=
202109010600 AAXX 01064 67743 31959 00806 10209 20076 48539 70500
                   333 10331 20125 58003
                   555 00/// 91020=

################################################################################
#  SYNOPS from 67751, Magoye (Zambia) | 16-00S | 027-36E | 1018 m
################################################################################
202109301200 AAXX 30124 67751 NIL=
202109300900 AAXX 30094 67751 41975 10315 10309 20122 48/// 70500 81030
                   333 5//// 81360=
202109300600 AAXX 30064 67751 31975 00803 10275 20104 48/// 70500
                   333 1//// 20175 5////=
202109291200 AAXX 29124 67751 41975 70105 10333 20108 48/// 70522 82260
                   333 5//// 82850 86360=
202109290900 AAXX 29094 67751 41975 00408 10331 20107 48/// 70500
                   333 5////=
202109290600 AAXX 29064 67751 31975 00000 10231 20112 48/// 70500
                   333 10//0 20154 5////
                   555 00///=
202109281200 AAXX 28124 67751 41975 33004 10340 20098 70500 83200
                   333 83858=
202109271200 AAXX 27124 67751 NIL=
202109270900 AAXX 27094 67751 NIL=
202109241200 AAXX 24124 67751 41875 40902 10304 20103 48/// 70522 81260
                   333 5//// 81857 83360=
202109240900 AAXX 24094 67751 41875 10807 10276 20100 48/// 81100
                   333 5//// 81857=
202109231200 AAXX 23124 67751 NIL=
202109230900 AAXX 23094 67751 41975 03605 10300 20080 48/// 70500
                   333 5////=
202109221200 AAXX 22124 67751 41975 00908 10309 20120 48///
                   333 5////=
202109220900 AAXX 22094 67751 41975 00710 10281 20082 70500
                   333 5////=
202109220600 AAXX 22064 67751 31975 01007 10241 20084 48/// 70500
                   333 10/// 20155 5////
                   555 00///=
202109211200 AAXX 21124 67751 41975 01803 10339 20070 48/// 70500
                   333 5////=
202109201200 AAXX 20124 67751 41975 03605 10330 20113 48/// 70500
                   333 5////=
202109200900 AAXX 20094 67751 NIL=
202109171200 AAXX 17124 67751 41980 11704 10361 20081 48/// 70500 81030
                   333 5//// 81360=
202109170600 AAXX 17064 67751 31975 00000 10241 20086 48/// 70500
                   333 10//0 20140 5////
                   555 00///=
202109161200 AAXX 16124 67751 41975 02704 10348 20090 48/// 70500
                   333 5////=
202109160900 AAXX 16094 67751 41976 00412 10321 20060 48/// 70500
                   333 5////=
202109160600 AAXX 16064 67751 31976 00000 10246 20104 70500
                   333 10//0 20147 5////
                   555 00///=
202109150900 AAXX 15094 67751 41975 00211 10311 20070 70500
                   333 5////=
202109150600 AAXX 15064 67751 31975 00000 10238 20097 48/// 70500
                   333 10/// 20153 5////
                   555 00///=
202109141200 AAXX 14124 67751 41975 10003 10330 20108 70500 81100
                   333 81858=
202109140900 AAXX 14094 67751 41975 00305 10294 20100 48/// 70500
                   333 5////=
202109140600 AAXX 14064 67751 31975 00807 10237 20107 48/// 70500
                   333 10//0 20140 5////
                   555 00///=
202109131200 AAXX 13124 67751 41975 13302 10300 20015 70500 81030
                   333 5//// 81360=
202109120900 AAXX 12094 67751 NIL=
202109101200 AAXX 10124 67751 NIL=
202109091200 AAXX 09124 67751 NIL=
202109090900 AAXX 09094 67751 41975 00812 10287 20113 48/// 70500
                   333 5////=
202109070900 AAXX 07094 67751 41978 00507 10286 20090 70500
                   333 5////=
202109061200 AAXX 06124 67751 NIL=
202109060900 AAXX 06094 67751 41978 01306 10291 20091 48/// 70500
                   333 5////=
202109060600 AAXX 06064 67751 31978 00609 10235 20095 48/// 70500
                   333 10//0 20135 5///7
                   555 00///=
202109031200 AAXX 03124 67751 NIL=
202109030900 AAXX 03094 67751 41978 40310 10270 20129 48/// 70522 84030
                   333 5//// 84360=
202109021200 AAXX 02124 67751 NIL=
202109020900 AAXX 02094 67751 41978 10911 10284 20069 48/// 70500 81100
                   333 5//// 81056=
202109010900 AAXX 01094 67751 NIL=
202109010600 AAXX 01064 67751 31978 00000 10209 20090 48/// 70500
                   333 10//0 20093 5////
                   555 00///=

################################################################################
#  SYNOPS from 67753, Choma (Zambia) | 16-50S | 027-04E | 1213 m
################################################################################
202109301200 AAXX 30124 67753 41780 22715 10326 20157 48502 70500 82100
                   333 58008 82856=
202109300900 AAXX 30094 67753 41980 02610 10301 20154 48528 70500
                   333 58009=
202109300600 AAXX 30064 67753 31980 02610 10256 20135 48524 70500
                   333 10345 20172 58005=
202109291200 AAXX 29124 67753 41780 51908 10341 20136 48493 70522 85100
                   333 59003 85856=
202109290900 AAXX 29094 67753 41980 01808 10320 20140 48521 70500
                   333 58001=
202109290600 AAXX 29064 67753 31980 00000 10239 20125 48513 70500
                   333 10336 20160 59005=
202109271200 AAXX 27124 67753 41780 61203 10316 20112 48510 70522 86100
                   333 59015 86856=
202109270900 AAXX 27094 67753 41780 22008 10291 20129 48527 70500 82100
                   333 59016 82856=
202109241200 AAXX 24124 67753 NIL=
202109231200 AAXX 23124 67753 41980 00000 10276 20144 48536 70500
                   333 58002=
202109230900 AAXX 23094 67753 NIL=
202109230600 AAXX 23064 67753 31980 00811 10187 20125 48557 70500
                   333 10306 20150 58002
                   555 00///=
202109221200 AAXX 22124 67753 41980 02705 10286 20120 48537 70500
                   333 58014=
202109220900 AAXX 22094 67753 41980 02710 10264 20106 48563 70500
                   333 58017=
202109220600 AAXX 22064 67753 31980 02603 10214 20090 48559 70500
                   333 10331 20140 58017
                   555 00///=
202109211200 AAXX 21124 67753 42980 03303 10325 20101 48531
                   333 58005=
202109201200 AAXX 20124 67753 42980 02603 10320 20097 48521
                   333 59011=
202109200900 AAXX 20094 67753 41980 02403 10285 20126 48537 70500
                   333 5////=
202109200600 AAXX 20064 67753 31980 00000 10199 20137 48539 70500
                   333 10310 20104 59021
                   555 00///=
202109171200 AAXX 17124 67753 NIL=
202109170600 AAXX 17064 67753 31980 00000 10230 20111 48513
                   333 10347 20154 59009
                   555 00///=
202109161200 AAXX 16124 67753 NIL=
202109160900 AAXX 16094 67753 NIL=
202109160600 AAXX 16064 67753 31980 00206 10254 20106 48524 70500
                   333 10337 20146 59007
                   555 00///=
202109150600 AAXX 15064 67753 31980 00407 10244 20111 48533 70500
                   333 10319 20136 59003
                   555 00///=
202109141200 AAXX 14124 67753 41780 13403 10306 20120 48510 70500 81100
                   333 59009 81856=
202109140900 AAXX 14094 67753 41980 02703 10282 20125 48536 70500
                   333 59004=
202109140600 AAXX 14064 67753 31980 00000 10191 20109 48528 70500
                   333 10291 20114 59008
                   555 00///=
202109131200 AAXX 13124 67753 41980 20000 10279 20107 48517 70500 82030
                   333 59030 82360=
202109130900 AAXX 13094 67753 41980 52603 10259 20101 48544 70522 85030
                   333 59037 85360=
202109120900 AAXX 12094 67753 NIL=
202109120600 AAXX 12064 67753 31980 10506 10178 20096 48576 81030
                   333 10249 20106 59014 81360
                   555 00///=
202109101200 AAXX 10124 67753 NIL=
202109100900 AAXX 10094 67753 41680 22708 10231 20129 48600 70500 82100
                   333 58040 82845=
202109091200 AAXX 09124 67753 NIL=
202109080900 AAXX 08094 67753 41980 00000 10281 20094 48546 70500
                   333 58009=
202109061200 AAXX 06124 67753 41980 02808 10311 20094 48529 70500
                   333 59004=
202109060900 AAXX 06094 67753 41980 02605 10281 20106 48546 70500
                   333 59005=
202109060600 AAXX 06064 67753 31980 00000 10190 20110 48538 70500
                   333 10311 20126 58001=
202109040600 AAXX 04064 67753 31980 12503 10201 20140 48539 70500 81030
                   333 10286 20112 58001 81360
                   555 00///=
202109031200 AAXX 03124 67753 42680 61903 10271 20121 48525 86100
                   333 59011 86850=
202109030900 AAXX 03094 67753 41680 31805 10264 20136 48544 70500 83100
                   333 59007 83845=
202109021200 AAXX 02124 67753 NIL=
202109020900 AAXX 02094 67753 NIL=
202109010900 AAXX 01094 67753 NIL=
202109010600 AAXX 01064 67753 32980 00000 10200 20081 48539
                   333 10293 20110 58003
                   555 00///=

################################################################################
#  SYNOPS from 67855, Lupaki (Zambia) | 17-03-00S | 024-46-00E | 1000 m
################################################################################
202109300900 AAXX 30094 67855 41965 01804 10320 20134 3//// 48/// 70500
                   333 5////=
202109290900 AAXX 29094 67855 42980 01902 10346 20084 3//// 48///
                   333 5////=
202109221500 AAXX 22154 67855 41965 01902 10311 20098 3//// 48/// 70500
                   333 5////=
202109220900 AAXX 22094 67855 41965 01405 10271 20121 3//// 48/// 70500
                   333 5////=
202109211500 AAXX 21154 67855 41965 13102 10348 20104 3//// 48/// 70500 81130
                   333 5//// 81858=
202109210900 AAXX 21094 67855 41965 02903 10315 20091 3//// 48/// 70500
                   333 5////=
202109200900 AAXX 20094 67855 41965 02801 10275 20126 3//// 48/// 70500
                   333 5////=
202109181500 AAXX 18154 67855 41965 00602 10295 20121 3//// 48/// 70500
                   333 5////=
202109180900 AAXX 18094 67855 41965 01605 10254 20118 3//// 48/// 70500
                   333 5////=
202109171500 AAXX 17154 67855 41965 01701 10356 20051 3//// 48/// 70500
                   333 5////=
202109170900 AAXX 17094 67855 41965 02601 10328 20096 3//// 48/// 70500
                   333 5////=
202109151500 AAXX 15154 67855 41965 01102 10346 20126 3//// 48/// 70500
                   333 5////=
202109141500 AAXX 14154 67855 42980 01302 10328 20067 3//// 48///
                   333 5////=
202109131500 AAXX 13154 67855 42980 41304 10294 20086 3//// 48/// 84030
                   333 5//// 84360=
202109110900 AAXX 11094 67855 42980 01903 10235 20086 3//// 48///
                   333 5////=
202109090900 AAXX 09094 67855 41965 03102 10263 20122 3//// 48/// 70500
                   333 5////=
202109081500 AAXX 08154 67855 41965 01302 10318 20051 3//// 48/// 70500
                   333 5////=
202109070900 AAXX 07094 67855 41965 01903 10302 20078 3//// 48/// 70500
                   333 5////=
202109060900 AAXX 06094 67855 41970 03503 10297 20088 3//// 48/// 70500
                   333 5////=
202109041500 AAXX 04154 67855 42980 50702 10300 20037 3//// 48/// 85030
                   333 5//// 85360=
202109040900 AAXX 04094 67855 42980 03104 10288 20103 3//// 48///
                   333 5////=
202109011500 AAXX 01154 67855 42980 01702 10314 20198 3//// 48///
                   333 5////=
202109010900 AAXX 01094 67855 42980 01802 10291 20097 3//// 48///
                   333 5////=
